{
  "id": 1511923511,
  "type": "Feature",
  "properties": {
    "date:cessation_lower": "1935-11-22",
    "date:cessation_upper": "1935-11-22",
    "date:inception_lower": "1935-11-22",
    "date:inception_upper": "1935-11-22",
    "edtf:cessation": "1935-11-22",
    "edtf:date": "1935-11-22",
    "edtf:inception": "1935-11-22",
    "geom:area": 0,
    "geom:bbox": "-122.386155,37.616357,-122.386155,37.616357",
    "geom:latitude": 37.616357,
    "geom:longitude": -122.386155,
    "iso:country": "XX",
    "millsfield:airline_id": [
      1159284991
    ],
    "millsfield:category_id": 1511214215,
    "millsfield:collection_id": 1511214207,
    "millsfield:company_id": [
      1159286839
    ],
    "millsfield:images": [
      1527820319,
      1527820321
    ],
    "millsfield:images_colors_refs": {
      "crayola": [
        {
          "hex": "#c46210"
        },
        {
          "hex": "#9c2542"
        },
        {
          "hex": "#e7c697"
        },
        {
          "hex": "#cd9575"
        },
        {
          "hex": "#deaa88"
        },
        {
          "hex": "#414a4c"
        },
        {
          "hex": "#bab86c"
        }
      ],
      "css4": [
        {
          "hex": "#b22222"
        },
        {
          "hex": "#bdb76b"
        },
        {
          "hex": "#d2b48c"
        },
        {
          "hex": "#a52a2a"
        },
        {
          "hex": "#2f4f4f"
        }
      ],
      "marekm4": [
        {
          "hex": "#b2a374"
        },
        {
          "hex": "#b49e74"
        },
        {
          "hex": "#d8c59a"
        },
        {
          "hex": "#cdba91"
        },
        {
          "hex": "#36393c"
        },
        {
          "hex": "#28252a"
        },
        {
          "hex": "#a6381d"
        },
        {
          "hex": "#b63315"
        }
      ]
    },
    "millsfield:images_texts": [
      "\"Lan Franciaco\nto (tawaii \"\nNOVEMBER 193!\nZ1-PM\n- PACIFI\nA.M.ROUT\nSAN FRANCISCO\nHONOLD\nVIA AIR MAIL\nCafein Eduin e Quink\nmess Florence\nLamport\n5239 C Steet\nhiladelphiates\nCa.\ninited",
      "2000.058•1260"
    ],
    "millsfield:images_texts_ids": [
      1527820319,
      1527820321
    ],
    "millsfield:primary_image": 1527820319,
    "millsfield:subcategory_id": 1511213159,
    "mz:hierarchy_label": 1,
    "mz:is_current": 1,
    "sfomuseum:accession_number": "2000.058.1260",
    "sfomuseum:airline": "Pan American Airways",
    "sfomuseum:airline_id": [
      685
    ],
    "sfomuseum:category": "Philately",
    "sfomuseum:classification_id": 10,
    "sfomuseum:collection": "Aviation Archive",
    "sfomuseum:creditline": "Gift of the Pan Am Association",
    "sfomuseum:date": "11/22/1935",
    "sfomuseum:date_acquired": "2000-12-14",
    "sfomuseum:daterange_end": "1935-11-22",
    "sfomuseum:daterange_start": "1935-11-22",
    "sfomuseum:description": "Airmail flight cover, Pan American Airways, FAM-14, first transpacific airmail flight between San Francisco and Manila, San Francisco (Alameda Airport) - Honolulu leg; green stamped cachet at left with text “First flight trans-Pacific / F.A.M. Route 14 / San Francisco (Alameda Airport) to Honolulu”; signed by Captain Edwin C. Musick; postmarked November 22, 1935 in San Francisco over 25-cent stamp; backstamp: November 23, 1935 in Honolulu.",
    "sfomuseum:dimensions": "3 3/4 x 6 1/2 inches (9.5 x 16.5 cm)",
    "sfomuseum:media_ids": [
      1527820319,
      1527820321
    ],
    "sfomuseum:medium": "paper, ink",
    "sfomuseum:object_id": 66960,
    "sfomuseum:placetype": "object",
    "sfomuseum:primary_media_id": 1527820319,
    "sfomuseum:publication": ": , 11/22/1935.",
    "sfomuseum:subcategory": "Airmail Flight Cover",
    "src:geom": "sfomuseum#undetermined",
    "wof:belongsto": [
      1511214215,
      102527513,
      102191575,
      85633793,
      1511213159,
      85922583,
      102087579,
      1511214277,
      1511214207,
      85688637
    ],
    "wof:breaches": [],
    "wof:country": "XX",
    "wof:created": 1579906680,
    "wof:depicts": [
      1159284991,
      1159286839
    ],
    "wof:geomhash": "30c8a918561c84bb2daa2b97fc7c5353",
    "wof:hierarchy": [
      {
        "arcade_id": 1511213159,
        "building_id": 1511214277,
        "campus_id": 102527513,
        "concourse_id": 1511214215,
        "continent_id": 102191575,
        "country_id": 85633793,
        "county_id": 102087579,
        "custom_id": 1511923511,
        "locality_id": 85922583,
        "neighbourhood_id": -1,
        "object_id": 1511923511,
        "region_id": 85688637,
        "venue_id": 1511923511,
        "wing_id": 1511214207
      }
    ],
    "wof:id": 1511923511,
    "wof:lastmodified": 1787988178,
    "wof:name": "airmail flight cover: Pan American Airways, FAM-14, first transpacific airmail flight, San Francisco (Alameda) - Honolulu route",
    "wof:parent_id": 1159162825,
    "wof:placetype": "custom",
    "wof:placetype_alt": [
      "object"
    ],
    "wof:repo": "sfomuseum-data-collection",
    "wof:superseded_by": [],
    "wof:supersedes": [],
    "wof:tags": []
  },
  "bbox": [
    -122.386155,
    37.616357,
    -122.386155,
    37.616357
  ],
  "geometry": {"type":"Point","coordinates":[-122.386155,37.616357]}
}
