{
  "id": 1763195641,
  "type": "Feature",
  "properties": {
    "date:cessation_lower": "1933-01-01",
    "date:cessation_upper": "1933-12-31",
    "date:inception_lower": "1933-01-01",
    "date:inception_upper": "1933-12-31",
    "edtf:cessation": "1933",
    "edtf:inception": "1933",
    "geom:area": 2.475047457570636e-7,
    "geom:bbox": "-122.386472,37.616105,-122.385834,37.616611",
    "geom:latitude": 37.61635747477365,
    "geom:longitude": -122.38615540108617,
    "millsfield:airline_id": [
      1159285517
    ],
    "millsfield:category_id": 1511214223,
    "millsfield:collection_id": 1511214207,
    "millsfield:company_id": [
      1159288117
    ],
    "millsfield:images": [
      1763196313,
      1763196315
    ],
    "millsfield:images_colors_refs": {
      "crayola": [
        {
          "hex": "#000000"
        },
        {
          "hex": "#414a4c"
        },
        {
          "hex": "#efdecd"
        },
        {
          "hex": "#9c2542"
        }
      ],
      "css4": [
        {
          "hex": "#dcdcdc"
        },
        {
          "hex": "#2f4f4f"
        },
        {
          "hex": "#d3d3d3"
        },
        {
          "hex": "#a52a2a"
        },
        {
          "hex": "#000000"
        }
      ],
      "marekm4": [
        {
          "hex": "#8c1c17"
        },
        {
          "hex": "#e5d9c6"
        },
        {
          "hex": "#e8ddc9"
        },
        {
          "hex": "#271613"
        },
        {
          "hex": "#2a2928"
        }
      ]
    },
    "millsfield:images_texts": [
      "PASSENGERS • MAIL • EXPRESS\nWESTERN AIREXPRESS\nNow\n30:\nFASTER\nAIR\nSERVICE\nbetween\nLOS ANGELES\nSALT LAKE CITY\nSAN DIEGO\nLAS VEGAS\nDENVER\nCOLORADO SPRINGS\nPUEBLO\nAMARILLO\nALBUQUERQUE\nCHEYENNE\nSANTA FE\nEL PASO\nTRINIDAD\nand\nCHICAGO\nMIDDLE WEST\nROCKY MOUNTAIN\nREGION\nPACIFIC NORTHWEST\nLOW FARES\nEVERYWHERE\nFLY and KEEP COOL",
      "PACIFIC COAST DIVISION\nTIME TABLES\nCorrected to July 26, 1933\nTable 1\nEastbound\nRead Down\n-SAN DIEGO-LOS ANGELES\nSALT LAKE CITY-LAS VEGAS\nTwo Daily Services\nMULTI-MOTOR\nPLANES\nWestbound\nRead Up\nTrip\nNo. 2\n7.00AM\n9.25AM\n1. 45PM\nLV\nAr\nLv\nLv\nTrip\nNo. 4\n4.15PM\n5. 30PM\n5.45PM\n8.10PM\n12.30AM\nSAN DIEGO\nLOS ANGELES.\nLOS ANGELES\nLAS VEGAS....\nSALT LAKE.\nTrip\nNo.\n5\n2. 00PM\n12. 45PM\n12. 30PM\n10.\n20AM\n7.45AM\nTable 2\n2. 00PM\n4.29PM\n9.32PM\n12. 22AM\n12.45AM\n3. 46AM\n6.35AM\nLv\nAr\nLv\nAr\nLv\nAr\nLv\nLV\nAr\n-SALT LAKE-DENVER\nSALT LAKE-CHICAGO\n1.15AM\nSALT LAKE\n4. 14AM\nCHEYENNE\n6.58AM\n3.25AM\n4. 15AM\n5.\n15AM\nCHEYENNE..\nDENVER.\n8.32AM\nОМАНА\n11.35AM\n12\n40PM\nCHICAGO\nCHICAGO\n3.36PM\n6.25PM\nCLEVELAND\nNEW YORK\n12.40AM\n9.30PM\n8.30PM\n7.07PM\n4.00PM\nVia United Air Lines east of Salt Lake\n*Connects with U. A. L. Trip No. 3.\nАг\nLv\nAr\nLv\nLv\nLv\nAr\nLV\nLv\nTable 3\n* 1.30AM\n* 9.30AM\nLv\nAr\n12.10PM\n3. 00PM\nCHICAGO-DETROIT\nCHICAGO\nDETROIT\nVia American Airways.\n*Via Michigan Central R.R.\n7. 27PN\n6. 25PV\nLv\nTable 4\nAr\nLOS ANGELES - SAN DIEGO\n12. 45PM\nLOS ANGELES...\n5.30PN\n2.00PM\nSAN DIEGO\n4.15PM\nConnects with T. W. A. Trip Nos. 16, 31 and 34.\nConnects with P.\nConnects with U. AAL. 1 Tp Po. 222\nIv\nTable 5\nLV\nLv\n-SALT LAKE-BOISE-SPOKANE\n3.00AM\n5. 11AM\n6.00AM\n7.20AM\nSALT LAKE\nBOISE\nPASCO\nSPOKANE.\n4.11AM\n2. 19AM\n11. 34PM\n9.55PM\nVia United Air Lines\nLv\nTable 6\n8.30AM\n10.00AM\n12.30PM\n1.00PM\n1.50PM\n-SALT LAKE-POCATELLO\nBUTTE-HELENA-GREAT FALLS\n3.30AM\nSALT LAKE..\n5.00AM\n7.30AM\nPOCATELLO\n9.35PM\n8.00AM\nBUTTE\n7.55PM\n8.50AM\nHELENA\n5.30PM\n4.55PM\nGREAT FALLS\n4.00PM\nVia National Parks Airways.\nEEEEE\nStandard Time Quoted at All Points.\nTrip\nNo.\n11\n15PM\n8.40PM\n5. 30PM\n4.32PM\n1.19PM\n11.00PM *\n10.00PM*\n10.17AM\n6.45AM\n5. 55AM\n4.37AM\n1.30AM\n6.00AM *\n10. 25PM *\n1.05PM\n11.\n9\n25AM\nOOAM\n8. 25AM\n7.30AM\nAmerica's First Air Passenger System\nROCKY MOUNTAIN DIVISION\nTIME TABLES\nCorrected to July 26, 1933\nTable 7\n-CHEYENNE-DENVER-COLORADO SPRINGS\nPUEBLO-TRINIDAD-ALBUQUERQUE-EL PASO\nSouthbound\nNorthbound\nRead Down\nRead Up\nTrip\nTrip\nTrip\nNo. 1\nNo. 5\nNo. 4\n1.20PM\nLv\n4.15AM\nCHEYENNE\n11. 00PM\n2. 20PM\nAr\n5.15AM\nDENVER...\nAr\n10. 00PM\nLv\nLv\n7. 00AM\nDENVER\n7.25PM\nAr\n.40AM\nCOLORADO SPGS\n6.\n. 45PM\nAr\nLv\n. 05AM\nLV\nPUEBLO...\n8.\n, 15AM\n20PM\nPUEBLO\n07AM\n58PM\nLv\n9\nAr\nTRINIDAD.\n10\nPM\nLV\nAr\n10. 43AM\n13AM\nSANTA FE\n3\n40PM\nLv\nALBUQUERQUE\n10PM\nLv\nLv\n11. 28AM\nAr\n1.41PM\nALBUQUERQUE\n2\n55PM\nAr\nEL PASO..\nLV\n4.29PM\n*ALBUQUERQUE\n12\n30PM\nLv\n2. 57PM\nAr\n10. 23PM\nLOS ANGELES\n8.00AM\nAr\n*Via Transcontinental \u0026 Western Air, Inc.\nTrip\nNo. 2\n5. 00PM\n4. 00PM\nEl Paso\nEast via\nT.W.A.\nTable\nNo. 12\n3.10PM\n2.55PM\n12.30AM\nTable 8\n•PUEBLO-AMARILLO-WICHITA FALLS-\nFT. WORTH-DALLAS\nLv\nAr\nLv\n8.30AM\n12\nOЗAM\n3.00PM\n5. 05PM\n6.\n, 10PM\n6. 30PM\nPUEBLO\nAMARILLO.\nAMARILLO.\nWICHITA FALLS\nFT. WORTH...\nDALLAS\n5. 31PM\n3\n5 8PM\n12. 56PM\n11.00AM\n9.55AM\n9.30AM\nVia American Airways-Amarillo to Dallas.\nTable 9\n4.00PM\n5. 00PM\n5.3 2PM\n10. 00PM\n1. 00AM\n9.30AM\n9.05AM\n10.55AM\n4. 56AM\n7.45AM\n•DENVER TO CHICAGO\n10. 00PM\nDENVER.\n5. 15AM\nAr\n11. 00PM\nCHEYENNE\n4. 15AM\n4. 14AM\nCHEYENNE\n3. 25AM\n8.32AM\nОМАНА\n12.40AM\n11.35AM\nCHICAGO.!\n9.30PM\nAr\nAr\nAr\nAr\nAr\n3. 00PM\nDETROIT...\n6.25PM\n5. 40PM\nPITTSBURGH\n7. 35PM\nWASHINGTON\n2.30PM\n12\n. 15PM\n3.36PM\nCLEVELAND...\n7. 07PM\n6. 25PM\nNEW YORK.\n4\n. 00PM\nLv\nLv\nLv\nLv\nLv\nLv\n*Via Michigan Central Railroad between Chicago \u0026 Detroit.\n2.20PM\n1.20PM\n12. 49PM\n10.02AM\n6.45AM\n10. 25PM *\n7. 20PM\n5.10PM\n4.37AM\n1.30AM\nTable 10\nDENVER-SALT LAKE CITY-LOS ANGELES\n4. 00PM\n5. 00PM\nLv\n10.00PM\n11.00PM\nDENVER...\n5. 15AM\nCHEYENNE\n4. 15AM\nLv\nAr\n11. 15PM\nCHEYENNE.\n3.44AM\n2. 18AM\nSALT LAKE.\n15AM\n7.45AM\nSALT LAKE.\n10.20AM\nLAS VEGAS.\n12.30AM\n8.10PM\nAr\n12.30PM\nLOS ANGELES.\n5. 45PM\n2.00PM\nSAN DIEGO\n4.15PM\nAr\nLv\nAr\nLv\nAr\nLv\nLV\nLV\n2.20PM\n1.20PM\nVia United Air Lines, CheyenneSalt Lake.\nTable 11\n-CONNECTIONS AT EL PASO\nFOR MEXICO CITY, TUSCON AND PHOENIX\nLv\n6.30AM\nEL PASO*\n5.30PM\n5. 50PM\nMEXICO CITY\n6. 30AM\n2. 12PM\n5.\n14PM\nEL PASO\nTUCSON\n3.03AM\n6.14PM\nPHOENIX\n11. 54PM\n10.44PN\nAr\nLv\nAr\nLV\nLv\nEl Paso\n•Mexico City via Aerovias Centrales.\nEl Paso-\n-Tucson \u0026 Phoenix-American Airways.\n*Service Monday,\nThursday, Saturday.\nStandard Time Quoted at All Points.\nAmerica's First Air Passenger System"
    ],
    "millsfield:images_texts_ids": [
      1763196313,
      1763196315
    ],
    "millsfield:primary_image": 1763196313,
    "millsfield:subcategory_id": 1511213425,
    "mz:is_current": 1,
    "sfomuseum:accession_number": "2014.082.032",
    "sfomuseum:airline": "Western Air Express",
    "sfomuseum:airline_id": [
      929
    ],
    "sfomuseum:category": "Scheduling / Ticketing",
    "sfomuseum:classification_id": 158,
    "sfomuseum:collection": "Aviation Archive",
    "sfomuseum:creditline": "Gift of Thomas G. Dragges",
    "sfomuseum:date": "1933",
    "sfomuseum:date_acquired": "2015-01-06",
    "sfomuseum:daterange_end": "1933-12-31",
    "sfomuseum:daterange_start": "1933-01-01",
    "sfomuseum:description": "Timetable issued by Western Air Express, effective July 26, 1933; multipage booklet; red, white, and black cover with list of destinations and illustration of planform tri-motor type aircraft and text announcing faster air service.",
    "sfomuseum:dimensions": "9 x 4 inches (22.9 x 10.2 cm)",
    "sfomuseum:medium": "paper, ink, metal",
    "sfomuseum:object_id": 156416,
    "sfomuseum:placetype": "object",
    "sfomuseum:publication": ": , 1933.",
    "sfomuseum:subcategory": "Timetable",
    "src:geom": "sfomuseum#undetermined",
    "wof:belongsto": [
      102527513,
      1159162825,
      102191575,
      85633793,
      102087579,
      85922583,
      85688637,
      1159160869
    ],
    "wof:country": "XY",
    "wof:created": 1646383424,
    "wof:depicts": [
      1159288117,
      1159285517
    ],
    "wof:geomhash": "c281b9d9eefc83b5710e64b9d646067d",
    "wof:hierarchy": [
      {
        "building_id": -1,
        "campus_id": 102527513,
        "collection_id": 1159162825,
        "concourse_id": 1159162825,
        "continent_id": 102191575,
        "country_id": 85633793,
        "county_id": 102087579,
        "custom_id": 1763195641,
        "locality_id": 85922583,
        "neighbourhood_id": -1,
        "object_id": 1763195641,
        "region_id": 85688637,
        "wing_id": 1159160869
      }
    ],
    "wof:id": 1763195641,
    "wof:lastmodified": 1787988205,
    "wof:name": "timetable: Western Air Express",
    "wof:parent_id": 1159162825,
    "wof:placetype": "custom",
    "wof:placetype_alt": [
      "object"
    ],
    "wof:repo": "sfomuseum-data-collection",
    "wof:superseded_by": [],
    "wof:supersedes": []
  },
  "bbox": [
    -122.38647222518921,
    37.6161053594541,
    -122.38583385944366,
    37.61661101879963
  ],
  "geometry": {"type":"Polygon","coordinates":[[[-122.38647222518921,37.61631782178288],[-122.386434674263,37.61623283692423],[-122.38637566566466,37.61617759671399],[-122.38630056381224,37.6161308549656],[-122.38616108894348,37.6161053594541],[-122.38602161407469,37.6161308549656],[-122.38591432571411,37.61618609521055],[-122.38585531711577,37.61626683087935],[-122.38583385944366,37.61636881265146],[-122.38587141036987,37.61646654505181],[-122.38594114780425,37.61654303118856],[-122.38605380058287,37.61660252035167],[-122.38618254661559,37.61661101879963],[-122.3863059282303,37.61657277577607],[-122.3864185810089,37.61650903735973],[-122.3864668607712,37.61641130501523],[-122.38647222518921,37.61631782178288]]]}
}
