{
  "id": 1511936189,
  "type": "Feature",
  "properties": {
    "date:cessation_lower": "1968-01-01",
    "date:cessation_upper": "1968-12-31",
    "date:inception_lower": "1968-01-01",
    "date:inception_upper": "1968-12-31",
    "edtf:cessation": "1968",
    "edtf:date": "1968",
    "edtf:inception": "1968",
    "geom:area": 0,
    "geom:bbox": "-122.386155,37.616357,-122.386155,37.616357",
    "geom:latitude": 37.616357,
    "geom:longitude": -122.386155,
    "iso:country": "XX",
    "millsfield:airline_id": [
      1159284067
    ],
    "millsfield:category_id": 1511214223,
    "millsfield:collection_id": 1511214207,
    "millsfield:company_id": [
      1159287463
    ],
    "millsfield:images": [
      1527847247,
      1527847819
    ],
    "millsfield:images_colors_refs": {
      "crayola": [
        {
          "hex": "#ffae42"
        },
        {
          "hex": "#eceabe"
        },
        {
          "hex": "#cdc5c2"
        },
        {
          "hex": "#c46210"
        },
        {
          "hex": "#000000"
        }
      ],
      "css4": [
        {
          "hex": "#ffa500"
        },
        {
          "hex": "#a9a9a9"
        },
        {
          "hex": "#808000"
        },
        {
          "hex": "#b8860b"
        },
        {
          "hex": "#f5deb3"
        },
        {
          "hex": "#daa520"
        },
        {
          "hex": "#000000"
        }
      ],
      "marekm4": [
        {
          "hex": "#371c0c"
        },
        {
          "hex": "#b16c04"
        },
        {
          "hex": "#eae0c3"
        },
        {
          "hex": "#977202"
        },
        {
          "hex": "#e6ab05"
        },
        {
          "hex": "#bfb9a5"
        },
        {
          "hex": "#302a09"
        },
        {
          "hex": "#dda603"
        }
      ]
    },
    "millsfield:images_texts": [
      "CAL STATE\nAIRLINES\nTHE MAGIC TRIANGLE ROUTE\nFLIGHT\nSCHEDULE",
      "OAKLAND\nSAN JOSE\nMONTEREY\nFRESNO\nLAS VEGAS\nSANTA MARIA\nSANTA BARBARA\nBAKERSFIELD\nLOS ANGELES\nLONG BEACH\nTHE\nMAGIC TRIANGLE\nROUTE\nPALOMAR\nSAN DIEGO\nCAL-STATE RESERVATION TELEPHONES\nLONG BEACH\nLOS ANGELES\nSANTA BARBARA\nSANTA MARIA\nMONTEREY\nSAN JOSE\nOAKLAND\nFRESNO\nLAS VEGAS\nBAKERSFIELD\nBURBANK\n429-2461\n636-1211\n964-7777\n925-0941\n373-2101\n287-3510\n569-7826\n251-8641\n736-7051\n399.9102\n636-3387\nSOUTHBOUND\nOAKLAND\nSAN JOSE\nMONTEREY\nSANTA MARIA\nFRESNO\nLAS VEGAS\nBAKERSFIELD\nSANTA BARBARA\nLOS ANGELES\nLONG BEACH\nAR\n(1) Effective December 2, 1968\nNORTHBOUND\nOAKLAND\nSAN JOSE\nAR\nMONTEREY\nSANTA MARIA\nFRESNO\nLAS VEGAS\nBAKERSFIELD\nSANTA BARBARA\nLOS ANGELES\nAR\nLONG BEACH\n(1) Effective December 2, 1968\n200\n7:00 am\n8:25 am\n8:40 am\n9:00 am\n9:10 am\n301\n9:55 am\n9:40 am\n9:30 am\n8:30 am\n8:15 am\n7:25 am\n7:15 an\n7:00 am\nPASSENGER SERVICE SCHEDULE\n400\n7:30 am\n7:55 am\n286\n830\n10:25 am\n204\n4:25 pm\n4:40 pm\n4:50\n4:00 pm\n10:55 am\n11:05 am\n2:50 pm\n9:2U DI\n3:30 pm\n4:20\n2:40 pm\n:05 pm\n8:50 am\n9:05 am\n3:30 pm\n5:25 pm\n4:50 pm\n5:05 pm\n6:40 pm\n6:55 pm\n5:55 pm\n9:45 am\n9:55 am\n8:35 pm\n2:20 pm\n12:55 pm\n:35 pm\n7:10 pm\n10:45 am\n11:00 am\npm\n:35 pm\n5:50 pm\n(2) Effective December 16, 1968\n9:15 pm\n9:25 pm\n9:40 pm\n(3) Effective January 6, 1969\n:15 pm\n7:45 pm\n7:55 pm\n8:30 pm\n8:40 pm\n8:55 pm\n8301\n701\n3:30 pm\n833\nS03\n3:55 pm\n5201\n9:50 pm\n9:35 pm\n9:25 pm\n305\n10:25 pm\n10:10 pm\n10:00 pm\n2:20 pm\n1:50 pn\n:40 On\n2:10 pm\n140 Pl\n9:00 0m\n8:45 pm\n15 pr\n11:25 am\n8:30 pm\n8:20 pm\n10:55 am\n9:50\n9.35 am\n3:05 am\n8:25 am\n8:15 am\n8:00 am\n2:20 pm\n12:35 pm\n18:55 am\n7:40 pm\n• pm\n12:20 pm\n10:15 am\n2:10 pm\n2:00 pm\n1:25 pm\n8:25 pm\n8:15 pm\n7:40 pm\n11:30 am\n(2) Effective December 16, 1968\n6:45 pm\n6:35 pm\n6:20 pm\n(3) Effective January 6, 1969\nTRAVEL TIPS AND GENERAL INFORMATION\nickets have no been reshased by the time time untied upon wen reservation more\nrickets have not heen nurchased by th\nnade, the reserved space may be resold\nT LEAS\nnot claimed 10 minutes prior to scheduled flight time\nandling of your personal belo\nty, not to exceed $500 per passenger. If you\nish to declare a higher value, you may\na charge. Your Cl\nATE agent will be happy to assi\nhowever, for certain valuables such as jewelry. negotiable instruments, currency, ed\nthey remain in your custody.\nONE-WAY, POINT-TO-POINT PASSENGER FARES\nBETWEEN\nBFL\nFAT\nLAS\nLAX\nILGB MRY\nOAK\nSBA\nSJC\nSMX\nBAKERSFIELD\nFRESNO\n10.00\nLAS VEGAS\n19.00 20.00\nLOS ANGELES\n10.00 | 19.50|29.00\nLONG BEACH\n15.00 22.00|29.00\n6.00\nMONTEREY\n25.00 15.00 35.00 20.00 20.00\nOAKLAND\n21 00 16.00\n26.00\n29.50 29.50\n9 50\nSANTA BARBARA 12.00 22.00 29.00\n9.00 10.00 15.00 22.00\nSAN OSE\n20.00 13.00 33.00 25.50 25.50 5.504.50 4.5019.50\nSANTA MARIA\n19.50 29.00 36.00 |16.00 18.00 14.00 20.00 7.50 19.00\nSubject to change without notice\nWHO MAKES CAL-STATE RUN (OR FLY)? Some people have the\nmistaken belief that airplanes make an air line. We disagree. At\nCAL-STATE, we are dedicated to the belief that it also takes people\n-carefully selected and well trained people.\nIt takes people to fly the planes, and it takes people to keep them\nin perfect condition. It takes people to man our ground installa-\ntions; plan our schedules; supervise our operations; even keep our\noperating cost records-so that we can give you the lowest pos-\nsible fares.\nIt will interest you to know that CAL-STATE selected its key per-\nsonnel-men with years of experience in the air lines industry,\nwho are responsible for these activities-many months before our\nroutes were determined and our planes were ordered. This was\nour way of making certain that CAL-STATE would be the most\nnige airline of it kind. And,making good on our claim that\n\"UP TO NOW... THERE'S NEVER BEEN AN AIR LINE LIKE\nCAL-STATE.\"\nCAL-STATE AIR LINES\nTHE MAGIC TRIANGLE ROUTE"
    ],
    "millsfield:images_texts_ids": [
      1527847247,
      1527847819
    ],
    "millsfield:primary_image": 1527847247,
    "millsfield:subcategory_id": 1511213425,
    "mz:hierarchy_label": 1,
    "mz:is_current": 1,
    "sfomuseum:accession_number": "2005.132.013.002",
    "sfomuseum:airline": "Cal-State Airlines",
    "sfomuseum:airline_id": [
      269
    ],
    "sfomuseum:category": "Scheduling / Ticketing",
    "sfomuseum:classification_id": 158,
    "sfomuseum:collection": "Aviation Archive",
    "sfomuseum:creditline": "Gift of the William Hough Collection",
    "sfomuseum:date": "1968",
    "sfomuseum:date_acquired": "2006-12-05",
    "sfomuseum:daterange_end": "1968-12-31",
    "sfomuseum:daterange_start": "1968-01-01",
    "sfomuseum:description": "Timetable issued by Cal-State Air Lines, effective December 2, 1968 through January 6, 1969; four page double-sided fold-out; yellow cover with duotone photographic image of a female flight attendant wearing sunglasses with text “Magic triangle route”.",
    "sfomuseum:dimensions": "9 x 4 inches (22.9 x 10.2 cm)",
    "sfomuseum:media_ids": [
      1527847247,
      1527847819
    ],
    "sfomuseum:medium": "paper, ink",
    "sfomuseum:object_id": 97708,
    "sfomuseum:placetype": "object",
    "sfomuseum:primary_media_id": 1527847247,
    "sfomuseum:publication": ": , 1968.",
    "sfomuseum:subcategory": "Timetable",
    "src:geom": "sfomuseum#undetermined",
    "wof:belongsto": [
      1511214223,
      102527513,
      102191575,
      85633793,
      1511213425,
      85922583,
      102087579,
      1511214277,
      1511214207,
      85688637
    ],
    "wof:breaches": [],
    "wof:country": "XX",
    "wof:created": 1579906669,
    "wof:depicts": [
      1159284067,
      1159287463
    ],
    "wof:geomhash": "30c8a918561c84bb2daa2b97fc7c5353",
    "wof:hierarchy": [
      {
        "arcade_id": 1511213425,
        "building_id": 1511214277,
        "campus_id": 102527513,
        "concourse_id": 1511214223,
        "continent_id": 102191575,
        "country_id": 85633793,
        "county_id": 102087579,
        "custom_id": 1511936189,
        "locality_id": 85922583,
        "neighbourhood_id": -1,
        "object_id": 1511936189,
        "region_id": 85688637,
        "venue_id": 1511936189,
        "wing_id": 1511214207
      }
    ],
    "wof:id": 1511936189,
    "wof:lastmodified": 1787988182,
    "wof:name": "timetable: Cal-State Air Lines",
    "wof:parent_id": 1159162825,
    "wof:placetype": "custom",
    "wof:placetype_alt": [
      "object"
    ],
    "wof:repo": "sfomuseum-data-collection",
    "wof:superseded_by": [],
    "wof:supersedes": [],
    "wof:tags": []
  },
  "bbox": [
    -122.386155,
    37.616357,
    -122.386155,
    37.616357
  ],
  "geometry": {"type":"Point","coordinates":[-122.386155,37.616357]}
}
