{
  "id": 1511936029,
  "type": "Feature",
  "properties": {
    "date:cessation_lower": "1952-01-01",
    "date:cessation_upper": "1952-12-31",
    "date:inception_lower": "1952-01-01",
    "date:inception_upper": "1952-12-31",
    "edtf:cessation": "1952",
    "edtf:date": "1952",
    "edtf:inception": "1952",
    "geom:area": 0,
    "geom:bbox": "-122.386155,37.616357,-122.386155,37.616357",
    "geom:latitude": 37.616357,
    "geom:longitude": -122.386155,
    "iso:country": "XX",
    "millsfield:airline_id": [
      1159284003
    ],
    "millsfield:category_id": 1511214223,
    "millsfield:collection_id": 1511214207,
    "millsfield:company_id": [
      1159288631
    ],
    "millsfield:images": [
      1527837433,
      1527848301
    ],
    "millsfield:images_colors_refs": {
      "crayola": [
        {
          "hex": "#ff2b2b"
        },
        {
          "hex": "#eceabe"
        },
        {
          "hex": "#414a4c"
        },
        {
          "hex": "#efcdb8"
        },
        {
          "hex": "#cd4a4c"
        }
      ],
      "css4": [
        {
          "hex": "#2f4f4f"
        },
        {
          "hex": "#ff6347"
        },
        {
          "hex": "#d3d3d3"
        },
        {
          "hex": "#ffe4c4"
        },
        {
          "hex": "#d2691e"
        }
      ],
      "marekm4": [
        {
          "hex": "#e54533"
        },
        {
          "hex": "#e04122"
        },
        {
          "hex": "#efe2c3"
        },
        {
          "hex": "#dccdb8"
        },
        {
          "hex": "#423a30"
        },
        {
          "hex": "#3e3f44"
        }
      ]
    },
    "millsfield:images_texts": [
      "EFFECTIVE SEPTEMBER 1, 1952\nBONANZA\nAIRLINES\nRenor\nCarson City\nMinden\nHawthorne\nTonopan\nNEV\nCALIF\nLos Angeles\nUAL\nSanta Ana\nOceanside\nSan Diego\nEl Centro\nBlythe\nLas Vegas\nKing man\nPrescoll\nPhoenis\nAMIZ\nAjO\nYuma\nPASSENGERS\nAIR EXPRESS\nRENO\nCARSON CITY-MINDEN\nHAWTHORNE\nTOMOPAH\nLAS VEGAS\nKINGMAN\nPRESCOTT\nPHOENIX\nROUTE OF THE\nGOLD\nSTRIKES\nAIR MAIL\nAIR FREIGHT\nAJO\nYUMA\nBLYTHE\nEL CENTRO\nSAN DIEGO\nOCEANSIDE•\nSANTA ANA\nLOS ANGELES",
      "READDOWN\nEffective September 1, 1952\nAll California and Nevada Cities are on Daylight\nSaving Time - Add one hour.\nAir Mail Route 105\nCoach\n31\nSun. Wed.Sun. \u0026 Hol\nDaily Ex.\nSun. Hol\nThu. Fri.\nOnly\nSun. \u0026 Hol.\nOnly\nDaily Ex.\nSun. \u0026 Hol.\n4:45p\n5:00p\n4:45p\n9:30a\n9:5la\n5:03p\n9:54a\n5:24p\n5:27p\n5:24p\n5:27p\n10:29a\n10:32a\n6:02p.\n11:13a\n6:05p\n11:16a\n7:10p\n7:40p\n7.Top\n#\n12:30p\n10:15p\n1:40p\n*\n3.21p\n3:24p\n4:04p\n4:07p\n4:45p\n5:10p\n5:50p\n5:53p\n1:40p\n3:21 p\n3:24p\n4:04p\n4:07p\n4:45p\n5:10p\n5:50p\n5:53p\nCoach\n32\nSun. Wed.\nThu. Fri.\n6:52p\n6:55p\n6:26p\n6:29p\n7:15p\n7:25p\n#\n8:00p\n8:03p\n8:25p\nEXPLANATION:\nAll tripe flown with DC-3 planes.\nAJO\nBLYTHE.\nBOULDER CITY.\nCARSON CITY-MINDEN\nEL CENTRO\nHAWTHORNE\nKINGMAN\nLAS VEGAS.\nLONG BEACH.\nLOS\nANGELES\nPHOENIX.\nPRESCOTT\nRENO.\nSAN\nDIEGO.\nSANTA ANA-LAGUNA BEACH\nTONOPAH.\nYUMA\n6:52p\n6:55p\n6:26p\n6:29p\n7:15p\n7:25p\n#\n8:00p\n8:03p\n8:25p\nDaily\nReno\nPST\nAr\nLv\nCarson City - Minden\nCarson City - Minden\nAr\nHawthorne\nLy.\nHawthorne\nAr\nTonopah\nTonopah\n#\nDeath Valley\nLv\nDaily Ex.\nDaily Ex.\nSun. \u0026 Hol.\nSun. \u0026 Hol.\n9:00a\n3:40p\n8:41a\n8:38a\n8:03a\n8:00a\nIN\n.20a\n2:58p\n2:55p\n7:17a\n6:00a\nSun. \u0026 Hol.\nOnly\nDaily\n3:40p\n3:31 p\n3:28p\n2:58p\n2:55p\n2:18p\n2:15p\n#\nAr\nLas Vegas\n1:15p\n5:30a\nLv\nLas Vegas\nPST\nAr\n12:40p\n1:15p\n12:40p\nBoulder City\n*\n8:05p\n7:11a\nAr\nKingman\nMST\nLv\n1:02p\n1:02p\n8:22p\n7:14a\nKingman\n12:59p\n12:59p\n8:19p\n7:54a\n7:57a\nAr\nPrescott\n12:18p\n12:18p\n7:38p\n8:35a\nPrescott\nPhoenix\n12:15p\n11:35a\n12:15p\n7:35p\n11:35a\n6:50p\n9:00a\nPhoenix\n11:15a\n11:15a\nAr\nAjo\nMST\nLv\n10:34a\n6:25p\n10:34a\nAr\n10:31a\n10:31a\n9:00a\n9:08a\n10:40a\n10:43a\n10:14a\n10:17a\n11:05a\n11:15a\n#\n11:50a\n11:53a\nAjo\nBlythe\nPST\nLv\nBlythe\nPST\nLv\nAr\nYuma\nAr\nMST\nLv\nYuma\nMST\nAr\nEl Centro\nPST\nLv.\nEl Centro\nAr\nSan Diego\nLv\nSan\nDiego\nLv\n#2\nOceanside\nLv\nSanta\nAna -\nLaguna\nBeach\nSanta Ana -\nLaguna\nBeach\n9:32a\n9:29a\n7:58a\n7:55a\n7:10a\n7:00a\n#\n6:25a\n6:22a\n9:32a\n9:29a\n7:58a\n7:55a\n7:10a\n7:00a\n6.550\n6:22a\n4:23p\n4:20p\n4:47p\n4:44p\n3:13p\n3:10p\n2:25p\n2:15p\n#\n1:40p\n1:37p\nLong Beach\nLong Beach\n12:15p\nAr\nLos Angeles (Intl)\nPST\n6:00a\n6:00a\n1:15p\n11:20p\n10:45p\nPST-Pacific Standard Time.\nMST-Mountain Standard Time.\nInt'l-International Airport.\nService temporarily through Lee Voger\nMunicipal Airport (McCarran Field).\n#\nService temporaril ananded\nONE WAY AND ROUND TRIP PASSENGER\nFARES\n(All Fares Sublect to 15% Federal Transportation Tax)\nAjo\nBlythe Boul-\nder\nCity\nCity-\nMin-\nden\n00\n.80\nEl\nHaw-\nKing-\nCentro\nthorne\nLas\nVegas\nLong\nSanta\nBeach\nLos\nAnge-\nOcean-\nside\nPhoe-\nnix\nPres-\ncott\nReno\nSan\nLaouna\nles\nDiego\nBeach\nTono-\npah\nYuma\nAriz.\nNev.\nNev.\n. Cal.\nNev.\nAriz.\n. Nev.\n• Cal.\nCal.\nAriz.\nAriz.\nNev.\n• Cal.\nCal.\nNev.\n20\n1 10\n22\n18\n23.20\n28 AC\n49 20\n21.45\n45\n22.\n28.\n19.\n5.95\n40.20\n41.10\n38\n17\n40฿\n40\n: 80\n46\n55\n26.85\n.45\n.50\n801\n889\n14\n97.10\n51.10\n28.80\n34.75\n40\nRH0RR\n11.\n40\n34.\n8809\nmm=s\nmm=9\noma:\n12\n00\n45\n901\n4145\nBONANZA AIR LINES\nNON-STOP\nFlights\nbetween\nLas Vegas - Phoenix\n1 HOUR 35 MIN.\nRESERVATIONS and INFORMATION\nCity\njo, Ariz.\nlythe, Cal.\nBoulder City, Nev\nCarson City, Nev..\nEl Contro. Cal....\nHawthorne,\nKingman, Ariz..\nLas Vegas, Nev....\nLos Angeles, Cal..\nMinden, Nev..\nPhoenix. Ariz.\nPhoenix, Ariz.\nPrescott, Ariz.\nReno. Nev.\nSan Diego,\nCal.\nSan Francisco, Cal.\nSanta Ana:\nLaguna Beach, Cal..\nTonopah,\nNev....\nYuma, Ariz..\nAirport\nMunicipal Airport.\nMunicipal Airport.\nServed\nthrough Lai\nVegas Municipal Air-\nport(McCarran Field)\nDouglas-Tahoe Airport\nNaval Air Station....\nMunicipal Airport....\nMunicinal Airnort\nNow McCarran Field\nLos\nAngeles\nInterna-\nAnnarnar\nDouglas-Tahoe Airport\nSky Harbor Airport..\nAnome Hotel\nMunicipal Airport\nUnited Airline Airport.\nLindbergh Airport....\nShreve Bidg...\nOrange County Airport\nMunicipal Airport.....\nYuma County Airport.\nTelephone\nLas Vegas 3100\nGardnerville 4131\n3190.\nAirport 52\n3100.\nRegon 8-347\nardnervilla 413\nBRidge 5-3688\nALpine\n2-1211\nWoodcrest: 6144\nSUtter 1-5665\nKimberly 3924(\nLimousine\nCab Fare\n$1.00\n1.00\n1\nCab Rate\nCab Rate\n1.50\nCab Rate\nAsk any official or hostess abouf\nconvenient, economical rentals."
    ],
    "millsfield:images_texts_ids": [
      1527837433,
      1527848301
    ],
    "millsfield:primary_image": 1527837433,
    "millsfield:subcategory_id": 1511213425,
    "mz:hierarchy_label": 1,
    "mz:is_current": 1,
    "sfomuseum:accession_number": "2005.132.009.002",
    "sfomuseum:airline": "Bonanza Air Lines",
    "sfomuseum:airline_id": [
      238
    ],
    "sfomuseum:category": "Scheduling / Ticketing",
    "sfomuseum:classification_id": 158,
    "sfomuseum:collection": "Aviation Archive",
    "sfomuseum:creditline": "Gift of the William Hough Collection",
    "sfomuseum:date": "1952",
    "sfomuseum:date_acquired": "2006-12-05",
    "sfomuseum:daterange_end": "1952-12-31",
    "sfomuseum:daterange_start": "1952-01-01",
    "sfomuseum:description": "Timetable issued by Bonanza Air Lines, effective September 1, 1952; three-page double-sided fold-out; orange, black and white cover featuring route map; destinations listed at the bottom.",
    "sfomuseum:dimensions": "9 x 4 inches (22.9 x 10.2 cm)",
    "sfomuseum:media_ids": [
      1527837433,
      1527848301
    ],
    "sfomuseum:medium": "paper, ink",
    "sfomuseum:object_id": 97637,
    "sfomuseum:placetype": "object",
    "sfomuseum:primary_media_id": 1527837433,
    "sfomuseum:publication": ": , 1952.",
    "sfomuseum:subcategory": "Timetable",
    "src:geom": "sfomuseum#undetermined",
    "wof:belongsto": [
      1511214223,
      102527513,
      102191575,
      85633793,
      1511213425,
      85922583,
      102087579,
      1511214277,
      1511214207,
      85688637
    ],
    "wof:breaches": [],
    "wof:country": "XX",
    "wof:created": 1579906672,
    "wof:depicts": [
      1159288631,
      1159284003
    ],
    "wof:geomhash": "30c8a918561c84bb2daa2b97fc7c5353",
    "wof:hierarchy": [
      {
        "arcade_id": 1511213425,
        "building_id": 1511214277,
        "campus_id": 102527513,
        "concourse_id": 1511214223,
        "continent_id": 102191575,
        "country_id": 85633793,
        "county_id": 102087579,
        "custom_id": 1511936029,
        "locality_id": 85922583,
        "neighbourhood_id": -1,
        "object_id": 1511936029,
        "region_id": 85688637,
        "venue_id": 1511936029,
        "wing_id": 1511214207
      }
    ],
    "wof:id": 1511936029,
    "wof:lastmodified": 1787988182,
    "wof:name": "timetable: Bonanza Air Lines",
    "wof:parent_id": 1159162825,
    "wof:placetype": "custom",
    "wof:placetype_alt": [
      "object"
    ],
    "wof:repo": "sfomuseum-data-collection",
    "wof:superseded_by": [],
    "wof:supersedes": [],
    "wof:tags": []
  },
  "bbox": [
    -122.386155,
    37.616357,
    -122.386155,
    37.616357
  ],
  "geometry": {"type":"Point","coordinates":[-122.386155,37.616357]}
}
