{
  "id": 1913928191,
  "type": "Feature",
  "properties": {
    "date:cessation_lower": "1974-01-01",
    "date:cessation_upper": "1974-12-31",
    "date:inception_lower": "1974-01-01",
    "date:inception_upper": "1974-12-31",
    "edtf:cessation": "1974",
    "edtf:inception": "1974",
    "geom:area": 2.475047457570636e-7,
    "geom:bbox": "-122.386472,37.616105,-122.385834,37.616611",
    "geom:latitude": 37.61635747477365,
    "geom:longitude": -122.38615540108617,
    "millsfield:aircraft_id": [
      1159291223
    ],
    "millsfield:airline_id": [
      1159283827
    ],
    "millsfield:category_id": 1762671311,
    "millsfield:collection_id": 1511214207,
    "millsfield:company_id": [],
    "millsfield:images": [
      1913928415,
      1913928419
    ],
    "millsfield:images_colors_refs": {
      "crayola": [
        {
          "hex": "#4a646c"
        },
        {
          "hex": "#bab86c"
        },
        {
          "hex": "#2e5894"
        },
        {
          "hex": "#1a4876"
        },
        {
          "hex": "#9c2542"
        },
        {
          "hex": "#efdecd"
        }
      ],
      "css4": [
        {
          "hex": "#483d8b"
        },
        {
          "hex": "#b22222"
        },
        {
          "hex": "#bdb76b"
        },
        {
          "hex": "#2f4f4f"
        },
        {
          "hex": "#faebd7"
        }
      ],
      "marekm4": [
        {
          "hex": "#ebe8dc"
        },
        {
          "hex": "#bc1b0e"
        },
        {
          "hex": "#b62214"
        },
        {
          "hex": "#c2ae68"
        },
        {
          "hex": "#324982"
        },
        {
          "hex": "#c3b175"
        },
        {
          "hex": "#4d5c7d"
        },
        {
          "hex": "#eee8d6"
        },
        {
          "hex": "#323a68"
        }
      ]
    },
    "millsfield:images_texts": [
      "ALLEGHENY AIRLINES\nDC-9\nSEAT BELTS\nPlease keep your seat belt fastened when the seat belt sign is on. When the seat\nbelt sign is turned off in flight, we suggest you keep your seat belt fastened\nwhile seated.\nSEAT BACKS \u0026 SEAT TRAYS\nFederal air regulations require that you place your seat and seat tray in an\nupright position for all takeoffs and landings.\nNO SMOKING\nWhen the no smoking sign is on, extinguish all smoking material. Visable fluid\nlighters are not permitted to be used on the aircraft.\nPORTABLE ELECTRONIC EQUIPMENT\nAM, FM, and TV receivers may not be used during flight. These devices may\ndisturb the navigational aids of the aircraft.\nFLOTATION CUSHION\nYour seat cushion is\ndesigned to float.\nGrasp seat cushion and\npull up.\nPROTECTIVE POSITION\nLeave aircraft. Hold\non to straps to keep\nafloat.\nREAR FACING SEAT\nFORWARD FACING SEAT\nRemove eyeglasses and\nsharp objects from\npockets. Fasten seat\nbelt tight and low\nacross hips.\nClasp hands firmly\nbehind head.\nLean back in seat.\nLean forward and down\nas far as possible.\nClasp hands firmly\nunder legs.\nOXYGEN SYSTEM\nIndividual oxygen\nmasks stored in\noverhead panel.\nPanel opens auto-\nmatically. Pull\nmask down.\n(OVER)\nPlace mask over mouth\nand nose. Hook strap\nover head. Breathe\nnormally.",
      "EMERGENCY EXIT INFORMATION\nPLEASE ACQUAINT YOURSELVES WITH THE SAFETY FEATURES\nLOCATED ON THIS AIRCRAFT.\nSHOULD IT BE NECESSARY TO\nEVACUATE THE AIRCRAFT BECAUSE OF AN EMERGENCY, THE\nDIAGRAMS BELOW ILLUSTRATE THE NUMBER OF EXITS FOR YOUR\nUSE.\nFRONT\nDOOR EXITS\nDOOR\nEXITS\nTurn handle forward. Push door out to open.\nOVERWING\nWINDOW\nEXITS\nPULL HANDL\nPull handle to inflate\nslide.\nRemove high heel shoes\n-jump into slide\nwith feet up.\nWINDOW EXITS\nREAR\nAUXILIARY\nEXIT\nTAILCONE\nTAILCONE OPERATION\nPull window in and up. Turn window on side\nand throw out.\nTENT\nDoor Handle Operation\nPULL AND TURN\nOPEN\nTailcone Handle\nOperation\nStep out, slide off\nwing.\nMove away from aircraft quickly.\nRotate Handle\nClockwise\n(Or)\nPULLS\nPull Handle And\nLift Door Inward\nPull Handle To\nRemove Tailcone\n(OVER)\nJULY, 1974\n1D1132717-1\n171-1353"
    ],
    "millsfield:images_texts_ids": [
      1913928415,
      1913928419
    ],
    "millsfield:primary_image": 1913928415,
    "millsfield:subcategory_id": 1511213703,
    "mz:is_approximate": 1,
    "mz:is_current": 1,
    "sfomuseum:accession_number": "2002.127.062",
    "sfomuseum:aircraft": "Douglas DC-9",
    "sfomuseum:aircraft_id": [
      848
    ],
    "sfomuseum:airline": "Allegheny Airlines",
    "sfomuseum:airline_id": [
      159
    ],
    "sfomuseum:category": "Passenger Amenity, Archive",
    "sfomuseum:classification_id": 581,
    "sfomuseum:collection": "Aviation Archive",
    "sfomuseum:creditline": "Gift of Thomas G. Dragges",
    "sfomuseum:date": "1974",
    "sfomuseum:date_acquired": "2003-12-22",
    "sfomuseum:daterange_end": "1974-12-31",
    "sfomuseum:daterange_start": "1974-01-01",
    "sfomuseum:description": "Safety information card issued by Allegheny Airlines for the Douglas DC-9 fleet; off-white double-sided card with illustrations depicting inflight safety and emergency procedures; identification code: 1D1132717-1 171-1353; revision date: July 1974.",
    "sfomuseum:dimensions": "11 1/2 x 6 inches (29.2 x 15.2 cm)",
    "sfomuseum:medium": "paper, plastic, ink",
    "sfomuseum:object_id": 68440,
    "sfomuseum:placetype": "object",
    "sfomuseum:publication": ": , 1974.",
    "sfomuseum:subcategory": "Safety Information Card",
    "src:geom": "sfomuseum#undetermined",
    "wof:belongsto": [
      102527513,
      1159162825,
      102191575,
      85633793,
      102087579,
      85922583,
      85688637,
      1159160869
    ],
    "wof:country": "XY",
    "wof:created": 1715650023,
    "wof:depicts": [
      1159291223,
      1159283827
    ],
    "wof:geomhash": "c281b9d9eefc83b5710e64b9d646067d",
    "wof:hierarchy": [
      {
        "building_id": -1,
        "campus_id": 102527513,
        "collection_id": 1159162825,
        "concourse_id": 1159162825,
        "continent_id": 102191575,
        "country_id": 85633793,
        "county_id": 102087579,
        "custom_id": 1913928191,
        "locality_id": 85922583,
        "neighbourhood_id": -1,
        "object_id": 1913928191,
        "region_id": 85688637,
        "wing_id": 1159160869
      }
    ],
    "wof:id": 1913928191,
    "wof:lastmodified": 1787988220,
    "wof:name": "safety information card: Allegheny Airlines, Douglas DC-9",
    "wof:parent_id": 1159162825,
    "wof:placetype": "custom",
    "wof:placetype_alt": [
      "object"
    ],
    "wof:repo": "sfomuseum-data-collection",
    "wof:superseded_by": [],
    "wof:supersedes": []
  },
  "bbox": [
    -122.38647222518921,
    37.6161053594541,
    -122.38583385944366,
    37.61661101879963
  ],
  "geometry": {"type":"Polygon","coordinates":[[[-122.38647222518921,37.61631782178288],[-122.386434674263,37.61623283692423],[-122.38637566566466,37.61617759671399],[-122.38630056381224,37.6161308549656],[-122.38616108894348,37.6161053594541],[-122.38602161407469,37.6161308549656],[-122.38591432571411,37.61618609521055],[-122.38585531711577,37.61626683087935],[-122.38583385944366,37.61636881265146],[-122.38587141036987,37.61646654505181],[-122.38594114780425,37.61654303118856],[-122.38605380058287,37.61660252035167],[-122.38618254661559,37.61661101879963],[-122.3863059282303,37.61657277577607],[-122.3864185810089,37.61650903735973],[-122.3864668607712,37.61641130501523],[-122.38647222518921,37.61631782178288]]]}
}
