{
  "id": 1913795617,
  "type": "Feature",
  "properties": {
    "date:cessation_lower": "1947-10-14",
    "date:cessation_upper": "1947-10-14",
    "date:inception_lower": "1947-10-14",
    "date:inception_upper": "1947-10-14",
    "edtf:cessation": "1947-10-14",
    "edtf:inception": "1947-10-14",
    "geom:area": 2.475047457570636e-7,
    "geom:bbox": "-122.386472,37.616105,-122.385834,37.616611",
    "geom:latitude": 37.61635747477365,
    "geom:longitude": -122.38615540108617,
    "millsfield:airline_id": [
      1159284991
    ],
    "millsfield:category_id": 1511214251,
    "millsfield:collection_id": 1511214207,
    "millsfield:company_id": [
      1159286839
    ],
    "millsfield:images": [
      1913799423,
      1913799425,
      1913799427
    ],
    "millsfield:images_colors_refs": {
      "crayola": [
        {
          "hex": "#efcdb8"
        },
        {
          "hex": "#414a4c"
        },
        {
          "hex": "#000000"
        },
        {
          "hex": "#9f8170"
        },
        {
          "hex": "#efdecd"
        }
      ],
      "css4": [
        {
          "hex": "#2f4f4f"
        },
        {
          "hex": "#f5deb3"
        },
        {
          "hex": "#808080"
        },
        {
          "hex": "#000000"
        }
      ],
      "marekm4": [
        {
          "hex": "#27251a"
        },
        {
          "hex": "#e3d9c0"
        },
        {
          "hex": "#999072"
        },
        {
          "hex": "#989072"
        },
        {
          "hex": "#e4d9c1"
        },
        {
          "hex": "#2b291c"
        },
        {
          "hex": "#29271b"
        },
        {
          "hex": "#e0d5ba"
        }
      ]
    },
    "millsfield:images_texts": [
      "Buenos fires, October 14i, 1947\nDear Family--\nWe Left New York Tuesday, September 30th, at 7:45 P.M. in a\nPen American DC-4, circled up\nand out over the home of the desolete\nBums (who had just lost the first game of the World Series), doin\nthe harbor of New York, and out to sea. It as a beautiful noon-\nLight nipht and the myriad lights of anhattan - alreys impressive -\nvere lovelier than ever. Out over Long Island with Ber ude as our\nfirst land fell (don't like that terminology!), where re circle the\nstation as a check voint and if ell's well carry on to San Juen,\nPuerto Rico.\n• We reached Bermuda at around 11:30 P.M., and circled\nat 6,000 feet, giving us an unequalled vier of ell of Bermude in\nbright moonlight.\nCities and countrysides - like glamorous\ncals -\nElrays look better by moonlight. The freckles and blemishes don't\nshor up.\nLeaving Berruda (760 miles out) rithout landing, our course\nwas due south 1,000 miles to San Juan.\nWe stretched out as best\nve could and caught five or six hours of sleep before we started\nsliding dorn for a lending at Sen Juan.\nthere me landed at four\no'clock in the morning our time - five a.n. theirs. Pan Americans\nwere there to meet us rith station vagons to drive us over to an old\nhotel rhich PAA has just remodelled into a cost attractive place.\nTe had breakfast, and learned that Edgar Queeny, Charley Cheston, and\nGillies (all of ilonsanto) rere out on the Island somerhere with their\nIC-3.\nBeck to the eirport within an hour for the take off at 5:10\nour time, and Port-of-Spain, Trinidad, snother 600 miles further south.\nPAA has a grend staff house at Piarco Airport, Trinidad--en old Army\nberracks converted into a hotel with air-conditioned rooms and an cir-\nconditioned bar.\nday, October 1st. After lunch re drove around the city of Port-oi-Spain,\ndid a little shopping, took e stin at the Nevy Officers! Club in e\nlovely spot accuired by Uncle Sam as a base in thet anticue destroyer\ndeal rith John Bull.\nAfter a good night's sleep, oif Thursday, October 2nd, skirting the\ncoast of Venezuela, past British, Dutch and French Guiena (there our\npilot rent of his course to circle Devils Island), across the Ecutor\nwhere the pilot rolled the DC-4 for the beneiit of his pessengers end\nespecially those including E.C.B. who had never crossed before), over\nthe thirty-mile ride mouth of the Amazon, and down at Belem.\nour one-and-a-half hour refueling stop re drove into town for a 1o0k-see\nend inspection of another old hotel hich PAA is face-lifting.",
      "- 2 -\nOf from Belen at 10:00 P.Ml., re hed an uneventful trip to\narrive at 6:30 A.M. at Rio.\nUnfortunately, te did not get a good\nlook et the unequalled harbor that morning as me came in with a low\nceiling and poor visibility.\nThe airport is on an islend some 50\nminutes by launch from the shore facility there passports ere examined.\nThile going through that ordeal, re met Pres Bush, Jr., who works for\nPAA in Rio, and Admiral Powell, tho is Number One.\nInen to the Cope-\ncakana Palace Hotel, where the meetings of IATA rould be held.\nIt's\na fairly rugged trip down to Rio, so re tere gled to heve a part of\nFriday, ell Saturday end Sunday to rest up, and on my part to get ready\nfor the meetings.\nWe went for a talk Friday - took an automobile trip\nSeturday - another Sunday. Dinner perty Saturday night at Admiral\nPovell's, end then got into a series of rori, drink, and eat meetings\nwhich lested the veek. Our meeting of the Executive Committee ended\non Friday noon, and with it my term of office.\nFor your information, the International Air Transport Association\n(IATA) is composed of some 65 companies of 30 countries.\nThe Executive\nCommittee of trelve is somewhat like a Board of Directors. On it rith\nme were two other Americens and one each British, Indien, Ecyptian,\nFrench, Austrelian,\nChinese, Sredish, Hollander and Brazilian. Aiter\nthe Executive Committee meeting, some 150 members from all over the\nand I decided to drive up Friday afternoon. Petropolis is up in the\nmountains about 3,000 feet above Rio.\nIt ras the old summer capital of\nDon Pedro and during the late war the brazilions built a hotel there\nrhich is really fabulous.\nIt is tremendous, and looks like a huge reading\ncake.\nThe convention hall is larger than the dome of St. Peter's.\nSaturday, the l1th, res cold and raining, but Sunday, the 12th, tes\nbeautiful. We took off around noon, and our pilot took us on a sight-\nseeing trip around the herbor - past Sugar Loai mountain and along that\npart of Rio which lies outside the magnificent harbor where the full\nstretch of the South Atlantic carries enormous smells up the beach torard\na solid row of big apartent houses which line Avenide Atlentic, which\nroad separates them from the ride beach.\nThousands of Brazilians rere\nfastest benefiteflatbe Behous let over, heeded\nsouth for our\nThere re put down to discharre pessengers for Uruguay and take on\ngasoline.\nWe had written an old friend, Sidney Lafoon, First Secretary\nof the American legation, that re rould\nbe passing through, and he end\nMrs. Lefoon met us.\nLeaving there, we flew along the weter of the wide\nRiver La Platte, facing rhich is the beautiful city oi Montevideo.\nOur\npilot flew low by the wreck of the Germen pocket battleship Craf Spee,\nchich you rill remember the Germans scuttled with the British aiting\noutside the harbor.",
      "- 3 -\nWe arrived at Buenos Aires tround sunset and drove in to the\nHotel Alvear.\nTuesday re mede a trip around torn sightseeing rith\nMrs. George Smith, rife of the PAA Number One here.\nIt is a beauti-\nful city - more like Paris than eny other - rith wide streets and\npeople who seem to be more like Americans then any people I have\nseen elsewhere in my travels. 01 course they are a mixture of\nSpenish, Italian, Germen, English and Irish rith enouch adnixture\nof Indian blood\nto give them\n\u0026 permanent suntan, yet they are pre-\ndominantly rhite, while in Brazil the tarbrush, liberal there but\nlacking here, produced e far darker race.\nThis afternoon re are having cocktails with Edgar Queeny and\nhis party.\nThey arrived here Sundey with their Monsanto DC-3, and\nwill follow us up the rest coast next reek.\nMust stop now to mail this to New York es ne are about to sally\nforth on a dey of \"look see\" and calls.\nTomorrow te leave at 10:00\nA. I. to fly across the indes to Chile for a one night stand at Santi-\nago - then on to Lima for tro days - the Canal Zone for a day - tro\nin Mexico City - two in Merida to visit the old Mayan ruins and then\nto Miami, where me are scheduled to errive on October 24th.\nWe're both rell and enjoying every minute of our trip.\nAs ever,\n(H. M. B.)"
    ],
    "millsfield:images_texts_ids": [
      1913799423,
      1913799425,
      1913799427
    ],
    "millsfield:primary_image": 1913799423,
    "millsfield:subcategory_id": 1511213489,
    "mz:is_approximate": 1,
    "mz:is_current": 1,
    "sfomuseum:accession_number": "2019.121.1116 a c",
    "sfomuseum:airline": "Pan American Airways",
    "sfomuseum:airline_id": [
      685
    ],
    "sfomuseum:category": "Employee Career History",
    "sfomuseum:classification_id": 195,
    "sfomuseum:collection": "Aviation Archive",
    "sfomuseum:creditline": "Collection of SFO Museum",
    "sfomuseum:date": "10/14/1947",
    "sfomuseum:date_acquired": "2019-11-22",
    "sfomuseum:daterange_end": "1947-10-14",
    "sfomuseum:daterange_start": "1947-10-14",
    "sfomuseum:description": "Typewritten letter from Harold M. Bixby to his family, dated October 14, 1947, in Buenos Aires; includes description of trip from New York to San Juan, Port of Spain, Belem, and Rio de Janiero; mentions IATA meeting in Rio.",
    "sfomuseum:dimensions": "11 x 8 1/2 inches (27.9 x 21.6 cm)",
    "sfomuseum:medium": "paper, ink",
    "sfomuseum:object_id": 211479,
    "sfomuseum:placetype": "object",
    "sfomuseum:publication": ": , 10/14/1947.",
    "sfomuseum:subcategory": "Correspondence, Personal",
    "src:geom": "sfomuseum#undetermined",
    "wof:belongsto": [
      102527513,
      1159162825,
      102191575,
      85633793,
      102087579,
      85922583,
      85688637,
      1159160869
    ],
    "wof:country": "XY",
    "wof:created": 1714548845,
    "wof:depicts": [
      1159284991,
      1159286839
    ],
    "wof:geomhash": "c281b9d9eefc83b5710e64b9d646067d",
    "wof:hierarchy": [
      {
        "building_id": -1,
        "campus_id": 102527513,
        "collection_id": 1159162825,
        "concourse_id": 1159162825,
        "continent_id": 102191575,
        "country_id": 85633793,
        "county_id": 102087579,
        "custom_id": 1913795617,
        "locality_id": 85922583,
        "neighbourhood_id": -1,
        "object_id": 1913795617,
        "region_id": 85688637,
        "wing_id": 1159160869
      }
    ],
    "wof:id": 1913795617,
    "wof:lastmodified": 1787988219,
    "wof:name": "correspondence: Harold M. Bixby, family circular letter",
    "wof:parent_id": 1159162825,
    "wof:placetype": "custom",
    "wof:placetype_alt": [
      "object"
    ],
    "wof:repo": "sfomuseum-data-collection",
    "wof:superseded_by": [],
    "wof:supersedes": []
  },
  "bbox": [
    -122.38647222518921,
    37.6161053594541,
    -122.38583385944366,
    37.61661101879963
  ],
  "geometry": {"type":"Polygon","coordinates":[[[-122.38647222518921,37.61631782178288],[-122.386434674263,37.61623283692423],[-122.38637566566466,37.61617759671399],[-122.38630056381224,37.6161308549656],[-122.38616108894348,37.6161053594541],[-122.38602161407469,37.6161308549656],[-122.38591432571411,37.61618609521055],[-122.38585531711577,37.61626683087935],[-122.38583385944366,37.61636881265146],[-122.38587141036987,37.61646654505181],[-122.38594114780425,37.61654303118856],[-122.38605380058287,37.61660252035167],[-122.38618254661559,37.61661101879963],[-122.3863059282303,37.61657277577607],[-122.3864185810089,37.61650903735973],[-122.3864668607712,37.61641130501523],[-122.38647222518921,37.61631782178288]]]}
}
