{
  "id": 2048163377,
  "type": "Feature",
  "properties": {
    "date:cessation_lower": "2017-01-01",
    "date:cessation_upper": "2017-12-31",
    "date:inception_lower": "2017-01-01",
    "date:inception_upper": "2017-12-31",
    "edtf:cessation": "2017",
    "edtf:inception": "2017",
    "geom:area": 2.475047457570636e-7,
    "geom:bbox": "-122.386472,37.616105,-122.385834,37.616611",
    "geom:latitude": 37.61635747477365,
    "geom:longitude": -122.38615540108617,
    "millsfield:airport_id": [
      102527513
    ],
    "millsfield:category_id": 1763416397,
    "millsfield:collection_id": 1511214207,
    "millsfield:images": [
      2048165029,
      2048166943
    ],
    "millsfield:images_texts": [
      "Flight Attendant\nCelebration Day at SFO\nTuesday, August 20th\n10:00 a.m. to 3:00 p.m.\nSan Francisco Airport Commission Aviation Library\nLouis A. Turpen Aviation Museum\nInternational Terminal - Level 3\nSan Francisco International Airport\nSFO\nMuseum\nUnited Airlines flight attendant uniform 1973-1976\nDesigner JeaniLouls\nUniform by Fashionaire, a Division of Hart, Schaffner \u0026 Mars\nwool, synthetic abric\nSFO Museum\nGift of United Airlines Historical Foundation\n2012100.071. 072, 081. 1115; L2013.0601.050, 051, 052, 120",
      "Flight Attendant Celebration Day at SFO\nTuesday, August 20th 10:00 a.m. to 3:00 p.m.\nSan Francisco Airport Commission Aviation Library and Louis A. Turpen Aviation Museum\nInternational Terminal - Level 3 San Francisco International Airport\nlease join us for an open house celebrating Flight Attendants of the past and the\npresent from all air carriers. A program of talks, short subject films, and commemoration:\nvill be presented throughout the day, and featuring the current museum exhibitio\nUnited We Stand: Female Flight Attendant Uniforms of United Airlines.\nor program information and directions, please visit: www.rafa-cwa.org or www.SFOMuseum.ore\n•omplimentary refreshments, and Airport parking garage tickets will be validated at the museum\nThis event is open to the public free of charge.\nParticipating Partners\nRetiree Association of Flight Attendants-CWA (RAFA)\nAssociation of Flight Attendants-CWA (AFA)\nUnited Airlines Historical Foundation (UAHF)\n•--"
    ],
    "millsfield:images_texts_ids": [
      2048165029,
      2048166943
    ],
    "millsfield:primary_image": 2048165029,
    "millsfield:subcategory_id": 1511213687,
    "mz:is_approximate": 1,
    "mz:is_current": 1,
    "sfomuseum:accession_number": "2024.046.169",
    "sfomuseum:airport": "San Francisco International Airport",
    "sfomuseum:airport_id": [
      121
    ],
    "sfomuseum:category": "Promotional, Archive",
    "sfomuseum:classification_id": 465,
    "sfomuseum:collection": "Aviation Archive",
    "sfomuseum:creditline": "Gift of David Armstrong Abercrombie",
    "sfomuseum:date": "2017",
    "sfomuseum:date_acquired": "2024-06-26",
    "sfomuseum:daterange_end": "2017-12-31",
    "sfomuseum:daterange_start": "2017-01-01",
    "sfomuseum:description": "Event announcement produced by SFO Museum promoting Flight Attendant Celebration Day at San Francisco International Airport (SFO), August 20, 2013; double-sided format.",
    "sfomuseum:dimensions": "5 x 7 inches (12.7 x 17.8 cm)",
    "sfomuseum:medium": "paper, ink",
    "sfomuseum:object_id": 245370,
    "sfomuseum:placetype": "object",
    "sfomuseum:publication": ": , 2017.",
    "sfomuseum:subcategory": "Event Program / Invitation",
    "src:geom": "sfomuseum#undetermined",
    "wof:belongsto": [
      102527513,
      1159162825,
      102191575,
      85633793,
      102087579,
      85922583,
      85688637,
      1159160869
    ],
    "wof:country": "XY",
    "wof:created": 1787792219,
    "wof:depicts": [
      102527513
    ],
    "wof:geomhash": "c281b9d9eefc83b5710e64b9d646067d",
    "wof:hierarchy": [
      {
        "building_id": -1,
        "campus_id": 102527513,
        "collection_id": 1159162825,
        "concourse_id": 1159162825,
        "continent_id": 102191575,
        "country_id": 85633793,
        "county_id": 102087579,
        "custom_id": 2048163377,
        "locality_id": 85922583,
        "neighbourhood_id": -1,
        "object_id": 2048163377,
        "region_id": 85688637,
        "wing_id": 1159160869
      }
    ],
    "wof:id": 2048163377,
    "wof:lastmodified": 1787901828,
    "wof:name": "event announcement: SFO Museum, Flight Attendant Celebration Day",
    "wof:parent_id": 1159162825,
    "wof:placetype": "custom",
    "wof:placetype_alt": [
      "object"
    ],
    "wof:repo": "sfomuseum-data-collection",
    "wof:superseded_by": [],
    "wof:supersedes": []
  },
  "bbox": [
    -122.38647222518921,
    37.6161053594541,
    -122.38583385944366,
    37.61661101879963
  ],
  "geometry": {"type":"Polygon","coordinates":[[[-122.38647222518921,37.61631782178288],[-122.386434674263,37.61623283692423],[-122.38637566566466,37.61617759671399],[-122.38630056381224,37.6161308549656],[-122.38616108894348,37.6161053594541],[-122.38602161407469,37.6161308549656],[-122.38591432571411,37.61618609521055],[-122.38585531711577,37.61626683087935],[-122.38583385944366,37.61636881265146],[-122.38587141036987,37.61646654505181],[-122.38594114780425,37.61654303118856],[-122.38605380058287,37.61660252035167],[-122.38618254661559,37.61661101879963],[-122.3863059282303,37.61657277577607],[-122.3864185810089,37.61650903735973],[-122.3864668607712,37.61641130501523],[-122.38647222518921,37.61631782178288]]]}
}
