{
  "id": 1913795299,
  "type": "Feature",
  "properties": {
    "date:cessation_lower": "1933-10-23",
    "date:cessation_upper": "1933-10-23",
    "date:inception_lower": "1933-10-23",
    "date:inception_upper": "1933-10-23",
    "edtf:cessation": "1933-10-23",
    "edtf:inception": "1933-10-23",
    "geom:area": 2.475047457570636e-7,
    "geom:bbox": "-122.386472,37.616105,-122.385834,37.616611",
    "geom:latitude": 37.61635747477365,
    "geom:longitude": -122.38615540108617,
    "millsfield:airline_id": [
      1159284991,
      1159285931
    ],
    "millsfield:category_id": 1511214251,
    "millsfield:collection_id": 1511214207,
    "millsfield:company_id": [
      1159286721
    ],
    "millsfield:images": [
      1913801251,
      1913801253,
      1913801255,
      1913801257,
      1913801259,
      1913801261
    ],
    "millsfield:images_colors_refs": {
      "crayola": [
        {
          "hex": "#714b23"
        },
        {
          "hex": "#414a4c"
        },
        {
          "hex": "#efcdb8"
        },
        {
          "hex": "#87a96b"
        },
        {
          "hex": "#9f8170"
        },
        {
          "hex": "#edd19c"
        }
      ],
      "css4": [
        {
          "hex": "#bc8f8f"
        },
        {
          "hex": "#556b2f"
        },
        {
          "hex": "#f5deb3"
        },
        {
          "hex": "#bdb76b"
        },
        {
          "hex": "#2f4f4f"
        }
      ],
      "marekm4": [
        {
          "hex": "#a7976e"
        },
        {
          "hex": "#e0d2ac"
        },
        {
          "hex": "#dfd1ac"
        },
        {
          "hex": "#a6976f"
        },
        {
          "hex": "#414029"
        },
        {
          "hex": "#9f9b72"
        },
        {
          "hex": "#a09f71"
        },
        {
          "hex": "#e2d3af"
        },
        {
          "hex": "#e2d3ad"
        },
        {
          "hex": "#e0d1aa"
        },
        {
          "hex": "#44411e"
        },
        {
          "hex": "#9d9c72"
        },
        {
          "hex": "#494c2e"
        },
        {
          "hex": "#45482b"
        },
        {
          "hex": "#433f26"
        },
        {
          "hex": "#a5966f"
        },
        {
          "hex": "#494428"
        },
        {
          "hex": "#e1d2ae"
        }
      ]
    },
    "millsfield:images_texts": [
      "CABLE ADDRESS\nMANHOCO - MANILA\nALL TELEGRAPHIC CODES\nHUBERT C. ANDERSON\nMANAGER\nMANIKE\nBEETLE\nNOT\nTHE\nSIGN OF\nSERVICE\nCHILIPPINES\n33\nMANILA HOTEL\nManila, Philippines\nMonday 10/23\nStarest Debs.\nNow that\nDim rene, coming\nhome its mos afficult to keep\nир\na full, head of stram.\nand\nmy thongst kerping turning to the\nlittle hour at Bolton and all\nthat it means-\nI can see you\naround\nthe place • Even can\nimagine\nthe refinished living room\nTree I must snap out of such\ndreams\nand\nget on\nwith the\njob in hand.\ntoday I did nt\nget much done - but tomorrow\nLee gie down to tarth and\ninto\n'Em.\nThis morning the",
      "Postal derk at pur 7 Phone me\nand said he\n1 Rad some maie\nfor me when had frist come in\non the fffinson and wored i\nlikr to\ncale\nfor it and saur a\nday on deleing - s0\nof cours\nI Called\n\" and found stras\nlittie forwarded from Shargei\nfrom Mrs. Bry, And, Man, Duras,\nД.а .а. ?\nand last but wir, for from\nleast fus letter from, Jou Syt. 20\nto. 26-\n• Now to sie Om. and\nI'ir juat re read al of yours.\nHits must be trebl, cuts. an\nharder to undustand with 3 leath\nFit the \"Chop\" for Doughs\nTree Cat 2\nlord kes letti. rakin\nof \"Chopo\"\n→ guan by this tim\nyou hair rectwed the portrait\nand its stafe to touts abort\nit. The chop marke unde Days\n2019.121.07620",
      "CAbLE ADDREss.\nMANHOCO - MANILA\nALL TELEGRAPHIC CODES\nHUBERT C. ANDERSON\nMANAGER\nTHE\n*SIGN OF\nSERVICE\nIN THE\nPHILIPPINES\nname\nthe\nMANILA\nHOTEL\nManila, Philippines\numprent\nhum\nof.\none which\nwhich ke say\nhe cole use\nnow on to\nАук\nale on he\npectured.\n-g hops\nyou like the Pretur and if you\ndo not them\nat least there wee\nnot be\nmuch loss.\nas I made\naccount of my\nwillingness\nsit care in the am out ane\non time ke wroked - and also\n• was\njust\na head\nshoncdis\nis gilling\nweaknen\n- to\ncourse they\nале\nwork\non hand.\nI did it mention\nanyone bit of",
      "he hao had lotsof complaints.\nYou showed notie the cloud in the\npur right whick was put in\nby\nD. to look like a Sokosky\nand is for Cat of Not. Tele N-t\nthat I lord\n) her\ncombination\npretent\nand letter.\nhillar can not come to\nChina -fur\nany\nexcuss you lik.\nShe wored go abrelation hay wire\nin Sharqhae\n- the ones who rape\nhard all face in the Paris of the\nEast and hillian - oh will anyway\ndont let hu\nBarge in if you hai\nto say that I cant haok and\nrelations with me when on compan\nbusiness othe than wat and\nChildain.\nneeded - tsk morgan\nti kar Pacific\n-Amere can pass\nsuch\na resolution.\nglad you protected Be\nDay ton Maria -\nthanks.\n2019.12107626",
      "CABLE ADDRESS:\nMANHOCO - MANILA\nALL FELEGRAPHIC CODES\nHUBERT C. ANDERSON\nMANAGER\nTERRUNTEE\nPOTE\nSIGN OF SERVICE\nIN THE\nPHILIPPINES\nMANILA,\n• HOTEL\nManila, Philippines\nhies, if\nheli Vanga.\nbrought\nhome\nI hop you wee let me know.\nJuet drop a not to hu morgan\nand ark him to\nadd to one\nof his cables the single word\nand Dee understand. this\nNot. 22d and ursk so mulek\nthat I cand hind you something\nthat wored just remind you that\nI hair sit forgot -\nbut thii littre\nwile hai\nto do.\nLots and lots\nof happe returns beto. Next year\nAce be able tu fee on fo\nPisses and.\ngrous on\ntor year this afte\n• too,",
      "2 do hopr you saw chil\nknow O.R.Q. looks\nupon the\nChines show as a\nsort of stry\nChild and the othe\ndi woken fT.T. talked to me\nhe said that\nthat Chili had been\nin and\nsarmed\nmer\nfellow:\nwire Dits I must dress\nfor deman - an haver\ndinasa\nwat tome\npeople who wis at\nthe Captains table with me on the\nme nine:\nTwo\nQuatralian dames\nashould\nsi Quatrileyan dimes\" fa\nthats the way they tack torn though\nbrons tree born -and a very\nattractur\nyour\nguaman who repento\ngran an\ninstrument ferm and tearls\nthe\nwald as his territay. His ben\naway from home now for two year\nand his longst stay ange\nherk was ten dag\nThey an sailing at mid-night for Custralia-\n2019121.0762\nhot or lo\nr-Had."
    ],
    "millsfield:images_texts_ids": [
      1913801251,
      1913801253,
      1913801255,
      1913801257,
      1913801259,
      1913801261
    ],
    "millsfield:primary_image": 1913801251,
    "millsfield:subcategory_id": 1511213489,
    "mz:is_approximate": 1,
    "mz:is_current": 1,
    "sfomuseum:accession_number": "2019.121.0762 a c",
    "sfomuseum:airline": "Pan American Airways",
    "sfomuseum:airline_id": [
      685,
      1131
    ],
    "sfomuseum:category": "Employee Career History",
    "sfomuseum:classification_id": 195,
    "sfomuseum:collection": "Aviation Archive",
    "sfomuseum:creditline": "Collection of SFO Museum",
    "sfomuseum:date": "10/23/1933",
    "sfomuseum:date_acquired": "2019-11-22",
    "sfomuseum:daterange_end": "1933-10-23",
    "sfomuseum:daterange_start": "1933-10-23",
    "sfomuseum:description": "Handwritten letter from Harold M. Bixby to his wife, Debby Bixby, dated Monday, October 23, [1933], on stationery from the Manila Hotel; includes family and personal matters; mentions  Dwight Bridge, Chilli [Charles “Chili”] Vaughn and J.T.T. [Juan Trippe].",
    "sfomuseum:dimensions": "11 x 8 1/2 inches (27.9 x 21.6 cm)",
    "sfomuseum:medium": "paper, ink",
    "sfomuseum:object_id": 211110,
    "sfomuseum:placetype": "object",
    "sfomuseum:publication": ": , 10/23/1933.",
    "sfomuseum:subcategory": "Correspondence, Personal",
    "src:geom": "sfomuseum#undetermined",
    "wof:belongsto": [
      102527513,
      1159162825,
      102191575,
      85633793,
      102087579,
      85922583,
      85688637,
      1159160869
    ],
    "wof:country": "XY",
    "wof:created": 1714548752,
    "wof:depicts": [
      1159286721,
      1159284991,
      1159285931
    ],
    "wof:geomhash": "c281b9d9eefc83b5710e64b9d646067d",
    "wof:hierarchy": [
      {
        "building_id": -1,
        "campus_id": 102527513,
        "collection_id": 1159162825,
        "concourse_id": 1159162825,
        "continent_id": 102191575,
        "country_id": 85633793,
        "county_id": 102087579,
        "custom_id": 1913795299,
        "locality_id": 85922583,
        "neighbourhood_id": -1,
        "object_id": 1913795299,
        "region_id": 85688637,
        "wing_id": 1159160869
      }
    ],
    "wof:id": 1913795299,
    "wof:lastmodified": 1787988219,
    "wof:name": "correspondence: Harold M. Bixby to Debby Bixby",
    "wof:parent_id": 1159162825,
    "wof:placetype": "custom",
    "wof:placetype_alt": [
      "object"
    ],
    "wof:repo": "sfomuseum-data-collection",
    "wof:superseded_by": [],
    "wof:supersedes": []
  },
  "bbox": [
    -122.38647222518921,
    37.6161053594541,
    -122.38583385944366,
    37.61661101879963
  ],
  "geometry": {"type":"Polygon","coordinates":[[[-122.38647222518921,37.61631782178288],[-122.386434674263,37.61623283692423],[-122.38637566566466,37.61617759671399],[-122.38630056381224,37.6161308549656],[-122.38616108894348,37.6161053594541],[-122.38602161407469,37.6161308549656],[-122.38591432571411,37.61618609521055],[-122.38585531711577,37.61626683087935],[-122.38583385944366,37.61636881265146],[-122.38587141036987,37.61646654505181],[-122.38594114780425,37.61654303118856],[-122.38605380058287,37.61660252035167],[-122.38618254661559,37.61661101879963],[-122.3863059282303,37.61657277577607],[-122.3864185810089,37.61650903735973],[-122.3864668607712,37.61641130501523],[-122.38647222518921,37.61631782178288]]]}
}
