{
  "id": 1762828205,
  "type": "Feature",
  "properties": {
    "date:cessation_lower": "1945-01-01",
    "date:cessation_upper": "1945-12-31",
    "date:inception_lower": "1945-01-01",
    "date:inception_upper": "1945-12-31",
    "edtf:cessation": "1945",
    "edtf:inception": "1945",
    "geom:area": 2.475047457570636e-7,
    "geom:bbox": "-122.386472,37.616105,-122.385834,37.616611",
    "geom:latitude": 37.61635747477365,
    "geom:longitude": -122.38615540108617,
    "millsfield:airline_id": [
      1159284989
    ],
    "millsfield:category_id": 1511214251,
    "millsfield:collection_id": 1511214207,
    "millsfield:company_id": [
      1159286839
    ],
    "millsfield:images": [
      1762895405,
      1762895407
    ],
    "millsfield:images_colors_refs": {
      "crayola": [
        {
          "hex": "#757575"
        },
        {
          "hex": "#efcdb8"
        },
        {
          "hex": "#eceabe"
        },
        {
          "hex": "#4a646c"
        },
        {
          "hex": "#1a4876"
        }
      ],
      "css4": [
        {
          "hex": "#708090"
        },
        {
          "hex": "#191970"
        },
        {
          "hex": "#ffe4c4"
        },
        {
          "hex": "#f5deb3"
        }
      ],
      "marekm4": [
        {
          "hex": "#1b2667"
        },
        {
          "hex": "#5f6d8b"
        },
        {
          "hex": "#1c2a6e"
        },
        {
          "hex": "#dcd1b5"
        },
        {
          "hex": "#57658b"
        },
        {
          "hex": "#f1e4c4"
        }
      ]
    },
    "millsfield:images_texts": [
      "PAV\nAMERICAN\nPACIFIC - AL\nWORLD\nKA\nDIVISION\nAIRWAYS\nCertificate of Service\nThis is to certify that Lahab. Russel faithfully served his\nCountry as an employee of Pan American World Airways\nwhile engaged in the provision of vital air transportation under\ncontract to the United Sales Navy during Woold War II.\nDated at San Francisco this 15h day of renter 1915.\nL. e. Regraldo\nDIVISION MANAGER",
      "AR TRANSPOR\nPAA\nIN REPLY REFE\nTO NO.\nUNITED STATES FLEET\nNAVAL AIR TRANSPORT SERVICE COMMAND\nU.S. NAVAL AUXILIARY AIR STATION\nOAKLAND. 14. CALIFORNIA\nJuly 15, 1945.\nEMPLOYEES OF PAN AMERICAN WORLD AIRWAYS:\nYou who have been flying and maintaining Naval Air\nTransport Service Planes in many parts of the world,\nand you\nwho have remained at outlying bases helping to keep the Navy's\nfar flung air transport system in operation, have made a vital\ncontribution toward final victory.\nThis work has involved\nserious supply problems, and the service you men and women have\nnone to a son er the sting one ban of the breast.\nPlease accept my congratulations on a job well done.\nW.\nReuros\nRear Admiral J. W. Reeves, Jr., USN\nComnander, Naval Air Transport Service\nTITLE\nStudent Pilot\nJunior Pilot\nJunior Pilot\nRecord of Service\nJOHN\n3.\nRUSSELL\nL O\nCATION\nSan Francisco\nSan Francisco\nContract terminated\nDATES\n1-7-43\n5-2-43\n11-15-45\n201\n1026"
    ],
    "millsfield:images_texts_ids": [
      1762895405,
      1762895407
    ],
    "millsfield:primary_image": 1762895405,
    "millsfield:subcategory_id": 1511213497,
    "mz:is_current": 1,
    "sfomuseum:accession_number": "2012.149.1026",
    "sfomuseum:airline": "Pan American World Airways",
    "sfomuseum:airline_id": [
      684
    ],
    "sfomuseum:category": "Employee Career History",
    "sfomuseum:classification_id": 200,
    "sfomuseum:collection": "Aviation Archive",
    "sfomuseum:creditline": "Gift of the Captain John B. Russell Family",
    "sfomuseum:date": "1945",
    "sfomuseum:date_acquired": "2013-05-31",
    "sfomuseum:daterange_end": "1945-12-31",
    "sfomuseum:daterange_start": "1945-01-01",
    "sfomuseum:description": "Certificate issued to Pan American World Airways employee John B. Russell for service under contract of United States Navy during World War II; signed by division manager L. C. Reynolds, November 15, 1945; blue and white background with repeating images of flying boat around border; record of service (1943-1945) typed on reverse.",
    "sfomuseum:dimensions": "8 1/2 x 11 inches (21.6 x 27.9 cm)",
    "sfomuseum:medium": "paper, ink",
    "sfomuseum:object_id": 138120,
    "sfomuseum:placetype": "object",
    "sfomuseum:publication": ": , 1945.",
    "sfomuseum:subcategory": "Service Award",
    "src:geom": "sfomuseum#undetermined",
    "wof:belongsto": [
      102527513,
      1159162825,
      102191575,
      85633793,
      102087579,
      85922583,
      85688637,
      1159160869
    ],
    "wof:country": "XY",
    "wof:created": 1642729331,
    "wof:depicts": [
      1159284989,
      1159286839
    ],
    "wof:geomhash": "c281b9d9eefc83b5710e64b9d646067d",
    "wof:hierarchy": [
      {
        "building_id": -1,
        "campus_id": 102527513,
        "collection_id": 1159162825,
        "concourse_id": 1159162825,
        "continent_id": 102191575,
        "country_id": 85633793,
        "county_id": 102087579,
        "custom_id": 1762828205,
        "locality_id": 85922583,
        "neighbourhood_id": -1,
        "object_id": 1762828205,
        "region_id": 85688637,
        "wing_id": 1159160869
      }
    ],
    "wof:id": 1762828205,
    "wof:lastmodified": 1787988200,
    "wof:name": "employee certificate: Pan American World Airways for John B. Russell",
    "wof:parent_id": 1159162825,
    "wof:placetype": "custom",
    "wof:placetype_alt": [
      "object"
    ],
    "wof:repo": "sfomuseum-data-collection",
    "wof:superseded_by": [],
    "wof:supersedes": []
  },
  "bbox": [
    -122.38647222518921,
    37.6161053594541,
    -122.38583385944366,
    37.61661101879963
  ],
  "geometry": {"type":"Polygon","coordinates":[[[-122.38647222518921,37.61631782178288],[-122.386434674263,37.61623283692423],[-122.38637566566466,37.61617759671399],[-122.38630056381224,37.6161308549656],[-122.38616108894348,37.6161053594541],[-122.38602161407469,37.6161308549656],[-122.38591432571411,37.61618609521055],[-122.38585531711577,37.61626683087935],[-122.38583385944366,37.61636881265146],[-122.38587141036987,37.61646654505181],[-122.38594114780425,37.61654303118856],[-122.38605380058287,37.61660252035167],[-122.38618254661559,37.61661101879963],[-122.3863059282303,37.61657277577607],[-122.3864185810089,37.61650903735973],[-122.3864668607712,37.61641130501523],[-122.38647222518921,37.61631782178288]]]}
}
