{
  "id": 1511910033,
  "type": "Feature",
  "properties": {
    "date:cessation_lower": "1927-01-01",
    "date:cessation_upper": "1927-12-31",
    "date:inception_lower": "1927-01-01",
    "date:inception_upper": "1927-12-31",
    "edtf:cessation": "1927",
    "edtf:date": "1927",
    "edtf:inception": "1927",
    "geom:area": 0,
    "geom:bbox": "-122.391953,37.624731,-122.391953,37.624731",
    "geom:latitude": 37.624731,
    "geom:longitude": -122.391953,
    "iso:country": "US",
    "millsfield:airport_id": [
      1360695653
    ],
    "millsfield:category_id": 1511214239,
    "millsfield:collection_id": 1511214207,
    "millsfield:images": [
      1527856707,
      1527856709,
      1527856711,
      1746281481
    ],
    "millsfield:images_colors_refs": {
      "crayola": [
        {
          "hex": "#cdc5c2"
        },
        {
          "hex": "#414a4c"
        }
      ],
      "css4": [
        {
          "hex": "#2f4f4f"
        },
        {
          "hex": "#c0c0c0"
        },
        {
          "hex": "#696969"
        }
      ],
      "marekm4": [
        {
          "hex": "#4a4c52"
        },
        {
          "hex": "#4a4c51"
        },
        {
          "hex": "#ccc2b0"
        },
        {
          "hex": "#47484d"
        },
        {
          "hex": "#d0c7b5"
        },
        {
          "hex": "#d0c6b4"
        },
        {
          "hex": "#545559"
        },
        {
          "hex": "#cec3b0"
        }
      ]
    },
    "millsfield:images_texts": [
      "Sum Of FIFTEEN HUNDRED and 00/100 DOLLARS ($1500.00) as rental\nfor each succeeding year, until the termination of this\nlease, as hereinafter specified.\nThe following conditions are and shall be deemed\nby both parties to be part of the consideration for this\nLease:\nFIRST:\nThe Lessee shall have the right to extend\nthis lease for the further period of one (1) year, and at\nthe expiration of said period, a further period of one (1)\nyear upon the payment of the sum of FIFTEEN HUNDRED and 00/100\nDOLIARS ($1500,00) per year in advance.\nSECOND: The Iessee shall have the right at the\nexpiration of one (1) year from date hereol, or two (2) years\nfrom date hereof, to cancel this lease upon the payment to the\nLessor of the sun of THREE THOUSAND SEVEN HUNDRED FIFTY and\n00/100 DOILARS ($3, 750.00); and it is hereby understood and\nagreed as a consideration for this lease that the said sum\nof $3,750.00 shall be paid to the lessor\nat the expiration of\nthe perior of three (3) years mentioned herein i1 said lease\nis not renewed at said time.\n- In the event of the extension\nof this lease for a period of one or two years, the said sum\nof $3,750.00 shall not be payable until the lease is terminated;\nthis being the estimated amount for re-conditioning the land for\nthe purposes for which it is now used.\nTHIRD: The lessee shall have the right to construct,\nerect, maintain upon the demised property, and remove at the\ntermination of this lease any buildings, roads, machinery, equipment,\ntelephone lines, pipe lines, power lines and other structures which\nmay be necessary, convenient or incidental to the operation of an\nair port; and if any of said structures are not removed within\nninety (90) days from and after the termination of this lease\n-2-",
      "o2 any extension thereol, the same shall become and remain\nthe property of the Iessor. It is hereby understood and agreed\nthat the lessor shallhave the right to sub-let any concessions\nincidental to the operation of an air port.\nFOURTH: The consent of the lessor must be secured\nLor any seeding that may be done by the lessee in order that\nno deleterious grasses will be grown on the property•\nThe Lessor shall maintain during the period\nof this lease the pumping plant now on the property, but\nin the event that any additional puaping is required by the\nIessee the cost of said additional pumping will be bom by\nthe said Lessee.\nSIX: The lessor shall maintain during the\nperiod of this lease the levees now surrounding the herein\ndemised property, but will not be responsible for any damages\nresulting from the breaking of the saddelevees.\nSEVENTHE\nIt is hereby understood and agreed that\nin the event that the lessee desires a roadway over the adjoining\nLand of the Iessor, such privilege shall be granted; said\nroadway to be located as desigated by the lessor.\nIt is hereby understood and agreed that\nthe lessee shall have the right to remove material from the\nabandoned levees on the adjoining land of the lessor for\nthe purpose of filling depressions on the land herein demised.\nWITH: Upon the termination of the lease, the\nLessee is to remove all foreign substances such as cinders,\ngravel, or congrete placed on the property by the lessee, and\nin making such removals the lessee shall be permitted to dump\nthe same in the old borrow pit or sloughs on the property\nherein demised.\n--.",
      "or any extension thereot, the same shall become and remain\nthe property of the lessor. It is hereby understood and agreed\nthat the lessor shallhave the right to sub-let any concessions\nincidental to the operation of an air port.\nFOURTH: The consent of the lessor must be secured\nfor any seeding that may be done by the lessee in order that\nno deleterious grasses will be grown on the property.\nFIFTH: The lessor shall maintain during the period\nof this lease the pumping plant now on the property, but\nin the event that any additional pumping is required by the\nLessee the cost of said additional pumping will be born by\nthe said Lessee.\nSIXTH: The Iessor shall maintain during the\nperiod of this lease the levees now surrounding the herein\ndemised property, but will not be responsible for any damages\nresulting from the breaking of the\nsaidelevees.\nSEVENTH: It is hereby understood and agreed that\nin the event that the lessee desires a roadway over the adjoining\nland of the lessor, such privilege shall be granted; said\nroadway to be located as designated by the lessor.\nEIGHTH:\nIt is hereby understood and agreed that\nthe Lessee shall have the right to remove material from the\nabandoned levees on the adjoining land of the lessor for\nthe purpose of filling depressions on the land herein demised.\nNINTH: Upon the termination of the lease, the\nLessee is to remove all foreign substances such as cinders,\ngravl, or concrete placed on the property by the lessee, and\nin making such removals the lessee shall be permitted to dump\nthe same in the old borrow pit or sloughs on the property\nherein demised.\n-3-",
      "THIS TIDENTURE 07 ISASS, Made and entered into Shite\n_day or Marohi1927 by and bot 0MI2A\nINCORPORARD, a corporation organised ant exteting unter and\nby virtue of the lave of the state of ...\n_the\nparsy of the firet pars, berinafter referred to as the \"tessor\",\nand CITY AID COURTY 07 SA FRAIDISO, a Mantelpal Corporation,\nshe parsy of the cocond part, hereimatter referred to ao she\n\"108000\",\nThat the legsor, for ant upon She donalderatione\nheroin expreced, does hereby lesse, dente and let to the\nLosese for a tena of 6la0e (5) yeare, consonoine on the ...\nday oF ..\n1927, all of that certain read\nproporty situate in the County of san Mateo, State of Califomia,\nbelina featienteotion 36 and 35, Toweldp 3 South, Bange\nse, containing an area of 200 nares; the Looation and dinenelone\nof enta presises being nore definitely ehom on the print herousto\nansexed, ceasenated Sinibit A°, and nade a part bereos.\nALDO, the richt to conetruot, saintain and resore\na vater pipe line and water sank on the aijacent lante of\nthe Lessor, 10 deing the intention of the Insce to asceot\nwith the maine of the Spring Valley Tater Coaany or other\nconcern, for the parpose of supplying water for all neceseary\nween for the land herein leased.\nIn consideration for thie lease the Inscoe agrees to\npay to the lessor within thirty (30) daya fron and after the\nexecution hereos, the us of YIE HUNDRED and 00/100 DOLARS\n(02500.00) ao rental for enid preadeen for the period of one (2)\nyear, and on the day of karah of each eroceeding year the"
    ],
    "millsfield:images_texts_ids": [
      1527856707,
      1527856709,
      1527856711,
      1746281481
    ],
    "millsfield:primary_image": 1746281481,
    "millsfield:subcategory_id": 1511213487,
    "mz:hierarchy_label": 1,
    "mz:is_approximate": 1,
    "mz:is_current": 1,
    "sfomuseum:accession_number": "2000.018.003 a d",
    "sfomuseum:airport": "Mills Field Municipal Airport of San Francisco",
    "sfomuseum:airport_id": [
      162
    ],
    "sfomuseum:category": "Company Record / Document",
    "sfomuseum:classification_id": 192,
    "sfomuseum:collection": "Aviation Archive",
    "sfomuseum:creditline": "Collection of SFO Museum",
    "sfomuseum:date": "1927",
    "sfomuseum:date_acquired": "1999-06-30",
    "sfomuseum:daterange_end": "1927-12-31",
    "sfomuseum:daterange_start": "1927-01-01",
    "sfomuseum:description": "Draft version of indenture of lease between Mills Estate Incorporated and City and County of San Francisco for temporary airport site; four pages, not signed.",
    "sfomuseum:dimensions": "13 x 8 1/2 inches (33 x 21.6 cm)",
    "sfomuseum:media_ids": [
      1527856707,
      1527856709,
      1527856711
    ],
    "sfomuseum:medium": "paper, ink",
    "sfomuseum:object_id": 50607,
    "sfomuseum:placetype": "object",
    "sfomuseum:publication": ": , 1927.",
    "sfomuseum:subcategory": "Other, Company Record / Document",
    "src:geom": "sfomuseum#derived",
    "src:geom_derived_from": [
      1360695653
    ],
    "wof:belongsto": [
      102527513,
      102191575,
      85633793,
      85922583,
      102087579,
      85688637,
      1159162825,
      1159160869,
      1360695653,
      554784711,
      102085387
    ],
    "wof:breaches": [],
    "wof:country": "US",
    "wof:created": 1579906669,
    "wof:depicts": [
      1360695653
    ],
    "wof:geomhash": "3abf1c04b00c12d6593e9cd3c35f0056",
    "wof:hierarchy": [
      {
        "campus_id": 1360695653,
        "continent_id": 102191575,
        "country_id": 85633793,
        "county_id": 102087579,
        "custom_id": 1511910033,
        "locality_id": 85922583,
        "object_id": 1511910033,
        "postalcode_id": 554784711,
        "region_id": 85688637
      },
      {
        "campus_id": 1360695653,
        "continent_id": 102191575,
        "country_id": 85633793,
        "county_id": 102085387,
        "custom_id": 1511910033,
        "object_id": 1511910033,
        "region_id": 85688637
      },
      {
        "building_id": -1,
        "campus_id": 102527513,
        "collection_id": 1159162825,
        "concourse_id": 1159162825,
        "continent_id": 102191575,
        "country_id": 85633793,
        "county_id": 102087579,
        "custom_id": 1511910033,
        "locality_id": 85922583,
        "neighbourhood_id": -1,
        "object_id": 1511910033,
        "region_id": 85688637,
        "wing_id": 1159160869
      }
    ],
    "wof:id": 1511910033,
    "wof:lastmodified": 1787988176,
    "wof:name": "lease draft: City and County of San Francisco, Mills Estate Incorporated, indenture of lease",
    "wof:parent_id": 1159162825,
    "wof:placetype": "custom",
    "wof:placetype_alt": [
      "object"
    ],
    "wof:repo": "sfomuseum-data-collection",
    "wof:superseded_by": [],
    "wof:supersedes": [],
    "wof:tags": []
  },
  "bbox": [
    -122.391953,
    37.624731,
    -122.391953,
    37.624731
  ],
  "geometry": {"type":"MultiPoint","coordinates":[[-122.391953,37.624731]]}
}
