{
  "id": 1511941597,
  "type": "Feature",
  "properties": {
    "date:cessation_lower": "1988-01-01",
    "date:cessation_upper": "1988-12-31",
    "date:inception_lower": "1988-01-01",
    "date:inception_upper": "1988-12-31",
    "edtf:cessation": "1988",
    "edtf:date": "1988",
    "edtf:inception": "1988",
    "geom:area": 0,
    "geom:bbox": "-122.386155,37.616357,-122.386155,37.616357",
    "geom:latitude": 37.616357,
    "geom:longitude": -122.386155,
    "iso:country": "XX",
    "millsfield:airline_id": [
      1159284989
    ],
    "millsfield:category_id": 1762671311,
    "millsfield:collection_id": 1511214207,
    "millsfield:company_id": [
      1159286839
    ],
    "millsfield:images": [
      1527844931,
      1527844933,
      1729566979,
      1729566983,
      1729566985,
      1729566987,
      1729566989,
      1729566991
    ],
    "millsfield:images_colors_refs": {
      "crayola": [
        {
          "hex": "#b0b7c6"
        },
        {
          "hex": "#ffffff"
        },
        {
          "hex": "#fddde6"
        },
        {
          "hex": "#000000"
        },
        {
          "hex": "#414a4c"
        }
      ],
      "css4": [
        {
          "hex": "#2f4f4f"
        },
        {
          "hex": "#000000"
        },
        {
          "hex": "#c0c0c0"
        },
        {
          "hex": "#f5f5dc"
        },
        {
          "hex": "#f5f5f5"
        },
        {
          "hex": "#fffafa"
        }
      ],
      "marekm4": [
        {
          "hex": "#f7f7f7"
        },
        {
          "hex": "#faf8f8"
        },
        {
          "hex": "#b8b7b0"
        },
        {
          "hex": "#eeefe1"
        },
        {
          "hex": "#f8f8f7"
        },
        {
          "hex": "#3c3a31"
        },
        {
          "hex": "#faf9f9"
        },
        {
          "hex": "#38352d"
        },
        {
          "hex": "#33312a"
        },
        {
          "hex": "#0f1210"
        }
      ]
    },
    "millsfield:images_texts": [
      "MENU \u0026 WINE SELECTION\nMENU \u0026 WINE SELECTION\nMENU \u0026 WINE SELECTION\nMENU \u0026 WINE SELECTION\nMENU \u0026 WINE SELECTION\nPANAMI\nMENU \u0026 WINE SELECTION\nMENU \u0026 WINE SELECTION\nMENU \u0026 WINE SELECTION\nMENU \u0026 WINE SELECTION\nMENU \u0026 WINE SELECTION\nMENU \u0026 WINE SELECTION\nMENU \u0026 WINE SELECTION\nMENU \u0026 WINE SELECTION\nMENU \u0026 WINE SELECTION\nMENU \u0026 WINE SELECTION\nMENU \u0026 WINE SELECTION\nMENU \u0026 WINE SELECTION\nMENU \u0026 WINE SELECTION\nMENU \u0026 WINE SELECTION\nMENU \u0026 WINE SELECTION\nMENU \u0026 WINE SELECTION\nMENU \u0026 WINE SELECTION\nMENU \u0026 WINE SELECTION\nMENU \u0026 WINE SELECTION\nMENU \u0026 WINE SELECTION",
      "\u0026 WINE SELECTION\nMENU \u0026 WINE SELECTION\n\u0026 WINE SELECTNN\nMENU\n\u0026 WINE SELECTION\nMENU\n\u0026 WINE SELECTION\nPANAM.\nMENU\n\u0026 WINE SELECHON\nMENU\n\u0026 WINE SELECTION\n\u0026 WINE SE\nECTION\nMENU \u0026 WINE SEL\nTION",
      "Noilly Prat Vermouth\nAperitife\nDry Sherry\nHarvey Bristol Cream\nCampari\nManhattan\nScrewdriver\nCocktails\nVodka Martini\nGin Martini\nDaiguiri\nTom Collins\nMr. and Mrs.\n\"T\" Bloody Mary\nWhiskey Sour\nVodka Collins\nSpirits\nJ. Walker Black\nCanadian Club\nJ \u0026 B Scotch\nWild Turkey\nSmirnoff Vodka\nJack Daniels\nBeefeater Gin\nBacardi Rum\nPor\nGrand Marnier\nCreme de Grand Marnier\nDrambuie\nKahlúa\nAmaretto di Saronno\nCognac Courvoisier Napoléon\nBaileys Irish Cream\nSandeman Port\nDiet Pepsi\nAssorted Beers\nBeverages\nLa Croix Sparkling Artesian Water\nCanada Dry Beverages\nPepsi Cola\nDiet Pepsi Free\nSeven Up\nDiet Seven Up\nCountry Time®\nFruit Juices\nLemonade Flavor Drink",
      "Noilly Prat Vermouth\nManhattan\nScrewdriver\nAperitifs\nDry Sherry\nHarvey Bristol Cream\nCocktails\nVodka Martini\nGin Martini\nDaiquiri\nTom Collins\nMr. and Mrs. \"T\" Bloody Mary\nCampari\nWhiskey Sour\nVodka Collins\nJ. Walker Black\nCanadian Club\nGrand Marnier\nCreme de Grand Marnier\nJ \u0026 B Scotch\nWild Turkey\nSpirits\nSmirnoff Vodka\nJack Daniels\nводнас,\nLiqueurs E Pot\nDrambuie\nKahlúa\nAmaretto di Saronno\nCognac Courvoisier Napoléon\nBeefeater Gin\nBacardi Rum\nBaileys Irish Cream\nSandeman Port\nDiet Pepsi\nAssorted Beers\nBeverages\nLa Croix Sparkling Artesian Water\nCanada Dry Beverages\nPepsi Cola\nSeven Up\nDiet Seven Up\nCountry Time®\nLemonade Flavor Drink\nDiet Pepsi Free\nFruit Juices",
      "Nines and Champagne\nFrom the Wine Cellars of Pan Am, we have selected a variety of\nfine wines to complement your in-flight meal service\nYour Flight Attendant can advise you of today's available selection\nU.I. Domestic Hights\nDomaine Chandon Blanc de Noirs\nBuena Vista Zinfandel 1981\nBuena Vista Chardonnay 1985\nInternational Hights\nDom Perignon\nCristal Louis Roederer 1982\nMöet et Chandon Brut Imperial\nMoreau et Fils Mâcon Villages 1985\nGeorges Duboeuf Brouilly 1984\nGeorges Duboeuf Morgon 1984\nRobert Mondavi Cabernet Sauvignon 1982\nBuena Vista Chardonnay 1985\nMonterey Zinfandel 1984\nLouis Latour Macon Villages Chameroy 1986\nRutherford Hill Chardonnay 1984\nRegional Mines\nserved on flights to and from their country of origin\nGermany - Geisenheimer Rothenberg Riesling 1986\nFrance - Brane-Cantenac Margaux 1980\nArgentina - San Telmo Chardonnay 1986\nArgentina - Fond de Cave Cabernet Sauvignon 1980\nSwitzerland - Cure d'Attalens Lavaux 1986\nSwitzerland - Dôle Sang de Lenfer 1985\nItaly - Antinori Chianti Classico Reserve 1983\nSpain - Marqués de Riscal Elcieco (Álava) Rioja 1983\nChile - Casa Real Viña Santa Rita 1983 Chile - Casa Real Cabernet Sauvignon 1981",
      "Мепи\nSevruga Caviar served with Traditional Accompaniments\nCaviar Sevruga Malossol de la mer Caspienne\nSelected Hors d'Oeuvres\nHors d'Oeuvre Variés\nCreamed Mushrooms in Pastry Shell\nBouchée aux Fruits de la Forêt\nOr\nOu\nCrisp Garden Salad\nSalade Verte Mêlée\nRoast au Vol\nRôti au Vol\nTenderloin of beef roasted on board and carved to order.\nServed with an assortment of sauces, berny potatoes and courgettes provençale\nLamb Deauville\nFilet d' Agneau aux deux Coulis\nCharcoal grilled filet of lamb with a unique sweet pepper sauce.\nComplemented by courgettes and berny potatoes\nGuinea Fowl\nPintadeau à la Normande\nDelicate breast of guinea fowl prepared normande style with cream sauce and diced apples.\nServed with courgettes provençale and berny potatoes\nBouillabaisse Parisienne\nParisian Bouillabaisse.\nAn old country provence dish prepared with an assortment of fish and seafood.\nSeasoned to perfection with a touch of garlic, saffron and fragrant herbs\nSeasonal Fruit and Aged Cheeses\nFruits et Fromages\nRaspberry Gâteau\nMillefeuille aux Framboises\nOr\nOu\nPears Poached in Red Wine\nPoires au Vin\nInternational Coffee\nPerfect after any meal! Enjoy Pan Am's world famous coffees topped with whipped cream\nCafé Parisienne\nCate Royale\nIrish Coffee\nItalian Coffee\nwith Grand Marnier\nCoffee and Cognac with Baileys Irish Cream with Amaretto di Saronno\nCafé Mexicano\ncattee and kaania Coffee with hocute and Cognac\nCDG-3041\n7-16-88",
      "Apernoon Jea\nYour choice of the following will be offered from the trolley\nVotre choix suivant vous sera servis de la table roulante\nAssortment of Petit Fours\nPlateau de Petits Fours Fins\nCoffee\nCafé\nBasket of Fresh Fruit\nCorbeille de Fruits\nTaster's Choice Decaffeinated Coffee\nCafé Décaféiné\nTea\nThé\nPlease accept our apology if your choice is not available.\nVeuillez accepter nos excuses si nous pouvons pas respecter votre sélection."
    ],
    "millsfield:images_texts_ids": [
      1527844931,
      1729566979,
      1729566983,
      1729566985,
      1729566987,
      1729566989,
      1729566991
    ],
    "millsfield:primary_image": 1729566979,
    "millsfield:subcategory_id": 1511213567,
    "mz:hierarchy_label": 1,
    "mz:is_current": 1,
    "sfomuseum:accession_number": "2010.084.018",
    "sfomuseum:airline": "Pan American World Airways",
    "sfomuseum:airline_id": [
      684
    ],
    "sfomuseum:category": "Passenger Amenity, Archive",
    "sfomuseum:classification_id": 242,
    "sfomuseum:collection": "Aviation Archive",
    "sfomuseum:creditline": "Gift of Dorene T. Goad",
    "sfomuseum:date": "1988",
    "sfomuseum:date_acquired": "2010-05-05",
    "sfomuseum:daterange_end": "1988-12-31",
    "sfomuseum:daterange_start": "1988-01-01",
    "sfomuseum:description": "Menu issued by Pan American World Airways; silver cover; dinner menu items include roast beef, lamb Deauville, and bouillabaisse; menu number: CDG-3041; class: first; date: 7-16-88.",
    "sfomuseum:dimensions": "9 x 12 inches (22.9 x 30.5 cm)",
    "sfomuseum:media_ids": [
      1527844931,
      1527844933
    ],
    "sfomuseum:medium": "paper, ink, metal",
    "sfomuseum:object_id": 105525,
    "sfomuseum:placetype": "object",
    "sfomuseum:primary_media_id": 1527844931,
    "sfomuseum:publication": ": , 1988.",
    "sfomuseum:subcategory": "Menu",
    "src:geom": "sfomuseum#undetermined",
    "wof:belongsto": [
      1159162825,
      102527513,
      102191575,
      85633793,
      85922583,
      102087579,
      1159160869,
      85688637
    ],
    "wof:breaches": [],
    "wof:country": "XX",
    "wof:created": 1579906661,
    "wof:depicts": [
      1159286839,
      1159284989
    ],
    "wof:geomhash": "30c8a918561c84bb2daa2b97fc7c5353",
    "wof:hierarchy": [
      {
        "building_id": -1,
        "campus_id": 102527513,
        "concourse_id": 1159162825,
        "continent_id": 102191575,
        "country_id": 85633793,
        "county_id": 102087579,
        "custom_id": 1511941597,
        "locality_id": 85922583,
        "neighbourhood_id": -1,
        "object_id": 1511941597,
        "region_id": 85688637,
        "venue_id": 1511941597,
        "wing_id": 1159160869
      }
    ],
    "wof:id": 1511941597,
    "wof:lastmodified": 1787988185,
    "wof:name": "menu: Pan American World Airways, First Class",
    "wof:parent_id": 1159162825,
    "wof:placetype": "custom",
    "wof:placetype_alt": [
      "object"
    ],
    "wof:repo": "sfomuseum-data-collection",
    "wof:superseded_by": [],
    "wof:supersedes": [],
    "wof:tags": []
  },
  "bbox": [
    -122.386155,
    37.616357,
    -122.386155,
    37.616357
  ],
  "geometry": {"type":"Point","coordinates":[-122.386155,37.616357]}
}
