{
  "id": 1913795975,
  "type": "Feature",
  "properties": {
    "date:cessation_lower": "1936-01-23",
    "date:cessation_upper": "1936-01-23",
    "date:inception_lower": "1936-01-23",
    "date:inception_upper": "1936-01-23",
    "edtf:cessation": "1936-01-23",
    "edtf:inception": "1936-01-23",
    "geom:area": 2.475047457570636e-7,
    "geom:bbox": "-122.386472,37.616105,-122.385834,37.616611",
    "geom:latitude": 37.61635747477365,
    "geom:longitude": -122.38615540108617,
    "millsfield:airline_id": [
      1159284991
    ],
    "millsfield:category_id": 1511214251,
    "millsfield:collection_id": 1511214207,
    "millsfield:company_id": [
      1159286839
    ],
    "millsfield:images": [
      1913801923,
      1913801925
    ],
    "millsfield:images_colors_refs": {
      "crayola": [
        {
          "hex": "#bab86c"
        },
        {
          "hex": "#6dae81"
        },
        {
          "hex": "#714b23"
        },
        {
          "hex": "#edd19c"
        },
        {
          "hex": "#deaa88"
        }
      ],
      "css4": [
        {
          "hex": "#bdb76b"
        },
        {
          "hex": "#556b2f"
        },
        {
          "hex": "#f0e68c"
        },
        {
          "hex": "#808080"
        },
        {
          "hex": "#deb887"
        }
      ],
      "marekm4": [
        {
          "hex": "#6da375"
        },
        {
          "hex": "#e7d997"
        },
        {
          "hex": "#5e5525"
        },
        {
          "hex": "#d7c677"
        },
        {
          "hex": "#c2b374"
        },
        {
          "hex": "#e3d496"
        },
        {
          "hex": "#564b20"
        }
      ]
    },
    "millsfield:images_texts": [
      "Dearest Deb. _\nJan 23, 36\nplane wat a\nfe lines to Catch the\nto Cantón tomorrow morning\nand\nmake the Adams which has\nalready\nsailed. I was anuel\nupont last night when the cars\nhad not brin\ndelind to the Metropole\nand ley the time I assured mynef\nthat then actuace, wasnt then it\nwas too lats to go to the ernoed.\nWhich I mac wanted to do -\nhowron Mrs Polin has a bill - ur had\na grand dinnu and tax and o\nhad a side ache afth leaving the\nMary Bus show - 2 could hair tacked\nmysef for laughing at mist of the\nthings\nNibs as ti my plans -\net pret to jo ti canton on tuesday\nfar 28 sprao the 29-30 and 31 at\nMacao - hope to wear AK care\nin Fibuan - mage on the 12t on y\nnot than on the next boat bound\njor manica.\nmiss too yar\nfor some more\ninformation today abort\nthe Priping\nthings. \" Shave 2 orde anothe\nIte chest for each of the gues-\nNo and tate. Am sure it was\ntheir Chest which us reineds One",
      "is not beyond repair. One board is\ngone off the back part of the lop\ncorn it was badly soaked and\nis cord with soot and dut but\nwill han a boy wash it off and\nthen\njudy been what to do.\nIm incon, copy of litter\nto Slim and Qune whier you\nman; he iktrested in reading although\nit is lage a repetition of my\nletsit the famie,.\ntorten be\nHair you sun the book\nHarrison\nForman Called\n\"Theory Forbiden Tibst\". its suppond\nto tr teen wie at home.\nwas ant hear when 9 frist arrins\nand was a sort of bur - our bor\nsaid he neve got wist of Chungkang.\nAnyway shin book titover so big\nthat he is rolling in money\nand today sprints me weck an\nanatographed copy which 0 not\nis the second Edition.\nnust clon now. t hair the\nPectin of you and Cat \u0026 stel in front\no me on my deske see the time.\nJust lov it Do and me some mous\nand woned like an Enlarge one.\nall my lor Osh darling\n→ Your\nHad\n2019121.0870"
    ],
    "millsfield:images_texts_ids": [
      1913801923,
      1913801925
    ],
    "millsfield:primary_image": 1913801923,
    "millsfield:subcategory_id": 1511213489,
    "mz:is_approximate": 1,
    "mz:is_current": 1,
    "sfomuseum:accession_number": "2019.121.0870",
    "sfomuseum:airline": "Pan American Airways",
    "sfomuseum:airline_id": [
      685
    ],
    "sfomuseum:category": "Employee Career History",
    "sfomuseum:classification_id": 195,
    "sfomuseum:collection": "Aviation Archive",
    "sfomuseum:creditline": "Collection of SFO Museum",
    "sfomuseum:date": "01/23/1936",
    "sfomuseum:date_acquired": "2019-11-22",
    "sfomuseum:daterange_end": "1936-01-23",
    "sfomuseum:daterange_start": "1936-01-23",
    "sfomuseum:description": "Handwritten letter from Harold M. Bixby to his wife, Debby Bixby, dated January 23, [1936]; includes personal matters; mentions Mrs. Polin, Miss Forbes, “Slim” [Charles A.] and Anne Lindbergh.",
    "sfomuseum:dimensions": "13 x 8 inches (33 x 20.3 cm)",
    "sfomuseum:medium": "paper, ink",
    "sfomuseum:object_id": 211223,
    "sfomuseum:placetype": "object",
    "sfomuseum:publication": ": , 01/23/1936.",
    "sfomuseum:subcategory": "Correspondence, Personal",
    "src:geom": "sfomuseum#undetermined",
    "wof:belongsto": [
      102527513,
      1159162825,
      102191575,
      85633793,
      102087579,
      85922583,
      85688637,
      1159160869
    ],
    "wof:country": "XY",
    "wof:created": 1714548947,
    "wof:depicts": [
      1159284991,
      1159286839
    ],
    "wof:geomhash": "c281b9d9eefc83b5710e64b9d646067d",
    "wof:hierarchy": [
      {
        "building_id": -1,
        "campus_id": 102527513,
        "collection_id": 1159162825,
        "concourse_id": 1159162825,
        "continent_id": 102191575,
        "country_id": 85633793,
        "county_id": 102087579,
        "custom_id": 1913795975,
        "locality_id": 85922583,
        "neighbourhood_id": -1,
        "object_id": 1913795975,
        "region_id": 85688637,
        "wing_id": 1159160869
      }
    ],
    "wof:id": 1913795975,
    "wof:lastmodified": 1787988219,
    "wof:name": "correspondence: Harold M. Bixby to Debby Bixby",
    "wof:parent_id": 1159162825,
    "wof:placetype": "custom",
    "wof:placetype_alt": [
      "object"
    ],
    "wof:repo": "sfomuseum-data-collection",
    "wof:superseded_by": [],
    "wof:supersedes": []
  },
  "bbox": [
    -122.38647222518921,
    37.6161053594541,
    -122.38583385944366,
    37.61661101879963
  ],
  "geometry": {"type":"Polygon","coordinates":[[[-122.38647222518921,37.61631782178288],[-122.386434674263,37.61623283692423],[-122.38637566566466,37.61617759671399],[-122.38630056381224,37.6161308549656],[-122.38616108894348,37.6161053594541],[-122.38602161407469,37.6161308549656],[-122.38591432571411,37.61618609521055],[-122.38585531711577,37.61626683087935],[-122.38583385944366,37.61636881265146],[-122.38587141036987,37.61646654505181],[-122.38594114780425,37.61654303118856],[-122.38605380058287,37.61660252035167],[-122.38618254661559,37.61661101879963],[-122.3863059282303,37.61657277577607],[-122.3864185810089,37.61650903735973],[-122.3864668607712,37.61641130501523],[-122.38647222518921,37.61631782178288]]]}
}
