{
  "id": 1729563875,
  "type": "Feature",
  "properties": {
    "date:cessation_lower": "1930-01-01",
    "date:cessation_upper": "1930-12-31",
    "date:inception_lower": "1930-01-01",
    "date:inception_upper": "1930-12-31",
    "edtf:cessation": "1930~",
    "edtf:date": "1930~",
    "edtf:inception": "1930~",
    "geom:area": 0,
    "geom:bbox": "-122.386155,37.616357,-122.386155,37.616357",
    "geom:latitude": 37.616357,
    "geom:longitude": -122.386155,
    "iso:country": "XX",
    "millsfield:aircraft_id": [
      1159292297
    ],
    "millsfield:airline_id": [
      1159285395
    ],
    "millsfield:category_id": 1763416397,
    "millsfield:collection_id": 1511214207,
    "millsfield:company_id": [],
    "millsfield:images": [
      1729565569,
      1729565571
    ],
    "millsfield:images_colors_refs": {
      "crayola": [
        {
          "hex": "#efcdb8"
        },
        {
          "hex": "#8a795d"
        },
        {
          "hex": "#e7c697"
        },
        {
          "hex": "#000000"
        },
        {
          "hex": "#ffae42"
        },
        {
          "hex": "#414a4c"
        },
        {
          "hex": "#ffcf48"
        }
      ],
      "css4": [
        {
          "hex": "#808080"
        },
        {
          "hex": "#bdb76b"
        },
        {
          "hex": "#2f4f4f"
        },
        {
          "hex": "#f5deb3"
        },
        {
          "hex": "#f4a460"
        },
        {
          "hex": "#000000"
        }
      ],
      "marekm4": [
        {
          "hex": "#dbcba8"
        },
        {
          "hex": "#e3c04e"
        },
        {
          "hex": "#e5d5ac"
        },
        {
          "hex": "#867a5e"
        },
        {
          "hex": "#26231d"
        },
        {
          "hex": "#d6b84a"
        },
        {
          "hex": "#454139"
        }
      ]
    },
    "millsfield:images_texts": [
      "Acoma, \"City of the Sky,\" perched on a 400 foot high mesa, casts its\nshadow on the desert floor.\nTRAVEL BY AIR\nTranscontinental \u0026 Western Air, Inc.,\n\"The Lindbergh\nLine \" flies the Shortest Route from Coast to Coast through the\ngreat mid-transcontinental belt of cities and closely parallels\nthrough the West one of the oldest known trade channels in\nAmerica — The Santa Fe Trail. The Lindbergh Line, associated\nwith the Pennsylvania Railroad, was the pioneer in establishing\nthe first transcontinental air passenger service and also was the\nCific Corator of multi-motored passenger equipment on the Pa-\nAttuned to the needs of the modern American who travels\nfor business or pleasure, the passenger transport airplanes of\nTWA provide a service which is at once deluxe and common-\nplace.\nDeluxe because of the comfort, convenience and pleasure\nthey afford; commonplace to thousands of travelers who have\nadopted the airplane as a routine, every-day necessity.\nTWA is\nproud of its six year record and its important contribution to\nAmerica's supremacy in air transportation. It is the main arterv\nof travel in this modern era where conservation of time and\nenergy are requisite to success and contentment.\nTWA renders complete air transport service between\nscore of cities directly on its route and through connections with\nother air, rail and bus lines makes available to you swift, depend-\nable service to every important city and town in the United\nStates.\nTWA offers a route rich in scenic beauty. Vistas of moun-\ntain and valley.\ndesert and\ncanyon: the ruins of prehistoric\ncities; sheer-walled mesas and rocky cliffs freakishly carved by\nwind and weather: the Petrified Forest and The Painted Desert:\npicturesque Indian villages, the atmosphere of Old Spain in\nAmerica - all this and much more is to be seen while flying the\nShortest Route from Coast to Coast over TWA.\nAppetizing luncheons served aloft.\nTRANSCONTINENTAL \u0026 WESTERN AIR\nOffers You...\nAn economical, comfortable means of travel in the finest,\nmost modern, flying equipment.\nA corps of veteran pilots with years of flying experience.\nPlanes equipped with radio-telephones and directional\nbeacon service.\nComplete weather reports over each 24-hour period.\nLighted and improved airways and airports over its entire\nsystem.\nLuncheons served aloft, included in the fare.\nCompetent personnel with years of transportation experi-\nence.\nStrict enforcerent of the most rigid maintenance stand-\nards.\nModern and completely equipped passenger terminals.\nEvery office of the Pennsylvania Railroad, Postal Tele-\ngraph and Western\nUnion, Greyhound Bus; also\ntravel bureaus, hotel porters, and TWA offices in a\nscore of cities, as sources of information and tickets,\n... and...\nTHE SHORTEST ROUTE FROM COAST TO COAST\n) SAN FRANCISCO\nAMARILLO\nALBUQUERQUE\nKANSAS CIT\nER ESNO\nWICHITA\nCHICAGO\nFT. WAYNE\nBAKERSFIELD\nANGELES\nWINSLOW\nCKA HOMA\nTULSA\nSPRINGFIELD\nST.LOUIS\nINDIANAPOLIS\nCOLUMBUS\nPITTSBURGH\nHARRISBURG\nPHILADELPHIA\nCareful overhaul by skilled employes working under ideal conditions\ninsures dependable performance.\nSHIP BY GENERAL AIR EXPRESS\nAs an outgrowth of its pioneering activity in the air ship-\ning field, TWA has perfected a system for the fastest possible\nmethod of shipping merchandise which is meeting with broad\npublic acceptance.\nMerchants, manufacturers, and shippers generally have\nfound air express offers a distinct advantage for making over-\nnight delivery of merchandise with no loss of business time be\ntween New York, Chicago, St. Louis,\nKansas City and other\nmidwest cities, also from coast to coast in twenty-three hours.\nThrough a new interline arrangement with six other air-\nlines, all points on the TWA system are now linked with 138\ncities in the United States with connections to Canada. Mexico,\nand South America. This new service known as General Air Ex-\npress,\n\"the interline system\"\npermits the free exchange of mer\nchandise between all sections of the country on through waybills\nand under standard shipping conditions. Through rates, including\nstore-door pickup and delivery service by\nPostal Telegraph are\npublished in a joint tariff which mav be obtained from any TWA\nrepresentative or from any Postal Telegraph office.\nProgressive sales managers are finding in air express new\nopportunities to reach new markets to cut down inventories and\nto speed up\nthe turnover of merchandise. It affords\nan ideal\nservice for the distribution of samples,\nshipments which cannot\nafford to lose days in transit, the rapid transmission of important\nmachinery parts and for the quick replacement of stocks in va-\nrious sections of the country at surprisingly low rates.\nCargo in-\nsurance at low rates is available to all shippers and individual\npackages weighing as much as 200 pounds will be accepted to\nall points.",
      "SHORTEST ROUTE\nCOAST TO COAST\nTWA\nTHE\nLINDBERGH\nLINE\nAir Travel\nAir Mail\nAir Express\nTRANSCONTINENTAL\nWESTERN AIR.\nIN C.\nSTANDARD AIR LINE OF THE WORLD"
    ],
    "millsfield:images_texts_ids": [
      1729565569,
      1729565571
    ],
    "millsfield:primary_image": 1729565571,
    "millsfield:subcategory_id": 1511213631,
    "mz:hierarchy_label": 1,
    "mz:is_current": 1,
    "sfomuseum:accession_number": "2000.057.022",
    "sfomuseum:aircraft": "Ford Tri-Motor",
    "sfomuseum:aircraft_id": [
      1336
    ],
    "sfomuseum:airline": "Transcontinental \u0026 Western Air",
    "sfomuseum:airline_id": [
      875
    ],
    "sfomuseum:category": "Promotional, Archive",
    "sfomuseum:classification_id": 283,
    "sfomuseum:collection": "Aviation Archive",
    "sfomuseum:creditline": "Collection of SFO Museum",
    "sfomuseum:date": "c. 1930",
    "sfomuseum:date_acquired": "2000-08-22",
    "sfomuseum:daterange_end": "1935-12-31",
    "sfomuseum:daterange_start": "1925-01-01",
    "sfomuseum:description": "Brochure issued by Transcontinental \u0026 Western Air (TWA) promoting air travel, freight, and mail; off-white and black cover with illustrations of three Ford Tri-motor aircraft.",
    "sfomuseum:dimensions": "6 x 3 1/4 inches (15.2 x 8.3 cm)",
    "sfomuseum:medium": "paper, ink",
    "sfomuseum:object_id": 51028,
    "sfomuseum:placetype": "object",
    "sfomuseum:publication": ": , c. 1930.",
    "sfomuseum:subcategory": "Brochure, Airline",
    "src:geom": "sfomuseum#undetermined",
    "wof:belongsto": [
      1511214205,
      102527513,
      102191575,
      85633793,
      1511213631,
      85922583,
      102087579,
      1511214277,
      1511214207,
      85688637
    ],
    "wof:breaches": [],
    "wof:country": "XX",
    "wof:created": 1618962245,
    "wof:depicts": [
      1159285395,
      1159292297,
      1159287531
    ],
    "wof:geomhash": "30c8a918561c84bb2daa2b97fc7c5353",
    "wof:hierarchy": [
      {
        "arcade_id": 1511213631,
        "building_id": 1511214277,
        "campus_id": 102527513,
        "concourse_id": 1511214205,
        "continent_id": 102191575,
        "country_id": 85633793,
        "county_id": 102087579,
        "custom_id": 1729563875,
        "locality_id": 85922583,
        "neighbourhood_id": -1,
        "object_id": 1729563875,
        "region_id": 85688637,
        "venue_id": 1729563875,
        "wing_id": 1511214207
      }
    ],
    "wof:id": 1729563875,
    "wof:lastmodified": 1787988190,
    "wof:name": "brochure: Transcontinental \u0026 Western Air (TWA), Ford Tri-Motor",
    "wof:parent_id": 1159162825,
    "wof:placetype": "custom",
    "wof:placetype_alt": [
      "object"
    ],
    "wof:repo": "sfomuseum-data-collection",
    "wof:superseded_by": [],
    "wof:supersedes": [],
    "wof:tags": []
  },
  "bbox": [
    -122.386155,
    37.616357,
    -122.386155,
    37.616357
  ],
  "geometry": {"type":"Point","coordinates":[-122.386155,37.616357]}
}
