{
  "id": 1846753661,
  "type": "Feature",
  "properties": {
    "date:cessation_lower": "1921-01-01",
    "date:cessation_upper": "1921-12-31",
    "date:inception_lower": "1921-01-01",
    "date:inception_upper": "1921-12-31",
    "edtf:cessation": "1921",
    "edtf:inception": "1921",
    "geom:area": 2.475047457570636e-7,
    "geom:bbox": "-122.386472,37.616105,-122.385834,37.616611",
    "geom:latitude": 37.61635747477365,
    "geom:longitude": -122.38615540108617,
    "millsfield:aircraft_id": [
      1159289369
    ],
    "millsfield:airline_id": [
      1796785063
    ],
    "millsfield:category_id": 1763416397,
    "millsfield:collection_id": 1511214207,
    "millsfield:company_id": [
      1159293955
    ],
    "millsfield:images": [
      1846755107,
      1846755109,
      1846755111,
      1846755113
    ],
    "millsfield:images_colors_refs": {
      "crayola": [
        {
          "hex": "#414a4c"
        },
        {
          "hex": "#c5d0e6"
        },
        {
          "hex": "#757575"
        },
        {
          "hex": "#979aaa"
        },
        {
          "hex": "#95918c"
        }
      ],
      "css4": [
        {
          "hex": "#2f4f4f"
        },
        {
          "hex": "#778899"
        },
        {
          "hex": "#708090"
        },
        {
          "hex": "#d3d3d3"
        }
      ],
      "marekm4": [
        {
          "hex": "#7789a4"
        },
        {
          "hex": "#423e42"
        },
        {
          "hex": "#3e3634"
        },
        {
          "hex": "#6c758d"
        },
        {
          "hex": "#312c2c"
        },
        {
          "hex": "#79879e"
        },
        {
          "hex": "#cad1da"
        },
        {
          "hex": "#ccd5e0"
        },
        {
          "hex": "#413d3b"
        },
        {
          "hex": "#677593"
        },
        {
          "hex": "#cdd6e2"
        },
        {
          "hex": "#ccd4de"
        },
        {
          "hex": "#6d758e"
        }
      ]
    },
    "millsfield:images_texts": [
      "AIRTRAVEL\nFOR BUSINESS OR PLEASURE\nBALBOA\nAeromarine\nREG. U.S. PAT. OFF.\nWhite Aerial Fleet\nNow Operating Between\nNEW YORK\nBOSTON\nALBANY\nATLANTIC CITY AND OTHER\nNEW JERSEY COAST RESORTS\nLONG ISLAND POINTS\nFLORIDA AND CUBA\nAERIAL • SIGHTSEEING • AROUND • NEW • YORK",
      "Modern Method\nof Travel,\nBOOKING OFFICE IN THE LOBBY OF\nThe 20aldorf-2lstorin\nOR TELEPHONE BRYANT 6147-4505",
      "NEW YORK'S LATEST FAD—OSE MISERIAN ESLAND\nTen or fifteen minutes of soaring through the clouds\nwill not only be a forever remembered experience, but\nit will add a sparkle to your conversation during the\nyears to come.\nTHe AIr is the ideal medium of travel—no charm equals\nthe fascination of flying. As soon as people fly, they realize\nwhy all doubt has been removed from aviation. The hun-\ndreds of thousands of people who use the air-liners be-\ntween London and Paris have come to regard them as\nsafer, and certainly more comfortable, than the channel\nsteamers. The people who are Aying daily between Havana\nand Key West have welcomed air-liners as a veritable\nGodsend after the disagreeable experience of a trip over\nthe choppy waters of the Gulf.\nF A\nPARTY OFF\nFOR\nFLIGHT\nAEROMARINE\nFLYING CRUISERS\n\"LIMOUSINES OF THE AIR\"\nSAFE; COMFORTABLE,\nLUXURIOUS\nD\nO you want to sail away through\nthe cool, silvery clouds and on\nout beyond the dust and grime\nand turmoil of crowded humanity?\nThis opportunity-the chance some people have been\nseeking for yearsis here and waiting for you. The\nactuality of a flight through sunny skies with far-fung\nhorizons is infinitely more enjoyable than any mere\nmental picture you may have of it.\nThe dreams of long ago for the flight of man are realized\n-out of the silvery tissue of man's imaginative dreams\nhas come the reality in forms of broad white sturdy wings\nthat balance their palatial cabin of mahogany and silver\n—and in its haven of comfort you can travel in a luxury\nthat would be the livid envy of ancient jewelled kings.\nD\n3.\ng)\nDAGGAGE\n7.\nOMPARTMEN\nSEATING\nARRANGEMENT\n\" B E\nSURE\nIT'S AN AEROMARINE\"\nU5. \u0026 CUBAN AIL SERVXT.\nSEE NEW YORK\nFROM THE AIR\nThe latest, best and\nquickest way to get a\ncomprehensive view\nof the Great Metrop-\nolis and\nits\nhistoric\nharbor, including the\nStatue of Liberty, the\nBattery, Wall Street,\nOld Trinity, the Wool-\nworth Building, and\nhundreds of other in-\nteresting sights of the\nIsland, is from the Air.\nINTERIOR VIEW OF FORWARD CABIN\n\"BE SURE IT'S AN AEROMARINE\"",
      "REMEMBER! SOONER OR LATER YOU WILL FLY-THE MODERN METHOD OF TRAVEL\nOur eleven-passen-\nger enclosed Cabin\nAeromarine Flying\nALBANI\nCruiser is the pride of\nthe aviation world to-\nday. No conveyance\nof sea, land or air is\nmore exquisitely fur-\nnished than this King\nNEWYORI\nof Air Boats. A ma-\nhogany\ncabin\nwith\ncomfortable reclining\nchairs trimmed with\nBARNEGAT\nsilk and leather aid in\ngiving a sense of quiet\nATLANTIC CITY\nluxury within this\nCAPE MAY\nwhite\nand gold air\nyacht. The seating ar-\nrangements of the\nNORTHERN OPERATIONS\nplane enable you at\nall times to have a clear view of the earth beneath\nyou with its tiny cities, villages and hamlets, populated\nby what appears to be a Lilliputian people.\nSAFETY-The Aeromarine Airways Fleet is manned\nby officers and crew with a record of long and faithful\nservice in aerial transit.\nAfter thorough tests by the\nU.S. Government they have been passed by authorities\nas men of proven worth and ability to fly seaplanes for\npassenger carrying.\nNothing more serious can happen to an Aeromarine\nin Aight than an enforced descent-\n-and herein is one of\nthe great advantages of travel in FLYING BOATS\nyou always-always have the necessary alighting space.\nYou fly ONLY over the broad free spaces of the water's\nsurface.\nThis gives you the knowledge of 100 per cent\nsafety when you take your flight.\nWHAT TO WEAR One needs no special clothing.\nno goggles, or bundlesome paraphernalia, when going on\nan air voyage in an Aeromarine.\nEven Milady in her\ndainty evening clothes may, without trepidation, step\ninto the luxurious enclosed cabin and make the journey\nfrom home to hotel, or from seaside resort or yacht to\nAtlantic City or Newport, with as much ease and with\nmuch less danger or mental annoyance than in traveling\nthe length of Fifth Avenue in her limousine.\n\"BE SURE IT'S AN AEROMARINE\"\nCOMMUTERS' SERVICE-Many men of affairs now\nmake their daily trip to their waterside country homes,\nor to their golf courses, in the luxurious cabin of an Aero-\nmarine Flying Boat. It is speedy and comfortable. What\nused to be an hour of grime and land turmoil, coupled\nwith traffic holdups and other vexatious delays, is now\ntwenty fleeting minutes of safe, restful pastime.\nFor many business men who spend their summers along\nLong Island Sound or the New England or New Jersey\ncoast resorts, or along the shores of the Hudson, we have\nestablished a commuters'\nservice at reasonable cost.\nFrom points as distant as 100 or 150 miles from New\nYork City we can carry business men to their offices in\nthe morning, and to their homes at night in one-fourth\nthe time heretofore required.\n*SANTA MARIAS TO\nONE OF THE WHITE AERIAL FLEET CARRYING MAILS AND PASSENGERS DAILY BETWEEN THE UNITED STATES AND CUBA\nThe types of boats used by the Aeromarine Airways have been flown by the U.S. Navy hundreds of thousands of miles.\nDue to the carefully designed character of their hulls, their seaworthiness is proverbial. Thousands of passengers have been\naloft in this type of boat and there has never been an accident. They have\nbeen flown for miles off the coast, have landed in all kinds of weather, been\nbusily engaged in daily fights up and down the English Channel, along the\nLOOK DOWN ON NEW YORK INALUVURY OF\nAtlantic Coast, in\nCOMFORT FROM THE BLUE VAULTS OF THE SKY\nthe cold waters of\nthe North Atlan-\ntic, and over the\nsunny seas of the\nWest Indies, and\neverywhere they\nhave performed\nperfectly. Thevare\npronounced by all\nwho are compe-\ntent to judge the\nmost wonderful\ncraft of their kind.\nFLY!\nTHESE OPEN COCKPIT AEROMARINE NAVY COAST PATROL FLYING BOATS ARE USED FOR SUMMER SICHTSEEING TRIPS\n\"BE SURE IT'S AN AEROMARINE\"\n\"BE SURE IT'S AN AEROMARINE\"\nKEY WE\nSOUTHERN\nOPERATIONS\nON YOUR VACA-\nTION THIS SUM-\nMER\nFLY OVER\nNEW YORK.\nYou will have a\ngenuine treat. The\ncolor and charm of\nManhattan and sur-\nrounding territories\nhas been told a\nthousand times. but\nnever is it so capti-\nvating. so\nwhelmingly beauti-\nful. as when it grips\nyou in its splendor\nfrom an Aeromarine\nFlying Boat.\nCOST OF FLYING-The cost for trips is far less\nthan is charged for air travel in any other part of the\nUnited States. The Passenger Department is ready at\nany time to quote rates for sightseeing or to any special\npoints along the waterways of the East for single pas-\nsengers or parties. Open and enclosed Flying Boats may\nbe chartered for exclusive parties for short flights or for\nall-day use, or for a week or longer on favorable terms.\nThe enclosed cabin boat has seating capacity for eleven\npeople in comfort. Forward cabin contains six wicker\nchairs and large observation cockpit.\nAfter cabin fur-\nnished as Club Compartment suitable for cards, special\nWriting Room or Lounge.\nDainty buffet lunches can be served.\nAmple accommodations for personal baggage provided.\nThe open cockpit boat has a seating capacity for four\nor five people.\nFor information regarding time tables, rates and\nreservations, phone Bryant 6147, or Bryant 4505.\nLanding Piers, foot of 82nd Street, North River.\nAEROMARINE AIRWAYS, Inc.\nTimes Building, New York City\nBranch Offices for Bookings at Principal Hotels\nPRFSCOF WINCHELL STuDiOS\nIN C.. NEW\n\"BE SURE IT'S AN AEROMARINE•"
    ],
    "millsfield:images_texts_ids": [
      1846755107,
      1846755109,
      1846755111,
      1846755113
    ],
    "millsfield:primary_image": 1846755107,
    "millsfield:subcategory_id": 1511213631,
    "mz:is_approximate": 1,
    "mz:is_current": 1,
    "sfomuseum:accession_number": "2022.124.694",
    "sfomuseum:aircraft": "Aeromarine 75",
    "sfomuseum:aircraft_id": [
      6
    ],
    "sfomuseum:airline": "Aeromarine Airways",
    "sfomuseum:airline_id": [
      1582
    ],
    "sfomuseum:category": "Promotional, Archive",
    "sfomuseum:classification_id": 283,
    "sfomuseum:collection": "Aviation Archive",
    "sfomuseum:creditline": "Gift of Jon E. Krupnick",
    "sfomuseum:date": "1921",
    "sfomuseum:date_acquired": "2022-12-14",
    "sfomuseum:daterange_end": "1921-12-31",
    "sfomuseum:daterange_start": "1921-01-01",
    "sfomuseum:description": "Brochure issued by by Aeromarine Airways promoting air travel; fold-out format; blue and white illustration of Aeromarine 75 flying over New York City; promotional text and duotone photographic images on interior.",
    "sfomuseum:dimensions": "9 x 4 inches (22.9 x 10.2 cm)",
    "sfomuseum:medium": "paper, ink",
    "sfomuseum:object_id": 233616,
    "sfomuseum:placetype": "object",
    "sfomuseum:publication": ": , 1921.",
    "sfomuseum:subcategory": "Brochure, Airline",
    "src:geom": "sfomuseum#undetermined",
    "wof:belongsto": [
      102527513,
      1159162825,
      102191575,
      85633793,
      102087579,
      85922583,
      85688637,
      1159160869
    ],
    "wof:country": "XY",
    "wof:created": 1680078155,
    "wof:depicts": [
      1796785063,
      1159289369,
      1159293955
    ],
    "wof:geomhash": "c281b9d9eefc83b5710e64b9d646067d",
    "wof:hierarchy": [
      {
        "building_id": -1,
        "campus_id": 102527513,
        "collection_id": 1159162825,
        "concourse_id": 1159162825,
        "continent_id": 102191575,
        "country_id": 85633793,
        "county_id": 102087579,
        "custom_id": 1846753661,
        "locality_id": 85922583,
        "neighbourhood_id": -1,
        "object_id": 1846753661,
        "region_id": 85688637,
        "wing_id": 1159160869
      }
    ],
    "wof:id": 1846753661,
    "wof:lastmodified": 1787988214,
    "wof:name": "brochure: Aeromarine Airways, “Air travel for business or pleasure”",
    "wof:parent_id": 1159162825,
    "wof:placetype": "custom",
    "wof:placetype_alt": [
      "object"
    ],
    "wof:repo": "sfomuseum-data-collection",
    "wof:superseded_by": [],
    "wof:supersedes": []
  },
  "bbox": [
    -122.38647222518921,
    37.6161053594541,
    -122.38583385944366,
    37.61661101879963
  ],
  "geometry": {"type":"Polygon","coordinates":[[[-122.38647222518921,37.61631782178288],[-122.386434674263,37.61623283692423],[-122.38637566566466,37.61617759671399],[-122.38630056381224,37.6161308549656],[-122.38616108894348,37.6161053594541],[-122.38602161407469,37.6161308549656],[-122.38591432571411,37.61618609521055],[-122.38585531711577,37.61626683087935],[-122.38583385944366,37.61636881265146],[-122.38587141036987,37.61646654505181],[-122.38594114780425,37.61654303118856],[-122.38605380058287,37.61660252035167],[-122.38618254661559,37.61661101879963],[-122.3863059282303,37.61657277577607],[-122.3864185810089,37.61650903735973],[-122.3864668607712,37.61641130501523],[-122.38647222518921,37.61631782178288]]]}
}
