{
  "id": 1763248601,
  "type": "Feature",
  "properties": {
    "date:cessation_lower": "1966-01-01",
    "date:cessation_upper": "1966-12-31",
    "date:inception_lower": "1966-01-01",
    "date:inception_upper": "1966-12-31",
    "edtf:cessation": "1966~",
    "edtf:inception": "1966~",
    "geom:area": 2.475047457570636e-7,
    "geom:bbox": "-122.386472,37.616105,-122.385834,37.616611",
    "geom:latitude": 37.61635747477365,
    "geom:longitude": -122.38615540108617,
    "millsfield:airline_id": [
      1159285955
    ],
    "millsfield:category_id": 1511214223,
    "millsfield:collection_id": 1511214207,
    "millsfield:company_id": [
      1159286889
    ],
    "millsfield:images": [
      1763248975
    ],
    "millsfield:images_colors_refs": {
      "crayola": [
        {
          "hex": "#414a4c"
        },
        {
          "hex": "#efcdb8"
        }
      ],
      "css4": [
        {
          "hex": "#f5deb3"
        },
        {
          "hex": "#2f4f4f"
        }
      ],
      "marekm4": [
        {
          "hex": "#e1d6b5"
        },
        {
          "hex": "#302b1a"
        }
      ]
    },
    "millsfield:images_texts": [
      "660\nReeve Aleutian Airways\nBox 559\nAnchorage, Alaska\nATTU\nANCHORAGE\nSHEMYA\nPRIBILOFS\nBering Sea\nBristol Bay\nPORT\nL HEIDEN\nAMCHITKA\nADAK\nDUTCH\nCOLD BAY\nHARBOR\n• дд.\nATKA\"\nNorth Pacific Ocean\nGulf of Alaska\nSERVING THE ALASKA PENINSULA AND THE\nALEUTIAN AND PRIBILOF ISLANDS\nDirect mail boat connections at Cold Bay and Dutch Harbor, on the Tuesday\nnearest the first and fifteenth of each month, for King Cove, Belkofski,\nUnga, Squaw Harbor, Sand Point, Perryville, Chignik, False Pass, Sanak,\nScotch Cap, Sarichef, Akutan, Kashega, Makushin, Chernofski and Nikolski.\nSCHEDULES\nANCHORAGE-ADAK-ATTU\n=-\nAM\n9. 00\nxxx***x*\n00\nRead Down\nRead Up\nAM\n(3)\nPM\nPM\nAr PORT HEIDEN\nLv PORT HEIDEN\nAr COLD BAY...\nL COLD BAY.\nHARBOR\nLy DUTCH\nHARBOR\nAr UMNAK.\nLv UMNAK\nATKA.\nLy ATKA\n(AST, AN\n(AST) Ar\n(BST) Lv\nxxxx\nxxxx*\nLv ADAK.\nAr AMCHITKA\nL AMCHITKA\nAr SHEMYA.\nSHEMYA\nAr ATTU...\nAr\nLv\nAr\n. (BST) Lv\nX§\n00\nAM\nPM\nPM\nF-Flag stop.\n(a)-1st, 10th, and 20th day of each month.\n(b)-Every Thursday from Adak except when flight continues to Attu. Then Friday.\nX-Arrival and/or Departure time variable.\n§-Flight operates when traffic demands.\nBOB REEVE\nGeneral Manager\nANCHORAGE-ST. PAUL (PRIBILOF ISLANDS)\n5t\nRead Down\nRead Up\n6t\nAM\n9 00 Lv ANCHORAGE\nXI\nxx\nAr PORT HEIDEN\n. (BST) Ar\nAr\nAr COLD BAY.\nLy COLD BAY.\nXF\nAr\nDUTCH HARBOR\nXF\nAr ST. PAUL.\nLv\n(ST) LV\nPM\nXF\nXF\nXP\nPM\nAM\n+-Operates on an irregular route basis, of approximately 4 trips a month. For further\ninformation contact Reeve direct.\nF-Flag stop.\nFlight 3 makes direct connection with mail boat \"Moby Dick\" at Cold Bay.\nThe Adak-Attu extension of Flight 1 will be re-established on a regular basis later in\nthe season\nEQUIPMENT\nDouglas DC-3's on all scheduled routes.\nGrumman Goose, Lockheed Electra and Douglas DC-3 Aircraft available for charter\nany place, any time.\nFORREST E. KELCH\nSuperintendent of Operations\nMARGARET RUTLEDGE\nOffice Manager\nOFFICIAL AIRLINE GUIDE\n198"
    ],
    "millsfield:images_texts_ids": [
      1763248975
    ],
    "millsfield:primary_image": 1763248975,
    "millsfield:subcategory_id": 1511213425,
    "mz:is_approximate": 1,
    "mz:is_current": 1,
    "sfomuseum:accession_number": "2014.084.1450",
    "sfomuseum:airline": "Reeve Aleutian Airways",
    "sfomuseum:airline_id": [
      1142
    ],
    "sfomuseum:category": "Scheduling / Ticketing",
    "sfomuseum:classification_id": 158,
    "sfomuseum:collection": "Aviation Archive",
    "sfomuseum:creditline": "Gift of Thomas G. Dragges",
    "sfomuseum:date": "c. 1966",
    "sfomuseum:date_acquired": "2015-07-02",
    "sfomuseum:daterange_end": "1971-12-31",
    "sfomuseum:daterange_start": "1961-01-01",
    "sfomuseum:description": "Timetable issued by OAG (Online Airline Guide) for routes served by Reeve Aleutian Airways, undated (c. 1966); page cut from OAG with route map and schedule information in black.",
    "sfomuseum:dimensions": "9 x 4 inches (22.9 x 10.2 cm)",
    "sfomuseum:medium": "paper, ink",
    "sfomuseum:object_id": 159065,
    "sfomuseum:placetype": "object",
    "sfomuseum:publication": ": , c. 1966.",
    "sfomuseum:subcategory": "Timetable",
    "src:geom": "sfomuseum#undetermined",
    "wof:belongsto": [
      102527513,
      1159162825,
      102191575,
      85633793,
      102087579,
      85922583,
      85688637,
      1159160869
    ],
    "wof:country": "XY",
    "wof:created": 1646987910,
    "wof:depicts": [
      1159285955,
      1159286889
    ],
    "wof:geomhash": "c281b9d9eefc83b5710e64b9d646067d",
    "wof:hierarchy": [
      {
        "building_id": -1,
        "campus_id": 102527513,
        "collection_id": 1159162825,
        "concourse_id": 1159162825,
        "continent_id": 102191575,
        "country_id": 85633793,
        "county_id": 102087579,
        "custom_id": 1763248601,
        "locality_id": 85922583,
        "neighbourhood_id": -1,
        "object_id": 1763248601,
        "region_id": 85688637,
        "wing_id": 1159160869
      }
    ],
    "wof:id": 1763248601,
    "wof:lastmodified": 1787988205,
    "wof:name": "timetable: Reeve Aleutian Airways",
    "wof:parent_id": 1159162825,
    "wof:placetype": "custom",
    "wof:placetype_alt": [
      "object"
    ],
    "wof:repo": "sfomuseum-data-collection",
    "wof:superseded_by": [],
    "wof:supersedes": []
  },
  "bbox": [
    -122.38647222518921,
    37.6161053594541,
    -122.38583385944366,
    37.61661101879963
  ],
  "geometry": {"type":"Polygon","coordinates":[[[-122.38647222518921,37.61631782178288],[-122.386434674263,37.61623283692423],[-122.38637566566466,37.61617759671399],[-122.38630056381224,37.6161308549656],[-122.38616108894348,37.6161053594541],[-122.38602161407469,37.6161308549656],[-122.38591432571411,37.61618609521055],[-122.38585531711577,37.61626683087935],[-122.38583385944366,37.61636881265146],[-122.38587141036987,37.61646654505181],[-122.38594114780425,37.61654303118856],[-122.38605380058287,37.61660252035167],[-122.38618254661559,37.61661101879963],[-122.3863059282303,37.61657277577607],[-122.3864185810089,37.61650903735973],[-122.3864668607712,37.61641130501523],[-122.38647222518921,37.61631782178288]]]}
}
