{
  "id": 1913795405,
  "type": "Feature",
  "properties": {
    "date:cessation_lower": "1933-03-15",
    "date:cessation_upper": "1933-03-15",
    "date:inception_lower": "1933-03-15",
    "date:inception_upper": "1933-03-15",
    "edtf:cessation": "1933-03-15",
    "edtf:inception": "1933-03-15",
    "geom:area": 2.475047457570636e-7,
    "geom:bbox": "-122.386472,37.616105,-122.385834,37.616611",
    "geom:latitude": 37.61635747477365,
    "geom:longitude": -122.38615540108617,
    "millsfield:airline_id": [
      1159284991,
      1159285931
    ],
    "millsfield:category_id": 1511214251,
    "millsfield:collection_id": 1511214207,
    "millsfield:company_id": [
      1159286721
    ],
    "millsfield:images": [
      1913800259,
      1913800261,
      1913800263,
      1913800265
    ],
    "millsfield:images_colors_refs": {
      "crayola": [
        {
          "hex": "#414a4c"
        },
        {
          "hex": "#9f8170"
        },
        {
          "hex": "#fae7b5"
        },
        {
          "hex": "#edd19c"
        },
        {
          "hex": "#efcdb8"
        }
      ],
      "css4": [
        {
          "hex": "#808080"
        },
        {
          "hex": "#eee8aa"
        },
        {
          "hex": "#bc8f8f"
        },
        {
          "hex": "#000000"
        },
        {
          "hex": "#2f4f4f"
        },
        {
          "hex": "#bdb76b"
        },
        {
          "hex": "#f5deb3"
        }
      ],
      "marekm4": [
        {
          "hex": "#ebdcad"
        },
        {
          "hex": "#ecdba7"
        },
        {
          "hex": "#322f20"
        },
        {
          "hex": "#3a331f"
        },
        {
          "hex": "#352e1b"
        },
        {
          "hex": "#a1976f"
        },
        {
          "hex": "#a69a70"
        },
        {
          "hex": "#a5996f"
        },
        {
          "hex": "#eedda8"
        },
        {
          "hex": "#9e9570"
        },
        {
          "hex": "#2c2919"
        },
        {
          "hex": "#eddeae"
        }
      ]
    },
    "millsfield:images_texts": [
      "33\nCATHAY\nHOTEL\nCABLE ADDRESS\nCATHOTEL*\nSHANGHAI, CHINA Word. Mch. 15\nDearest Orbs.\n9 am waiting for\ncables this A.m and while\nwaiting will get of a few\nlines to you.\nI wonder\nall the time how you\nand the kids are gong\nalong - about your healt -\nYour happies a francis.\nPossibly D'ee get some\nlattes this morning ane\nthat will help a lot.\nI bought some glassis\nover heir a fue day ago\nand they makr a by\nayfuina. Thees no us",
      "denying the fact that Din\ngetting old.\nand needrd\nstrongu lenors than in\nmy del\nglaons. The\ndoctor - who has a fine\nreputation. sad he\nnot su why I did nit\nhair a lead ache al\nthe time wark my old\nones. As a mater of fact\n3 did have very fequente.\nThat is all Change now\nand a gie a lot of\npleaant out of work and\nreading which was\nformie, quite a strain.\nI hair really near fut\nbetter - no colds or sickren\nof any kind - just feling\nvery fut and ready to\n2019.121.0606a",
      "CATHAY\nHOTEL\nCABLE ADDRESS\nCATHOTEL*\nSHANGHAI, CHINA\ntackle any job\nno matter\nhow tough\nit may be.\nI hair burn here now\njust a month. a part\nOf that time has bun\nwasted\nwaiting for the\ndeal to be clond in\nNew you but not all\nO it for Farle, ha\nanticipated the gilling\nof our regrictur\nor planned torry morr\nwith that idea in mend.\nI hop that negotiation.\nnow wree mor along",
      "rapias.\nAm encloing for your\ninformation copy of one\nof my many reports to\nN. y. Plean destroy it\nwhen you hao read it.\nHad a very intuitin\ntack wit Fun 1 tellon\na few days ago. He may\nout of a job breaun\nof the reagaation of\nmarshal chang Houch-Lisag\nTold some ving interesting\nstores of his three yars\nexpiener as prot for\nthe marshade.\nLots and lots of lour\nto you and the kid-\nHad\n121.06065"
    ],
    "millsfield:images_texts_ids": [
      1913800259,
      1913800261,
      1913800263,
      1913800265
    ],
    "millsfield:primary_image": 1913800259,
    "millsfield:subcategory_id": 1511213489,
    "mz:is_approximate": 1,
    "mz:is_current": 1,
    "sfomuseum:accession_number": "2019.121.0606 a b",
    "sfomuseum:airline": "Pan American Airways",
    "sfomuseum:airline_id": [
      685,
      1131
    ],
    "sfomuseum:category": "Employee Career History",
    "sfomuseum:classification_id": 195,
    "sfomuseum:collection": "Aviation Archive",
    "sfomuseum:creditline": "Collection of SFO Museum",
    "sfomuseum:date": "03/15/1933",
    "sfomuseum:date_acquired": "2019-11-22",
    "sfomuseum:daterange_end": "1933-03-15",
    "sfomuseum:daterange_start": "1933-03-15",
    "sfomuseum:description": "Handwritten letter from Harold M. Bixby to his wife, Debby Bixby, dated Wednesday, March 15, [1933], on stationery from the Cathay Hotel in Shanghai; mentions Perry Hutton as pilot for Marshall Chang Hsieu-Liang [Zhang Xueliang]; includes description of [William] Pawley and work around negotiations by Pan American Airways.",
    "sfomuseum:dimensions": "8 1/4 x 5 1/4 inches (21 x 13.3 cm)",
    "sfomuseum:medium": "paper, ink",
    "sfomuseum:object_id": 210881,
    "sfomuseum:placetype": "object",
    "sfomuseum:publication": ": , 03/15/1933.",
    "sfomuseum:subcategory": "Correspondence, Personal",
    "src:geom": "sfomuseum#undetermined",
    "wof:belongsto": [
      102527513,
      1159162825,
      102191575,
      85633793,
      102087579,
      85922583,
      85688637,
      1159160869
    ],
    "wof:country": "XY",
    "wof:created": 1714548783,
    "wof:depicts": [
      1159285931,
      1159286721,
      1159284991
    ],
    "wof:geomhash": "c281b9d9eefc83b5710e64b9d646067d",
    "wof:hierarchy": [
      {
        "building_id": -1,
        "campus_id": 102527513,
        "collection_id": 1159162825,
        "concourse_id": 1159162825,
        "continent_id": 102191575,
        "country_id": 85633793,
        "county_id": 102087579,
        "custom_id": 1913795405,
        "locality_id": 85922583,
        "neighbourhood_id": -1,
        "object_id": 1913795405,
        "region_id": 85688637,
        "wing_id": 1159160869
      }
    ],
    "wof:id": 1913795405,
    "wof:lastmodified": 1787988219,
    "wof:name": "correspondence: Harold M. Bixby to Debby Bixby",
    "wof:parent_id": 1159162825,
    "wof:placetype": "custom",
    "wof:placetype_alt": [
      "object"
    ],
    "wof:repo": "sfomuseum-data-collection",
    "wof:superseded_by": [],
    "wof:supersedes": []
  },
  "bbox": [
    -122.38647222518921,
    37.6161053594541,
    -122.38583385944366,
    37.61661101879963
  ],
  "geometry": {"type":"Polygon","coordinates":[[[-122.38647222518921,37.61631782178288],[-122.386434674263,37.61623283692423],[-122.38637566566466,37.61617759671399],[-122.38630056381224,37.6161308549656],[-122.38616108894348,37.6161053594541],[-122.38602161407469,37.6161308549656],[-122.38591432571411,37.61618609521055],[-122.38585531711577,37.61626683087935],[-122.38583385944366,37.61636881265146],[-122.38587141036987,37.61646654505181],[-122.38594114780425,37.61654303118856],[-122.38605380058287,37.61660252035167],[-122.38618254661559,37.61661101879963],[-122.3863059282303,37.61657277577607],[-122.3864185810089,37.61650903735973],[-122.3864668607712,37.61641130501523],[-122.38647222518921,37.61631782178288]]]}
}
