{
  "id": 1914555531,
  "type": "Feature",
  "properties": {
    "date:cessation_lower": "1980-01-01",
    "date:cessation_upper": "1989-12-31",
    "date:inception_lower": "1980-01-01",
    "date:inception_upper": "1989-12-31",
    "edtf:cessation": "198X",
    "edtf:inception": "198X",
    "geom:area": 2.475047457570636e-7,
    "geom:bbox": "-122.386472,37.616105,-122.385834,37.616611",
    "geom:latitude": 37.61635747477365,
    "geom:longitude": -122.38615540108617,
    "millsfield:aircraft_id": [
      1159290511
    ],
    "millsfield:airline_id": [
      1159284517
    ],
    "millsfield:category_id": 1762671311,
    "millsfield:collection_id": 1511214207,
    "millsfield:company_id": [
      1159294367
    ],
    "millsfield:images": [
      1914556247,
      1914556249
    ],
    "millsfield:images_colors_refs": {
      "crayola": [
        {
          "hex": "#8a795d"
        },
        {
          "hex": "#000000"
        },
        {
          "hex": "#cdc5c2"
        },
        {
          "hex": "#414a4c"
        },
        {
          "hex": "#9f8170"
        },
        {
          "hex": "#dbd7d2"
        }
      ],
      "css4": [
        {
          "hex": "#c0c0c0"
        },
        {
          "hex": "#000000"
        },
        {
          "hex": "#808080"
        },
        {
          "hex": "#dcdcdc"
        },
        {
          "hex": "#2f4f4f"
        }
      ],
      "marekm4": [
        {
          "hex": "#daded1"
        },
        {
          "hex": "#847d6d"
        },
        {
          "hex": "#c3c2b0"
        },
        {
          "hex": "#27210f"
        },
        {
          "hex": "#928b79"
        },
        {
          "hex": "#2e271e"
        }
      ]
    },
    "millsfield:images_texts": [
      "IMPERIAL AIRLINES\nEMBRAER EMB-110P1 BANDEIRANTE\nEMERGENCY PROCEDURES\n(PLEASE DO NOT REMOVE THIS CARD FROM AIRCRAFT)\nWHERE TO FIND YOUR LIFE VEST\nLife vests are located in a holder under\neach seat. Do not remove the life vest from\nthe sealed bag unless actually necessary.\nHOW TO USE YOUR LIFE VEST\nA Put on life vest over head.\nB Wrap straps around waist and tie in front.\nC AFTER YOU LEAVE AIRCRAFT, jerk gas\nrelease knobs.\nD If later the vest becomes too soft, it may\nbe inflated orally.\nWHAT TO DO IN CASE OF AN EMERGENCY LANDING\nRemain calm and follow instructions of crew. Sit well\nback in seat - pull seat belt tight - assume appropriate\nposition in illustration until plane stops. When airplane is\ncomplete stopped, unfasten seat belt and follow instruc-\nAIR STAIR DOOR (A)\n1. PRESS LOCK\n2. PULL HANDLE\n3. PUSH DOOR\n2.\nFRONT EMERGENCY EXIT (B)\nIN EMERGENCY\n1. PULL RING AND REMOVE COVER\n2. LIFT HANDLE AND PUSH DOOR\n3. PULL SAFETY LATCH RING DOWN\n2.\n1100\n3.\nEmergency\nExits\nOVERWING EMERGENCY EXITS (C)\nEMERGENCY EXIT\n1. TEAR OFF COVER\n2. PULL HANDLE\n3. PUSH DOOR\nA Fire Extinguisher\n2.",
      "PLEASE OBSERVE\n\"NO SMOKING\" SIGN\nIt is an Imperial policy to\nrequest that all passengers\nrefrain from smoking aboard\nthe aircraft. We thank you for\nyour cooperation in this matter.\nPLEASE FASTEN\nSEAT BELTS BEFORE\nTAKEOFF AND LANDING\nAt takeoff and landing, seat\nbelts should be fastened. At\nthese times, the \"Fasten Seat\nBelt\" sign will be lighted. In\nbumpy air, the sign will be\nlighted during flight. There is\nno cause for alarm but we ask\nthat you comply for a more\ncomfortable ride. When the\nsign is off, your belt may be\nreleased.\nHOW TO USE FIRE EXTINGUISHER\n1. Remove from clip.\n3. Direct nozzle to base of flame.\n2. Remove safety pin.\n4. Squeeze handle to discharge.\nDO NOT REMOVE FROM AIRPLANE\nFEDERAL LAWS REQUIRE THIS CARD BE KEPT IN THE SEAT POCKET\nFOR PASSENGER INFORMATION\n2002.127.337"
    ],
    "millsfield:images_texts_ids": [
      1914556247,
      1914556249
    ],
    "millsfield:primary_image": 1914556247,
    "millsfield:subcategory_id": 1511213703,
    "mz:is_approximate": 1,
    "mz:is_current": 1,
    "sfomuseum:accession_number": "2002.127.337",
    "sfomuseum:aircraft": "Embraer EMB-110P1 Bandeirante",
    "sfomuseum:aircraft_id": [
      531
    ],
    "sfomuseum:airline": "Imperial Airlines",
    "sfomuseum:airline_id": [
      471
    ],
    "sfomuseum:category": "Passenger Amenity, Archive",
    "sfomuseum:classification_id": 581,
    "sfomuseum:collection": "Aviation Archive",
    "sfomuseum:creditline": "Gift of Thomas G. Dragges",
    "sfomuseum:date": "1980s",
    "sfomuseum:date_acquired": "2003-12-22",
    "sfomuseum:daterange_end": "1989-12-31",
    "sfomuseum:daterange_start": "1980-01-01",
    "sfomuseum:description": "Safety information card issued by Imperial Airlines for the Embraer EMB-110P1 Bandeirante fleet; white double-sided card with illustrations depicting inflight safety and emergency procedures; no identification code; no revision date.",
    "sfomuseum:dimensions": "10 x 6 inches (25.4 x 15.2 cm)",
    "sfomuseum:medium": "paper, ink",
    "sfomuseum:object_id": 68963,
    "sfomuseum:placetype": "object",
    "sfomuseum:publication": ": , 1980s.",
    "sfomuseum:subcategory": "Safety Information Card",
    "src:geom": "sfomuseum#undetermined",
    "wof:belongsto": [
      102527513,
      1159162825,
      102191575,
      85633793,
      102087579,
      85922583,
      85688637,
      1159160869
    ],
    "wof:country": "XY",
    "wof:created": 1720459729,
    "wof:depicts": [
      1159284517,
      1159290511,
      1159294367
    ],
    "wof:geomhash": "c281b9d9eefc83b5710e64b9d646067d",
    "wof:hierarchy": [
      {
        "building_id": -1,
        "campus_id": 102527513,
        "collection_id": 1159162825,
        "concourse_id": 1159162825,
        "continent_id": 102191575,
        "country_id": 85633793,
        "county_id": 102087579,
        "custom_id": 1914555531,
        "locality_id": 85922583,
        "neighbourhood_id": -1,
        "object_id": 1914555531,
        "region_id": 85688637,
        "wing_id": 1159160869
      }
    ],
    "wof:id": 1914555531,
    "wof:lastmodified": 1787988221,
    "wof:name": "safety information card: Imperial Airlines, Embraer EMB-110P1 Bandeirante",
    "wof:parent_id": 1159162825,
    "wof:placetype": "custom",
    "wof:placetype_alt": [
      "object"
    ],
    "wof:repo": "sfomuseum-data-collection",
    "wof:superseded_by": [],
    "wof:supersedes": []
  },
  "bbox": [
    -122.38647222518921,
    37.6161053594541,
    -122.38583385944366,
    37.61661101879963
  ],
  "geometry": {"type":"Polygon","coordinates":[[[-122.38647222518921,37.61631782178288],[-122.386434674263,37.61623283692423],[-122.38637566566466,37.61617759671399],[-122.38630056381224,37.6161308549656],[-122.38616108894348,37.6161053594541],[-122.38602161407469,37.6161308549656],[-122.38591432571411,37.61618609521055],[-122.38585531711577,37.61626683087935],[-122.38583385944366,37.61636881265146],[-122.38587141036987,37.61646654505181],[-122.38594114780425,37.61654303118856],[-122.38605380058287,37.61660252035167],[-122.38618254661559,37.61661101879963],[-122.3863059282303,37.61657277577607],[-122.3864185810089,37.61650903735973],[-122.3864668607712,37.61641130501523],[-122.38647222518921,37.61631782178288]]]}
}
