{
  "id": 1913796037,
  "type": "Feature",
  "properties": {
    "date:cessation_lower": "1950-01-01",
    "date:cessation_upper": "1950-12-31",
    "date:inception_lower": "1950-01-01",
    "date:inception_upper": "1950-12-31",
    "edtf:cessation": "1950",
    "edtf:inception": "1950",
    "geom:area": 2.475047457570636e-7,
    "geom:bbox": "-122.386472,37.616105,-122.385834,37.616611",
    "geom:latitude": 37.61635747477365,
    "geom:longitude": -122.38615540108617,
    "millsfield:airline_id": [
      1159284989
    ],
    "millsfield:category_id": 1511214251,
    "millsfield:collection_id": 1511214207,
    "millsfield:company_id": [
      1159286839
    ],
    "millsfield:images": [
      1913799673,
      1913799675,
      1913799677,
      1913799679
    ],
    "millsfield:images_colors_refs": {
      "crayola": [
        {
          "hex": "#414a4c"
        },
        {
          "hex": "#9f8170"
        },
        {
          "hex": "#4a646c"
        },
        {
          "hex": "#eceabe"
        }
      ],
      "css4": [
        {
          "hex": "#808080"
        },
        {
          "hex": "#f5deb3"
        },
        {
          "hex": "#2f4f4f"
        },
        {
          "hex": "#ffe4c4"
        }
      ],
      "marekm4": [
        {
          "hex": "#ece1bf"
        },
        {
          "hex": "#eadec1"
        },
        {
          "hex": "#405c53"
        },
        {
          "hex": "#e8dbbd"
        },
        {
          "hex": "#3f5b52"
        },
        {
          "hex": "#eee3c3"
        },
        {
          "hex": "#3d5950"
        },
        {
          "hex": "#3e5f59"
        },
        {
          "hex": "#949674"
        }
      ]
    },
    "millsfield:images_texts": [
      "i not go to the\nTelegraphic Address \"Impho Tokyo\"\nPhil pumperial Hotel\nlout rather\ngo straig tokyo\nback acror\nthe\nautantic Pacific.\nSoun\nI cant gur you\nand mar sprcific\nin formation at this time\nbut wile catte guat an\nsoon ao possible - jukaps\nbfore this reach you.\nIt holth than En\ntoday and as\n2 write\nthe pruapiation is running\ndown my hand. My\nshit is ao wit as though\nDid fallen ont of a boat.\nForgat to tre y\nabor that the plan\nthe 7t is the first one",
      "elt it of tam\norbbA sirigare\n-нтрілt\nse sug Enso e\npro?\nat itt to tasts moto\nali- alison as not.\nwis aste stat Je\nstir s → and abot\npatt man cons\n2 titt\ntood a to too wat\nDut at topiot\nanalD ett titt sade\nes tout itt a #p att\nout of her fo shangher.\nAlao that th\nneed of\natting home quick, is\nы cause JiT.T. call hair\ntome work to do in\nWashington.\n2f lear\non\nSat. the gth that\nshoned put me in N.r.\nTuesday the 12*\nof course ii apule\nAnxions\nto get to shanghai\nn. I\nacks\nsince dir had any word\npom you - and thats a\nlong time. ako of\ncourse\nCuriosit, to know white\nBo's kaky was a bay or\ngire. My que, is that it",
      "a gire cess Bie in his\nTelegraphic Address \"Impho Tokyo\"\nlEx utirance wones har gurn\nImperial Hotel\nme the\nparticulars!\nTokyo\n• hair nt tria Tat\nall wirk. My time heard\nbrin entice, subgret to the\ndemando of ettra and\nso\n9 cant make an\nEngagement\nor Plan ahead\nat all. Mac Arters staff.\nwork tiny aftenson untie\n7 or 8 Pit and 2 hair\nto be subpact to cale at\nace times.\no womes like\nToday\nto had gone to\n• the brack\nwith the and his Branch our\nTokyo manyu) and gro. tax\nout fet that\nconed nt\nliar\nTate. Just learne",
      "10 NoNe 13!\n! assistep\nlsioH leineqml\noyloT\ntoT Assa in rest e\nat unit pur sero\nit a press prit?\nA ST\nno is tuss\nND 8 so S\n•Nit\nsie semo e possi\nЗил.\nthat gun. marquat will\nte in\nhis office at 3:30.\nIt now 3: 20 so Die\nkar to quit and add a\nnot latir -\nBy the way - if 9\nShored fit stuck ont here\ndont for gut when Jos're in\nNY. to\nhis office to ape, for you.\nU.S. Pass Port. An do paso\nPart wile hep stablie your\ncityin p saw gu Marguat\nHe said hid do\nall in this\ngrown to put our deal acron.\nAn now going our to see\nTat at her hate and thin to\nthe morris - tree Hit its\nTarzan at the Ernie Pyle Thiatis\nLots of look -\nN"
    ],
    "millsfield:images_texts_ids": [
      1913799673,
      1913799675,
      1913799677,
      1913799679
    ],
    "millsfield:primary_image": 1913799673,
    "millsfield:subcategory_id": 1511213489,
    "mz:is_approximate": 1,
    "mz:is_current": 1,
    "sfomuseum:accession_number": "2019.121.1160 a b",
    "sfomuseum:airline": "Pan American World Airways",
    "sfomuseum:airline_id": [
      684
    ],
    "sfomuseum:category": "Employee Career History",
    "sfomuseum:classification_id": 195,
    "sfomuseum:collection": "Aviation Archive",
    "sfomuseum:creditline": "Collection of SFO Museum",
    "sfomuseum:date": "1950",
    "sfomuseum:date_acquired": "2019-11-22",
    "sfomuseum:daterange_end": "1950-12-31",
    "sfomuseum:daterange_start": "1950-01-01",
    "sfomuseum:description": "Handwritten letter from Harold M. Bixby to his wife, Debby Bixby, undated, on stationery from the Imperial Hotel in Tokyo; original document missing page(s); includes description of business travel plans; mentions J.T.T. [Juan Trippe], Mr. and Mrs. Branch, George Fox, General Marquat.",
    "sfomuseum:dimensions": "8 1/4 x 5 inches (21 x 12.7 cm)",
    "sfomuseum:medium": "paper, ink",
    "sfomuseum:object_id": 211523,
    "sfomuseum:placetype": "object",
    "sfomuseum:publication": ": , 1950.",
    "sfomuseum:subcategory": "Correspondence, Personal",
    "src:geom": "sfomuseum#undetermined",
    "wof:belongsto": [
      102527513,
      1159162825,
      102191575,
      85633793,
      102087579,
      85922583,
      85688637,
      1159160869
    ],
    "wof:country": "XY",
    "wof:created": 1714548965,
    "wof:depicts": [
      1159284989,
      1159286839
    ],
    "wof:geomhash": "c281b9d9eefc83b5710e64b9d646067d",
    "wof:hierarchy": [
      {
        "building_id": -1,
        "campus_id": 102527513,
        "collection_id": 1159162825,
        "concourse_id": 1159162825,
        "continent_id": 102191575,
        "country_id": 85633793,
        "county_id": 102087579,
        "custom_id": 1913796037,
        "locality_id": 85922583,
        "neighbourhood_id": -1,
        "object_id": 1913796037,
        "region_id": 85688637,
        "wing_id": 1159160869
      }
    ],
    "wof:id": 1913796037,
    "wof:lastmodified": 1787988219,
    "wof:name": "correspondence: Harold M. Bixby to Debby Bixby",
    "wof:parent_id": 1159162825,
    "wof:placetype": "custom",
    "wof:placetype_alt": [
      "object"
    ],
    "wof:repo": "sfomuseum-data-collection",
    "wof:superseded_by": [],
    "wof:supersedes": []
  },
  "bbox": [
    -122.38647222518921,
    37.6161053594541,
    -122.38583385944366,
    37.61661101879963
  ],
  "geometry": {"type":"Polygon","coordinates":[[[-122.38647222518921,37.61631782178288],[-122.386434674263,37.61623283692423],[-122.38637566566466,37.61617759671399],[-122.38630056381224,37.6161308549656],[-122.38616108894348,37.6161053594541],[-122.38602161407469,37.6161308549656],[-122.38591432571411,37.61618609521055],[-122.38585531711577,37.61626683087935],[-122.38583385944366,37.61636881265146],[-122.38587141036987,37.61646654505181],[-122.38594114780425,37.61654303118856],[-122.38605380058287,37.61660252035167],[-122.38618254661559,37.61661101879963],[-122.3863059282303,37.61657277577607],[-122.3864185810089,37.61650903735973],[-122.3864668607712,37.61641130501523],[-122.38647222518921,37.61631782178288]]]}
}
