{
  "id": 1511910329,
  "type": "Feature",
  "properties": {
    "date:cessation_lower": "1935-01-01",
    "date:cessation_upper": "1935-12-31",
    "date:inception_lower": "1935-01-01",
    "date:inception_upper": "1935-12-31",
    "edtf:cessation": "1935",
    "edtf:date": "1935",
    "edtf:inception": "1935",
    "geom:area": 0,
    "geom:bbox": "-122.386155,37.616357,-122.386155,37.616357",
    "geom:latitude": 37.616357,
    "geom:longitude": -122.386155,
    "iso:country": "US",
    "millsfield:aircraft_id": [
      1159289611
    ],
    "millsfield:airline_id": [
      1159285415
    ],
    "millsfield:category_id": 1511214223,
    "millsfield:collection_id": 1511214207,
    "millsfield:company_id": [
      1159293593
    ],
    "millsfield:images": [
      1527837977,
      1527851503
    ],
    "millsfield:images_colors_refs": {
      "crayola": [
        {
          "hex": "#757575"
        },
        {
          "hex": "#ff2b2b"
        },
        {
          "hex": "#dbd7d2"
        },
        {
          "hex": "#000000"
        },
        {
          "hex": "#1a4876"
        },
        {
          "hex": "#cdc5c2"
        }
      ],
      "css4": [
        {
          "hex": "#b22222"
        },
        {
          "hex": "#ff4500"
        },
        {
          "hex": "#c0c0c0"
        },
        {
          "hex": "#d3d3d3"
        },
        {
          "hex": "#191970"
        },
        {
          "hex": "#708090"
        }
      ],
      "marekm4": [
        {
          "hex": "#0d0d47"
        },
        {
          "hex": "#dd3010"
        },
        {
          "hex": "#cd2203"
        },
        {
          "hex": "#141850"
        },
        {
          "hex": "#6c7187"
        },
        {
          "hex": "#dfd8cc"
        },
        {
          "hex": "#c6c0b9"
        },
        {
          "hex": "#6d6c8c"
        }
      ]
    },
    "millsfield:images_texts": [
      "Overnight Coast-to-Coast\nUNITED\nAIR LINES\n198020,\nFastest -\nShortest\nCOAST-TO-COAST\nBETWEEN MOST\nCITIES\nSchedules in effect AuG. 1, 1935",
      "TO ALASKA\nVICTORIA\nORIENT\nSEATTLE\nTACOMA\nPORTLAND\nVANCOUVER\nCANADA\nWENATCHEE\n• SPOKANE\nRainier\nMISSOULA\n•PASCO\n• PENDLETON\nUNITED AIR LINES\nCoast-to-Coast Overnight via the direct Mid-Continent Route\nGREAT FALLS\nHELENA\nMYUPUK.\nCrater Lake\nBUTTE\nWEST\nYELLOWSTONE\nBOISE\nTO HAWAII\nTHE ORIENT\nSAN\nFRANCISCO\nSACRAMENTO\nRENO\nELKO\nYosemite\nGen. Grant\nZion\nSeg\nBOULDER DAM\n(LAS VEGAS)\nGrand Canyon\n© SHERIDAN\nMINNEAPOLIS\nST. PAUL\nThe Dude Ranch HURONC\nGrand OCASPER Country\nSIOUX FALLS\nROCHESTER\nTeton\nSALT\nLAKE\nCHEYENNE\nSIOUX CITY Q\nOMAHA\nDES\nMOINES ONA\n(Estes)\nISLAND\nLINCOLN\nMOLINE\nRocky Mountain\n• Bryce\nDENVER\nCOLORADO\nSPRINGS\nST. JOSEPH\nKANSAS CITY\nST LOUIS\nINCHESTER\nBOSTON\nMILWAUKE!\nBAKERSFI\nSPRINGFIELO\nAS VEGAS\nPONCA CITY\nNASHVILLE\nDETROIT\nTOLEDO\nKRON\nHARRISBURGO\nCOLUMBUS C\nPITTSBURGH\nBALTIMORE\nCHARLESTON\nCINCINNATI\nO LOUISVILLE\nBRISTOLO\nGREENSBORO\nCHARLOTTE\nSPARTANSBURG\nNEWARK\nEW YORK\nPHILADELPHIA\n\"CAMDEN\nNASHINGTON\n•TO EUROPE\nLOS ANGELES.\nTO HAWAII 4\nTHE ORIENT.\nSAN DIEGO\n(EXPOSITION CITY)\nSANTA S\nALBUOUEROUI\n2 PHOENIX\nWICHITA FAL\nTULSA\nOKLAHOMA CITY\nLITTLE ROCK\nTEXARKANA\nMEMPH\nBIRMINGHAN\nBIG SPRING\nMACON C\nJMONTGOMERY\nLHARLESTON\nLAKE CHARLES\nBATON ROUGE\n• To Mexico City 1\nHOUSTO\nGAL ESTO\nST. PETERSBUR\nUNITED AIR LINES\nConnecting Lines Flying\nTwin-Engined BOEING Planes\nOther Air Lines\nONASSAU\nTo Mexico City, Central and South America\nTo Cuba, Central and South America\nWHY UNITED IS THE WORLD'S MOST POPULAR AIR LINE!\nLast year United Air Lines flew twice as many passenger - miles as any other air line in the\nworld! This year United is setting new world's air travel records, carrying more passengers\nmore miles than ever before. Now, more than ever, it's the world's most popular air line.\nWhy is United the choice of more air travellers? Satisfied passengers give these reasons:\n\"I like the comfortable altitudes at which\nUnited flies...\n\"Courteous and kindly attention from all\nemployees...\n\"My flying experience covers five years in\nmany different types of planes, but the de-\npendability of your Boeings impresses me...\n\"I have traveled extensively in Europe, Asia\nand America but never have I encountered\nbetter service than that of United Air Lines...\n\"Your stewardess service makes flying\nmuch more enjoyable and interesting..\n\"I have used United on more than 50 dif-\nferent trips, and your service has been con-\nsistently efficient, dependable and pleasant...\n\"Your pilots and equipment inspire confi-\ndence, your unexcelled experience assures it...\n\"I have been made to feel that the comfort\nand pleasure of the passenger is the one aim\nof the management...\nTHESE EXPRESSIONS OF OUR PATRONS HELP TO EXPLAIN WHY\nOLD-TIMERS USUALLY ADVISE FIRST -TIMERS: \"FLY UNITED\"\n• 2•"
    ],
    "millsfield:images_texts_ids": [
      1527837977,
      1527851503
    ],
    "millsfield:primary_image": 1527837977,
    "millsfield:subcategory_id": 1511213425,
    "mz:hierarchy_label": 1,
    "mz:is_current": 1,
    "sfomuseum:accession_number": "2000.075.013",
    "sfomuseum:aircraft": "Boeing 247",
    "sfomuseum:aircraft_id": [
      115
    ],
    "sfomuseum:airline": "United Air Lines",
    "sfomuseum:airline_id": [
      884
    ],
    "sfomuseum:category": "Scheduling / Ticketing",
    "sfomuseum:classification_id": 158,
    "sfomuseum:collection": "Aviation Archive",
    "sfomuseum:continent": "North America",
    "sfomuseum:country": "United States",
    "sfomuseum:creditline": "Collection of SFO Museum",
    "sfomuseum:date": "1935",
    "sfomuseum:date_acquired": "2000-08-22",
    "sfomuseum:daterange_end": "1935-12-31",
    "sfomuseum:daterange_start": "1935-01-01",
    "sfomuseum:description": "Timetable issued by United Air Lines, effective August 1, 1935; blue, red, and white cover with illustration of Boeing 247 in flight and text, \"Fastest - shortest between the East and most Pacific coast cities.”",
    "sfomuseum:dimensions": "9 x 4 inches (22.9 x 10.2 cm)",
    "sfomuseum:media_ids": [
      1527837977,
      1527851503
    ],
    "sfomuseum:medium": "paper, ink",
    "sfomuseum:object_id": 51567,
    "sfomuseum:placetype": "object",
    "sfomuseum:primary_media_id": 1527837977,
    "sfomuseum:publication": ": , 1935.",
    "sfomuseum:subcategory": "Timetable",
    "src:geom": "sfomuseum#undetermined",
    "wof:belongsto": [
      102191575,
      85633793,
      136253057,
      1511214223,
      102527513,
      1511213425,
      85922583,
      102087579,
      1511214277,
      1511214207,
      85688637
    ],
    "wof:breaches": [],
    "wof:country": "US",
    "wof:created": 1579906674,
    "wof:depicts": [
      1159293593,
      1159290417,
      1159285415,
      1159288779,
      1159289611
    ],
    "wof:geomhash": "30c8a918561c84bb2daa2b97fc7c5353",
    "wof:hierarchy": [
      {
        "continent_id": 102191575,
        "country_id": 85633793,
        "custom_id": 1511910329,
        "empire_id": 136253057,
        "object_id": 1511910329,
        "venue_id": 1511910329
      },
      {
        "arcade_id": 1511213425,
        "building_id": 1511214277,
        "campus_id": 102527513,
        "concourse_id": 1511214223,
        "continent_id": 102191575,
        "country_id": 85633793,
        "county_id": 102087579,
        "custom_id": 1511910329,
        "locality_id": 85922583,
        "neighbourhood_id": -1,
        "object_id": 1511910329,
        "region_id": 85688637,
        "venue_id": 1511910329,
        "wing_id": 1511214207
      }
    ],
    "wof:id": 1511910329,
    "wof:lastmodified": 1787988176,
    "wof:name": "timetable: United Air Lines",
    "wof:parent_id": 1159162825,
    "wof:placetype": "custom",
    "wof:placetype_alt": [
      "object"
    ],
    "wof:repo": "sfomuseum-data-collection",
    "wof:superseded_by": [],
    "wof:supersedes": [],
    "wof:tags": []
  },
  "bbox": [
    -122.386155,
    37.616357,
    -122.386155,
    37.616357
  ],
  "geometry": {"type":"Point","coordinates":[-122.386155,37.616357]}
}
