{
  "id": 1762693233,
  "type": "Feature",
  "properties": {
    "date:cessation_lower": "1974-03-01",
    "date:cessation_upper": "1974-03-01",
    "date:inception_lower": "1974-03-01",
    "date:inception_upper": "1974-03-01",
    "edtf:cessation": "1974-03-01",
    "edtf:inception": "1974-03-01",
    "geom:area": 2.475047457570636e-7,
    "geom:bbox": "-122.386472,37.616105,-122.385834,37.616611",
    "geom:latitude": 37.61635747477365,
    "geom:longitude": -122.38615540108617,
    "millsfield:airline_id": [
      1159285393
    ],
    "millsfield:category_id": 1511214223,
    "millsfield:collection_id": 1511214207,
    "millsfield:company_id": [
      1159287531
    ],
    "millsfield:images": [
      1762703787
    ],
    "millsfield:images_colors_refs": {
      "crayola": [
        {
          "hex": "#1a4876"
        },
        {
          "hex": "#9c2542"
        },
        {
          "hex": "#58427c"
        },
        {
          "hex": "#efdecd"
        }
      ],
      "css4": [
        {
          "hex": "#dcdcdc"
        },
        {
          "hex": "#b22222"
        },
        {
          "hex": "#483d8b"
        },
        {
          "hex": "#191970"
        }
      ],
      "marekm4": [
        {
          "hex": "#c10c09"
        },
        {
          "hex": "#546092"
        },
        {
          "hex": "#e6e1d6"
        },
        {
          "hex": "#1e2d6c"
        }
      ]
    },
    "millsfield:images_texts": [
      "New York\nTWA\nQuick-way\nTimetable\nTo Albuquerque,\nN. M.\nFrom Albuquerque,\nN. M.\nReservations: 243-8611\nNew York Reservations: 695-6000\nNewark Reservations: 643-7650\nEFFECTIVE MARCH 1, 1974\nLeave Arrive Flight No. Stops or Via\nFreq.\nL 745a\nE 745a\nL 845a\nL 945a\nE 1145a\nL 1155a\nL 1245p\nL 145p\nL 450p\n1128a\n303/381\n1128a\n381\n152p\n315\n128p\n319/183\n508p\n131/333\n508p\n87/333\n508p\n333\n609p\n337/217\n810p\n163\n830a\nE 431p\n830a J 444p\n925a L 401p\n1050a L 741p\n1220p E 734p\n1220p L 741p\n230p L 937p\n230a L 934a\n230a E 1131a\n168/384\n168/832\n170\n346\n424/368\n424/346\n354\n106/306\n106/382\nChicago\nOne-stop\nThree-stop\nChicago\nChicago\nKansas City\nTwo-stop\nChicago\nOne-stop\nChicago\nChicago\nOne-stop\nThree-stop\nChicago\nChicago\nOne-stop\nChicago\nChicago\nEx Su\nEx Su\nDaily\nExSaSu\nDaily\nDaily\nExSaSu\nEx Sa\nDaily\nDaily\nDaily\nDaily\nEx Sa\nEx Sa\nEx Sa\nDaily\nExSaSu\nEx Su\nService\n฿\nTo Amarillo, Texas E 745a\nL 845a\n134p\n381/315\n134p 315\nChicago\nTwo-stop\nEx Su\nDaily\nEX G\nFrom Amarillo,\nTexas\nReservations: 376-6326\nTIME\nEffective March 1, 1974\nSchedules Shown in Local Time\n110p E 734p\n346/368\n110p L 741р\n346\n350p L 937р\n412/484\nChicago\nTwo-stop\nKansas City\nEx Sa\nEx Sa\nEx Sa\nEX E\nSYMBOLS\nX Meal\n• Snack\n# Carry-on Luggage\nCompartments\n* Nightcoach Fares Apply\n* Movie \u0026 Music\nf Music\n• Change of Airport\n† Arrival One Day Later\n‡ Arrival Two Days Later"
    ],
    "millsfield:images_texts_ids": [
      1762703787
    ],
    "millsfield:primary_image": 1762703787,
    "millsfield:subcategory_id": 1511213425,
    "mz:is_current": 1,
    "sfomuseum:accession_number": "2016.070.037",
    "sfomuseum:airline": "TWA (Trans World Airlines)",
    "sfomuseum:airline_id": [
      874
    ],
    "sfomuseum:category": "Scheduling / Ticketing",
    "sfomuseum:classification_id": 158,
    "sfomuseum:collection": "Aviation Archive",
    "sfomuseum:creditline": "Gift of Reneé Schaukowitch",
    "sfomuseum:date": "03/01/1974",
    "sfomuseum:date_acquired": "2016-06-27",
    "sfomuseum:daterange_end": "1974-03-01",
    "sfomuseum:daterange_start": "1974-03-01",
    "sfomuseum:description": "Quick-way timetable issued by TWA (Trans World Airlines) for service to and from New York, effective March 1, 1974; multipage booklet; white and red cover.",
    "sfomuseum:dimensions": "8 3/4 x 4 inches (22.2 x 10.2 cm)",
    "sfomuseum:medium": "paper, ink",
    "sfomuseum:object_id": 179616,
    "sfomuseum:placetype": "object",
    "sfomuseum:publication": ": , 1974.",
    "sfomuseum:subcategory": "Timetable",
    "src:geom": "sfomuseum#undetermined",
    "wof:belongsto": [
      102527513,
      1159162825,
      102191575,
      85633793,
      102087579,
      85922583,
      85688637,
      1159160869
    ],
    "wof:country": "XY",
    "wof:created": 1641343911,
    "wof:depicts": [
      1159285393,
      1159287531
    ],
    "wof:geomhash": "c281b9d9eefc83b5710e64b9d646067d",
    "wof:hierarchy": [
      {
        "building_id": -1,
        "campus_id": 102527513,
        "collection_id": 1159162825,
        "concourse_id": 1159162825,
        "continent_id": 102191575,
        "country_id": 85633793,
        "county_id": 102087579,
        "custom_id": 1762693233,
        "locality_id": 85922583,
        "neighbourhood_id": -1,
        "object_id": 1762693233,
        "region_id": 85688637,
        "wing_id": 1159160869
      }
    ],
    "wof:id": 1762693233,
    "wof:lastmodified": 1787988198,
    "wof:name": "timetable: TWA (Trans World Airlines), New York",
    "wof:parent_id": 1159162825,
    "wof:placetype": "custom",
    "wof:placetype_alt": [
      "object"
    ],
    "wof:repo": "sfomuseum-data-collection",
    "wof:superseded_by": [],
    "wof:supersedes": []
  },
  "bbox": [
    -122.38647222518921,
    37.6161053594541,
    -122.38583385944366,
    37.61661101879963
  ],
  "geometry": {"type":"Polygon","coordinates":[[[-122.38647222518921,37.61631782178288],[-122.386434674263,37.61623283692423],[-122.38637566566466,37.61617759671399],[-122.38630056381224,37.6161308549656],[-122.38616108894348,37.6161053594541],[-122.38602161407469,37.6161308549656],[-122.38591432571411,37.61618609521055],[-122.38585531711577,37.61626683087935],[-122.38583385944366,37.61636881265146],[-122.38587141036987,37.61646654505181],[-122.38594114780425,37.61654303118856],[-122.38605380058287,37.61660252035167],[-122.38618254661559,37.61661101879963],[-122.3863059282303,37.61657277577607],[-122.3864185810089,37.61650903735973],[-122.3864668607712,37.61641130501523],[-122.38647222518921,37.61631782178288]]]}
}
