{
  "id": 1511938941,
  "type": "Feature",
  "properties": {
    "date:cessation_lower": "1989-01-01",
    "date:cessation_upper": "1989-12-31",
    "date:inception_lower": "1989-01-01",
    "date:inception_upper": "1989-12-31",
    "edtf:cessation": "1989",
    "edtf:date": "1989",
    "edtf:inception": "1989",
    "geom:area": 0,
    "geom:bbox": "-122.386155,37.616357,-122.386155,37.616357",
    "geom:latitude": 37.616357,
    "geom:longitude": -122.386155,
    "iso:country": "XX",
    "millsfield:airline_id": [
      1159283849,
      1159283855
    ],
    "millsfield:category_id": 1511214223,
    "millsfield:collection_id": 1511214207,
    "millsfield:company_id": [
      1159294163
    ],
    "millsfield:images": [
      1527836843
    ],
    "millsfield:images_colors_refs": {
      "crayola": [
        {
          "hex": "#dbd7d2"
        },
        {
          "hex": "#414a4c"
        }
      ],
      "css4": [
        {
          "hex": "#191970"
        },
        {
          "hex": "#dcdcdc"
        }
      ],
      "marekm4": [
        {
          "hex": "#dee2d1"
        },
        {
          "hex": "#172040"
        }
      ]
    },
    "millsfield:images_texts": [
      "American\nAirlines\nQuick Reference Timetable\nEffective May 1, 1989\nSAN FRANCISCO\nOAKLAND\nSAN JOSE\nIncluding\nAmerican fagle\nFor Local Passenger, Reservation and Freight numbers, Ticket Offices and Airports see Back Cover.\nFreq.\nLeave\nArrive\nFlight\nStops Meal\nFreq.\nLeave\nArrive\nFlight\nStops Meal\nFreq.\nFlight\nStops Meal\nTo ALEXANDRIA, LA (ESF) Y\nX67\nSAN FRANCISCO\n(SFO)\nTo ABERDEEN,U.K. (ABZ)\n11:00a\n1:20p 2736/DA134 C M\nFrom ABERDEEN,U.K.\nX7\n01-629-8817\n6:50a\n5:47p DA83/2737 C M\nTo ABILENE, TX (ABI) *\n6:45a\n8:00a\n1:50p\n116/3512 C M\n9:40a\n3:30p\n70/3516\nC M\n5:00p\n986/3518 C M\n11:00a\n1:30p\n7:30p\n1300/3524 C M\n9:10p\n12:30a\n9:15a\n404/3528 C M\n1146/3504 C\nS\nFrom ABILENE, TX Y\n6:35a\n7:35a\n10:03a\n800-433-7300\n3503/203 C M\n11:29a\n3505/125 C M\n9:05a\n12:54p\n2:15p\n4:30p\n5:47p\n3509/315 C M\n3517/71\nC S\n6:05p\n8:24p\n3523/389 C M\n11:32p 3527/37 C S\nTo ACAPULCO (ACA)\nFlt 169 Disct MAY 22\n9:40a\n7:05p 986/95\nC M\nFrom ACAPULCO\nFlt 170 Disct MAY 22\n4-12-44\n8:26a\n5:47p 96/71\n3:10p\n11:32p 150/37\nTo AKRON/CANTON (CAK)\n6:05a\n10:05a\n3:40p\nC M\n1:06p\n7:36p\n62/900\n876/848\nC M\n10:39p\n564/800\nC M\nFrom AKRON/\n800-433-7300\nCANTON\n7:20a\n11:45a\n5:080\n8:32p\n9:23p\n12:03a\nTo ALBANY, NY (ALB)\n6:05a\n4:15p\nC M\n8:37a\n10:05a\n6:56p\n62/1276\n42/304\nC M\n9:07p\n876/432\nC M\n1:06p\n11:41p\n11:29p\n10:08a\n564/1128 C M\n262\n1 M\nFrom ALBANY, NY\n6:20a\n11:16a\n800-433-7300\n4990/59\nC M\n7:00a\n12:46p\n11:45a\n477/239\nC M\n5:25p\n2:550\n269/575\n4:32p\n9:05p\n4894/65\nC M\nC M\n9:23p\nC M\n5:550\n7:44p\n11:59p\n1271/41\n4896/15\n12:03a\n153/457\nS\n6:45a\n11:00a\n2:25p\n116/3550 C M\n6:40p\n1300/3557 C M\nC M\nC S\nX67\n1:30p\n404/3556 C M\n12:30a\n9:20p\n9:55a\n1146/3544 C\nFrom ALEXANDRIA. LA Y 800-433-7300\n7:00a\n11:29a\n3543/125 C M\n10:30a\n5:47p\n3549/71\nC S\n4:00p\n8:24p\n3555/389 C M\nX67\n7:15p\n11:32p\n3558/37\nC S\nTo ALGIERS (ALG)\n8:37a\n12:15p\n42/AF2323 C M\nFrom ALGIERS\n10: 15a\n9:23p\nAF2322/41 C M\nTo AMARILLO (AMA)\n9:40a\n11:00a\n5:12p\n7:49p\n986/831\nC M\n1300/413 C M\n= 0s\n1:30p\n12:30a\n11:07p\n404/573\nC M\n12:06p\n1146/929 C\nFrom AMARILLO\n800-433-7300\nM\n6:36a\n10:03a\n1254/203 C M\n12:51p\n5:47p 972/71\nC S\n6:00p\n11:32p\n1074/37\nC S\n00\nTo AMSTERDAM (AMS)\n11:00a\n12:40p 2736/BA448 C M\nFrom AMSTERDAM\nX7\n020.648686\n8:20a\n5:47p BA445/2737 C M\nC M\nC M\nTo ANTIGUA.W.I. (ANU)\n10:15p\n3:16p\n18/667\nFrom ANTIGUA, W.I.\nC M\n462-0950\nConsult American Or Your Travel Agent\nTo ARUBA (AUA)\n10:15p\n2:11p 18/679\nC M\nFrom ARUBA\n22700\n1225/239 C M\n855/41\nC M\n119/457\nC S\nConsult American Or Your Travel Agent\nTo ATLANTA (ATL)\n6:45a\n3:54D\n116/504\nC M\n8:00a\n8:37a\n5:44p\n70/482\nC M\n6:50p\n42/434\nC M\n11:00a\n1:30p\n8:20p\n1300/222 C M\n4:50p\n10:57p\n404/496\nC M\n1:59a\n264/1438 C M\n12:30a\n9:5 1a\n1146/864 C M\nFrom ATLANTA\n800-433-7300\n7:35a\n9:05a\n11:29a\n845/125\nC M\n9:40a\n12:54p\n685/315\nC M\n1:11p\n2:05p\n887/117\nC M\n5:25p\n1155/575 C S\n2:00p\n5:47p\n237/71\nC S\nX6\n4:39p\n8:24p\n215/389\nC M\n4:520\n9:23p 871/41\nC M\nLeave\nArrive\nFrom ATLANTA (Cont'd)\n7:30p\n11:32p 313/37\n8:00p\n12:03a 595/457\nTo AUSTIN (AUS)\n6:45a\n8:00a\n1:52p\n116/806\nC M\n3:37p\n9:40a\n4:56p\n70/424\n986/867\nC M\n11:00a\n7:24p\nM\n1300/385 C M\n1:30p\n9:04p\n404/1110 C M\n12:30a\n7:5 1a\n1146/110 C\nFrom AUSTIN\n800-433-7300\n6:40a\n10:03a\n1322/203 C M\n7:50a\n11:29a\n9:20a\n227/125\nC M\n12:53p\n12:54p\n629/315\nC M\n3:25p\n5:47p\n960/71\n6:48p\n216/1119 C\n4:44p\n8:24p\n123/389\n8:09p\n11:32p\n573/37\nTo BALTIMORE (BWI)\n6:05a\n4:09p\n62/1024\n8:00a\n6:28p\n70/600\n8:37a\n11:00a\n6:53p\n9:19p\n42/698\n1300/268 C\n1:06p\n1:30p\n11:16p\n12:30a\n11:58p\n564/330\n404/376\n12:27p\n1146/314 C M\nFrom BALTIMORE\n800-433-7300\n7:09a\n11:45a 319/239\nC M\n8:00a\n12:54p\n9:40a\n2:05p\n189/315\nC M\n1115/117 C M\n1:00p\n459/71\n3:200\nC M\n1429/389 C M\n4:54p\n1495/41\nC M\n6:45p\n7:45p\n11:32p\n12:03a\n115/37\nC M\n1453/457 C\nTo BASEL/MULHOUSE (BSL)\nX6\n8:00a\n10:20a\n70/LX563 C M\nFrom BASEL/\n1.221.31.10\nMULHOUSE\nX7\n7:20a\n5:47p LX562/71 C M\nTo BATON ROUGE (BTR)\n8:00a\n1:30p\n3:46p\n70/536\nC M\n12:30a\n9:15p\n404/1364 C M\n10:35a\n1146/1192 C\nFrom BATON ROUGE\n7:32a\n800-433-7300\n1:450\n11:29a 900/125\n5:470\nC M\n947/71\nC S\n1:45p\n7:050\n947\n2\n4:31p\n8:24p 476/389\nM\nTo BEAUMONT/PT ARTHUR (BPT) Y\n9:40a\n11:00a\n5:15p\n986/3807 C M\n1:30p\n7:55p\n1300/3849 C M\n9:20D 404/3823 C M"
    ],
    "millsfield:images_texts_ids": [
      1527836843
    ],
    "millsfield:primary_image": 1527836843,
    "millsfield:subcategory_id": 1511213425,
    "mz:hierarchy_label": 1,
    "mz:is_current": 1,
    "sfomuseum:accession_number": "2003.105.025.011",
    "sfomuseum:airline": "American Airlines",
    "sfomuseum:airline_id": [
      169,
      172
    ],
    "sfomuseum:category": "Scheduling / Ticketing",
    "sfomuseum:classification_id": 158,
    "sfomuseum:collection": "Aviation Archive",
    "sfomuseum:creditline": "Gift of Craig Lynes",
    "sfomuseum:date": "1989",
    "sfomuseum:date_acquired": "2003-12-29",
    "sfomuseum:daterange_end": "1989-12-31",
    "sfomuseum:daterange_start": "1989-01-01",
    "sfomuseum:description": "Quick reference timetable issued by American Airlines for service to and from San Francisco, Oakland, and San Jose, effective May 1, 1989; 20-page schedule; white cover with schedule information; includes American Eagle.",
    "sfomuseum:dimensions": "9 x 4 inches (22.9 x 10.2 cm)",
    "sfomuseum:media_ids": [
      1527836843
    ],
    "sfomuseum:medium": "paper, ink",
    "sfomuseum:object_id": 100022,
    "sfomuseum:placetype": "object",
    "sfomuseum:primary_media_id": 1527836843,
    "sfomuseum:publication": ": , 1989.",
    "sfomuseum:subcategory": "Timetable",
    "src:geom": "sfomuseum#undetermined",
    "wof:belongsto": [
      1511214223,
      102527513,
      102191575,
      85633793,
      1511213425,
      85922583,
      102087579,
      1511214277,
      1511214207,
      85688637
    ],
    "wof:breaches": [],
    "wof:country": "XX",
    "wof:created": 1579906670,
    "wof:depicts": [
      85921881,
      85688637,
      1159294163,
      85633793,
      1159283849,
      1159283855
    ],
    "wof:geomhash": "30c8a918561c84bb2daa2b97fc7c5353",
    "wof:hierarchy": [
      {
        "arcade_id": 1511213425,
        "building_id": 1511214277,
        "campus_id": 102527513,
        "concourse_id": 1511214223,
        "continent_id": 102191575,
        "country_id": 85633793,
        "county_id": 102087579,
        "custom_id": 1511938941,
        "locality_id": 85922583,
        "neighbourhood_id": -1,
        "object_id": 1511938941,
        "region_id": 85688637,
        "venue_id": 1511938941,
        "wing_id": 1511214207
      }
    ],
    "wof:id": 1511938941,
    "wof:lastmodified": 1787988184,
    "wof:name": "timetable: American Airlines, quick reference, San Francisco / Oakland / San Jose",
    "wof:parent_id": 1159162825,
    "wof:placetype": "custom",
    "wof:placetype_alt": [
      "object"
    ],
    "wof:repo": "sfomuseum-data-collection",
    "wof:superseded_by": [],
    "wof:supersedes": [],
    "wof:tags": []
  },
  "bbox": [
    -122.386155,
    37.616357,
    -122.386155,
    37.616357
  ],
  "geometry": {"type":"Point","coordinates":[-122.386155,37.616357]}
}
