{
  "id": 1913795635,
  "type": "Feature",
  "properties": {
    "date:cessation_lower": "1946-10-31",
    "date:cessation_upper": "1946-10-31",
    "date:inception_lower": "1946-10-31",
    "date:inception_upper": "1946-10-31",
    "edtf:cessation": "1946-10-31",
    "edtf:inception": "1946-10-31",
    "geom:area": 2.475047457570636e-7,
    "geom:bbox": "-122.386472,37.616105,-122.385834,37.616611",
    "geom:latitude": 37.61635747477365,
    "geom:longitude": -122.38615540108617,
    "millsfield:airline_id": [
      1159284991
    ],
    "millsfield:category_id": 1511214251,
    "millsfield:collection_id": 1511214207,
    "millsfield:company_id": [
      1159286839
    ],
    "millsfield:images": [
      1913799309,
      1913799311
    ],
    "millsfield:images_colors_refs": {
      "crayola": [
        {
          "hex": "#f8d568"
        },
        {
          "hex": "#414a4c"
        },
        {
          "hex": "#ffffff"
        }
      ],
      "css4": [
        {
          "hex": "#deb887"
        },
        {
          "hex": "#f5f5f5"
        },
        {
          "hex": "#2f4f4f"
        }
      ],
      "marekm4": [
        {
          "hex": "#e0ca63"
        },
        {
          "hex": "#f5f4f1"
        },
        {
          "hex": "#30404b"
        },
        {
          "hex": "#dfc869"
        },
        {
          "hex": "#314356"
        },
        {
          "hex": "#f6f5f1"
        }
      ]
    },
    "millsfield:images_texts": [
      "Thurs. Oct 31\npale\nDearest Debs\nI cut one of the\nmany partes tonight in\norder to hair a fu minates to myrif and\na chaner to will to gon, Days and night\nmuch like firmada.\nis har had no maid from home but o\nhops that some of pig lets hair reachss you\nvia BoAC. to London.\nDid 9 till ya aboat\nthe me Cundle party picnic to dakkahara? r\ndroor south akont 20 mil through the old\nCity of memphis and ost onto the deart.\nHad lunch at the abandond house of the\nExploss who uncored the arcunt ruens think.\nMonday us had a day off. I prayse foeff\nin the shaddow of the Pytamido - had a\nsurm at the hena Hout pare and wint\nshopping in a natur baggage dirty - most\nunattractor - and priers ugh for medisers\nstuff.\nSince then its been meetings, meetings\nmeetings, Most delegates hair fad \"gypis tummis\"\nbut Sir Encaps that and fire fine.\nIs polan to lear here shonday on\nFellowry schedule - Monday Nov. 4 Damarcus\n541 Ankara 64 Ankara - Damascus - Luxor 7#\nLuxor - Khartoum 8 Khartoum - Nairobi 9 Narobi\nto a point in route fosaunrobuz..\nand 10k\non to Johannesting.\nOur muting their begin\non the\n12t and shoned Ir over not later\nthan the 14th so wor plan to leair this\non the 15th for Leopol see aveng there",
      "on the 157 l Of the Atlantic Dir. is on\nschedule ur\nleir LEo at 11 G.m on\nthe 164 arrwin\nfuardia at 11 a.m\nпоб. 18+. 2\nschedule works ont\nur shoned he on\nat\nthe and of the uk.\nI hair thought of you constant and\nwaded how you cleaned up all the odds\nand inds of the wedding timenee\nPhyseca. tor hair had no news fron\nhome\nExcept a fri head lines like Trumans later.\nbin Sand which Of cours ha. Causd plent\ntrouble out her. In fact in har trin told\nnot to go one or the\nhate on Saturday for\nthat is the fust day of Ramadan - The\nArat lent whenote nature fut ale hopped\nsp with religions fervor and than an of\nseason on unbeers.\nSo Gie clabrade om\nDibs do take care or yanssey. Lif\nwait and can he we in wait linge\n20 years mors op\nthe happenin which we had had Eir\nsoner ig14. D'ee promiss to take mo\nChances and dest the rest of my lif\nto yon. Lots and lots of lour to\nand Kit -\nyou\nyom our -\nBir\n2017121,1097"
    ],
    "millsfield:images_texts_ids": [
      1913799309,
      1913799311
    ],
    "millsfield:primary_image": 1913799309,
    "millsfield:subcategory_id": 1511213489,
    "mz:is_approximate": 1,
    "mz:is_current": 1,
    "sfomuseum:accession_number": "2019.121.1099",
    "sfomuseum:airline": "Pan American Airways",
    "sfomuseum:airline_id": [
      685
    ],
    "sfomuseum:category": "Employee Career History",
    "sfomuseum:classification_id": 195,
    "sfomuseum:collection": "Aviation Archive",
    "sfomuseum:creditline": "Collection of SFO Museum",
    "sfomuseum:date": "10/31/1946",
    "sfomuseum:date_acquired": "2019-11-22",
    "sfomuseum:daterange_end": "1946-10-31",
    "sfomuseum:daterange_start": "1946-10-31",
    "sfomuseum:description": "Handwritten letter from Harold M. Bixby to his wife, Debby Bixby, dated October 31, [1946]; includes description of travel plans to Johannesburg, Leopoldville, and New York.",
    "sfomuseum:dimensions": "12 1/2 x 8 inches (31.8 x 20.3 cm)",
    "sfomuseum:medium": "paper, ink",
    "sfomuseum:object_id": 211462,
    "sfomuseum:placetype": "object",
    "sfomuseum:publication": ": , 10/31/1946.",
    "sfomuseum:subcategory": "Correspondence, Personal",
    "src:geom": "sfomuseum#undetermined",
    "wof:belongsto": [
      102527513,
      1159162825,
      102191575,
      85633793,
      102087579,
      85922583,
      85688637,
      1159160869
    ],
    "wof:country": "XY",
    "wof:created": 1714548850,
    "wof:depicts": [
      1159284991,
      1159286839
    ],
    "wof:geomhash": "c281b9d9eefc83b5710e64b9d646067d",
    "wof:hierarchy": [
      {
        "building_id": -1,
        "campus_id": 102527513,
        "collection_id": 1159162825,
        "concourse_id": 1159162825,
        "continent_id": 102191575,
        "country_id": 85633793,
        "county_id": 102087579,
        "custom_id": 1913795635,
        "locality_id": 85922583,
        "neighbourhood_id": -1,
        "object_id": 1913795635,
        "region_id": 85688637,
        "wing_id": 1159160869
      }
    ],
    "wof:id": 1913795635,
    "wof:lastmodified": 1787988219,
    "wof:name": "correspondence: Harold M. Bixby to Debby Bixby",
    "wof:parent_id": 1159162825,
    "wof:placetype": "custom",
    "wof:placetype_alt": [
      "object"
    ],
    "wof:repo": "sfomuseum-data-collection",
    "wof:superseded_by": [],
    "wof:supersedes": []
  },
  "bbox": [
    -122.38647222518921,
    37.6161053594541,
    -122.38583385944366,
    37.61661101879963
  ],
  "geometry": {"type":"Polygon","coordinates":[[[-122.38647222518921,37.61631782178288],[-122.386434674263,37.61623283692423],[-122.38637566566466,37.61617759671399],[-122.38630056381224,37.6161308549656],[-122.38616108894348,37.6161053594541],[-122.38602161407469,37.6161308549656],[-122.38591432571411,37.61618609521055],[-122.38585531711577,37.61626683087935],[-122.38583385944366,37.61636881265146],[-122.38587141036987,37.61646654505181],[-122.38594114780425,37.61654303118856],[-122.38605380058287,37.61660252035167],[-122.38618254661559,37.61661101879963],[-122.3863059282303,37.61657277577607],[-122.3864185810089,37.61650903735973],[-122.3864668607712,37.61641130501523],[-122.38647222518921,37.61631782178288]]]}
}
