{
  "id": 1511927625,
  "type": "Feature",
  "properties": {
    "date:cessation_lower": "2000-01-01",
    "date:cessation_upper": "2009-12-31",
    "date:inception_lower": "2000-01-01",
    "date:inception_upper": "2009-12-31",
    "edtf:cessation": "200X",
    "edtf:date": "200x",
    "edtf:inception": "200X",
    "geom:area": 0,
    "geom:bbox": "-122.386155,37.616357,-122.386155,37.616357",
    "geom:latitude": 37.616357,
    "geom:longitude": -122.386155,
    "iso:country": "XX",
    "millsfield:airline_id": [
      1159284127
    ],
    "millsfield:category_id": 1762671311,
    "millsfield:collection_id": 1511214207,
    "millsfield:company_id": [
      1159286837
    ],
    "millsfield:images": [
      1527843767,
      1527843769
    ],
    "millsfield:images_colors_refs": {
      "crayola": [
        {
          "hex": "#ffffff"
        },
        {
          "hex": "#000000"
        },
        {
          "hex": "#9c2542"
        },
        {
          "hex": "#414a4c"
        },
        {
          "hex": "#fddde6"
        }
      ],
      "css4": [
        {
          "hex": "#f5f5f5"
        },
        {
          "hex": "#2f4f4f"
        },
        {
          "hex": "#8b0000"
        },
        {
          "hex": "#000000"
        },
        {
          "hex": "#faf0e6"
        }
      ],
      "marekm4": [
        {
          "hex": "#f1f3f1"
        },
        {
          "hex": "#403d32"
        },
        {
          "hex": "#edebe9"
        },
        {
          "hex": "#9d0501"
        },
        {
          "hex": "#130101"
        }
      ]
    },
    "millsfield:images_texts": [
      "Menu\nBUSINESS CLASS",
      "Hong Kong - San Francisco\nSupper\nSalad\nSelected Seasonal Salad\nServed with Italian Dressing\nMain Courses\nGrilled Beef Tenderloin with Tomato and Pesto Sauce\nSteamed Prawn and Fish with Spring Onion and Fresh Ginger Sauce\nItalian Antipasto Cold Plate\nProsciutto Ham, Grilled Peppers, Mozzarella,\nChicken Breast, Salami and Artichoke Heart\nAccompaniments\nFondant Potatoes, Steamed Rice, Fresh Seasonal Vegetables,\nStir-fried Carrot, Celery and Shiitake Mushroom\nCheese Selection with Crackers\nFruit and Ice Cream\nSelected Fresh Seasonal Fruit\nor\nMÖVENPİCK Ice Cream\nBread Selection\nGarlic Bread, Focaccia Bread, Onion Pinwheel Bread or Sour Dough Roll\nServed with Butter\nTea - Coffee\nTeas - Ceylon, Camomile, Earl Grey,\nJasmine, Japanese, Peppermint\nDecaffeinated Coffee\nESPRESSO. - Regular or Decaffeinated Espresso, Cappuccino and Caffè Latte\nPralines\nWe apologize if, due to previous passenger selection, your choice is not available.\nRegular coffee and artificial sweetener are available on request.\nCX872-4234 | DEC\nRefreshment\nYour choice of:\nWholewheat Roll with Smoked Chicken and Sun-dried Tomato\nPizza filled with Mozzarella, Tuna, Tomato and Olives\nChicken-flavoured Instant Noodles\nMOVENPİCK Ice Cream\nLight Meal\nJuices\nFresh Orange Juice or Mango Juice\nAppetizer\nFresh Seasonal Fruit\nMain Courses\nOmelette with Creamed Vegetables\nMini Glutinous Rice in Lotus Leaf with Assorted Chinese Dim Sum\nServed with Chilli Sauce\nChicken and Black Mushroom Congee\nAccompanied by Spring Onion Pancake\nAccompaniments\nNürnberger Sausage and Käsekrainer Sausage,\nHashed Brown Potato, Broiled Tomato with Herb, Button Mushrooms\nBread Selection\nCroissant, Banana Muffin or Wholemeal Roll\nServed with Preserves and Butter\nTea - Coffee\nTeas - Ceylon, Camomile, Earl Grey,\nJasmine, Japanese, Peppermint\nDecaffeinated Coffee\nNESPRESSO. - Regular or Decaffeinated Espresso, Cappuccino and Caffè Latte\nWe apologize if, due to previous passenger selection, your choice is not available.\nRegular coffee and artificial sweetener are available on request.\nCX872-4226/4235 | DEC\nHong Kong - San Francisco"
    ],
    "millsfield:images_texts_ids": [
      1527843767,
      1527843769
    ],
    "millsfield:primary_image": 1527843767,
    "millsfield:subcategory_id": 1511213567,
    "mz:hierarchy_label": 1,
    "mz:is_current": 1,
    "sfomuseum:accession_number": "2006.034.068",
    "sfomuseum:airline": "Cathay Pacific Airways",
    "sfomuseum:airline_id": [
      295
    ],
    "sfomuseum:category": "Passenger Amenity, Archive",
    "sfomuseum:classification_id": 242,
    "sfomuseum:collection": "Aviation Archive",
    "sfomuseum:creditline": "Gift of Adan Wong",
    "sfomuseum:date": "2000s",
    "sfomuseum:date_acquired": "2007-04-06",
    "sfomuseum:daterange_end": "2009-12-31",
    "sfomuseum:daterange_start": "2000-01-01",
    "sfomuseum:description": "Menu and wine list issued by Cathay Pacific Airways, Hong Kong - San Francisco route; black cover with color photographic image of chili peppers; dinner and light meal menu items include grilled beef, steamed prawn and fish, chicken congee; menu number: CX872-4226/4235 J DEC; class: business; undated.",
    "sfomuseum:dimensions": "10 x 6 1/2 inches (25.4 x 16.5 cm)",
    "sfomuseum:media_ids": [
      1527843767,
      1527843769
    ],
    "sfomuseum:medium": "paper, ink, string",
    "sfomuseum:object_id": 80487,
    "sfomuseum:placetype": "object",
    "sfomuseum:primary_media_id": 1527843767,
    "sfomuseum:publication": ": , 2000s.",
    "sfomuseum:subcategory": "Menu",
    "src:geom": "sfomuseum#undetermined",
    "wof:belongsto": [
      1159162825,
      102527513,
      102191575,
      85633793,
      85922583,
      102087579,
      1159160869,
      85688637
    ],
    "wof:breaches": [],
    "wof:country": "XX",
    "wof:created": 1579906658,
    "wof:depicts": [
      1159284127,
      1159286837
    ],
    "wof:geomhash": "30c8a918561c84bb2daa2b97fc7c5353",
    "wof:hierarchy": [
      {
        "building_id": -1,
        "campus_id": 102527513,
        "concourse_id": 1159162825,
        "continent_id": 102191575,
        "country_id": 85633793,
        "county_id": 102087579,
        "custom_id": 1511927625,
        "locality_id": 85922583,
        "neighbourhood_id": -1,
        "object_id": 1511927625,
        "region_id": 85688637,
        "venue_id": 1511927625,
        "wing_id": 1159160869
      }
    ],
    "wof:id": 1511927625,
    "wof:lastmodified": 1787988179,
    "wof:name": "menu: Cathay Pacific Airways, Business Class",
    "wof:parent_id": 1159162825,
    "wof:placetype": "custom",
    "wof:placetype_alt": [
      "object"
    ],
    "wof:repo": "sfomuseum-data-collection",
    "wof:superseded_by": [],
    "wof:supersedes": [],
    "wof:tags": []
  },
  "bbox": [
    -122.386155,
    37.616357,
    -122.386155,
    37.616357
  ],
  "geometry": {"type":"Point","coordinates":[-122.386155,37.616357]}
}
