{
  "id": 1511919619,
  "type": "Feature",
  "properties": {
    "date:cessation_lower": "1955-01-01",
    "date:cessation_upper": "1955-12-31",
    "date:inception_lower": "1955-01-01",
    "date:inception_upper": "1955-12-31",
    "edtf:cessation": "1955",
    "edtf:date": "1955",
    "edtf:inception": "1955",
    "geom:area": 0,
    "geom:bbox": "-122.386155,37.616357,-122.386155,37.616357",
    "geom:latitude": 37.616357,
    "geom:longitude": -122.386155,
    "iso:country": "US",
    "millsfield:airline_id": [
      1159284907
    ],
    "millsfield:category_id": 1763416397,
    "millsfield:collection_id": 1511214207,
    "millsfield:company_id": [],
    "millsfield:exhibition_ids": [
      1159160123
    ],
    "millsfield:images": [
      1527818321,
      1527848453,
      1527858709,
      1527858713
    ],
    "millsfield:images_colors_refs": {
      "crayola": [
        {
          "hex": "#714b23"
        },
        {
          "hex": "#dbd7d2"
        },
        {
          "hex": "#2b6cc4"
        },
        {
          "hex": "#414a4c"
        },
        {
          "hex": "#d68a59"
        },
        {
          "hex": "#efcdb8"
        },
        {
          "hex": "#c46210"
        },
        {
          "hex": "#757575"
        },
        {
          "hex": "#8fd400"
        },
        {
          "hex": "#efdecd"
        },
        {
          "hex": "#bab86c"
        },
        {
          "hex": "#cdc5c2"
        }
      ],
      "css4": [
        {
          "hex": "#556b2f"
        },
        {
          "hex": "#4682b4"
        },
        {
          "hex": "#f5deb3"
        },
        {
          "hex": "#ff4500"
        },
        {
          "hex": "#daa520"
        },
        {
          "hex": "#708090"
        },
        {
          "hex": "#b22222"
        },
        {
          "hex": "#c0c0c0"
        },
        {
          "hex": "#bdb76b"
        },
        {
          "hex": "#dcdcdc"
        },
        {
          "hex": "#2f4f4f"
        },
        {
          "hex": "#a0522d"
        },
        {
          "hex": "#800000"
        }
      ],
      "marekm4": [
        {
          "hex": "#d1a15f"
        },
        {
          "hex": "#463c31"
        },
        {
          "hex": "#e4e2d9"
        },
        {
          "hex": "#49180a"
        },
        {
          "hex": "#c6b515"
        },
        {
          "hex": "#c52d06"
        },
        {
          "hex": "#b94626"
        },
        {
          "hex": "#e1d6b9"
        },
        {
          "hex": "#c14009"
        },
        {
          "hex": "#d3a93d"
        },
        {
          "hex": "#443428"
        },
        {
          "hex": "#64728d"
        },
        {
          "hex": "#c2b75b"
        },
        {
          "hex": "#3c76b9"
        },
        {
          "hex": "#e5e2d5"
        },
        {
          "hex": "#c6c7bb"
        },
        {
          "hex": "#dd3c0a"
        },
        {
          "hex": "#453920"
        }
      ]
    },
    "millsfield:images_texts": [
      "fly Northwest to\nHawaii\nNORTHWEST Orient AIRLINES",
      "2000.149,008",
      "Hawaii\nHAWAII —where the native language has no word for\nweather*... where a tiny fish is called humuhumunu-\nkunukuapua'a ... where more than three thousand spe-\ncies of the exotic hibiscus flourish. where rainbows\nhave been known to appear in the full of the moon\nSmall wonder that \"out of this world\" is but a pallid\ndescription of the spectacular beauty, the alluring\ncharm, the sheer fascination of these fabulous islands!\nFrom the moment you first glimpse this patch of para-\ndise from your airliner window until you reluctantly bid\nthe Islands aloha, you'll find your vocabulary hopelessly\ninadequate to describe the beauty, the splendor, the\nenchantment of Hawaii.\nAs you step from your Northwest Orient Airlines'\nplane at Honolulu's oceanside International Airport,\nand mingle with travelers from the four corners of the\n• The 40-year average annual sea-level temperature of the\nIslands is 75 degrees E. At higher altitudes,\nof course, the\ntemperature drops (about 3 degrees per 1000 feet of alti-\ntude). but Honolulu's 40-uear high-summer average is 78\ndegrees; while the average for mid-winter is 72.\nThe tem-\nperature of the water at Waikiki Beach averages about 76\ndegrees in the winter; in summer, about 81.\nSurfing at Waikiki is Year 'Round Sport\nHawaii is a land of sunshine and flowers\nHawaii has fine hotels to suit every taste\nland of All-Year Sunshine!\nworld, you are greeted with Hawaii's traditional token\nof welcome-a fragrant lei fashioned of orchids, gar-\ndenias, plumerias, jasmine or ginger blossoms. Of course,\nas a visitor from the mainland, you neither need pass-\nports nor pay custom duties. Remember, this land of\nlush superlatives is Hawaii, U.S.A., and you'll start\nyour thrill-packed vacation the moment you set foot\non Hawaiian soil.\nTo the uninitiated, the name Hawaii instantly brings\nforth visions of Waikiki. Certainly, the Beach is worthy\nof its fame, with its mile-long beach, its world-renowned\nhotels, its daring surf riders-\n-and its ukuleles! Yet, won-\ndrous though it is, Waikiki is but a small segment\nof the incredible attractions which await the vacationer.\nSeveral days can be spent in Honolulu itself (and all\nNorthwest Airventures provide a liberal amount of\nfree time for exploring this captivating city). Foremost\namong the \"must-see\" sights in Honolulu are those\nwhich represent a cross-section of the old and the\nmodern Hawaii. These include lolani Palace,\nnow\nhousing Hawaii's Legislature, the famous statue of\nKamehameha I, Queen Emma Home (Museum), the\nCivic Center, the wide array of shops in the central\nbusiness district, the Kawaiahao Church, the Fish\nMarket, Punahou (Oahu College), the Honolulu\nAcademy of Arts, and, of course, Pearl Harbor.\nBut there's lots more to see on the island of Oahu, not\nthe least of which is the famous Nuuanu Pali, cer-\ntainly the most spectacular beauty spot on the island,\nand one of the geological wonders of the world. The\nlist of Oahu sights-to-see is almost endless, yet each of\nthe eight Hawaiian Islands offers its own version of\nNature's extravaganza.\nOn the island of Hawaii, the active volcano Kilauea\npresents a sight which, for fierce beauty, is unsurpassed\nOn Maui, you'll see the \"Home of the Sun,\n\" gigantic\nHaleakala crater, big enough to swallow all of Man-\nhattan Island! On the \"Garden Island\" of Kauai, you'll\nbe amused at Nature's practical joke... beaches of\n\"barking sands\"! Yes, each of the islands has its own\nstory to tell, its own wonders to see-and wherever you\nlive in the U.S., you can be in this phenomenal land\nof Ah's and Oh's in less than a day's travel —when you\nfly Northwest Orient Airlines!",
      "TO THE ORIENT:\nHONOLULU\nANCHORAGE\nNORTHWEST Orient AIRLINES\nDirect to the Islands!\nTHInk of it! The culmination of your most exciting\nvacation dreams... in full color color... is but a day's\ntravel from wherever you are. For example, you can\nboard one of Northwest Orient Airlines' luxurious\nStratocruisers in New York today, arrive at the Seattle\nor Portland gateway in a few hours. A few hours later,\nyou're in Hawaii for the most exciting vacation of your\nlife! Northwest Orient Airlines' all-expense \"Airven-\ntures\" offer you a complete thrill-packed vacation in\nHawaii. Then too, Northwest Orient Airlines also\noperates economical Air Tourist service which will cost\nyou less and stretch your vacation dollars. And there\nare many extras for which you pay nothing-an im-\nportant economy factor when planning your Hawaiian\nvacation.\nN. W. A. flies the Stratocruiser Coast-to-Coast\nto connect with flights to Hawaii.\nPORTLAND\nSEATTLE-TACOMA\nSPOKANE\nEOMONTON\nMINNEAPOLIS\nWINNIPEG\nCHICAGO\nST. PAUL\nMILWAUKEE\nDETROIT\nWASHINGTON\nCLEVELAND\nPITTSBURGH\nNEW YORK\nSEE YOUR TRAVEL AGENT\nNORTHWEST Orient AIRLINES\nEXECUTIVE OFFICES: 1885 UNIVERSITY AVE., ST. PAUL 1, MINN.\nPRINTED IN U.S. A.\nFebruary 1955\nTR-AD. 202 Rev."
    ],
    "millsfield:images_texts_ids": [
      1527818321,
      1527848453,
      1527858709,
      1527858713
    ],
    "millsfield:on_view": 0,
    "millsfield:primary_image": 1527818321,
    "millsfield:subcategory_id": 1511213631,
    "mz:hierarchy_label": 1,
    "mz:is_current": 1,
    "sfomuseum:accession_number": "2000.149.008",
    "sfomuseum:airline": "Northwest Airlines",
    "sfomuseum:airline_id": [
      647
    ],
    "sfomuseum:category": "Promotional, Archive",
    "sfomuseum:classification_id": 283,
    "sfomuseum:collection": "Aviation Archive",
    "sfomuseum:continent": "North America",
    "sfomuseum:country": "United States",
    "sfomuseum:creditline": "Collection of SFO Museum",
    "sfomuseum:date": "1955",
    "sfomuseum:date_acquired": "2001-04-06",
    "sfomuseum:daterange_end": "1955-12-31",
    "sfomuseum:daterange_start": "1955-01-01",
    "sfomuseum:description": "Promotional brochure issued by Northwest Orient Airlines, titled “Fly Northwest to Hawaii,” dated February 1955; red cover with color illustrations of surfer, palm trees, fish, and pineapple; interior contains package deals and tourist information.",
    "sfomuseum:dimensions": "9 x 4 inches (22.9 x 10.2 cm)",
    "sfomuseum:exhibition_ids": [
      1071
    ],
    "sfomuseum:media_ids": [
      1527848453,
      1527858709,
      1527858713,
      1527818321
    ],
    "sfomuseum:medium": "paper, ink",
    "sfomuseum:object_id": 57364,
    "sfomuseum:placetype": "object",
    "sfomuseum:primary_media_id": 1527818321,
    "sfomuseum:publication": ": , 1955.",
    "sfomuseum:subcategory": "Brochure, Airline",
    "src:geom": "sfomuseum#undetermined",
    "wof:belongsto": [
      1511214205,
      102527513,
      102191575,
      85633793,
      1511213631,
      85922583,
      102087579,
      1511214277,
      1511214207,
      85688637,
      136253057
    ],
    "wof:breaches": [],
    "wof:country": "US",
    "wof:created": 1579906674,
    "wof:depicts": [
      1159287407,
      1159284913,
      1159284907
    ],
    "wof:geomhash": "30c8a918561c84bb2daa2b97fc7c5353",
    "wof:hierarchy": [
      {
        "arcade_id": 1511213631,
        "building_id": 1511214277,
        "campus_id": 102527513,
        "concourse_id": 1511214205,
        "continent_id": 102191575,
        "country_id": 85633793,
        "county_id": 102087579,
        "custom_id": 1511919619,
        "locality_id": 85922583,
        "neighbourhood_id": -1,
        "object_id": 1511919619,
        "region_id": 85688637,
        "venue_id": 1511919619,
        "wing_id": 1511214207
      },
      {
        "continent_id": 102191575,
        "country_id": 85633793,
        "custom_id": 1511919619,
        "empire_id": 136253057,
        "object_id": 1511919619,
        "venue_id": 1511919619
      }
    ],
    "wof:id": 1511919619,
    "wof:lastmodified": 1787988177,
    "wof:name": "brochure: Northwest Orient Airlines, Hawaii",
    "wof:parent_id": 1159162825,
    "wof:placetype": "custom",
    "wof:placetype_alt": [
      "object"
    ],
    "wof:repo": "sfomuseum-data-collection",
    "wof:superseded_by": [],
    "wof:supersedes": [],
    "wof:tags": []
  },
  "bbox": [
    -122.386155,
    37.616357,
    -122.386155,
    37.616357
  ],
  "geometry": {"type":"Point","coordinates":[-122.386155,37.616357]}
}
