{
  "id": 1511930317,
  "type": "Feature",
  "properties": {
    "date:cessation_lower": "1958-01-01",
    "date:cessation_upper": "1958-12-31",
    "date:inception_lower": "1958-01-01",
    "date:inception_upper": "1958-12-31",
    "edtf:cessation": "1958",
    "edtf:date": "1958",
    "edtf:inception": "1958",
    "geom:area": 0,
    "geom:bbox": "-122.386155,37.616357,-122.386155,37.616357",
    "geom:latitude": 37.616357,
    "geom:longitude": -122.386155,
    "iso:country": "XX",
    "millsfield:airline_id": [
      1159283541
    ],
    "millsfield:category_id": 1511214223,
    "millsfield:collection_id": 1511214207,
    "millsfield:company_id": [
      1159288905
    ],
    "millsfield:images": [
      1527819239,
      1527844101,
      1527848407
    ],
    "millsfield:images_colors_refs": {
      "crayola": [
        {
          "hex": "#dbd7d2"
        },
        {
          "hex": "#efdecd"
        },
        {
          "hex": "#9c7c38"
        },
        {
          "hex": "#bab86c"
        },
        {
          "hex": "#000000"
        },
        {
          "hex": "#414a4c"
        }
      ],
      "css4": [
        {
          "hex": "#dcdcdc"
        },
        {
          "hex": "#2f4f4f"
        },
        {
          "hex": "#bdb76b"
        },
        {
          "hex": "#000000"
        },
        {
          "hex": "#a0522d"
        },
        {
          "hex": "#d3d3d3"
        }
      ],
      "marekm4": [
        {
          "hex": "#e8e5db"
        },
        {
          "hex": "#85702f"
        },
        {
          "hex": "#2f2829"
        },
        {
          "hex": "#e3d6c9"
        },
        {
          "hex": "#242126"
        },
        {
          "hex": "#dcd2c4"
        },
        {
          "hex": "#2e2c27"
        },
        {
          "hex": "#c0aa6b"
        }
      ]
    },
    "millsfield:images_texts": [
      "AERONAVES\nDE\nMEXICO\nflight schedule\nEFFECTIVE SEPT. 28, 1958\nMOHAVE\nза\nAERONAVES DE MEXICO\nMEXICO\nMEXICANA DE AVIACION",
      "SAN FRANCISCO\nLOS ANGELES\nSAN DIEGO\n--\nTIJUANA\nMEXICALI\nNOGALES\nDENVER\nPHOENIX\nALBUQUERQUE\nTUCSON\nEL PASO\nJUAREZ\nCANANEA\nCASAS\nGRANDES\nHERMOSILLO\nCHIHUAHUA\nGUAYMAS,\nCD.I\nOREGON\n• NAVOJOA\nLOS MOCHIS\nTORREON\nCULIACAN\nDURANGO\nLA PAZ\nMAZATLAN\nTEPIC\nGUADALAJARA\nU. S. A.\ncean\nGENERAL\nPASSENGER INFORMATION\nBAGGAGE ALLOWANCE\nINTERNATIONAL SERVICE (NEW YORK-MEXICO):\nFIRST CLASS - 30 KILOS (66 Ibs.)\nTOURIST CLASS - 20 KILOS (44 lbs.)\nDOMESTIC SERVICE: 25 KILOS (55 Ibs.)\nDomestic flights are those originating from the\ngateways of Tijuana, Nogales and C. Juarez.\nBaggage in excess of the free allowance will\nbe charged for at the rate of 1% of the normal\nadult one-way First Class fare per kilo.\nARRIVAL AT AIRPORT OF EMBARKATION\nPassengers on flights originating at border\ncities should arrive at the airport at\nleast one full hour before scheduled departure\ntime in order to complete necessary Government\nand Airline formalities.\nCHILDREN'S FARE\nAccompanied children 2 years of age or over,\nbut under 12 years of age will be charged\none-half the normal adult fare. Children over 12\nwill be charged full adult fare. One child under 2\nyears, not occupying a seat, will be carried free\nwith each full-paying passenger. Additional\nchildren under 2 will be charged for at one-half\nthe normal adult fare and may occupy a seat.\nCLAIMS\nIf claims for damaged baggage and/ or\npersonal property are not filed at the airport\nimmediately upon consumation of the flight,\nMONTERREY\nNON-STOP FLIGHTS TO NEW ORLEANS\nNEW\nFLIGHTS\nNON-STOP\nAERONAVES\nAERONAVES\nMEXICO CITY\nACAPULCO\nsuch claims will not be accepted by the\ncompany unless proot is made that such damage\noccurred while the baggage was in the\ncustody of Aeronaves de Mexico.\nAeronaves de Mexico will not be responsible for\ndamage resulting from failure of planes to\ndepart or arrive at times stated in this time table,\nnor for errors herein, nor for failure to make\nconnection with planes of other airlines or of this\ncompany. Aeronaves de Mexico also reserves the\nright to change equipment, alter or cancel any\nof the schedules shown herein without prior notice.\nREFUNDS\nIn the case where definite reservations have\nbeen made and are cancelled at the passenger's\nrequest, the fare will be refunded provided the\npassenger notifies Aeronaves de Mexico at least\n30 minutes prior to the scheduled departure time.\nNO LOCAL PASSENGERS CARRIED BETWEEN\nTijuana and La Paz, or vice versa. However,\nstop-over privileges granted at La Paz to\nTijuana-Acapulco, or Acapuleo-Tijuana\npassengers on flights 121 and 122. Also, no local\npassengers carried between huana and\nMexicali, or vice versa, Mazatlan and Mexico\nCity, or vice versa, or Mazatlan and\nGuadalajara, or vice versa.\nAeronaves de Mexico personnel do not expect,\nnor are allowed to accept tips.\nNOTE\nBe certain to re-confirm your reservations for either\nreturn or continuing space 24 hours prior to departure\ntime - or space will be cancelled.\nAll Aeronaves Pilots and Mechanics are U.S. trained.",
      "P.S.A.\n70%\nDaily\n7:00\n8:40\n2728\nU.A.L\n560/276\n7:45\n10:48\n7:00\n8:40\n9:58\nDC-6\n8278\nsonta re\nС.ДІ.\n7:45\n10:30\n3:00\n4:47\n5:45\nSU-W-F\nDC-3\nCONV\nCAI\n7:00\n9:50\n10:48\n10:00\n12:45\n1:25\nCONN\n2:00\n3:20\n2:00\n3:20\n2:00\n8:45\n9:45\n12:55\n5:03\n5:45\n7:10\n9:40\n4:15\n8:45\n2:00\n2:00\n4:00\n5:07\n5:30\n2:00\n9:45\n10:20\n11:45\n10:35\n8:55\n9:30\n10:55\n9:00\n11:15\n*17-A\nCONV\n*15-A\nCONV\nCONV\n11-A\nCONV\n6:00\n7:00\n3:00\n4:00\n1:00\n9:00\n10:00\nCONV.\n8:45\n9:55\nCONN\n5:30\n6:30\nCONV.\n2:30\n3:30\nAERONAVES DE MEXICO\nMEXICO'S LEADING AIRLINE\nAffiliated with Pan American World Airways System\nServing\n22 major cities in Mexico, Aeronaves is the\nlargest\ndomestic\nMexican airline.\nBecause of its out-\nstanding record of service and safety, Aeronaves was\nrecently\ngranted the international routes between New\nYork-Mexico City and New Orleans-Mexico City.\nSERVICE - FROM LOS ANGELES - Daily Tourist and First\nClass Service to Tijuana, Guadalajara, and Mexico City\non the finest pressurized equipment available.\nFROM TIJUANA -\n• Daily\nservice non-stop to Guadalajara,\none-stop\nto Mexico City. Direct flights to Acapulco\nweekends, via La Paz.\n10:49\nCONV.\n11:30\n12:30\nCONNECTING SERVICES\n7:00\n10:00\n10:40\nLv. DENVER\nLv. ALBUQUERQUE\nLv. SAN FRANCISCO\nLv. LOS ANGELES\nAr. EL PASO\nAr. SAN\nDIEGO\nAr. SAN YSIDRO\nAr.\nAr.\nAr.\nAr.\nLv.\nLv.\nLv.\nBOLD FIGURES INDICATE P.M\nFIGURES INDICATE A.M.\nDAILY\nST-Pacific\nCONST.\n3:20\nNON-STOP\nCONSTELLATION\n9:56\n10:20\n11:45\n11:59\n1:10\n7:30\nLv. NEW YORK\n/Lv. LOS ANGELES\n/ Lv. TIJUANA\nV Lv. MEXICALI\n1015189\nLv. NOGALES\nAr. GUAYMAS\nLv. C. JUAREZ\nAr. CHIHUAHUA\nLv. CHIHUAHUA\nAr. TORREON\nAr. MONTERREY\nLv. LA PAZ\nAr. MAZATLAN\nAr. GUADALAJARA\nLv.\nGUADALAJARA\n11:55\nAr. MEXICO\nCITY\nLv. MEXICO CITY\nAr. ACAPULCO\nEST Ar.\nPST Ar\nPST Ar\nPST Ar.\nMST Ar.\nMST\nLv.\nCST Ar.\nCST Lv.\nCST Ar\nCST Lv.\nCST Lv.\nMST Ar.\nMST Lv.\nCST Lv.\nCST Ar.\nCST\nCST Ar.\nCST Lv.\nBRITANNIA - PROP-JET\nRRISTOI\nCOMBINATION FIRST-TOURIST CLASS\n8:00\n6:55\n6:00\n9:00\n8:20\n7:00\n6:55\n6:00\nCONV\n9:30\nDaily\nCONV\n11:59\n1:10\nACAPULCO SERVICE\nLv. MEXICO CITY\nAr. ACAPULCO\nCST Ar.\nCST Lv.\nCONV.\n6:55\n6:00\nDaily\nCONV.\n11:00\n10:00\nFROM C. JUAREZ (EL PASO) - Daily flights, using Convair\n340 equipment,\nserve Chihuahua and Mexico City.\nCon-\nnections with Continental Airlines service to and from\nDenver.\nFROM NEW YORK - Daily non-stop combination First-\nTourist\nClass flights between\nNew\nYork and Mexico\nCity\nwith the new 4-engine Prop-Jet Bristol Britannia\n302.\nThis smooth, quiet, modern airliner provides speed,\ncomfort and luxury unequaled by any other aircraft in\nservice\ntoday.\nThe flight on\nthis magnificent airliner,\ncoupled with the courteous Aeronaves de Mexico service\nis an experience you'll long remember.\nALL FLIGHTS TO MEXICO CITY MAKE DIRECT\nCONNECTIONS FOR ACAPULCO\nvoon request\nupon request. This informative exice more enjamany helptul tups\nGrey\nFRIE SUN.\n6:45\n10:00\n8:35\n6:40\n4:00\n3:15\n7:00\n6:15\n6:00\nDAILY\nSAT.\nMON.\nTHURS.\nCONST.\nCONV.\nSUN\nCONV.\n3:52\n11:27\n12:34\n12:15\n7:35\n5:40\n5:00\nSanta Fe\n6:45\n6:55\n4:00\n06\n215/205\nSA.3\n5:15\n6:35\n4:23\n3:40\nSYU\nMUN\n590\nTH-SUN.\nSAI\n12:40\n11:45\n10:25\n11:03\n9:08\n7:45\nIU-WED.\n1:05\n11:45\n2:05\n1:00\n12:42\n2:45\n10:00\n4:25\n3:25\n2:18\n12:15\n11:56\n10:30\n8:15\n10:11\n9:20\n8:35\n7:00\n7:30\n7:30\n8:45\n6:55\n6:00\n7:00\n9:00\n8:35\n7:00\n2:00\n1:00\nDaily\nCONV.\n5:00\n4:00\nBails\nCONV\n8:00\n7:00\nSun.\nCONV.\n1:09\n11:59\n* 12-A\nCONV.\n*14-A\nCONV.\n*16-A\nCONV\n*18.A\nCONV.\n11:30\n10:30\n2:30\n1:30\n5:30\n4:30\n8:40\n7:30\nFUN - SUN - EXCITEMENT\nAcapulco Adventure Vacation Plan*\nSpend 5 NIGHTS, 6 DAYS in Fabulous Acapulco\n$6400\nPER\nPERSON\nDOUBLE OCCUPANCY\nPLUS AIR FARE\nexomole: iuang to Aco.\npulco-$129.60 Round Trip\nAir Fare]\nYour ACAPULCO ADVENTURE includes:\n5 NIGHTS, 6 DAYS\nat any one or these deluxe notels\nCALETA\nCLUB DE PESCA\nELCANO *\nPRADO AMERICANS\nMIRADOR\n15 meals - 2 dinners at a hotel other\ntransportation both\nFor full information\nconsult your Travel Agent\nFARES QUOTED\nIN U. S. CURRENCY\nLOS ANGELES-TIJUANA-GUADALAJARA-\nOne Way Round Trip\nCITY\n$79.00\nJUANA-MEXICO CIT.\n74.56\n$150.10\n134.24\nTIJUANA-GUADALAJARA\n54.32\n97.60\nTIJUANA-ACAPULCO (via LA PAZ).\n72.00\n129.60\nTIJUANA-ACAPULCO\n(both ways via Mexico City)...\n85.36\n153.68\nTIJUANA-MEXICO CITY-ACAPULCO-TIJUANA\nOR VICE VERSA - CIRCLE TRIP.\nTIJUANA-MEXICO CITY\nRETOURN\nFROM\n141.64\nACAPULCO VIA LA PAZ OR VICE VERSANI\nTIJUANA-GUAYMAS\n24.40\nNOGALES-MEXICO CITY\n51.36\nNOGALES-ACAPULCO\n58.96\nC. JUAREZ (EL PASO)-MEXICO CITY\n49.04\nC. JUAREZ (EL PASO)-ACAPULCO.\n59.84\nMEXICO CITY-ACAPULCO\n10.80\n131.92\n44.00\n92.40\n106.16\n88.24\n107.68\n19.44\nTickets may be purchased in the United States TAX FREE.\nLIMOUSINE SERVICE\nSAN DIEGO - Free Limousine Service for flights 111, 589\n131 Broad-\naay, at 12:45 s m. PST. rOight 10f, tre limousine\nway, at 12:45\nFor flight 121,\nleparts at 12:15 p.m. PST\nReturn service will depart\nfrom the Tijuana\nAirport for San\nDiego 30 minutes\nafter flight arrival. Ample time will be allowed at the\nMexico - U.S.\nborder for passenger customs clearance.\nEL PASO-CIUDAD JUAREZ - Limousine leaves Aeronaves\nde Mexico office, Paso Del Norte Hotel lobby at 1:00 p.m.\nIndividual fare $2.00.\nGUADALAJARA - Taxis available at airport. Departures\nupon request.\nMEXICO CITY - Airport transportation available at all\ntimes. Individual fare 50¢. Private car $1.00.\nACAPULCO\nAirport transportation available at all\ntimes. Individual fare 65¢.\nReservations may be made and confirmed on Aeronaves\nde Mexico and Compania Mexicana de Aviacion at any\nof these offices.\nRESERVATION OFFICES\nACAPULCO - M. ALEMAN and ESCUDERO\nEL PASO -\nPASO DEL\nNORTE HOTEL\nGUADALAJARA - MADER anGCORONA\nGUAYMAS - 52 SERDAN STREET\nLA PAZ - LA PERLA HOTEL\nLOS ANGELES - 610 SOUTH HILL STREET\nMEXICALI - CUCAPAH\nHOTEL\nMEXICO CITY- 80 JUAREZ AVENUE\nNEW ORLEANS - 110 CARONDELET STREET\nNEW YORK - 500 FIFTH AVENUE\nNOGALES- INTERNATIONAL and PLAZA\nSAN DIEGO - 131 BROADWAY\nSAN FRANCISCO\n- 323 GEARY STREET\nTIJUANA - REVOLUCION and SECOND\nPhone\n11-88\nKE. 3-5761\n2-66\nMA. 6-5571\n2500\n150-49-00\nMAgnolia 6706\nBRyant 9-3717\nBE. 4-7471\n22-30\nCMA - Paternational Airport South Grand, Los Angele SPring 6-240\nInternational Airport"
    ],
    "millsfield:images_texts_ids": [
      1527819239,
      1527844101,
      1527848407
    ],
    "millsfield:primary_image": 1527819239,
    "millsfield:subcategory_id": 1511213425,
    "mz:hierarchy_label": 1,
    "mz:is_current": 1,
    "sfomuseum:accession_number": "2007.007.027",
    "sfomuseum:airline": "Aeronaves de México",
    "sfomuseum:airline_id": [
      32
    ],
    "sfomuseum:category": "Scheduling / Ticketing",
    "sfomuseum:classification_id": 158,
    "sfomuseum:collection": "Aviation Archive",
    "sfomuseum:creditline": "Gift of Hiller Aviation Museum",
    "sfomuseum:date": "1958",
    "sfomuseum:date_acquired": "2008-03-03",
    "sfomuseum:daterange_end": "1958-12-31",
    "sfomuseum:daterange_start": "1958-01-01",
    "sfomuseum:description": "Timetable issued by Aeronaves de Mexico, effective September 28, 1958; folded flight schedule, with illustration of face mask and bird motif.",
    "sfomuseum:dimensions": "8 1/4 x 3 1/2 inches (21 x 8.9 cm)",
    "sfomuseum:media_ids": [
      1527844101,
      1527848407,
      1527819239
    ],
    "sfomuseum:medium": "paper, ink",
    "sfomuseum:object_id": 87022,
    "sfomuseum:placetype": "object",
    "sfomuseum:primary_media_id": 1527819239,
    "sfomuseum:publication": ": , 1958.",
    "sfomuseum:subcategory": "Timetable",
    "sfomuseum:subject": "Airlines -- Commercial --",
    "src:geom": "sfomuseum#undetermined",
    "wof:belongsto": [
      1511214223,
      102527513,
      102191575,
      85633793,
      1511213425,
      85922583,
      102087579,
      1511214277,
      1511214207,
      85688637
    ],
    "wof:breaches": [],
    "wof:country": "XX",
    "wof:created": 1579906659,
    "wof:depicts": [
      1159283541,
      1159288905
    ],
    "wof:geomhash": "30c8a918561c84bb2daa2b97fc7c5353",
    "wof:hierarchy": [
      {
        "arcade_id": 1511213425,
        "building_id": 1511214277,
        "campus_id": 102527513,
        "concourse_id": 1511214223,
        "continent_id": 102191575,
        "country_id": 85633793,
        "county_id": 102087579,
        "custom_id": 1511930317,
        "locality_id": 85922583,
        "neighbourhood_id": -1,
        "object_id": 1511930317,
        "region_id": 85688637,
        "venue_id": 1511930317,
        "wing_id": 1511214207
      }
    ],
    "wof:id": 1511930317,
    "wof:lastmodified": 1787988180,
    "wof:name": "timetable: Aeronaves de Mexico",
    "wof:parent_id": 1159162825,
    "wof:placetype": "custom",
    "wof:placetype_alt": [
      "object"
    ],
    "wof:repo": "sfomuseum-data-collection",
    "wof:superseded_by": [],
    "wof:supersedes": [],
    "wof:tags": []
  },
  "bbox": [
    -122.386155,
    37.616357,
    -122.386155,
    37.616357
  ],
  "geometry": {"type":"Point","coordinates":[-122.386155,37.616357]}
}
