{
  "id": 1762686751,
  "type": "Feature",
  "properties": {
    "date:cessation_lower": "1959-01-01",
    "date:cessation_upper": "1959-12-31",
    "date:inception_lower": "1959-01-01",
    "date:inception_upper": "1959-12-31",
    "edtf:cessation": "1959",
    "edtf:inception": "1959",
    "geom:area": 2.475047457570636e-7,
    "geom:bbox": "-122.386472,37.616105,-122.385834,37.616611",
    "geom:latitude": 37.61635747477365,
    "geom:longitude": -122.38615540108617,
    "millsfield:airline_id": [
      1159283849
    ],
    "millsfield:category_id": 1511214223,
    "millsfield:collection_id": 1511214207,
    "millsfield:company_id": [
      1360700619
    ],
    "millsfield:images": [
      1762697747,
      1762698201
    ],
    "millsfield:images_colors_refs": {
      "crayola": [
        {
          "hex": "#000000"
        },
        {
          "hex": "#ff2b2b"
        },
        {
          "hex": "#eceabe"
        },
        {
          "hex": "#414a4c"
        }
      ],
      "css4": [
        {
          "hex": "#000000"
        },
        {
          "hex": "#b22222"
        },
        {
          "hex": "#f5deb3"
        }
      ],
      "marekm4": [
        {
          "hex": "#29291b"
        },
        {
          "hex": "#e5e1be"
        },
        {
          "hex": "#e8e4c2"
        },
        {
          "hex": "#2b2817"
        },
        {
          "hex": "#d7300e"
        },
        {
          "hex": "#d63011"
        }
      ]
    },
    "millsfield:images_texts": [
      "AMERICAN AIRLINES\nEASTBOUND CONDENSED SCHEDULE\nAIRCOACH OR TOURIST\nAIRCOACH \u0026 FIRST CL.\nFIRST CLASS\n680\nDC7\nRC\n906\nDC7\nB707\n484\nCV\n230\nDC6\n918\nDC7\nB707\nFT\nEFFECTIVE DECEMBER 1, 1959\n380\n776\nL188\nDC7\nFT\n76\n902\n968\nB707\nB707\nB707\nDC6\nFT\nB707\nFT\n฿707\nDCT\n24/\n954\nB707 DC6\nFT\nSAN FRANCISCO\nOAKLAND\nLV\nLV\nEX\nSAT\n0855\nSAT\n0810\n0850\n0825\n1225\nLOS ANGELES (INT'L)\nSAN DIEGO\nPST\nLV\nLV\n0650\n0755\n0805\n0815\nNON\nSTOP\n0855\n0800\nNON\n0845 09 0\nNON\n0915\n1015\n0940\n1115\nSTOP\nB707\nFT\nB707\n910\nDC6\n2030\n966\nDC6\n1330\n1315\nSTOP\n2230\nPHOENIX\nTUCSON\nEL PASO\nSAN ANTONIO\nHOUSTON\nMST\nAR\nAR\nMST\nAR\nCST\nAR\nAR\nFT. WORTH\nDALLAS\nLV\nAR\nDALLAS\nST. LOUIS\nCHICAGO\n(O'HARE)\nLV\nAR\nAR\nCHICAGO (O'HARE)\nCHICAGO (MIDWAY)\nLV\nAR\nCHICAGO (MIDWAY)\nCST\nDETROIT/ WINDSOR\nEST\nAR\nMEMPHIS\nCST\nAR\nCINCINNATI\nEST\nAR\nCLEVELAND\nEST\nAR\nSHREVEPORT\nNEW ORLEANS\nBIRMINGHAM\nATLANTA\nTAMPA\nMIAMI\nCST\nAR\nAR\nCST\nAR\nEST\nAP\nAR\nEST\nAR\nWASHINGTON\nAR\nSERVING\nBALTIMORE SEASING TON AR\nPHILADELPHIA\nNEW YORK (NEWARK)\nAR\nNEW YORK (INT'L\nAR\nNEW YORK (LA GUARDIA) AR\nBOSTON\nEST\nAR\n1250\nJET FLAGSHIP\nJET FLAGSHIP\nJET FLAGSHIP\n1600\n1630\nJET FLAGSHIP ...\nJET FLAGSHIP\nJET FLAGSHIP\n1630\nJET FLAGSHIP\n1550\n1610\n1645\nJET FLAGSHIP\nJET FLAGSHIP\nFT.\n16\n772\nB707\nFT\nDCT\nFT\nB707\nFT\n28\nB707\nET\n606\nDC6\n1445\nJET FLAGSHIP\n1415\n1545\nNON NON\nSTOP STOP\nJET FLAGSHIP\n2235\nNON\n1730\nSTOP\nSTOP\nJET FLAGSHIP\nJET FLAGSHIP\n2205\n1950\n2100\n2330\n0034\n1420\n1500\n....\n0015\n0119\n0254\n0630\n0705\n1625\n1655\n1515\n1815\nJET FLAGSHIP\nEFFECTIVE\nDEC.\n1635\n1700\n0700\n1630\n2030\n1440\n1610\n1822\nDC6 AIRCOACH\nAA64C\n1600\n1845\n1445\n1545\n2030\n2100\n0725\n1818\n2005\n2209\n2250\n1812\n2130\n2245\n1136\nCLT\n1224\n0848\n1230\n1349\n2026\n2055\n2045\n2145\n2115\n1530\n2212\n2308\n2125\n1625\n1630\n2040\n2115\n2350\n2215\n2110\n2315\nFIRST WITH JETS ACROSS THE U.S.A.\n908\nDCT\nFT\n2330\n0035\n0630\n0710\n0849\n1230\n1346\nB707\nFT\n774\nDCT\nFT\n638\nDC6\n650\nDC6\n764\nDC7\nM\n2320\n2245\n2315\n2320\nSTOP\n2200\nNON\nSTOP\nJET FLAGSHIP ...\nNON\nSTOP\n0705\n0620\n0710\n0900\n0610\n0840\n0700\n1220\n1415\n1435\nDECEMBER\n38\n78\nB707 8707\nFT\nFT\n44\nB707\nFT\n0055\n0030\n2355\nSTOP\nSTOP\nNON\nSTOP\n900\nDC7\nFT\n0015\nSFO\nOAK\nLAX\nSAN\nJET FLAGSHIP\nJET FLAGSHIP\nJET FLAGSHIP\n0630\n0715\n0815\n0918\n1123\n0725\nPHX\nTUS\nELP\nSAT\nHOU\nFTW\nFTW\nDAL\nDAL\nSTL\nORD\nORD\nMDW\nDTW\nMEM\nCVG\nCLE\nSHV\nMSY\nBHM\nATL\nTPA\nMIA\nDCA\nBAL\nPHL\nEWR\nIDL\nLGA\nBOS",
      "AMERICAN AIRLINES\nI AIRCOACH OR TOURIST\nD AIRCOACH \u0026 FIRST CL.\n• FIRST CLASS\nWESTBOUND CONDENSED SCHEDULE\nEFFECTIVE DECEMBER 1, 1959\n907\nDCT\nFT\n361\nL188\n911\nDC6\n31\n85\n385\n775\n771\n965\n637\nB707\nFT\nB707\nFT\nB707 B707\nL188\nDC7\nB707\nDC7\nDC6\nFT\nFT\nFT\nFT\nFT\nB707\nFT\nDC6\nBOSTON\nNEW YORK (LA GUARDIA)\nLV\nNEW YORK (INT'L)\nLV\nNEW YORK (NEWARK)\nLV\nPHILADELPHIA\nLV\nSERVING\nBALTIMORE WASHINGTON) L\nWASHINGTON\nMIAMI\nTAMPA\nLV\nLV\nATLANTA\nBIRMINGHAM\nNEW ORLEANS\nSHREVEPORT\nEST\nCST\nLV\nLV\nCST\nLV\nCLEVELAND\nEST\nLV\nCINCINNATI\nEST\nLV\nMEMPHIS\nCST\nLV\nDETROIT/ WINDSOR\nEST\nLV\nCHICAGO (MIDWAY)\nCST\nAR\nCHICAGO (MIDWAY)\nCHICAGO (O'HARE)\nCHICAGO (O'HARE)\nST. LOUIS\nLV\nAR\nLV\nLV\n0820\n1130\n0815\nJET FLAGSHIP.\n0935\n1005\n0800\n0920\nNON\nSTOP\nJET-POWERED ELECTRA FLAGSHIPS\n0845\nJET FLAGSHIP.\nNON\nSTOP\nJET FLAGSHIP\n0900\n0900\nNON\nJET FLAGSHIP ....\n0720\n0940\nEX\nMON\n0855\n1010\nNON\nSTOP\nJET POWERED ELECTRA\nJET FLAGSHIP\n0935\n1055\n41\n77\nB707\nB707\nB707\nFT\nFT\nFT\n0945\n1200\nSTOP\n1035\nJET FLAGSHIP •\nJET FLAGSHIP\n1315\n1345\n1145\nNON\nSTOP\nJET FLAGSHIP\n1200\nSTOP\nJET FLAGSHIP\n687\nDCT\nRC\n773\nDC7\nFT\n917\nDCT\n11\nB707\nFT\n1345\n905\nDCT\n695\nDC7\nRC\n1255\n901\nDCT\nFT\nDC7\n1345\n29\nB707\nB707\nFT\nFT\n1645\n35\nB707\n25\n381\nL188\n347\nL188\n1715\nNON\nSTOP\n1215\n1255\n1410\nNON\nSTOP\nJET FLAGSHIP ..\n1320\n1500\n1510\nJET FLAGSHIP\nEFFECTIVE\nDEC. 20\nNON\nJET FLAGSHIP\n1415\n1645\nJET FLAGSHIP\n1650\n1850\n1930\nNON\nJET - POWERED\nJET - POWERED\n1905\n2035\n2220\n70.55\n2110\n2240\n1350\nDALLAS\nAR\n1316\nDALLAS\nFT. WORTH\nLV\nAR\n1345\n1258\n1350\n1130\n1300\nFLAGSHIP\n0930\n0930\nFT. WORTH\nHOUSTON\nSAN ANTONIO\nEL PASO\nTUCSON\nPHOENIX\nLV\nLV\nCST LV\nMST\nLV\nLV\nMST LV\n1550\n1735\n1840\nSAN DIEGO\nLOS ANGELES (INT'L)\nPST\nAR\nAR\n1630\n1105\n1855\n1745\n1030\nOAKLAND\nSAN FRANCISCO\nAR\nPST\nAR\n2040\n1310\nINFORMATION\nTelephones:\nTokyo\nManila\nHonolulu\n59 - 0833\n3-60-71\n6 - 3581\nAll FLIGHTS DAILY EXCEPT NOTED.\nAdditional services available-refer to AAL System\nTimetable or the Official Airline Guide.\nM - Indicates\n\"Mercury\"\nDeluxe 1st Class service.\nC - Indicates\n\"Royal Coachman\" Aircoach service\nFT - Indicates 707 Jet Flagship or DC 7, Mercury /\nRoyal Coachman combined service.\nJ - Indicates interchange carrier route junction.\nSchedules subject to change without notice.\n1726\n1444\n1540\n1740\n1950\n1240\n1505\n1545\n1440\n1425\n2010\n1600\n\"THE CHOICE\n1731\n1730\n1728\n1820\n1955\n1855\n1925\n2030\n1640\n1650\n2050\n2245\n2314\n1800\n1530\n2102 AR\n1950 AR\n2040\n1630\n1940\nJET FLAGSHIP→\n1850\n2030\nELECTRA FLAGSHIP\n3 ELECTRA FLAGSHIP\nOF TRAVEL AGENTS COAST TO COAST\"\nB707\nFT\n37\nB707\nFT\n1900\nB707\n...\n1745\nBOS\nLGA\nIDL\nEWR\nPHL\nBAL\nSTOP\nJET FLAGSHIP.\n1745\n1845\nJET FLAGSHIP..\nNON\nSTOP\nJET FLAGSHIP\nNON\nJET FLAGSHIP\n2355\n0044\n0125\n2305\n0020\n0150\n0336\n0415\nDCA\nMIA\nTPA\nATL\nBHM\nMSY\nSHV\nCLE\nCVG\nMEM\nDTW\nMDWI\nMDW\nORD\nORD\nSTL\nDAL\nDAL\nFTW\nJET FLAGSHIP -2\n2210\nAMERICAN\nAIRLINES\n2010\n2140\n0705\n0815\n0850\n0955\n0700\nFTW\nHOU\nSAT\nELP\nTUS\nPHX\nSAN\nLAX\nOAK\nSFO\n2008.055.963"
    ],
    "millsfield:images_texts_ids": [
      1762697747,
      1762698201
    ],
    "millsfield:primary_image": 1762697747,
    "millsfield:subcategory_id": 1511213425,
    "mz:is_current": 1,
    "sfomuseum:accession_number": "2008.055.963",
    "sfomuseum:airline": "American Airlines",
    "sfomuseum:airline_id": [
      169
    ],
    "sfomuseum:category": "Scheduling / Ticketing",
    "sfomuseum:classification_id": 158,
    "sfomuseum:collection": "Aviation Archive",
    "sfomuseum:creditline": "Gift of the William Hough Collection",
    "sfomuseum:date": "1959",
    "sfomuseum:date_acquired": "2008-04-13",
    "sfomuseum:daterange_end": "1959-12-31",
    "sfomuseum:daterange_start": "1959-01-01",
    "sfomuseum:description": "Timetable issued by American Airlines, effective December 1, 1959; condensed schedule for coast-to-coast flights; a single sheet double-sided white, blue, and red sheet.",
    "sfomuseum:dimensions": "11 x 5 3/4 inches (27.9 x 14.6 cm)",
    "sfomuseum:medium": "paper, ink",
    "sfomuseum:object_id": 91880,
    "sfomuseum:placetype": "object",
    "sfomuseum:publication": ": , 1959.",
    "sfomuseum:subcategory": "Timetable",
    "sfomuseum:subject": "Airlines -- Commercial -- American ",
    "src:geom": "sfomuseum#undetermined",
    "wof:belongsto": [
      102527513,
      1159162825,
      102191575,
      85633793,
      102087579,
      85922583,
      85688637,
      1159160869
    ],
    "wof:country": "XY",
    "wof:created": 1641341740,
    "wof:depicts": [
      1159283849,
      1360700619
    ],
    "wof:geomhash": "c281b9d9eefc83b5710e64b9d646067d",
    "wof:hierarchy": [
      {
        "building_id": -1,
        "campus_id": 102527513,
        "collection_id": 1159162825,
        "concourse_id": 1159162825,
        "continent_id": 102191575,
        "country_id": 85633793,
        "county_id": 102087579,
        "custom_id": 1762686751,
        "locality_id": 85922583,
        "neighbourhood_id": -1,
        "object_id": 1762686751,
        "region_id": 85688637,
        "wing_id": 1159160869
      }
    ],
    "wof:id": 1762686751,
    "wof:lastmodified": 1787988195,
    "wof:name": "timetable: American Airlines, eastbound condensed",
    "wof:parent_id": 1159162825,
    "wof:placetype": "custom",
    "wof:placetype_alt": [
      "object"
    ],
    "wof:repo": "sfomuseum-data-collection",
    "wof:superseded_by": [],
    "wof:supersedes": []
  },
  "bbox": [
    -122.38647222518921,
    37.6161053594541,
    -122.38583385944366,
    37.61661101879963
  ],
  "geometry": {"type":"Polygon","coordinates":[[[-122.38647222518921,37.61631782178288],[-122.386434674263,37.61623283692423],[-122.38637566566466,37.61617759671399],[-122.38630056381224,37.6161308549656],[-122.38616108894348,37.6161053594541],[-122.38602161407469,37.6161308549656],[-122.38591432571411,37.61618609521055],[-122.38585531711577,37.61626683087935],[-122.38583385944366,37.61636881265146],[-122.38587141036987,37.61646654505181],[-122.38594114780425,37.61654303118856],[-122.38605380058287,37.61660252035167],[-122.38618254661559,37.61661101879963],[-122.3863059282303,37.61657277577607],[-122.3864185810089,37.61650903735973],[-122.3864668607712,37.61641130501523],[-122.38647222518921,37.61631782178288]]]}
}
