{
  "id": 1913795187,
  "type": "Feature",
  "properties": {
    "date:cessation_lower": "1954-01-29",
    "date:cessation_upper": "1954-01-29",
    "date:inception_lower": "1954-01-29",
    "date:inception_upper": "1954-01-29",
    "edtf:cessation": "1954-01-29",
    "edtf:inception": "1954-01-29",
    "geom:area": 2.475047457570636e-7,
    "geom:bbox": "-122.386472,37.616105,-122.385834,37.616611",
    "geom:latitude": 37.61635747477365,
    "geom:longitude": -122.38615540108617,
    "millsfield:airline_id": [
      1159284989
    ],
    "millsfield:category_id": 1511214251,
    "millsfield:collection_id": 1511214207,
    "millsfield:company_id": [
      1159286839
    ],
    "millsfield:images": [
      1913796847,
      1913796849
    ],
    "millsfield:images_colors_refs": {
      "crayola": [
        {
          "hex": "#4a646c"
        },
        {
          "hex": "#f0e891"
        },
        {
          "hex": "#bab86c"
        },
        {
          "hex": "#414a4c"
        },
        {
          "hex": "#fcd975"
        }
      ],
      "css4": [
        {
          "hex": "#deb887"
        },
        {
          "hex": "#f0e68c"
        },
        {
          "hex": "#2f4f4f"
        },
        {
          "hex": "#eee8aa"
        }
      ],
      "marekm4": [
        {
          "hex": "#ede091"
        },
        {
          "hex": "#465c57"
        },
        {
          "hex": "#455b5e"
        },
        {
          "hex": "#e8d97a"
        },
        {
          "hex": "#f1e6a3"
        },
        {
          "hex": "#cec57a"
        }
      ]
    },
    "millsfield:images_texts": [
      "appier Frida, 1/29 '54\nDid it wite to you yesterda, cause 2 was\nswamprd.. -The might befor\nI had bes n\na mecting with girit unte 8 Ba starting at\nlunch\nThen has been a brand new durlopment\nwhich\nDu write ijin abnt lat.\nJust this Qin. recrud gour of fan is4\nreturned from Frankfort wher mint had forwarded\nI looke he one pom yon\nAt the Amothdam\nairport\nen route Hamburg\nI bought\na conple af\nbottles of French porfume and fair one to\nmo guy from gon.\nShe was try pleand\nAlso got yours\nwritten dark Arthun lots inclood. Dhad alreads\nwritin to Cichi and thank his f st yo\na copy.\nWe try so cac Edir re- the Time\nartzele.\nNor Ruth y Stir wee let you\nknow tom armt Captiva. Do you thik Bee\n4 Strea word tr intentes f\n-R+S arz not.\nOrdinari, Bee wmed it br treat of go but\nwith\na brokera arm mayhe he comes.\nYour pass port pretin and ths worst\nLir\nEar tin - bar more.\nThe Catlin\ncurtaine, kan a lony of suring thungs - the\npanther we maki moir susationis tack - mat-\nErral\non Caption than the\nflyig saucers.\nyusterday\nor racke last try cort\n6: 30\n9 want be 1y Coopins office (by\nappantment thraugh his",
      "of those stupid liters stating that he has\nExamince me and I'm stee aliz. Ata dictates\none right away whont taking my temprature\nfling my pur or my pecket book..\nThen\nin vito me for suppre\n• It turnzo ont\ntha\nKitty had in vetro two of her\nque (60\nучнює)\nsconta and I tried to back ont. Kitt, toe\nHy oon the phone that the had one, sough\nfor 5 but thé d\nsane Jimmy.\n(он\nбирри\nwith\n1y wored it let me oft - said\nhe warded my support ate. So 2 kad to\ngo. Huz's nus - if Kett, has it taco\nJa - Vichume ss infaged to one of the\nushes in Patho wedding party\n- Ви\nCary. I remembe tacking to him do you?\nHe is alot itag's size - is 43 years\nold - prematari gray at the timpa\nblue Eyes, high colony, a\nlayin who\ntrachr\nlaw at northwesten Lins. Nz wa\nThe 0ss? dung the war.\n→ Also he's\nOr duate of face Law Schope in att\nknow. They\nle be married in\nsping. but no dats is sit and\nKath mr\nWants a smaller wedding than susa\nMust run nois\ncue try to\nwrite late - from log lin\nQue my lon -\nN\nHad luner to day with Jack Town\nat\nNT. Yacht Cant\nHe asked speciale,\n10 h\nremembrad to you -\n2019121,1191"
    ],
    "millsfield:images_texts_ids": [
      1913796847,
      1913796849
    ],
    "millsfield:primary_image": 1913796847,
    "millsfield:subcategory_id": 1511213489,
    "mz:is_approximate": 1,
    "mz:is_current": 1,
    "sfomuseum:accession_number": "2019.121.1191",
    "sfomuseum:airline": "Pan American World Airways",
    "sfomuseum:airline_id": [
      684
    ],
    "sfomuseum:category": "Employee Career History",
    "sfomuseum:classification_id": 195,
    "sfomuseum:collection": "Aviation Archive",
    "sfomuseum:creditline": "Collection of SFO Museum",
    "sfomuseum:date": "01/29/1954",
    "sfomuseum:date_acquired": "2019-11-22",
    "sfomuseum:daterange_end": "1954-01-29",
    "sfomuseum:daterange_start": "1954-01-29",
    "sfomuseum:description": "Handwritten letter from Harold M. Bixby to his wife, Debby Bixby, dated January 29, [1954], in his office; includes personal and family matters; mentions meeting with J.T.T. [Juan Trippe].",
    "sfomuseum:dimensions": "12 1/2 x 8 inches (31.8 x 20.3 cm)",
    "sfomuseum:medium": "paper, ink",
    "sfomuseum:object_id": 211554,
    "sfomuseum:placetype": "object",
    "sfomuseum:publication": ": , 01/29/1954.",
    "sfomuseum:subcategory": "Correspondence, Personal",
    "src:geom": "sfomuseum#undetermined",
    "wof:belongsto": [
      102527513,
      1159162825,
      102191575,
      85633793,
      102087579,
      85922583,
      85688637,
      1159160869
    ],
    "wof:country": "XY",
    "wof:created": 1714548719,
    "wof:depicts": [
      1159286839,
      1159284989
    ],
    "wof:geomhash": "c281b9d9eefc83b5710e64b9d646067d",
    "wof:hierarchy": [
      {
        "building_id": -1,
        "campus_id": 102527513,
        "collection_id": 1159162825,
        "concourse_id": 1159162825,
        "continent_id": 102191575,
        "country_id": 85633793,
        "county_id": 102087579,
        "custom_id": 1913795187,
        "locality_id": 85922583,
        "neighbourhood_id": -1,
        "object_id": 1913795187,
        "region_id": 85688637,
        "wing_id": 1159160869
      }
    ],
    "wof:id": 1913795187,
    "wof:lastmodified": 1787988219,
    "wof:name": "correspondence: Harold M. Bixby to Debby Bixby",
    "wof:parent_id": 1159162825,
    "wof:placetype": "custom",
    "wof:placetype_alt": [
      "object"
    ],
    "wof:repo": "sfomuseum-data-collection",
    "wof:superseded_by": [],
    "wof:supersedes": []
  },
  "bbox": [
    -122.38647222518921,
    37.6161053594541,
    -122.38583385944366,
    37.61661101879963
  ],
  "geometry": {"type":"Polygon","coordinates":[[[-122.38647222518921,37.61631782178288],[-122.386434674263,37.61623283692423],[-122.38637566566466,37.61617759671399],[-122.38630056381224,37.6161308549656],[-122.38616108894348,37.6161053594541],[-122.38602161407469,37.6161308549656],[-122.38591432571411,37.61618609521055],[-122.38585531711577,37.61626683087935],[-122.38583385944366,37.61636881265146],[-122.38587141036987,37.61646654505181],[-122.38594114780425,37.61654303118856],[-122.38605380058287,37.61660252035167],[-122.38618254661559,37.61661101879963],[-122.3863059282303,37.61657277577607],[-122.3864185810089,37.61650903735973],[-122.3864668607712,37.61641130501523],[-122.38647222518921,37.61631782178288]]]}
}
