{
  "id": 1511909899,
  "type": "Feature",
  "properties": {
    "date:cessation_lower": "1984-01-01",
    "date:cessation_upper": "1984-12-31",
    "date:inception_lower": "1984-01-01",
    "date:inception_upper": "1984-12-31",
    "edtf:cessation": "1984",
    "edtf:date": "1984",
    "edtf:inception": "1984",
    "geom:area": 0,
    "geom:bbox": "-122.386155,37.616357,-122.386155,37.616357",
    "geom:latitude": 37.616357,
    "geom:longitude": -122.386155,
    "iso:country": "US",
    "millsfield:airline_id": [
      1159285413,
      1159285503
    ],
    "millsfield:category_id": 1511214223,
    "millsfield:collection_id": 1511214207,
    "millsfield:company_id": [
      1159286541
    ],
    "millsfield:images": [
      1527818687,
      1527818689
    ],
    "millsfield:images_colors_refs": {
      "crayola": [
        {
          "hex": "#000000"
        },
        {
          "hex": "#1a4876"
        },
        {
          "hex": "#fddde6"
        },
        {
          "hex": "#ffffff"
        },
        {
          "hex": "#6699cc"
        },
        {
          "hex": "#ff2b2b"
        },
        {
          "hex": "#2e5894"
        }
      ],
      "css4": [
        {
          "hex": "#000000"
        },
        {
          "hex": "#b22222"
        },
        {
          "hex": "#483d8b"
        },
        {
          "hex": "#e6e6fa"
        },
        {
          "hex": "#5f9ea0"
        },
        {
          "hex": "#4682b4"
        },
        {
          "hex": "#f5f5f5"
        }
      ],
      "marekm4": [
        {
          "hex": "#124c90"
        },
        {
          "hex": "#f5f4f8"
        },
        {
          "hex": "#d6321b"
        },
        {
          "hex": "#0f0e12"
        },
        {
          "hex": "#1c1c1f"
        },
        {
          "hex": "#6f8fbd"
        },
        {
          "hex": "#3e61a4"
        },
        {
          "hex": "#ece9ec"
        }
      ]
    },
    "millsfield:images_texts": [
      "Joint Commuter\nTimetable\nWestAir\nEllecove October 28. 1984\nUnited\nAirlines\nUNITED",
      "WestAir\nPhone Numbers\nCHICO\nCHICO\nFRESNO\nFRESNO\nSTOCKTON\nSTOCKTON,\nMODESTO\nARCATA .\nARCATA\nSAN JOSE\nSAN JOSE\nSANTA ROSA\nSANTA ROSA\nREDDING ....\nREDDING\nCRESCENT CITY.\nCRESCENT CITY.\nMONTEREY\nSAN FRANCISCO\nSAN FRANCISCO\nSACRAMENTO\nSACRAMENTO\nCONCORD\nCONCORD\nRESERVATIONS: 1300-422-7277\nRESERVATIONS. 1-305-422-7777\n• AIR FREISHT:\n209-982-5583\n2095263109\n,AR FREIGHT:\n707-839-3271\nRESERVATICAS 18004222777\n. AR FREISHT\n436-995-0611\nRESERVATONS 1830-422-2777\nASSERVATIONS: 1000-122-7777\nRESERVATIONS: 1-400422-7777\n• AIR SREICHT.\n702-461-7311\n. RESERSATIONS. 1-303-422-7777\n108-373-7757\n. AUR FREIGHT.\n415-877-0375\nRESERVATIINS: 1-8004223737\n916-920-0104\nRESERVATIONS: 1-800-422-2777\nOrcspire Of Reference Ma\n8 - Urgten"
    ],
    "millsfield:images_texts_ids": [
      1527818687,
      1527818689
    ],
    "millsfield:primary_image": 1527818687,
    "millsfield:subcategory_id": 1511213425,
    "mz:hierarchy_label": 1,
    "mz:is_current": 1,
    "sfomuseum:accession_number": "1999.047.519",
    "sfomuseum:airline": "United Airlines",
    "sfomuseum:airline_id": [
      883,
      923
    ],
    "sfomuseum:category": "Scheduling / Ticketing",
    "sfomuseum:classification_id": 158,
    "sfomuseum:collection": "Aviation Archive",
    "sfomuseum:continent": "North America",
    "sfomuseum:country": "United States",
    "sfomuseum:creditline": "Gift of United Airlines Archives",
    "sfomuseum:date": "1984",
    "sfomuseum:date_acquired": "2000-05-11",
    "sfomuseum:daterange_end": "1984-12-31",
    "sfomuseum:daterange_start": "1984-01-01",
    "sfomuseum:description": "Joint commuter timetable issued by WestAir and United Airlines, effective October 28, 1984; black cover with stylized graphic representation of two airplanes in livery designs.",
    "sfomuseum:dimensions": "9 x 4 inches (22.9 x 10.2 cm)",
    "sfomuseum:media_ids": [
      1527818687,
      1527818689
    ],
    "sfomuseum:medium": "paper, ink",
    "sfomuseum:object_id": 49885,
    "sfomuseum:placetype": "object",
    "sfomuseum:primary_media_id": 1527818687,
    "sfomuseum:publication": ": , 1984.",
    "sfomuseum:subcategory": "Timetable",
    "src:geom": "sfomuseum#undetermined",
    "wof:belongsto": [
      1511214223,
      102527513,
      102191575,
      85633793,
      1511213425,
      85922583,
      102087579,
      1511214277,
      1511214207,
      85688637,
      136253057
    ],
    "wof:breaches": [],
    "wof:country": "US",
    "wof:created": 1579906678,
    "wof:depicts": [
      1159285503,
      1159286541,
      1159285413
    ],
    "wof:geomhash": "30c8a918561c84bb2daa2b97fc7c5353",
    "wof:hierarchy": [
      {
        "arcade_id": 1511213425,
        "building_id": 1511214277,
        "campus_id": 102527513,
        "concourse_id": 1511214223,
        "continent_id": 102191575,
        "country_id": 85633793,
        "county_id": 102087579,
        "custom_id": 1511909899,
        "locality_id": 85922583,
        "neighbourhood_id": -1,
        "object_id": 1511909899,
        "region_id": 85688637,
        "venue_id": 1511909899,
        "wing_id": 1511214207
      },
      {
        "continent_id": 102191575,
        "country_id": 85633793,
        "custom_id": 1511909899,
        "empire_id": 136253057,
        "object_id": 1511909899,
        "venue_id": 1511909899
      }
    ],
    "wof:id": 1511909899,
    "wof:lastmodified": 1787988176,
    "wof:name": "timetable: United Airlines and WestAir",
    "wof:parent_id": 1159162825,
    "wof:placetype": "custom",
    "wof:placetype_alt": [
      "object"
    ],
    "wof:repo": "sfomuseum-data-collection",
    "wof:superseded_by": [],
    "wof:supersedes": [],
    "wof:tags": []
  },
  "bbox": [
    -122.386155,
    37.616357,
    -122.386155,
    37.616357
  ],
  "geometry": {"type":"Point","coordinates":[-122.386155,37.616357]}
}
