{
  "id": 1914579699,
  "type": "Feature",
  "properties": {
    "date:cessation_lower": "1990-01-01",
    "date:cessation_upper": "1990-12-31",
    "date:inception_lower": "1990-01-01",
    "date:inception_upper": "1990-12-31",
    "edtf:cessation": "1990",
    "edtf:inception": "1990",
    "geom:area": 2.475047457570636e-7,
    "geom:bbox": "-122.386472,37.616105,-122.385834,37.616611",
    "geom:latitude": 37.61635747477365,
    "geom:longitude": -122.38615540108617,
    "millsfield:aircraft_id": [
      1159291115
    ],
    "millsfield:airline_id": [
      1159285055
    ],
    "millsfield:category_id": 1762671311,
    "millsfield:collection_id": 1511214207,
    "millsfield:company_id": [
      1159293697,
      1159292825
    ],
    "millsfield:images": [
      1914579925,
      1914579929
    ],
    "millsfield:images_colors_refs": {
      "crayola": [
        {
          "hex": "#cdc5c2"
        },
        {
          "hex": "#000000"
        },
        {
          "hex": "#dbd7d2"
        },
        {
          "hex": "#414a4c"
        }
      ],
      "css4": [
        {
          "hex": "#000000"
        },
        {
          "hex": "#d8bfd8"
        },
        {
          "hex": "#2f4f4f"
        }
      ],
      "marekm4": [
        {
          "hex": "#d6c3d0"
        },
        {
          "hex": "#242e22"
        },
        {
          "hex": "#1c2b1b"
        },
        {
          "hex": "#d7c7d1"
        }
      ]
    },
    "millsfield:images_texts": [
      "REEVE ALEUTIAN AIRWAYS, INC.\nIMPORTANT INFORMATION FOR OUR PASSENGERS\nWhat to do in case of a water landing:\nYour Flight Attendant will help you with the following\n1. Put out cigarettes immediately. Put your\nseat back and tray table in the full upright\nposition.\n2. Remove high heeled shoes and cumbersorie\nclothing. Loosen your collar and tie. Remove\nthings that might hurt you, such as eyeglasses,\npens and sharp objects.\n3. Take your life vest out of the pouch\nunderneath your seat, remove it from the\nplastic bag, and put it on. (See below) Do NOT\ninflate it.\n4. Sit down and fasten your seat belt TIGHT\nand LOW. Locate the emergency exits nearest\nyour seat and know how to open them (see\nother side).\n5. A short time before landing you will receive\na \"Brace\" signal. Of the two Brace Positions\nshown below, use the one that is best suited\nfor the amount of room at your seat. This is\nIMPORTANT, to reduce the shock of sudden\ndeceleration.\n6. AFTER ALL MOTION HAS STOPPED,\nunfasten your seatbelt and go quickly to the\nnearest useable exit. Crew members will direct\nyou to rafts.\nDO NOT INFLATE VEST INSIDE THE AIRPLANE\n1. Take vest out of underseat\npouch\nand\nremove\nfrom\nplastic bag. Put vest on over\nyour head with bulky section\nin front.\n2. Pass strap to the side,\naround the back, to the front\nand fasten. Pull strap to\ntighten.\n3. Inflate AFTER leaving the\naircraft by jerking down on\ntwo toggles at the bottom.\nFor added buoyancy, blow\ninto tubes at the top.\nCrew members will be identified by pink or orange vests.\nThis aircraft is in constant radio contact with Company and FAA radio stations. In the event\nof an emergency, Search and Rescue operations will be put into action immediately.\nBRACE POSITIONS\nUse this position if you don't have\nenough room for the other.\nELECTRONIC DEVICES -\nFederal Aviation Regulations permit ONLY the following electronic\ndevices to be operated aboard Reeve Aleutian Airways aircraft: heart\npacemakers, hearing aids, electric shavers, and portable voice recorders.\nNOTE: Operation of portable radios is NOT allowed by R.A.A.\nPLEASE DO NOT REMOVE THIS CARD FROM AIRPLANE\n2002127.496",
      "REEVE ALEUTIAN AIRWAYS, INC.\nIMPORTANT\nINFORMATION\nFOR OUR PASSENGERS\nYou are flying aboard an aircraft with a thoroughly trained and\nexperienced Flight Crew. Although it is extremely unlikely that an\nemergency would occur, you should study this card to learn the exits\nlocated nearest your seat and how to open them.\nMAIN CABIN DOOR WITH\nAUTOMATIC INFLATION SLIDE\nN9744C\nTo Open:\nPULL T-handle\nDOWN. Open door\nby LIFTING bar at\nbottom of door.\n(Slide will inflate)\nPush T-handle UP to\nlock door open.\nCARGO\nCOMPARTMENT\nEMERGENCY DOOR WITH AUTOMATIC INFLATION SLIDE\nTo Open:\nREMOVE cover and\npull T-handle DOWN.\nREMOVE door\ninward and put\naside.\nSTAND TO SIDE\nREMOVE slide handle cover\nand PULL handle UP. (Slide\nwill swing to doorway and\ninflate.)\nFORWARD\nPARTITION\nSEE\nNOTE\nWINDOW\nEXIT\nSEE\nNOTE\nWINDOW\nEXIT\nSEATS\nMAIN CABIN\nDOOR/SLIDE\nSEATS\nEVACUATION SLIDE\nUse manual inflation\nhandle, if necessary.\nWINDOW EXITS\nTo Open:\nREMOVE cover.\nPULL T-handle\nDOWN.\nREMOVE window\nINWARD.\nEMERGENCY\nDOOR/SLIDE\nIMPORTANT!\nIN OUR 28-SEAT CONFIGURATION,\nWINDOW EXITS ARE NOT REQUIRED AND\nARE NOT AVAILABLE IN PASSENGER CABIN.\nPLEASE SEE OTHER SIDE\nFIRST AID KIT\nLIFE RAFT\nEXTINGUISHER\nMAN 105 (Rev. 2/90)"
    ],
    "millsfield:images_texts_ids": [
      1914579925,
      1914579929
    ],
    "millsfield:primary_image": 1914579925,
    "millsfield:subcategory_id": 1511213703,
    "mz:is_approximate": 1,
    "mz:is_current": 1,
    "sfomuseum:accession_number": "2002.127.496",
    "sfomuseum:aircraft": "Lockheed L-188 Electra",
    "sfomuseum:aircraft_id": [
      800
    ],
    "sfomuseum:airline": "RAA (Reeve Aleutian Airways)",
    "sfomuseum:airline_id": [
      716
    ],
    "sfomuseum:category": "Passenger Amenity, Archive",
    "sfomuseum:classification_id": 581,
    "sfomuseum:collection": "Aviation Archive",
    "sfomuseum:creditline": "Gift of Thomas G. Dragges",
    "sfomuseum:date": "1990",
    "sfomuseum:date_acquired": "2003-12-22",
    "sfomuseum:daterange_end": "1990-12-31",
    "sfomuseum:daterange_start": "1990-01-01",
    "sfomuseum:description": "Safety information card issued by Reeve Aleutian Airways for the Lockheed L-188 Electra fleet; double-sided card with illustrations depicting inflight safety and emergency procedures; identification code: MAN 105; revision date: 2/90.",
    "sfomuseum:dimensions": "10 x 5 inches (25.4 x 12.7 cm)",
    "sfomuseum:medium": "paper, ink",
    "sfomuseum:object_id": 69265,
    "sfomuseum:placetype": "object",
    "sfomuseum:publication": ": , 1990.",
    "sfomuseum:subcategory": "Safety Information Card",
    "src:geom": "sfomuseum#undetermined",
    "wof:belongsto": [
      102527513,
      1159162825,
      102191575,
      85633793,
      102087579,
      85922583,
      85688637,
      1159160869
    ],
    "wof:country": "XY",
    "wof:created": 1720683213,
    "wof:depicts": [
      1159285055,
      1159291115,
      1159293697,
      1159292825
    ],
    "wof:geomhash": "c281b9d9eefc83b5710e64b9d646067d",
    "wof:hierarchy": [
      {
        "building_id": -1,
        "campus_id": 102527513,
        "collection_id": 1159162825,
        "concourse_id": 1159162825,
        "continent_id": 102191575,
        "country_id": 85633793,
        "county_id": 102087579,
        "custom_id": 1914579699,
        "locality_id": 85922583,
        "neighbourhood_id": -1,
        "object_id": 1914579699,
        "region_id": 85688637,
        "wing_id": 1159160869
      }
    ],
    "wof:id": 1914579699,
    "wof:lastmodified": 1787988221,
    "wof:name": "safety information card: Reeve Aleutian Airways, Lockheed L-188 Electra",
    "wof:parent_id": 1159162825,
    "wof:placetype": "custom",
    "wof:placetype_alt": [
      "object"
    ],
    "wof:repo": "sfomuseum-data-collection",
    "wof:superseded_by": [],
    "wof:supersedes": []
  },
  "bbox": [
    -122.38647222518921,
    37.6161053594541,
    -122.38583385944366,
    37.61661101879963
  ],
  "geometry": {"type":"Polygon","coordinates":[[[-122.38647222518921,37.61631782178288],[-122.386434674263,37.61623283692423],[-122.38637566566466,37.61617759671399],[-122.38630056381224,37.6161308549656],[-122.38616108894348,37.6161053594541],[-122.38602161407469,37.6161308549656],[-122.38591432571411,37.61618609521055],[-122.38585531711577,37.61626683087935],[-122.38583385944366,37.61636881265146],[-122.38587141036987,37.61646654505181],[-122.38594114780425,37.61654303118856],[-122.38605380058287,37.61660252035167],[-122.38618254661559,37.61661101879963],[-122.3863059282303,37.61657277577607],[-122.3864185810089,37.61650903735973],[-122.3864668607712,37.61641130501523],[-122.38647222518921,37.61631782178288]]]}
}
