{
  "id": 1846754411,
  "type": "Feature",
  "properties": {
    "date:cessation_lower": "1921-01-01",
    "date:cessation_upper": "1921-12-31",
    "date:inception_lower": "1921-01-01",
    "date:inception_upper": "1921-12-31",
    "edtf:cessation": "1921",
    "edtf:inception": "1921",
    "geom:area": 2.475047457570636e-7,
    "geom:bbox": "-122.386472,37.616105,-122.385834,37.616611",
    "geom:latitude": 37.61635747477365,
    "geom:longitude": -122.38615540108617,
    "millsfield:aircraft_id": [
      1159289369
    ],
    "millsfield:airline_id": [
      1796785063
    ],
    "millsfield:category_id": 1763416397,
    "millsfield:collection_id": 1511214207,
    "millsfield:company_id": [
      1159293955
    ],
    "millsfield:images": [
      1846755131,
      1846755133,
      1846755137
    ],
    "millsfield:images_colors_refs": {
      "crayola": [
        {
          "hex": "#414a4c"
        },
        {
          "hex": "#6699cc"
        },
        {
          "hex": "#2e5894"
        },
        {
          "hex": "#000000"
        },
        {
          "hex": "#c5d0e6"
        }
      ],
      "css4": [
        {
          "hex": "#d3d3d3"
        },
        {
          "hex": "#000000"
        },
        {
          "hex": "#dcdcdc"
        },
        {
          "hex": "#2f4f4f"
        },
        {
          "hex": "#4682b4"
        },
        {
          "hex": "#778899"
        }
      ],
      "marekm4": [
        {
          "hex": "#282724"
        },
        {
          "hex": "#496e9b"
        },
        {
          "hex": "#cbd7e3"
        },
        {
          "hex": "#718eb2"
        },
        {
          "hex": "#232221"
        },
        {
          "hex": "#ced9e3"
        },
        {
          "hex": "#d4dee6"
        },
        {
          "hex": "#211f1d"
        }
      ]
    },
    "millsfield:images_texts": [
      "M. Burden\nFLY\nAcromarine\nFLYING BOATS\nALWAYS OVER THE WATER\nNothing more serious can happen to an Aeromarine\nin flight than an enforced descent-and herein is one\nof the great advantages of travel in flying boats— you\nalways, always have the necessary alighting space.\nYou fly only over the broad free spaces of the waters'\nThis gives you the knowledge of 100 per\ncent. safety when you take your flight.\nAeromarine Airways, Inc.\n(Established 1920)\nLargest Aerial Transportation Company in the\nWorld Operating Flying Boats\nEleven Passenger Enclosed Cabin Air Cruisers\nSix Seat Navy Open Cockpit Flying Boats\nExecutive Offices:\n1800 TIMES BUILDING, NEW YORK\nPhone Bryant 4505-6147\n1125 BOARDWALK, ATLANTIC CITY\nPhone Atlantic City 5864\nCOFYRIGHT AFRONARINE AIRWAYS, INC.. 1922",
      "FLY\nWITH THE FAMOUS\n- eromarine\n\"BLACK TAIL\" PLED\nEqually at home on the water as in the air\n\"RemarkablePerformance\nOF THE\nAeromarine Airways, Inc.\n150,380 Miles Flown in Absolute Safety\n10,700 Passengers Carried\nSpecial Week-End Charter Parties\nA delightful way to entertain your guests over the week end—\nleave New York on Friday or Saturday in an Aeromarine Aying\nboat returning Monday morning after a refreshing flight to and\nfrom some shore resort-rates are exceedingly low.\nAEROMARINE AIRWAYS, Inc.\n1800 TIMES BUILDING, NEW YORK\nPhone Bryant 4505-6147\n1125 BOARDWALK, ATLANTIC CITY\nPhone Atlantic City 5864\n2022.",
      "FLY THERE!\nIN AN\nIt's Comfortable\nAeromarine\nREG. U.S. PAT. OFFICE\nFLYING\nBOAT\nFascinating-Safe\nNEW YORK-ATLANTIC CITY SPECIAL-DAILY-ROUND TRIP FARE,$75.00\nRATES\nPER PASSENGER\n(One Way Only)\nLower Rates for\nRound Trip Flights\nAeromarine Route No. 1\nTime\nMins.\nRate\nNew Rochelle\n20\n$20.00\nStamford, Conn.\n35\n25.00\nNorwalk.\n40\n30.00\nBridgeport.\n50\n35.00\nNew Haven\n60\n40.00\nNew London\n85\n60.00\nFisher's Island\n100\n65.00\nALBANY O\nBOSTONG\nNEWPORT\nNEW LONDONO\nNEW HAVENO\n* BRIDGE®\nPORT\nNEWYORK\nAeromarine Route No.\nTime\nMins.\nGlen Cove,\nL. l. 25\nHuntington\nBay\n35\nPort Jefferson.....\n50\nSag Harbor\n80\nGardiner's Island 95\nRate\n$20.00\n25.00\n35.00\n55.00\n60.00\nSCONEY ISLAND\nZOLONG BEACH\nCHLONG BRANCH\nDIA SBURY PARK\nO SPRING LAKE\nO BARNEGAT\nView of Lower Manhattan Island From An Aeromarine\nAERIAL SIGHTSEEING FLIGHTS OVER NEW YORK\nFlight No. 1.-The $10.00 Flight leaves 79th Street and flies up the\nHudson to about Grant's Tomb and down around the Battery circling the\nStatue of Liberty. This affords a wonderful view of the city with its architec-\ntural wonders, the Palisades and the Ramapo Mountains of New Jersey.\nFlight No. 2.-The $20.00 Flight makes a complete circuit of the\nIsland of Manhattan; flying\ndown the\nHudson\naround\nBattery and\nStatue of Liberty, up the East River past Hell Gate,\nthe\nBronx, and then\ndown the Hudson River.\nAll of the 10,000 passengers who have flown in\nour boats in\nsafety and comfort comment enthusiastically on the dependa-\nbility of the Aeromarine organization.\nYou see more on a few minutes flight than you could in days of ordinary\ntravel, while having the assurance of being absolutely safe.\nAeromarine Route No. 3\nTime\nMins.\nRate\nLong Beach.\n22\n$20.00\nPatchogue\n60\n40.00\nEast Port\n70\n45.00\nSouthampton\n75\n50.00\nEast Hampton....\n80\n55.00\nTime\nMins.\n20\n22\n'ATLANTIC CITY\nO CAPE MAY\nAeromarine Route No. 4\nRed Bank, N. J\nLong Branch...\n(Landing in\nShrewsbury River)\nRate\n$20.00\n20.00\nAsbury Park.\nTime\nMins.\n30\nRate\n$25.00\n(Landing in\nShark River)\nIsland Heights\nBarnegat\nAtlantic City\n40\n60\n75\n35.00\n40.00\n45.00\nMake reservations by phoning our office, Bryant 4505-6147 or at\nporters desk at the leading hotels\nLANDING PIERS\nFoot of 79th Street, Hudson River\nPhone, Schuyler 8017\nNO AB For the convenience of passengers be has mared this 4 farmarind yacht\noff the 79th Street landing\nThere is a lururiously furnished cabin\nexclusively for use as a Ladies' Rest Room.\nTea is served without extra charge\nMotor Route direct to landing, or Subway to 79th Street\nand walk west to River\nevery afternoon. Steward in attendance. A private motor launch direct to yacht.\nAeromarine Airways, Inc. C. FREDDEN Executive Offices: 1800 Times Bldg., N.Y. City\nThe Largest Aerial Transportation Company in the World Operating Flying Boats\nNew York, Atlantic City, Buffalo, Cleveland, Detroit, Key West, Havana, Palm Beach, Miami, Bimini, Nassau\n\"Be Sure It's An Aeromarine\"\nWRITE FOR ILLUSTRATED DESCRIPTIVE BOOKLET, \"WHAT THEY SAY ABOUT THE AEROMARINE FLYING BOAT SERVICE\"\nFLY ACROSS LAKE ERIE-DAILY SCHEDULE-DETROIT-CLEVELAND"
    ],
    "millsfield:images_texts_ids": [
      1846755131,
      1846755133,
      1846755137
    ],
    "millsfield:primary_image": 1846755131,
    "millsfield:subcategory_id": 1511213631,
    "mz:is_approximate": 1,
    "mz:is_current": 1,
    "sfomuseum:accession_number": "2022.124.697",
    "sfomuseum:aircraft": "Aeromarine 75",
    "sfomuseum:aircraft_id": [
      6
    ],
    "sfomuseum:airline": "Aeromarine Airways",
    "sfomuseum:airline_id": [
      1582
    ],
    "sfomuseum:category": "Promotional, Archive",
    "sfomuseum:classification_id": 283,
    "sfomuseum:collection": "Aviation Archive",
    "sfomuseum:creditline": "Gift of Jon E. Krupnick",
    "sfomuseum:date": "1921",
    "sfomuseum:date_acquired": "2022-12-14",
    "sfomuseum:daterange_end": "1921-12-31",
    "sfomuseum:daterange_start": "1921-01-01",
    "sfomuseum:description": "Brochure issued by Aeromarine Airways promoting service to New York City and New England coast; bi-fold format; white and blue cover with duotone image of Aeromarine 75 in flight; duotone images, route map, and list of fares on interior.",
    "sfomuseum:dimensions": "8 1/2 x 4 inches (21.6 x 10.2 cm)",
    "sfomuseum:medium": "paper, ink",
    "sfomuseum:object_id": 233619,
    "sfomuseum:placetype": "object",
    "sfomuseum:publication": ": , 1921.",
    "sfomuseum:subcategory": "Brochure, Airline",
    "src:geom": "sfomuseum#undetermined",
    "wof:belongsto": [
      102527513,
      1159162825,
      102191575,
      85633793,
      102087579,
      85922583,
      85688637,
      1159160869
    ],
    "wof:country": "XY",
    "wof:created": 1680078316,
    "wof:depicts": [
      1796785063,
      1159289369,
      1159293955
    ],
    "wof:geomhash": "c281b9d9eefc83b5710e64b9d646067d",
    "wof:hierarchy": [
      {
        "building_id": -1,
        "campus_id": 102527513,
        "collection_id": 1159162825,
        "concourse_id": 1159162825,
        "continent_id": 102191575,
        "country_id": 85633793,
        "county_id": 102087579,
        "custom_id": 1846754411,
        "locality_id": 85922583,
        "neighbourhood_id": -1,
        "object_id": 1846754411,
        "region_id": 85688637,
        "wing_id": 1159160869
      }
    ],
    "wof:id": 1846754411,
    "wof:lastmodified": 1787988214,
    "wof:name": "brochure: Aeromarine Airways, “Fly in Aeromarine Flying Boats”",
    "wof:parent_id": 1159162825,
    "wof:placetype": "custom",
    "wof:placetype_alt": [
      "object"
    ],
    "wof:repo": "sfomuseum-data-collection",
    "wof:superseded_by": [],
    "wof:supersedes": []
  },
  "bbox": [
    -122.38647222518921,
    37.6161053594541,
    -122.38583385944366,
    37.61661101879963
  ],
  "geometry": {"type":"Polygon","coordinates":[[[-122.38647222518921,37.61631782178288],[-122.386434674263,37.61623283692423],[-122.38637566566466,37.61617759671399],[-122.38630056381224,37.6161308549656],[-122.38616108894348,37.6161053594541],[-122.38602161407469,37.6161308549656],[-122.38591432571411,37.61618609521055],[-122.38585531711577,37.61626683087935],[-122.38583385944366,37.61636881265146],[-122.38587141036987,37.61646654505181],[-122.38594114780425,37.61654303118856],[-122.38605380058287,37.61660252035167],[-122.38618254661559,37.61661101879963],[-122.3863059282303,37.61657277577607],[-122.3864185810089,37.61650903735973],[-122.3864668607712,37.61641130501523],[-122.38647222518921,37.61631782178288]]]}
}
