{
  "id": 1511909963,
  "type": "Feature",
  "properties": {
    "date:cessation_lower": "1987-01-01",
    "date:cessation_upper": "1987-12-31",
    "date:inception_lower": "1987-01-01",
    "date:inception_upper": "1987-12-31",
    "edtf:cessation": "1987",
    "edtf:date": "1987",
    "edtf:inception": "1987",
    "geom:area": 0,
    "geom:bbox": "-122.386155,37.616357,-122.386155,37.616357",
    "geom:latitude": 37.616357,
    "geom:longitude": -122.386155,
    "iso:country": "US",
    "millsfield:airline_id": [
      1159285413
    ],
    "millsfield:category_id": 1511214223,
    "millsfield:collection_id": 1511214207,
    "millsfield:company_id": [
      1159288779
    ],
    "millsfield:images": [
      1527818545,
      1527818547,
      1527851085
    ],
    "millsfield:images_colors_refs": {
      "crayola": [
        {
          "hex": "#fddde6"
        },
        {
          "hex": "#9c7c38"
        },
        {
          "hex": "#87a96b"
        },
        {
          "hex": "#c5d0e6"
        },
        {
          "hex": "#000000"
        },
        {
          "hex": "#2e5894"
        },
        {
          "hex": "#6699cc"
        },
        {
          "hex": "#cd4a4c"
        },
        {
          "hex": "#85754e"
        },
        {
          "hex": "#414a4c"
        }
      ],
      "css4": [
        {
          "hex": "#b0c4de"
        },
        {
          "hex": "#d2691e"
        },
        {
          "hex": "#bdb76b"
        },
        {
          "hex": "#5f9ea0"
        },
        {
          "hex": "#000000"
        },
        {
          "hex": "#f5f5f5"
        },
        {
          "hex": "#556b2f"
        },
        {
          "hex": "#6b8e23"
        },
        {
          "hex": "#4682b4"
        },
        {
          "hex": "#cd853f"
        },
        {
          "hex": "#2f4f4f"
        },
        {
          "hex": "#a52a2a"
        },
        {
          "hex": "#e6e6fa"
        }
      ],
      "marekm4": [
        {
          "hex": "#bbcdd2"
        },
        {
          "hex": "#ededf0"
        },
        {
          "hex": "#465d28"
        },
        {
          "hex": "#39422e"
        },
        {
          "hex": "#222b15"
        },
        {
          "hex": "#c25935"
        },
        {
          "hex": "#a0a157"
        },
        {
          "hex": "#e9e8e8"
        },
        {
          "hex": "#688842"
        },
        {
          "hex": "#6f95a5"
        },
        {
          "hex": "#5c92af"
        },
        {
          "hex": "#ba3e2d"
        },
        {
          "hex": "#42759b"
        },
        {
          "hex": "#9f9445"
        },
        {
          "hex": "#4f9834"
        }
      ]
    },
    "millsfield:images_texts": [
      "M UNITED AIRLInES\nAn ALLEGİS Company\nOur Friendly Times\nApril 5, 1987\nVol. 2",
      "United Airilnes\nP.O. Box 391\nGeneva, Illinois 60134\nAPRIL\n25\n20 21 25 29 34\n7\n10 11 12 1k\n14\n17 16 19 20\n21\n22\n24 25 26 27 28\n30\nPrinted by The Strathmore Co, USA\n991.04",
      "8 AM\n• AN\n10.00\n9-00\nINDIAN\nOCEAN\nAUSTRALIA\n10 AM\nPACIFIC\nOCEAN\n10 AN\nNOON\nMONDAY | SUNDAY\n2 PM\n3 PM\nCANAD.\n2.00-\nNITED STATES\n12.00\n# ixtapa/Zihuatar\nPACIFIC\nOCEAN\nUV UNITED AIRLINES\nInternational Routes\nTokvo\nCities served by United Airlines\nSaltillo\nOther cities\nCities at which Westin Hotel\nnra locatedi\nInternational routes\nMajor domestic connecting routes\nNEW\nZEALAND\n11AN\n1 PM\n6 PA\nNew York s\nashington e\nATLANTIC\nOCEAN\nHE BAHAM?\n. Nassal\nWESTIN HOTELS\nThe Westin Galleria, Houston\nAPRIL\nT W\n5 6,7\n9 10 11\n12 13 14 15 16 17 18\n19 20 21 22 23 24 25\n26 27 28 29 30.\nThe Westin Oaks, Houston\nMAY\nT W\n11 12\n17\n18 19 20\n24 25 26 27 28 29 30\n31\nPrinted by The Strathmore Co., U.S.A.\n(For Timetable returns ONLY)\nGeneva, Illinois 60134\nP.O. Box 391\n1999.047 547\nUnited/Westin Hotels-Partners in Travel\nUnited Airlines"
    ],
    "millsfield:images_texts_ids": [
      1527818545,
      1527818547,
      1527851085
    ],
    "millsfield:primary_image": 1527818545,
    "millsfield:subcategory_id": 1511213425,
    "mz:hierarchy_label": 1,
    "mz:is_current": 1,
    "sfomuseum:accession_number": "1999.047.547",
    "sfomuseum:airline": "United Airlines",
    "sfomuseum:airline_id": [
      883
    ],
    "sfomuseum:category": "Scheduling / Ticketing",
    "sfomuseum:classification_id": 158,
    "sfomuseum:collection": "Aviation Archive",
    "sfomuseum:continent": "North America",
    "sfomuseum:country": "United States",
    "sfomuseum:creditline": "Gift of United Airlines Archives",
    "sfomuseum:date": "1987",
    "sfomuseum:date_acquired": "2000-05-11",
    "sfomuseum:daterange_end": "1987-12-31",
    "sfomuseum:daterange_start": "1987-01-01",
    "sfomuseum:description": "Timetable issued by United Airlines, effective April 5, 1987; white cover with color photographic image of traditional structure with caption “Seoul, Korea”.",
    "sfomuseum:dimensions": "9 x 4 inches (22.9 x 10.2 cm)",
    "sfomuseum:media_ids": [
      1527818545,
      1527818547,
      1527851085
    ],
    "sfomuseum:medium": "paper, ink",
    "sfomuseum:object_id": 49920,
    "sfomuseum:placetype": "object",
    "sfomuseum:primary_media_id": 1527818545,
    "sfomuseum:publication": ": , 1987.",
    "sfomuseum:subcategory": "Timetable",
    "src:geom": "sfomuseum#undetermined",
    "wof:belongsto": [
      102191575,
      85633793,
      136253057,
      1511214223,
      102527513,
      1511213425,
      85922583,
      102087579,
      1511214277,
      1511214207,
      85688637
    ],
    "wof:breaches": [],
    "wof:country": "US",
    "wof:created": 1579906678,
    "wof:depicts": [
      1159285413,
      1159288779
    ],
    "wof:geomhash": "30c8a918561c84bb2daa2b97fc7c5353",
    "wof:hierarchy": [
      {
        "continent_id": 102191575,
        "country_id": 85633793,
        "custom_id": 1511909963,
        "empire_id": 136253057,
        "object_id": 1511909963,
        "venue_id": 1511909963
      },
      {
        "arcade_id": 1511213425,
        "building_id": 1511214277,
        "campus_id": 102527513,
        "concourse_id": 1511214223,
        "continent_id": 102191575,
        "country_id": 85633793,
        "county_id": 102087579,
        "custom_id": 1511909963,
        "locality_id": 85922583,
        "neighbourhood_id": -1,
        "object_id": 1511909963,
        "region_id": 85688637,
        "venue_id": 1511909963,
        "wing_id": 1511214207
      }
    ],
    "wof:id": 1511909963,
    "wof:lastmodified": 1787988176,
    "wof:name": "timetable: United Airlines",
    "wof:parent_id": 1159162825,
    "wof:placetype": "custom",
    "wof:placetype_alt": [
      "object"
    ],
    "wof:repo": "sfomuseum-data-collection",
    "wof:superseded_by": [],
    "wof:supersedes": [],
    "wof:tags": []
  },
  "bbox": [
    -122.386155,
    37.616357,
    -122.386155,
    37.616357
  ],
  "geometry": {"type":"Point","coordinates":[-122.386155,37.616357]}
}
