{
  "id": 1763257605,
  "type": "Feature",
  "properties": {
    "date:cessation_lower": "1968-01-01",
    "date:cessation_upper": "1968-12-31",
    "date:inception_lower": "1968-01-01",
    "date:inception_upper": "1968-12-31",
    "edtf:cessation": "1968",
    "edtf:inception": "1968",
    "geom:area": 2.475047457570636e-7,
    "geom:bbox": "-122.386472,37.616105,-122.385834,37.616611",
    "geom:latitude": 37.61635747477365,
    "geom:longitude": -122.38615540108617,
    "millsfield:airline_id": [
      1159284695
    ],
    "millsfield:category_id": 1511214223,
    "millsfield:collection_id": 1511214207,
    "millsfield:company_id": [
      1159288801
    ],
    "millsfield:images": [
      1763257875
    ],
    "millsfield:images_colors_refs": {
      "crayola": [
        {
          "hex": "#85754e"
        },
        {
          "hex": "#9f8170"
        },
        {
          "hex": "#714b23"
        },
        {
          "hex": "#dbd7d2"
        }
      ],
      "css4": [
        {
          "hex": "#bc8f8f"
        },
        {
          "hex": "#8b4513"
        },
        {
          "hex": "#d3d3d3"
        },
        {
          "hex": "#a0522d"
        }
      ],
      "marekm4": [
        {
          "hex": "#90684f"
        },
        {
          "hex": "#673216"
        },
        {
          "hex": "#a98b74"
        },
        {
          "hex": "#dfd3c5"
        }
      ]
    },
    "millsfield:images_texts": [
      "ICELANDIC AIRLINES\nO LOFTLEIDIR\nSUMMER TIMETABLE\nQUICK REFERENCE\nEffective May 1, 1968 to October 31, 1968\nFROM NEW YORK (1)\nLEAVING\nFLT. NO.\nARRIVING\n2100 Tu\n2100 Fr\n2100 Su\n420/422\n420/422\n420/424\n1600 We\n1600 Sa\n1515 Mo\n2100 Mo\n430/432\n1300 Tu\n2100 Tu\n2100 Fr\n420/422\n420/422\n1500 We\n1500 Sa\n2100 Mo\n430/432\n1430 Tu\n2230 Daily\n400/402\n2330 TuThSaSu\n410/412(a)\n1200 WeThFrSa 414/416(b)\n1630 Daily\n1730 WeFrSuMo\n0600 ThrSaSu\n2100 Tu\n2100 Fr\n2100 Su\n420/422\n420/422\n420/424\n1345 We\n1345 Sa\n1345 Mo\n2230 Daily\n2330 TuThSaSu\n1200 WeThFrSa\n2100 Mo\n2100 Tu\n2100 Fr\n2100 Su\n400\n410(a)\n414(b)\n430\n420\n420\n420\n1000 Daily\n1100 WeFrSuMo\n2330 WeThFrSa\n0830 Tu\n0830 We\n0830 Sa\n0830 Mo\n(a)\n(b)\nValid May 16 - Sct. 12.\nValid May 16 -\nTO/FROM\nCOPENHAGEN\nGLASGOW\nGOTHENBURG\nLONDON\nLUXEMBOURG\nOSLO\nREYKJAVIK\nTO NEW YORK (1)\nLEAVING\n[FLT. NO.\nARRIVING\n1945 Mo\n1900 We\n1900 Sa\n425/421\n423/421\n423/421\n0500 Tu\n0500 Th\n0500 Su\n2230 Tu\n433/431\n0500 We\n2015 We\n2015 Sa\n423/421\n423/421\n0500 Th\n0500 Su\n2030 Tu\n433/431\n0500 We\n2230 Daily\n403/401\n2359 MoWerSul\n413/411(c)\n0900 ThFrSaSu\n417/415(d)\n0700 Daily\n0830 TuThSaMo\n1730 ThFrSaSu\n2145 Mo\n2145 We\n2145 Sa\n425/421\n423/421\n423/421\n0500 Tu\n0500 Th\n0500 Su\n0315 Daily\n0445 TuThSaMo\n1345 ThrSaSu\n0115 Tu\n0115 Th\n0115 Su\n0115 We\n401\n411(c)\n415(d)\n421\n421\n421\n431\n0700 Daily\n0830 TuThSaMo\n1730 ThFr SaSu\n0500 Tu\n0500 Th\n0500 Su\n0500 We\n(c)\nOct. 15\nd) Valid May 25 - Oct. 1\nDirect Bus Service from Luxembourg Airport coordinated with flight arrivals and departures.\nFor a complete schedule of arrivals and departures of buses, ask for Air-Bus folder.\nBUS FARES\nFrank-\nMann-\nKaisers-\nOne-Way\nFare\nParis\nChalons-\nsur-Marne\nLuxembourg\n$8.00\n$5.00\nChildren 2 to 12 half fare.\nVerdun\n$3.00\nEtain\n$3.00\n$7.00\n$6.50\n$5.00\nSaar-\nbrucken\n$3.00\nWupper-\ntal\n$7.00\nDussel-\ndorf\n$6.50\nCologne\n$6.00\nSTEP OFF • STOPOVER\nAND ENJOY 24-48 HOURS IN ICELAND\nWORLD'S NEWEST TOURIST DISCOVERY\nBitburg\n$3.00\nIAL Form 2-33-50M\nLitho. U.S.A."
    ],
    "millsfield:images_texts_ids": [
      1763257875
    ],
    "millsfield:primary_image": 1763257875,
    "millsfield:subcategory_id": 1511213425,
    "mz:is_approximate": 1,
    "mz:is_current": 1,
    "sfomuseum:accession_number": "2018.138.031",
    "sfomuseum:airline": "Icelandic Airlines",
    "sfomuseum:airline_id": [
      553
    ],
    "sfomuseum:category": "Scheduling / Ticketing",
    "sfomuseum:classification_id": 158,
    "sfomuseum:collection": "Aviation Archive",
    "sfomuseum:creditline": "Gift of Scott Duncan",
    "sfomuseum:date": "1968",
    "sfomuseum:date_acquired": "2018-12-31",
    "sfomuseum:daterange_end": "1968-12-31",
    "sfomuseum:daterange_start": "1968-01-01",
    "sfomuseum:description": "Quick reference timetable issued by Icelandic Airlines (Loftleidir) for summer service, effective May 1, 1968; double-sided format; brown and white with text, “Step off - stopover and enjoy 24-48 hours in Iceland / World’s newest tourist discovery”.",
    "sfomuseum:dimensions": "9 x 4 inches (22.9 x 10.2 cm)",
    "sfomuseum:medium": "paper, ink",
    "sfomuseum:object_id": 200934,
    "sfomuseum:placetype": "object",
    "sfomuseum:publication": ": , 1968.",
    "sfomuseum:subcategory": "Timetable",
    "src:geom": "sfomuseum#undetermined",
    "wof:belongsto": [
      102527513,
      1159162825,
      102191575,
      85633793,
      102087579,
      85922583,
      85688637,
      1159160869
    ],
    "wof:country": "XY",
    "wof:created": 1647074387,
    "wof:depicts": [
      1159288801,
      1159284695
    ],
    "wof:geomhash": "c281b9d9eefc83b5710e64b9d646067d",
    "wof:hierarchy": [
      {
        "building_id": -1,
        "campus_id": 102527513,
        "collection_id": 1159162825,
        "concourse_id": 1159162825,
        "continent_id": 102191575,
        "country_id": 85633793,
        "county_id": 102087579,
        "custom_id": 1763257605,
        "locality_id": 85922583,
        "neighbourhood_id": -1,
        "object_id": 1763257605,
        "region_id": 85688637,
        "wing_id": 1159160869
      }
    ],
    "wof:id": 1763257605,
    "wof:lastmodified": 1787988206,
    "wof:name": "timetable: Icelandic Airlines (Loftleidir), quick reference, summer service",
    "wof:parent_id": 1159162825,
    "wof:placetype": "custom",
    "wof:placetype_alt": [
      "object"
    ],
    "wof:repo": "sfomuseum-data-collection",
    "wof:superseded_by": [],
    "wof:supersedes": []
  },
  "bbox": [
    -122.38647222518921,
    37.6161053594541,
    -122.38583385944366,
    37.61661101879963
  ],
  "geometry": {"type":"Polygon","coordinates":[[[-122.38647222518921,37.61631782178288],[-122.386434674263,37.61623283692423],[-122.38637566566466,37.61617759671399],[-122.38630056381224,37.6161308549656],[-122.38616108894348,37.6161053594541],[-122.38602161407469,37.6161308549656],[-122.38591432571411,37.61618609521055],[-122.38585531711577,37.61626683087935],[-122.38583385944366,37.61636881265146],[-122.38587141036987,37.61646654505181],[-122.38594114780425,37.61654303118856],[-122.38605380058287,37.61660252035167],[-122.38618254661559,37.61661101879963],[-122.3863059282303,37.61657277577607],[-122.3864185810089,37.61650903735973],[-122.3864668607712,37.61641130501523],[-122.38647222518921,37.61631782178288]]]}
}
