{
  "id": 1913795555,
  "type": "Feature",
  "properties": {
    "date:cessation_lower": "1937-08-13",
    "date:cessation_upper": "1937-08-13",
    "date:inception_lower": "1937-08-13",
    "date:inception_upper": "1937-08-13",
    "edtf:cessation": "1937-08-13",
    "edtf:inception": "1937-08-13",
    "geom:area": 2.475047457570636e-7,
    "geom:bbox": "-122.386472,37.616105,-122.385834,37.616611",
    "geom:latitude": 37.61635747477365,
    "geom:longitude": -122.38615540108617,
    "millsfield:airline_id": [
      1159284991
    ],
    "millsfield:category_id": 1511214251,
    "millsfield:collection_id": 1511214207,
    "millsfield:company_id": [
      1159286839
    ],
    "millsfield:images": [
      1913802357,
      1913802359
    ],
    "millsfield:images_colors_refs": {
      "crayola": [
        {
          "hex": "#414a4c"
        },
        {
          "hex": "#edd19c"
        },
        {
          "hex": "#6e5160"
        }
      ],
      "css4": [
        {
          "hex": "#f5deb3"
        },
        {
          "hex": "#696969"
        }
      ],
      "marekm4": [
        {
          "hex": "#e1d2aa"
        },
        {
          "hex": "#55505f"
        },
        {
          "hex": "#544d5c"
        },
        {
          "hex": "#e1d2ab"
        }
      ]
    },
    "millsfield:images_texts": [
      "hunglen\n1 13 1L\nDearist Debs -\nAm leaving this afterason for\nChengte when\nwhen o will sund\nMonday\nand\nTuesday, then go on to\nYuanan Ju ane dowa to Hansi.\ncertainly wish you war wish me.\nHair always wanted to ser Yinanan\nand Hansi and it stamid like too\nJoad an opatunity to eet pass as\nI'el Mobably ner hair another\nChaner.\nAlso\nCNA may hair to\nmour to starei from stongkong\nand I'd like to know something\nabont\nIndo - China.\nI hate being\naway from Baguns no kong bout am\nhoping\nthat\nit may be ponibe\nfor me to catch the Clippin which\nKitsue comes out on. That ship is\ntwo days lats now ane if it is\ndelayed anotter elay\nl tak that",
      "9 can\nmaking 37 wice wire yor\nfrom Hanai and also from tongkong.\nwhen\nI reach thon plaus.\nChungking is try quiet. There\nhas\nonly raid no tat\nthe\nwas\nmilitary\n-anport 12\nmiles cast when no damage was\ndone.\nmust run along mow to tiffin\nat the\nInternation al Club - in the\nJoans Brocke Bank Blag\nENAC offa use to be.\nQue my\nfor to you\nan.\nthe kids -\nJom own -\nBix\nPes. I and Bs letro have nit\nCaught\nrectur\nwith me yet. Hopr\nth m\nChengte.\nxxx\nBir\nXxx\n- Cat\nxxx Hih\n2019.121.0933"
    ],
    "millsfield:images_texts_ids": [
      1913802357,
      1913802359
    ],
    "millsfield:primary_image": 1913802357,
    "millsfield:subcategory_id": 1511213489,
    "mz:is_approximate": 1,
    "mz:is_current": 1,
    "sfomuseum:accession_number": "2019.121.0933",
    "sfomuseum:airline": "Pan American Airways",
    "sfomuseum:airline_id": [
      685
    ],
    "sfomuseum:category": "Employee Career History",
    "sfomuseum:classification_id": 195,
    "sfomuseum:collection": "Aviation Archive",
    "sfomuseum:creditline": "Collection of SFO Museum",
    "sfomuseum:date": "08/13/1937",
    "sfomuseum:date_acquired": "2019-11-22",
    "sfomuseum:daterange_end": "1937-08-13",
    "sfomuseum:daterange_start": "1937-08-13",
    "sfomuseum:description": "Handwritten letter from Harold M. Bixby to his wife, Debby Bixby, dated August 13, [1937], from Chungking [Chongqing]; includes brief update on plans to see Chengtu [Chengdu], Yunnan-fu [Kunming], and Hanoi, mention of CNAC possibly moving from Hong Kong to Hanoi.",
    "sfomuseum:dimensions": "11 x 8 1/2 inches (27.9 x 21.6 cm)",
    "sfomuseum:medium": "paper, ink",
    "sfomuseum:object_id": 211296,
    "sfomuseum:placetype": "object",
    "sfomuseum:publication": ": , 08/13/1937.",
    "sfomuseum:subcategory": "Correspondence, Personal",
    "src:geom": "sfomuseum#undetermined",
    "wof:belongsto": [
      102527513,
      1159162825,
      102191575,
      85633793,
      102087579,
      85922583,
      85688637,
      1159160869
    ],
    "wof:country": "XY",
    "wof:created": 1714548827,
    "wof:depicts": [
      1159286839,
      1159284991
    ],
    "wof:geomhash": "c281b9d9eefc83b5710e64b9d646067d",
    "wof:hierarchy": [
      {
        "building_id": -1,
        "campus_id": 102527513,
        "collection_id": 1159162825,
        "concourse_id": 1159162825,
        "continent_id": 102191575,
        "country_id": 85633793,
        "county_id": 102087579,
        "custom_id": 1913795555,
        "locality_id": 85922583,
        "neighbourhood_id": -1,
        "object_id": 1913795555,
        "region_id": 85688637,
        "wing_id": 1159160869
      }
    ],
    "wof:id": 1913795555,
    "wof:lastmodified": 1787988219,
    "wof:name": "correspondence: Harold M. Bixby to Debby Bixby",
    "wof:parent_id": 1159162825,
    "wof:placetype": "custom",
    "wof:placetype_alt": [
      "object"
    ],
    "wof:repo": "sfomuseum-data-collection",
    "wof:superseded_by": [],
    "wof:supersedes": []
  },
  "bbox": [
    -122.38647222518921,
    37.6161053594541,
    -122.38583385944366,
    37.61661101879963
  ],
  "geometry": {"type":"Polygon","coordinates":[[[-122.38647222518921,37.61631782178288],[-122.386434674263,37.61623283692423],[-122.38637566566466,37.61617759671399],[-122.38630056381224,37.6161308549656],[-122.38616108894348,37.6161053594541],[-122.38602161407469,37.6161308549656],[-122.38591432571411,37.61618609521055],[-122.38585531711577,37.61626683087935],[-122.38583385944366,37.61636881265146],[-122.38587141036987,37.61646654505181],[-122.38594114780425,37.61654303118856],[-122.38605380058287,37.61660252035167],[-122.38618254661559,37.61661101879963],[-122.3863059282303,37.61657277577607],[-122.3864185810089,37.61650903735973],[-122.3864668607712,37.61641130501523],[-122.38647222518921,37.61631782178288]]]}
}
