{
  "id": 1511928223,
  "type": "Feature",
  "properties": {
    "date:cessation_lower": "1979-01-01",
    "date:cessation_upper": "1979-12-31",
    "date:inception_lower": "1979-01-01",
    "date:inception_upper": "1979-12-31",
    "edtf:cessation": "1979",
    "edtf:date": "1979",
    "edtf:inception": "1979",
    "geom:area": 0,
    "geom:bbox": "-122.386155,37.616357,-122.386155,37.616357",
    "geom:latitude": 37.616357,
    "geom:longitude": -122.386155,
    "iso:country": "XX",
    "millsfield:airline_id": [
      1159284907
    ],
    "millsfield:category_id": 1511214223,
    "millsfield:collection_id": 1511214207,
    "millsfield:company_id": [],
    "millsfield:images": [
      1527837911
    ],
    "millsfield:images_colors_refs": {
      "crayola": [
        {
          "hex": "#414a4c"
        },
        {
          "hex": "#dbd7d2"
        },
        {
          "hex": "#9c2542"
        }
      ],
      "css4": [
        {
          "hex": "#a52a2a"
        },
        {
          "hex": "#d3d3d3"
        },
        {
          "hex": "#2f4f4f"
        }
      ],
      "marekm4": [
        {
          "hex": "#dfd7c2"
        },
        {
          "hex": "#ae2c25"
        },
        {
          "hex": "#464747"
        }
      ]
    },
    "millsfield:images_texts": [
      "NORTHWEST\nORIENT\nCITY TIMETABLE\nTo Anchorage\nFrom Anchorage\nReservations: 243-1123\nTo Billings\nFrom Billings\nReservations: 248-7301\nTo Bismarck\nFrom Bismarck\nReservations: 255-3054\nTo Boston\nFrom Boston\nReservations: 267-4885\nTo Bozeman\nFrom Bozeman\nReservations: 587-4591\nTo Butte\nFrom Butte\nReservations: 792-8341\nSYMBOLS:\nM Meal service appropriate\nto time of day.\nS Snack Service.\nWASHINGTON/BALTIMORE\nWashington Reservations: 337-0611\nBaltimore Reservations: 837-6663\nSchedule Effective February 1, 1979\nLeave\nArrive\nFlight No.\nStops or Via\nFreq.\nD 945a\nN 200p\n4 30p\n540p\n420p\n8 05p\n805p\n10 20p\n3/77\n353/23\n369/23\n79\nChicago\nMpls.-St. Paul\nMpls.-St. Paul\nOne-stop\nEx Th\nDaily\nEx Sa Su\nDaily\n700a\nN 910p\n28/70\n900р N 1044a • 24/304\n900p\nN 1259p • 24/306\n100a\nD 350p\n6/78\n100a\nD\n350p\n78\nSeattle\nMpls.-St. Paul\nMpls.-St. Paul\nSeattle\nOne-stop\nD 945a\nN 12 45p\nN 200p\nN 430p\n343p\n347p\n818p\n8 18p\n3/701\n69\n353/369\n369\nChicago\nOne-stop\nMpls.-St. Paul\nTwo-stop\n850a\nN 322p\n12 45p\nN 805p\n234/336\n68\nMpls.-St. Paul\nTwo-stop\nN 808a\nD\n945a\nN\n200p\n430p\nN 555p\n3 16p\n3 16p\n754p\n754p\n1020p\n307/701\n3/701\n353/369\n369\n85\nMpls.-St. Paul\nChicago\nMpls.-St. Paul\nOne-stop\nThree-stop\n645a\n645a\n310p\nD 400p\nN 1259p\nN 322p\n805p\n218/306\n218/336\n68\n523p\n78\nMpls.-St. Paul\nMpls.-St. Paul\nOne-stop\nNON-STOP\n3 45p\nD 521p\n79\nNON-STOP\nN 808a\n1228p\n307/131\nMpls.-St. Paul\nAbove Flight Discontinued after April 7\nN 1245p\n455p\n69\nTwo-stop\n11 34a\nN 805p\n62/68\n110p\n805p\n130/68\nAbove Flight Discontinued after April 7\nN 1245p\n544p\n69\nBillings\nMpls.-St. Paul\nThree-stop\n10 48a\nN 805p\n62/68\nBillings\nService\nEx Fr\nEx Fr Sa\nEx Fr\nMo Only\nEx Mo\nDaily\nDaily\nDaily\nEx Sa Su\nDaily\nDaily\nDaily\nDaily\nDaily\nEx Sa Su\nDaily\nEx Sa\nDaily\nDaily\nDaily\nDaily\nSa Only\nDaily\nDaily\nSa Only\nDaily\nDaily\nM 747\nM\nM\nM DC10\nM\nM\nM\nM 747\nM DC10\nM\nM\nM\nM\nM\nM\nS\nM\nM\nM\nM\nM\nS DC10\nDC10\nM\nM\nM\nM\nM\nM\nM/S Meal served in First Class;\nSnack served in Coach.\n* Inflight movies and stereo.\n• Arrival following day.\n• Arrival second day. Enroute\novernight stop in the Orient."
    ],
    "millsfield:images_texts_ids": [
      1527837911
    ],
    "millsfield:primary_image": 1527837911,
    "millsfield:subcategory_id": 1511213425,
    "mz:hierarchy_label": 1,
    "mz:is_current": 1,
    "sfomuseum:accession_number": "2006.059.145",
    "sfomuseum:airline": "Northwest Airlines",
    "sfomuseum:airline_id": [
      647
    ],
    "sfomuseum:category": "Scheduling / Ticketing",
    "sfomuseum:classification_id": 158,
    "sfomuseum:collection": "Aviation Archive",
    "sfomuseum:creditline": "Gift of the Paul Edward Fair Estate",
    "sfomuseum:date": "1979",
    "sfomuseum:date_acquired": "2006-10-19",
    "sfomuseum:daterange_end": "1979-12-31",
    "sfomuseum:daterange_start": "1979-01-01",
    "sfomuseum:description": "City timetable issued by Northwest Orient (Northwest Airlines) for flights to and from Washington, D.C., and Baltimore, effective February 1, 1979; white and red cover with schedule information.",
    "sfomuseum:dimensions": "8 1/2 x 3 3/4 inches (21.6 x 9.5 cm)",
    "sfomuseum:issues_held": "Effective February 1, 1979.",
    "sfomuseum:media_ids": [
      1527837911
    ],
    "sfomuseum:medium": "paper, ink",
    "sfomuseum:object_id": 81479,
    "sfomuseum:placetype": "object",
    "sfomuseum:primary_media_id": 1527837911,
    "sfomuseum:publication": ": , 1979.",
    "sfomuseum:subcategory": "Timetable",
    "sfomuseum:subject": "Airlines -- Timetable -- Northwest Orient Airlines",
    "src:geom": "sfomuseum#undetermined",
    "wof:belongsto": [
      1511214223,
      102527513,
      102191575,
      85633793,
      1511213425,
      85922583,
      102087579,
      1511214277,
      1511214207,
      85688637
    ],
    "wof:breaches": [],
    "wof:country": "XX",
    "wof:created": 1579906674,
    "wof:depicts": [
      1159287407,
      1159284907,
      1159284913
    ],
    "wof:geomhash": "30c8a918561c84bb2daa2b97fc7c5353",
    "wof:hierarchy": [
      {
        "arcade_id": 1511213425,
        "building_id": 1511214277,
        "campus_id": 102527513,
        "concourse_id": 1511214223,
        "continent_id": 102191575,
        "country_id": 85633793,
        "county_id": 102087579,
        "custom_id": 1511928223,
        "locality_id": 85922583,
        "neighbourhood_id": -1,
        "object_id": 1511928223,
        "region_id": 85688637,
        "venue_id": 1511928223,
        "wing_id": 1511214207
      }
    ],
    "wof:id": 1511928223,
    "wof:lastmodified": 1787988179,
    "wof:name": "timetable: Northwest Orient, Washington, D.C. / Baltimore",
    "wof:parent_id": 1159162825,
    "wof:placetype": "custom",
    "wof:placetype_alt": [
      "object"
    ],
    "wof:repo": "sfomuseum-data-collection",
    "wof:superseded_by": [],
    "wof:supersedes": [],
    "wof:tags": []
  },
  "bbox": [
    -122.386155,
    37.616357,
    -122.386155,
    37.616357
  ],
  "geometry": {"type":"Point","coordinates":[-122.386155,37.616357]}
}
