{
  "id": 1511936211,
  "type": "Feature",
  "properties": {
    "date:cessation_lower": "1969-01-01",
    "date:cessation_upper": "1969-12-31",
    "date:inception_lower": "1969-01-01",
    "date:inception_upper": "1969-12-31",
    "edtf:cessation": "1969",
    "edtf:date": "1969",
    "edtf:inception": "1969",
    "geom:area": 0,
    "geom:bbox": "-122.386155,37.616357,-122.386155,37.616357",
    "geom:latitude": 37.616357,
    "geom:longitude": -122.386155,
    "iso:country": "XX",
    "millsfield:airline_id": [
      1159284119
    ],
    "millsfield:category_id": 1511214223,
    "millsfield:collection_id": 1511214207,
    "millsfield:company_id": [
      1159288143
    ],
    "millsfield:images": [
      1527847301,
      1527847823
    ],
    "millsfield:images_colors_refs": {
      "crayola": [
        {
          "hex": "#1164b4"
        },
        {
          "hex": "#efdecd"
        },
        {
          "hex": "#414a4c"
        },
        {
          "hex": "#c5d0e6"
        },
        {
          "hex": "#ff2b2b"
        },
        {
          "hex": "#6699cc"
        },
        {
          "hex": "#1a4876"
        }
      ],
      "css4": [
        {
          "hex": "#191970"
        },
        {
          "hex": "#6495ed"
        },
        {
          "hex": "#4682b4"
        },
        {
          "hex": "#008080"
        },
        {
          "hex": "#5f9ea0"
        },
        {
          "hex": "#ff0000"
        },
        {
          "hex": "#dcdcdc"
        },
        {
          "hex": "#2f4f4f"
        },
        {
          "hex": "#d3d3d3"
        }
      ],
      "marekm4": [
        {
          "hex": "#dc0e10"
        },
        {
          "hex": "#122e5c"
        },
        {
          "hex": "#2d2f2e"
        },
        {
          "hex": "#e8e4dd"
        },
        {
          "hex": "#ccd3d8"
        },
        {
          "hex": "#709dd2"
        },
        {
          "hex": "#6a95b8"
        },
        {
          "hex": "#1153a0"
        },
        {
          "hex": "#1b62aa"
        }
      ]
    },
    "millsfield:images_texts": [
      "Catalina\nВу Alir\nGATALINA\nAIR LINES",
      "Catalina İsland\nA UNIQUE ISLAND HOLIDAY\nOne of the West's most fascinating places, Santa Catalina Island,\nlies just twenty minutes off the coast of Southern California via\nCatalina Air Lines.\nThis 22 mile-long island... with its massive rolling hills and abound-\ning wild life (including buffalo herds, wild boar, and deer) ... is\nreminiscent of the old west; only with the sea all around.\nThe picturesque town of Avalon on beautiful Avalon Bay still retains\nthe gracious atmosphere of Santa Catalina's early Spanish heritage.\nAnd its sandy shores,\ncrystal clear sea, and cliffs promise endless\nhours of fun and adventure. It would take weeks to enjoy every-\nthing, but even a day on the island is an unforgettable experience.\nMake plans now for a Catalina Holiday of any length... and let\nCatalina Air Lines add still more fun, time and pleasure to your trip.\nFly on our DeHavilland Twin Otters to the Airport-in-the-Sky high\natop Catalina... or fly our world famous fleet of Grumman flying\nboats... which land and take-off on the smooth waters of Avalon\nBay or Two Harbors.\nMake it a complete day. Go early, stay late. Discover a whole new\nworld on Santa Catalina Island. Then fly back into the wonderland\nof Southern California.\nThings to Do and\nSee at Catalina\nOne Day\naightseeing deatures\nGLASS BOTTOM BOAT TRIP\nMost popular of all Catalina trips! You'll be fascinated by the strange\nmarine life and great variety of colorful fish you see clearly in the\nwaters below.\nMOUNTAIN TERRACE DRIVE\nFrom Avalon, you motor up mountain-terrace roads that afford mag-\nnificent vistas - ever changing views from high above this colorful\ncity and its sparkling blue bay.\nSEAL COLONY BOAT TRIP\nBe entertained by the showmen of the sea, the playful seals that\nfrolic along Catalina's rocky coast. This trip takes you to Catalina's\neastern tip.\nSKYLINE DRIVE\nThis exciting trip combines outstanding views of\nAvalon with a\nglimpse of Catalina's \"Airport-in-the-Sky.\"\nIf You Stay\nOvernight or Longer\nINLAND MOTOR TOUR\nThis trip takes you through miles of Catalina's rugged, mountainous\ninterior and along the breathtaking skyline drive overlooking the\ncove-lined coast.\nFLYING FISH BOAT TRIP\nAs 40-million candlepower searchlights sweep from the boat towards\nshore, flying fish soar up out of the water - sometimes land right\nin the boat.\nGOLF\nChallenging 9-hole course with mountain and ocean views.\nTENNIS\nFine concrete courts and all equipment available at clubhouse.\nPICNICKING\nRustic shelters, tables and outdoor barbecue ovens in mountain and\nseaside settings.\nBOATING\nYour choice of many types and sizes of boats for exploration and\nfishing.\nDIVING\nUnderwater vistas, abounding variety of fish, ship wrecks in crystal\nclear water.\nHUNTING\nBig game hunting and bird hunting.\nHIKING\nMiles of picturesque trails.\nFOR INFORMATION regarding all Catalina Island\nactivities and hotel or tour reservations, contact:\nAVALON CHAMBER OF COMMERCE\nP.O. Box 217, Avalon, California 90704\nGolden West\nAirlines\nFlight Schedule\nEffective July 1, 1969\nTO CATALINA ISLAND\nFares include scenic tour to or from Avalon\nLEAVE\nARRIVE\nFLT. NO.\nFREQ.\nSTOPS\nFROM\nLONG\nBEACH\nFare: $9.00\nFROM\nLANCASTER\nFare: $16.00\nFROM OCEANSIDE\nFare: $12.00\nFROM\nORANGE\nCOUNTY\nFare: $10.00\nFROM PALM SPRINGS\nFare: $17.00\nFROM SAN DIEGO\nFare: $15.00\nFROM\nOXNARD/VENTURA\nFare: $15.00\nFROM LOS ANGELES\nFare: $9.00\n12:05P\n3:10P\n10:50A\n12:25P\n3:30P\n12:25P\n536\n422\n536\nDaily\nDaily\nDaily\n10:10A\n5:20P\n10:50A\n5:55P\n9:45A\n10:45A\n6:15P\n11:10A\n6:15P\n11:10A\n435\n472\n414.\n424\n414\nDaily\nDally\nDaily\nDaily\nDaily\n9:45A\n4:50P\n7:40A\n10:45A\n6:15P\n8:50A\n424\n343\nDaily\nEx. Sat.\n8:30A(1)\n11:35A(2)\n7:10P(1)\n10:20A\n8:50A\n12:25P\n8:00P\n11:10A\n343\n536\n390\n414\nDaily\nDaily\nDaily\nDaily\nFROM ONTARIO\nFare: $13.00\n(1)\nTWA Satellite, LA International\n(2) Western Satellite, LA International\nFROM CATALINA ISLAND\nLEAVE\nARRIVE\nFLT. NO.\nFREQ.\nSTOPS\nTO LONG\nBEACH\nFare: $9.00\nTO LOS ANGELES\nFare: $9.00\nTO OCEANSIDE\nFare: $12.00\nTO ORANGE COUNTY\nFare:\n$10.00\nTO ONTARIO\nFare: $13.00\nTO OXNARD/VENTURA\nFare: $16.00\nTO PALM\nSPRINGS\nFare: $17.00\nTO SAN DIEGO\nFare: $15.00\n10:55A\n12:35P\n8:10P\n9:00A(1)\n8:10P(1)\n3:40P\n12:55P\n9:00P\n9:20A\n8:30P\n4:15P\n405\n407\n489\n345\n489\n423\nDaily\nDaily\nDally\nDaily\nDaily\nDaily\n11:20A\n6:25P\n6:25P\n6:45P\n7:15P\n409\n425\n425\nDaily\nDaily\nDaily\n00\n9:00A\n10:10A\n345\nEx. Sat.\n6:25P\n7:55P\n425\nDaily\n3:40P\n4:40P\n423\nDaily\nAll flights are turbojet De Havilland Twin Otters\nand from\nCatalina Airport\n(Fares do not include tax)\nFOR ADDITIONAL CONNECTIONS AND RESERVATIONS\nCall your travel agent or your nearest Golden West station.\nLONG BEACH (213) 421-8281\nPALM SPRINGS (714) 327-8406\nLANCASTER (805) WH 2-2310\nSAN DIEGO (714) 235-7311\nOCEANSIDE (714) 757-2295\nOXNARD/VENTURA (805) 487-6371\nORANGE COUNTY (714) 827-7700\nLOS ANGELES (213) 636-2121\n(Santa Ana)\nONTARIO (714) 985-2803"
    ],
    "millsfield:images_texts_ids": [
      1527847301,
      1527847823
    ],
    "millsfield:primary_image": 1527847301,
    "millsfield:subcategory_id": 1511213425,
    "mz:hierarchy_label": 1,
    "mz:is_current": 1,
    "sfomuseum:accession_number": "2005.132.016.001",
    "sfomuseum:airline": "Catalina Airlines",
    "sfomuseum:airline_id": [
      292
    ],
    "sfomuseum:category": "Scheduling / Ticketing",
    "sfomuseum:classification_id": 158,
    "sfomuseum:collection": "Aviation Archive",
    "sfomuseum:creditline": "Gift of the William Hough Collection",
    "sfomuseum:date": "1969",
    "sfomuseum:date_acquired": "2006-12-05",
    "sfomuseum:daterange_end": "1969-12-31",
    "sfomuseum:daterange_start": "1969-01-01",
    "sfomuseum:description": "Timetable issued by Catalina Air Lines, effective July 1, 1969; three page double-sided fold-out; blue, red, and white cover with illustration of two airplanes in flight over map of an island and text “Catalina By Air”.",
    "sfomuseum:dimensions": "9 x 4 inches (22.9 x 10.2 cm)",
    "sfomuseum:media_ids": [
      1527847301,
      1527847823
    ],
    "sfomuseum:medium": "paper, ink",
    "sfomuseum:object_id": 97718,
    "sfomuseum:placetype": "object",
    "sfomuseum:primary_media_id": 1527847301,
    "sfomuseum:publication": ": , 1969.",
    "sfomuseum:subcategory": "Timetable",
    "src:geom": "sfomuseum#undetermined",
    "wof:belongsto": [
      1511214223,
      102527513,
      102191575,
      85633793,
      1511213425,
      85922583,
      102087579,
      1511214277,
      1511214207,
      85688637
    ],
    "wof:breaches": [],
    "wof:country": "XX",
    "wof:created": 1579906669,
    "wof:depicts": [
      1159284119,
      1159288143
    ],
    "wof:geomhash": "30c8a918561c84bb2daa2b97fc7c5353",
    "wof:hierarchy": [
      {
        "arcade_id": 1511213425,
        "building_id": 1511214277,
        "campus_id": 102527513,
        "concourse_id": 1511214223,
        "continent_id": 102191575,
        "country_id": 85633793,
        "county_id": 102087579,
        "custom_id": 1511936211,
        "locality_id": 85922583,
        "neighbourhood_id": -1,
        "object_id": 1511936211,
        "region_id": 85688637,
        "venue_id": 1511936211,
        "wing_id": 1511214207
      }
    ],
    "wof:id": 1511936211,
    "wof:lastmodified": 1787988182,
    "wof:name": "timetable: Catalina Air Lines",
    "wof:parent_id": 1159162825,
    "wof:placetype": "custom",
    "wof:placetype_alt": [
      "object"
    ],
    "wof:repo": "sfomuseum-data-collection",
    "wof:superseded_by": [],
    "wof:supersedes": [],
    "wof:tags": []
  },
  "bbox": [
    -122.386155,
    37.616357,
    -122.386155,
    37.616357
  ],
  "geometry": {"type":"Point","coordinates":[-122.386155,37.616357]}
}
