{
  "id": 1511930431,
  "type": "Feature",
  "properties": {
    "date:cessation_lower": "1952-01-01",
    "date:cessation_upper": "1952-12-31",
    "date:inception_lower": "1952-01-01",
    "date:inception_upper": "1952-12-31",
    "edtf:cessation": "1952~",
    "edtf:date": "1952~",
    "edtf:inception": "1952~",
    "geom:area": 0,
    "geom:bbox": "-122.386155,37.616357,-122.386155,37.616357",
    "geom:latitude": 37.616357,
    "geom:longitude": -122.386155,
    "iso:country": "XX",
    "millsfield:aircraft_id": [
      1159290321
    ],
    "millsfield:airline_id": [
      1159283999
    ],
    "millsfield:category_id": 1763416397,
    "millsfield:collection_id": 1511214207,
    "millsfield:company_id": [
      1159293995
    ],
    "millsfield:exhibition_ids": [
      1159160275
    ],
    "millsfield:images": [
      1527819191,
      1527819193,
      1527819195
    ],
    "millsfield:images_colors_refs": {
      "crayola": [
        {
          "hex": "#dbd7d2"
        },
        {
          "hex": "#714b23"
        },
        {
          "hex": "#b0b7c6"
        },
        {
          "hex": "#cdc5c2"
        },
        {
          "hex": "#8fd400"
        },
        {
          "hex": "#6699cc"
        },
        {
          "hex": "#414a4c"
        },
        {
          "hex": "#ffae42"
        },
        {
          "hex": "#2e5894"
        },
        {
          "hex": "#bab86c"
        }
      ],
      "css4": [
        {
          "hex": "#a0522d"
        },
        {
          "hex": "#a9a9a9"
        },
        {
          "hex": "#4682b4"
        },
        {
          "hex": "#dcdcdc"
        },
        {
          "hex": "#008080"
        },
        {
          "hex": "#c0c0c0"
        },
        {
          "hex": "#daa520"
        },
        {
          "hex": "#5f9ea0"
        },
        {
          "hex": "#2f4f4f"
        }
      ],
      "marekm4": [
        {
          "hex": "#2f6a92"
        },
        {
          "hex": "#2a2d2b"
        },
        {
          "hex": "#e5e4dd"
        },
        {
          "hex": "#224549"
        },
        {
          "hex": "#9f4a22"
        },
        {
          "hex": "#cabc1c"
        },
        {
          "hex": "#abb8b6"
        },
        {
          "hex": "#c8cbc3"
        },
        {
          "hex": "#5e96aa"
        },
        {
          "hex": "#5c9bae"
        },
        {
          "hex": "#cbbf08"
        },
        {
          "hex": "#2a3236"
        },
        {
          "hex": "#beb137"
        },
        {
          "hex": "#236892"
        }
      ]
    },
    "millsfield:images_texts": [
      "B•0•A•C\nintroduces\nthe newest,\nfastest airliner\nin the world\nComet\nJETLINER\nBRITISH OVERSEAS AIRWAYS CORPORATION",
      "B.O.A.C. Comet Jetliner\nHOW THE TURBO-JET ENGINE WORKS\nThe turbo jet engine gulps air in through the nose,\nspire the compressor. Finding no obstacle behind\ncompresses it, then feeds it into the combustion\nthe turbine, the hot blast expands quickly, turning\nchamber where it is mixed with fuel and ignited.\nheat and pressure into velocity, and rushes out the\nThe result is a blast of hot gass which escapes\ntail pipe, creating the thrust which pushes the Comet\ntoward the rear, spinning the turbine which in turn\nthrough the sky at high speed.\nFLAME TUBE\nCOMPRESSOR\nTUNHIRIE\nAIR\nJET PIPE\nDelicious complimentary meals and mealtime drinks served\nduring flight by the stewards and stewarden.\n8 of the Comer's 30\npassengers are accom-\nmodated in this forward\ncabin, where there are\ntwo tables, with two pairs\nof facing seats to each.\nIndividual reading lights,\ndark blue carpets and\nupholstery, and silver-grey\nwalls and celling give a\nrestful effect.\nB•O-A•C\nregular air services\nto these\ndestinations\nGREAT BRITAIN SPAIN\nPORTUGAL • ITALY: SWITZERLAND\nU.S.A.\nBERMUDA CANADA\nBAHAMAS WEST INDIES\nSOUTH AMERICA MIDDLE EAST\nWEST AFRICA EAST AFRICA\nSOUTH AFRICA PAKISTAN\nINDIA\nCEYLON\nAUSTRALIA\nNEW ZEALAND • PAR EAST • JAPAN\nintroduces\nthe newest,\nfastest airliner\nin the world\nYOU CAN BOOK THROUGH\nNO BOOKING FEE\nB.O.A.C. TAKES GOOD CARE OF YOU\nComet\nJETLINER\nOVERS\nCORFORITION\nBRITISH\nCORFORATION",
      "FACTS ABOUT THE\nComet\nThe Comet Jetliner marks a milestone\nin passenger transport.\nIt is the world's first jetliner and\nis the first to go into regular service. In it,\npassengers enter a new era of effortless,\ncomfortable, fast and sure flying.\nThis superb example of British\nengineering skill is yet another triumph\nfor the de Havilland Aircraft and\nEngine Companies.\nCruising at nearly 500 miles per hour,\nit is half as fast again as any\nother airliner now in regular service\nand the timetable will show the\nextent to which flying times have\nbeen slashed.\nWhen the Comet is\nin full operation, no place on B.O.A.C.\nroutes should ever be more than two\ndays away from the point of\ndeparture.\nAll feeling of motion is lost in the\nsmooth clear air of the Comet's\nnormal operational altitude.\nThe lack of vibration gives the illusion\nof being suspended in space while a\nfascinating panorama unfolds\nitself through the cabin window.\nThe Comet's galley is a miracle of compactness and\nefficiency.\nEquipment includes two tabletops,\na sink, removable waste bin, electric oven\nand urn, and cold storage cabinet.\nFresh, filtered water is\navallabic al all times from\nthe drinking fountain,\nconvementy locateo 311\nof the main cabin on the\nstarboard side.\nFront passenger cabin\nMain passenger cabin\nRear baggage hold\n4 Men's room\n5 To men's toilets\n6 Ladies' toilet\n7 Ladies' dressing room\n13\n8 Main entrance and vestibule\n9 Wardrobe\nFreight hold\nSteward\nDiplomatic nail locker\nPantry\n14 Freight hold\n18\n\" Picture\" windows of\ngenerous dimensions are\nnited in the passenger cabins.\nIn the main cabin there is a\nwindow adjacent to each\npair of seats.\nThe Slumberseats fitted\nin the aircraft are\ncasily adjustable and\nsupremely comfortable\nin any position.\nThey\nare probably the most\nrestful chairs in the\nworld.\nNavigator\nCaptain\nFirst Officer-Engineer\nRadio Officer\nCrew entry door\nSteward (s)\nA built-in book-case is\nprovided for the fight\nibrary which includes\nfiction and non-fiction,\nreference books and\ncurrent weekly and\nmonthly magazines."
    ],
    "millsfield:images_texts_ids": [
      1527819191,
      1527819193,
      1527819195
    ],
    "millsfield:on_view": 0,
    "millsfield:primary_image": 1527819191,
    "millsfield:subcategory_id": 1511213631,
    "mz:hierarchy_label": 1,
    "mz:is_current": 1,
    "sfomuseum:accession_number": "2007.011.260",
    "sfomuseum:aircraft": "de Havilland DH-106 Comet 1",
    "sfomuseum:aircraft_id": [
      441
    ],
    "sfomuseum:airline": "British Overseas Airways Corporation (BOAC)",
    "sfomuseum:airline_id": [
      236
    ],
    "sfomuseum:category": "Promotional, Archive",
    "sfomuseum:classification_id": 283,
    "sfomuseum:collection": "Aviation Archive",
    "sfomuseum:creditline": "Gift of the William Hough Collection",
    "sfomuseum:date": "c. 1952",
    "sfomuseum:date_acquired": "2006-11-10",
    "sfomuseum:daterange_end": "1957-12-31",
    "sfomuseum:daterange_start": "1947-01-01",
    "sfomuseum:description": "Brochure issued by British Overseas Airways Corporation (BOAC) promoting de Havilland D.H.106 Comet service, titled \"BOAC introduces the newest, fastest airliner in the world / The Comet Jetliner\"; cover includes illustration of a globe with jet; interior features cutaway drawings and photos of the airplane, passengers and cabin.",
    "sfomuseum:dimensions": "8 3/4 x 3 3/4 inches (22.2 x 9.5 cm)",
    "sfomuseum:exhibition_ids": [
      1166
    ],
    "sfomuseum:media_ids": [
      1527819191,
      1527819193,
      1527819195
    ],
    "sfomuseum:medium": "paper, ink",
    "sfomuseum:object_id": 87242,
    "sfomuseum:placetype": "object",
    "sfomuseum:primary_media_id": 1527819191,
    "sfomuseum:publication": ": , c. 1952.",
    "sfomuseum:subcategory": "Brochure, Airline",
    "sfomuseum:subject": "Airlines -- Commercial -- BOAC",
    "src:geom": "sfomuseum#undetermined",
    "wof:belongsto": [
      1511214205,
      102527513,
      102191575,
      85633793,
      1511213631,
      85922583,
      102087579,
      1511214277,
      1511214207,
      85688637
    ],
    "wof:breaches": [],
    "wof:country": "XX",
    "wof:created": 1579906679,
    "wof:depicts": [
      1159283999,
      1159293995,
      1159290321
    ],
    "wof:geomhash": "30c8a918561c84bb2daa2b97fc7c5353",
    "wof:hierarchy": [
      {
        "arcade_id": 1511213631,
        "building_id": 1511214277,
        "campus_id": 102527513,
        "concourse_id": 1511214205,
        "continent_id": 102191575,
        "country_id": 85633793,
        "county_id": 102087579,
        "custom_id": 1511930431,
        "locality_id": 85922583,
        "neighbourhood_id": -1,
        "object_id": 1511930431,
        "region_id": 85688637,
        "venue_id": 1511930431,
        "wing_id": 1511214207
      }
    ],
    "wof:id": 1511930431,
    "wof:lastmodified": 1787988180,
    "wof:name": "brochure: British Overseas Airways Corporation (BOAC), D.H.106 Comet",
    "wof:parent_id": 1159162825,
    "wof:placetype": "custom",
    "wof:placetype_alt": [
      "object"
    ],
    "wof:repo": "sfomuseum-data-collection",
    "wof:superseded_by": [],
    "wof:supersedes": [],
    "wof:tags": []
  },
  "bbox": [
    -122.386155,
    37.616357,
    -122.386155,
    37.616357
  ],
  "geometry": {"type":"Point","coordinates":[-122.386155,37.616357]}
}
