{
  "id": 1511941443,
  "type": "Feature",
  "properties": {
    "date:cessation_lower": "1957-01-01",
    "date:cessation_upper": "1957-12-31",
    "date:inception_lower": "1957-01-01",
    "date:inception_upper": "1957-12-31",
    "edtf:cessation": "1957",
    "edtf:date": "1957",
    "edtf:inception": "1957",
    "geom:area": 0,
    "geom:bbox": "-122.386155,37.616357,-122.386155,37.616357",
    "geom:latitude": 37.616357,
    "geom:longitude": -122.386155,
    "iso:country": "XX",
    "millsfield:airline_id": [
      1159285415
    ],
    "millsfield:category_id": 1511214223,
    "millsfield:collection_id": 1511214207,
    "millsfield:company_id": [
      1159288779
    ],
    "millsfield:images": [
      1527838287,
      1527851587
    ],
    "millsfield:images_colors_refs": {
      "crayola": [
        {
          "hex": "#efcdb8"
        },
        {
          "hex": "#cdc5c2"
        },
        {
          "hex": "#ff2b2b"
        },
        {
          "hex": "#1a4876"
        },
        {
          "hex": "#2e5894"
        },
        {
          "hex": "#cd4a4c"
        }
      ],
      "css4": [
        {
          "hex": "#d3d3d3"
        },
        {
          "hex": "#191970"
        },
        {
          "hex": "#483d8b"
        },
        {
          "hex": "#b22222"
        },
        {
          "hex": "#dc143c"
        }
      ],
      "marekm4": [
        {
          "hex": "#d93b33"
        },
        {
          "hex": "#222163"
        },
        {
          "hex": "#dccac1"
        },
        {
          "hex": "#4a5293"
        },
        {
          "hex": "#d41f1b"
        },
        {
          "hex": "#0f1d66"
        },
        {
          "hex": "#42538b"
        },
        {
          "hex": "#e0d5be"
        }
      ]
    },
    "millsfield:images_texts": [
      "SYSTEM TIMETABLE APRIL, 1957 EFFECTIVE APRIL 1\nUNITED\nAIR LINES\nUNITED AIR LINES,\nhalf-fare family plan\neffective\nMONDAYS, TUESDAYS,\nWEDNESDAYS and THURSDAYS\nSee page 22 for complete details.",
      "Call United first whenever you plan to travel or ship!\nHONOLULU TIME\nTo the ORIENT\nTo the ORIENT\nHAWAII\nTo ALASKA\nPACIFIC TIME\nMOUNTAIN TIME\nTo EDMONTON\nCENTRAL TIME\nEASTERN TIME\n11121\nVANCOUVER, B. C.\n\u0026 CALGARY\nBELLINGHAM\nLETHBRIDGE\nSEATTLE\nTACOMA\n•SPOKANE\n° CUT BANK\nREGINA\nPORT ARTHUR\na KAPUSKASING\nPRESQUE\nPORTLAND •\nWALLA WALLA\nGREAT FALLS\nPENDLETON\nSALEM -\nLEWISTOWN\nBANGORR\nMONTREAL\nEUGENE •\nBUTTE d\nMILES CITY\n-FARGO\nNORTH BAY\nBEND-REDMOND\nOTTAWA\nDO PORTLAND\nMEDFORD •\n5\n- BILLINGS\nBOISE\nTo EUROPE\n•KLAMATH FALLS\nSUN VALLEY\nWEST YELLOWSTONE\nMINNEAPOLIS\nCHARLEVOIX\nSAINT PAUL\nSHERIDAN\nALBANY BOSTON\nPOCATELLO JACKSGN\nin\nTORONT\nTo EUROPE\nTWIN FALL\nRAPID CITY\nCHARTHRI\n-MILWAUKEES\nI BUFFALO\nDETROIT YOUNGSTOWN -WAR\n• SPRINGFIELD\nPROVIDENCE\nTOLEDO\n-OGDEN\nSCOTTSBLUFF\nLINCOLN\nCLEVELAND\nALLENTOWN BETHLEHEM-EASTON\nCHICAGO\n* NEW YORK\nRENO\nELKO\nDES MOINES\nNEWARK\nCHEYENNE\nNORTH PLATTE\nOAKLAND\nОМАНА\nA CEDAR RAPIS\nPHILADELPHIA\nSAN FRANCISCO\nSACRAMENTO\nLAKE\nISLAND\nCITY\nJOWA CITY\nDAVENPORT\nBEND FORT\nAKRON-CA\nBALTIMORE\nTo BERMUDA\nGRAND JUNCTION\nSTOCKTON\n*COLUMBUS\nSALINAS\nASPÊN DENVER.\nROCK ISLAND\n% DAYTON\nWASHINGTON D.C. and AFRICA\nMODESTO\nMONTEREY-*\nCARME\nMERCED\nCOLORADO SPRINGS®\nFRESNO LAS VEGA\n6 PUEBLO\nKANSAS CITY--\nVISALIA\nSAINT LOUIS\n/ LOUISVILLE\nHOOVER DAM\nBAKEBSFIELD\nSANTA BARBARA\nKNOXVILLE\nBURBANK\nNASHVILLE\nRALEIGH\nLOS ANGELES\nONG BEACH\n_ALBUQUERQUE\nSAN DIEGO\nPHOENIX\nTo AUSTRALIA\nNEW ZEALAND\n\u0026 TUCSON\nOKLAHOMA CITY\nTAMARILLO\nDALLAS\nFORT WORTHY\nBIG SPRING o\nMEMPHIS\nLITTLE ROCK\nBIRMINGHAM\nATLANTA\nSHREVEPORT\nJACKSONVILLE\nTALLAHASSEE\nHOUSTON\nUnited Mainliners\nare timed to the\nstars by the Elgin\nNational Watch\nObservatory.\nSAN ANTONIO,\n• LAREDO\n\u0026 BROWNSVILLE\nNEW ORLEANS\nTo LATIN AMERICA\nKEY\nUNITED AIR LINES\n* INTERLINE THROUGH SERVICE\nOTHER AIRLINES\nTo the WEST INDIES\nand SOUTH AMERICA\nSUNITE\nGoing East?\nfly UNITED\nnonstops\nfrom CHICAGO\nto\nWashington, D. C. • New York\nPhiladelphia • Akron-Canton\nPittsburgh • Boston\nNewark • Cleveland\nHartford-Springfield\nTYPICAL MAINLINER ELAPSED TIMES (hours and minutes)\nто—:\nFROM\nBoston\nChicago.\nCleveland\nDenver.\nDetroit. .\nHonolulu\nKansas City.\nLos Angeles.\nNew York.\nOmaha\nPhiladelphia\nPittsburgh\nPortland\nSalt Lake City.\nSan Francisco\nSeattle-Tacoma.\nWashington, D.C.\nBoston\nChicago\nDenver\nDetroit\nHonolulu\nKansas City\nLos Angeles\nNew York\nOmaha\nPhiladelphia\nPittsburgh\nPortland\nSalt Lake City\nWashington, D.C.\n3:45\n3:15\n8:25\n23:45\n3:10\n1:18\n3:35\n1:10 18:00\n1:56\n6:25\n2-25\n2:02\n2:32\n6:50\n5:40\n2:35\n1:28\n6:10\n0:45|21:00\n5:30\n8:53\n1:37\n4:05\n1:47\n10:20\n8:50\n7:50\n2:50\n5:15\n2:10\n3:20\n4:50\n1:55\n6:25\n5:50\n4:35\n2:10\n4:05\n1:12\n0:40\n5:35\n19:15\n3:40\n7:10\n1:55\n2:55\n1:43\n1:10 10:20\n7:40\n20:05 15:25 17:40|12:10|16:35\n15:45\n8:25|17:35 16:20|20:03 17:45\n|12:00\n12:35\n1:45\n5:45\n2:30\n3:56 20:00\n5:00 3:55\n5:45\n9:35\n5:25\n8:35\n5:25\n7:25\n3:00\n6:00\n9:05\n4:15\n7:15\n7:05\n3:40\n3:00\n2:00\n6:15\n2:10 21:00\n4:40\n9:00\n1:55\n9:55\n8:40\n5:40\n1:42\n3:40\n2:10\n3:20 16:20\n6:00\n4:30\n3.50\n7:15\n3.45\n3:12\n2:15\n7:50\n2:05 21:35\n5:25\n9:45\n0:37\n11:00\n9:30\n1:45\n6:30\n1:15 20:35\n5:35\n1:30\n4:55\n8:20\n10:45\n5:30\n7:55\n3:45\n7:25 14:30\n6:45\n8:15\n6:10\n8:35\n4:35\n6:50\n1:55\n8:25 16:50\n5:05\n7:40\n4:20\n9:25\n5:45\n7:10\n3:15\n7:20\n8:35\n5:51\n1:36\n7:40\n9:35\n5:30\n8:15\n4:40\n8:00 14:15\n8:05\n3:25\n8:15\n7:25\n9:40\n7:50\n9-10\n8:55\n7:55\n3:15\n6:55\n3:45\n7:50\n2:28\n4:30\n7:55\n0:52\n4:30\n2:35\n5:40\n(22:15l.3:30l\n8:30l\n1:10\n5:00\n11:15\n9:55\nSan Francisco\nSeattle-Tacoma\n6:55\n8:23\n10:00\n3:20\n4:40\n4:25\n8:45\n8:30\n7:55\n11:30\n17:05\n6:32\n10:50\n2:50\n1:32\n3:35\n7:05\n9:30\n10:39\n1:05\n7:00\n8:30\n4:30\n9:47\n11:00\n9:25\n9:15\n2:26\n0:44\n8:35\n2-45\n5:00\n7.10\n2:58\n7:05\n2:58\n8:10\n8:45|10:00|....."
    ],
    "millsfield:images_texts_ids": [
      1527838287,
      1527851587
    ],
    "millsfield:primary_image": 1527838287,
    "millsfield:subcategory_id": 1511213425,
    "mz:hierarchy_label": 1,
    "mz:is_current": 1,
    "sfomuseum:accession_number": "2010.019.001",
    "sfomuseum:airline": "United Air Lines",
    "sfomuseum:airline_id": [
      884
    ],
    "sfomuseum:category": "Scheduling / Ticketing",
    "sfomuseum:classification_id": 158,
    "sfomuseum:collection": "Aviation Archive",
    "sfomuseum:creditline": "Gift of Patricia A. Lionberger in memory of Captain Edward M. Lionberger",
    "sfomuseum:date": "1957",
    "sfomuseum:date_acquired": "2010-05-05",
    "sfomuseum:daterange_end": "1957-12-31",
    "sfomuseum:daterange_start": "1957-01-01",
    "sfomuseum:description": "System timetable issued by United Air Lines, effective April 1, 1957; white, red, and blue cover with airline’s shield servicemark and text “Half-fare family plan, effective Mondays, Tuesdays, Wednesdays and Thursdays”; contains schedule and route map.",
    "sfomuseum:dimensions": "9 x 4 inches (22.9 x 10.2 cm)",
    "sfomuseum:media_ids": [
      1527838287,
      1527851587
    ],
    "sfomuseum:medium": "paper, ink, metal",
    "sfomuseum:object_id": 104223,
    "sfomuseum:placetype": "object",
    "sfomuseum:primary_media_id": 1527838287,
    "sfomuseum:publication": ": , 1957.",
    "sfomuseum:subcategory": "Timetable",
    "src:geom": "sfomuseum#undetermined",
    "wof:belongsto": [
      1511214223,
      102527513,
      102191575,
      85633793,
      1511213425,
      85922583,
      102087579,
      1511214277,
      1511214207,
      85688637
    ],
    "wof:breaches": [],
    "wof:country": "XX",
    "wof:created": 1579906675,
    "wof:depicts": [
      1159288779,
      1159285415
    ],
    "wof:geomhash": "30c8a918561c84bb2daa2b97fc7c5353",
    "wof:hierarchy": [
      {
        "arcade_id": 1511213425,
        "building_id": 1511214277,
        "campus_id": 102527513,
        "concourse_id": 1511214223,
        "continent_id": 102191575,
        "country_id": 85633793,
        "county_id": 102087579,
        "custom_id": 1511941443,
        "locality_id": 85922583,
        "neighbourhood_id": -1,
        "object_id": 1511941443,
        "region_id": 85688637,
        "venue_id": 1511941443,
        "wing_id": 1511214207
      }
    ],
    "wof:id": 1511941443,
    "wof:lastmodified": 1787988185,
    "wof:name": "timetable: United Air Lines",
    "wof:parent_id": 1159162825,
    "wof:placetype": "custom",
    "wof:placetype_alt": [
      "object"
    ],
    "wof:repo": "sfomuseum-data-collection",
    "wof:superseded_by": [],
    "wof:supersedes": [],
    "wof:tags": []
  },
  "bbox": [
    -122.386155,
    37.616357,
    -122.386155,
    37.616357
  ],
  "geometry": {"type":"Point","coordinates":[-122.386155,37.616357]}
}
