{
  "id": 1914622259,
  "type": "Feature",
  "properties": {
    "date:cessation_lower": "1997-01-01",
    "date:cessation_upper": "1997-12-31",
    "date:inception_lower": "1997-01-01",
    "date:inception_upper": "1997-12-31",
    "edtf:cessation": "1997",
    "edtf:inception": "1997",
    "geom:area": 2.475047457570636e-7,
    "geom:bbox": "-122.386472,37.616105,-122.385834,37.616611",
    "geom:latitude": 37.61635747477365,
    "geom:longitude": -122.38615540108617,
    "millsfield:aircraft_id": [
      1159289935
    ],
    "millsfield:airline_id": [
      1159285435
    ],
    "millsfield:category_id": 1762671311,
    "millsfield:collection_id": 1511214207,
    "millsfield:company_id": [
      1159293593
    ],
    "millsfield:images": [
      1914622761,
      1914622763,
      1914622765
    ],
    "millsfield:images_colors_refs": {
      "crayola": [
        {
          "hex": "#dbd7d2"
        },
        {
          "hex": "#5d76cb"
        },
        {
          "hex": "#000000"
        },
        {
          "hex": "#b4674d"
        },
        {
          "hex": "#414a4c"
        },
        {
          "hex": "#bab86c"
        },
        {
          "hex": "#ffae42"
        },
        {
          "hex": "#979aaa"
        },
        {
          "hex": "#cdc5c2"
        },
        {
          "hex": "#6699cc"
        }
      ],
      "css4": [
        {
          "hex": "#2f4f4f"
        },
        {
          "hex": "#d3d3d3"
        },
        {
          "hex": "#6495ed"
        },
        {
          "hex": "#a0522d"
        },
        {
          "hex": "#bdb76b"
        },
        {
          "hex": "#778899"
        },
        {
          "hex": "#4682b4"
        },
        {
          "hex": "#c0c0c0"
        },
        {
          "hex": "#000000"
        },
        {
          "hex": "#daa520"
        }
      ],
      "marekm4": [
        {
          "hex": "#3e3a2e"
        },
        {
          "hex": "#d6b317"
        },
        {
          "hex": "#748fa5"
        },
        {
          "hex": "#020202"
        },
        {
          "hex": "#d5d6ce"
        },
        {
          "hex": "#a85237"
        },
        {
          "hex": "#5593d3"
        },
        {
          "hex": "#342f26"
        },
        {
          "hex": "#d2cdbd"
        },
        {
          "hex": "#5373b2"
        },
        {
          "hex": "#b6a055"
        },
        {
          "hex": "#cdd2d6"
        }
      ]
    },
    "millsfield:images_texts": [
      "757\nSafety Instructions\nInstructions de Sécurité\nInstrucciones de Seguridad\nUS AIRWAYS",
      "EVACUATION PROCEDURES\nPROCEDIMIENTOS DE EVACUACION\nOXYGEN\nPROCEDURES D'EVACUATION\nA\nRESTRICTIONS\nRESTRICCIONES\nEXIT\nEXIT\nEXIT\nEX\n2 -\nB\nTAKEOFF/LANDING\nDESPEGUF ATERRITAIF\nBRACE POSITIONS\nPOS CIONES PARA PROTECCION\nPOSITIONS DE PROTFCTION\nOXYGENE\nINTERDICTIONS\nExit Row Seating.\n• Si usted está sentado en una fila de salida, y no\npuede leer, hablar o entender inglés, sirvase contactar a\nun representante de US Airways para que se le cambie\nde asiento.\nSi vous êtes assis près d'une issue de secours, et\nvous n'êtes pas en mesure de lire l'anglais, ni de le\nparler ou de le comprendre, veillez contacter un\nreprésentant de la compagnie US Airways pour obtenir\nun autre siede\nIf you are seated in an exit row, please review the following.\nFederal Aviation Regulations require that passengers\nseated in this row meet the selection criteria and are\nwilling and able to operate the exit and assist others in\nthe event of an emerdency in which a crewmember is\nnot available to do so. Please identify the exit nearest\nto you ana review the corresponding tandoors found dr\nthis \"Safety Instuctions\" card.\nPlease contact your Flight Attendant for reseating if you have\na condition, which is not apparent, that would prevent vou\nfrom performing the functions shown on this \"Safety\nInstructions\" card: would be harmed from doina so: do\nnot wish to do so; or if any of the following apply:\n• Mobility, strength or dexterity in both arms and hands,\nand both leas is not sufficient to perform the functions\nand assist others, including:\n-Reaching the exit quickly\n-Reaching in every direction for mechanisms used\n- Operating the exit\n- Securing the exit open\n-Removing obstructions\n(maintaining balance while doing so)\n-Quickly passing through the exit\n• You are less than 15 years old, require assistance from\nsomeone else to pertorm one or more or the unctions\nor would be prevented from doing so because of a\ncondition or responsibility, such as caring for a small\nchild.\n• You cannot sutticiently impart intormation orally to\nothers or understand oral crew commands.\n• Yoll cannot read or linderstand the written and arannic\ninstructions provided or require assistance (other than\na hearing aid to hear or understand instructions\nshouted by a crewmember.\nDECOLLAGE/ATERRISSAGE\n• You do not have the visual capacity to assess conditions\noutside of the exit or pertorm any other tunction described\nwithout the assistance of visual aids other than contact\nlenses or eyeglasses.\nIn the event ot an emergency, tollow the directions and nand\nsignals of your crew. If a crewmember is not available to\nassist vou, tollow the instructions on the Satety Instructions\ncard and posted signs. Wait until the airplane has stopped\nbefore opening the exit and look through the window,\nassessing conditions (looking for smoke, fire or obstructions)\nto determine whether it is safe to proceed. If it is safe to\ndo so, operate the exit and assist others according to the\ninstructions. Assess, select and follow a safe path away\nfrom the airplane.\nYour Flight Attendants will be glad to answer any questions\nvou may nave",
      "EVACUATION SUR L'EAU\nR\n6)\nCopyright © 1989 US Airways\n757-2-ECPS\nC/C 190-4850\nRev. 6/97\n2002.127.653"
    ],
    "millsfield:images_texts_ids": [
      1914622761,
      1914622763,
      1914622765
    ],
    "millsfield:primary_image": 1914622761,
    "millsfield:subcategory_id": 1511213703,
    "mz:is_approximate": 1,
    "mz:is_current": 1,
    "sfomuseum:accession_number": "2002.127.653",
    "sfomuseum:aircraft": "Boeing 757",
    "sfomuseum:aircraft_id": [
      259
    ],
    "sfomuseum:airline": "US Airways",
    "sfomuseum:airline_id": [
      893
    ],
    "sfomuseum:category": "Passenger Amenity, Archive",
    "sfomuseum:classification_id": 581,
    "sfomuseum:collection": "Aviation Archive",
    "sfomuseum:creditline": "Gift of Thomas G. Dragges",
    "sfomuseum:date": "1997",
    "sfomuseum:date_acquired": "2003-12-22",
    "sfomuseum:daterange_end": "1997-12-31",
    "sfomuseum:daterange_start": "1997-01-01",
    "sfomuseum:description": "Safety information card issued by US Airways for the Boeing 757 fleet;  double-sided bi-fold card with double-sided tri-fold card with illustrations depicting inflight safety and emergency procedures; identification code: 757-2-ECPS C/C 190-4850; revision date: 6/97.",
    "sfomuseum:dimensions": "10 x 6 inches (25.4 x 15.2 cm)",
    "sfomuseum:medium": "paper, ink",
    "sfomuseum:object_id": 70171,
    "sfomuseum:placetype": "object",
    "sfomuseum:publication": ": , 1997.",
    "sfomuseum:subcategory": "Safety Information Card",
    "src:geom": "sfomuseum#undetermined",
    "wof:belongsto": [
      102527513,
      1159162825,
      102191575,
      85633793,
      102087579,
      85922583,
      85688637,
      1159160869
    ],
    "wof:country": "XY",
    "wof:created": 1721028733,
    "wof:depicts": [
      1159285435,
      1159289935,
      1159293593
    ],
    "wof:geomhash": "c281b9d9eefc83b5710e64b9d646067d",
    "wof:hierarchy": [
      {
        "building_id": -1,
        "campus_id": 102527513,
        "collection_id": 1159162825,
        "concourse_id": 1159162825,
        "continent_id": 102191575,
        "country_id": 85633793,
        "county_id": 102087579,
        "custom_id": 1914622259,
        "locality_id": 85922583,
        "neighbourhood_id": -1,
        "object_id": 1914622259,
        "region_id": 85688637,
        "wing_id": 1159160869
      }
    ],
    "wof:id": 1914622259,
    "wof:lastmodified": 1787988221,
    "wof:name": "safety information card: US Airways, Boeing 757",
    "wof:parent_id": 1159162825,
    "wof:placetype": "custom",
    "wof:placetype_alt": [
      "object"
    ],
    "wof:repo": "sfomuseum-data-collection",
    "wof:superseded_by": [],
    "wof:supersedes": []
  },
  "bbox": [
    -122.38647222518921,
    37.6161053594541,
    -122.38583385944366,
    37.61661101879963
  ],
  "geometry": {"type":"Polygon","coordinates":[[[-122.38647222518921,37.61631782178288],[-122.386434674263,37.61623283692423],[-122.38637566566466,37.61617759671399],[-122.38630056381224,37.6161308549656],[-122.38616108894348,37.6161053594541],[-122.38602161407469,37.6161308549656],[-122.38591432571411,37.61618609521055],[-122.38585531711577,37.61626683087935],[-122.38583385944366,37.61636881265146],[-122.38587141036987,37.61646654505181],[-122.38594114780425,37.61654303118856],[-122.38605380058287,37.61660252035167],[-122.38618254661559,37.61661101879963],[-122.3863059282303,37.61657277577607],[-122.3864185810089,37.61650903735973],[-122.3864668607712,37.61641130501523],[-122.38647222518921,37.61631782178288]]]}
}
