{
  "id": 1813567393,
  "type": "Feature",
  "properties": {
    "date:cessation_lower": "1935-01-01",
    "date:cessation_upper": "1935-12-31",
    "date:inception_lower": "1934-01-01",
    "date:inception_upper": "1934-12-31",
    "edtf:cessation": "1935",
    "edtf:inception": "1934",
    "geom:area": 2.475047457570636e-7,
    "geom:bbox": "-122.386472,37.616105,-122.385834,37.616611",
    "geom:latitude": 37.61635747477365,
    "geom:longitude": -122.38615540108617,
    "millsfield:airline_id": [
      1159284991
    ],
    "millsfield:category_id": 1511214251,
    "millsfield:collection_id": 1511214207,
    "millsfield:company_id": [
      1159286839
    ],
    "millsfield:images": [
      1813567585,
      1813567587,
      1813567589
    ],
    "millsfield:images_colors_refs": {
      "crayola": [
        {
          "hex": "#a5694f"
        },
        {
          "hex": "#dbd7d2"
        },
        {
          "hex": "#000000"
        },
        {
          "hex": "#cdc5c2"
        },
        {
          "hex": "#714b23"
        },
        {
          "hex": "#cd9575"
        }
      ],
      "css4": [
        {
          "hex": "#c0c0c0"
        },
        {
          "hex": "#cd5c5c"
        },
        {
          "hex": "#d3d3d3"
        },
        {
          "hex": "#bc8f8f"
        },
        {
          "hex": "#a0522d"
        },
        {
          "hex": "#000000"
        },
        {
          "hex": "#808080"
        },
        {
          "hex": "#556b2f"
        }
      ],
      "marekm4": [
        {
          "hex": "#a76c54"
        },
        {
          "hex": "#d4dad8"
        },
        {
          "hex": "#5c3933"
        },
        {
          "hex": "#cdbdae"
        },
        {
          "hex": "#b79972"
        },
        {
          "hex": "#ceb9af"
        },
        {
          "hex": "#bb9773"
        },
        {
          "hex": "#2e221c"
        },
        {
          "hex": "#987156"
        },
        {
          "hex": "#a26a54"
        },
        {
          "hex": "#c19275"
        }
      ]
    },
    "millsfield:images_texts": [
      "N. AER. 4111\nAVIATORS FLIGHT\nLOG BOOK\nNAME\nRANK OR RATE-\nBRANCH OF SERVICE.",
      "Date\nTopO\nMachine\nNumber\nof\nMachine\nDuration\nFlight\n4.9.34 1.38\n142 M\n9\n\" \"\n142121\n10\n4 1.\n(72 M\n2.29\n3.43\n3:36\n-10\n-/1\n11\n15\n. \"\n172111\n142 24\n142m\nS.40\n8IV\n-15\n15\n-15\n15\n15\n-16\n-17\n-18\n/ 9\n19\n12\n22\n23\n8IV\n2:20\n1:15\n3:38\n:17\n:20\nSIV\n8IV\n:20\n\".\nSIV\n20\nSIV\n:20\nCidor 659M\n2:35\n65914\n3:00\n165911\n3.52\n1.38\n142m\n:10\nCS.40 752V\n2:12\nCandoe 663M 3:58\n663M\n4:2.5\n663m\nTotal time to date,\n:50\n6379:46\nCharacter\nof\nFlight\nР.W. WS.\nP. W.H.\nSenny\n1.\nP. W. U\nР. и. 7/.\n40:59\nPilot\nPASSENGERS\n,20 /N. E\n1-0341\nREMARKS\nMerida - Pozemel\nonemel. F avana\nHavana - (1 umel\n(brumel - Merida\nMerida - Pozenel\n(.13 umel . I curana)\nHrami - Miami\nMiami -Miami diglt luin,\nMiami- Miami\nMiami Miami\nMiami-Mecimi\nТаті-Платі\nMiami -Havana)\nHt avana-T ampa)\nLampas-Havana)\nHavana)- 71 avana - Terry\n1/ avrana - Miami\nMiami- Nevitac)\nNevitas) . Aaraira\nLonaie - Poh au Prince\nCOMANE PRNN STI\n4-0341"
    ],
    "millsfield:images_texts_ids": [
      1813567585,
      1813567589
    ],
    "millsfield:primary_image": 1813567585,
    "millsfield:subcategory_id": 1511213493,
    "mz:is_approximate": 1,
    "mz:is_current": 1,
    "sfomuseum:accession_number": "2022.124.743",
    "sfomuseum:airline": "Pan American Airways",
    "sfomuseum:airline_id": [
      685
    ],
    "sfomuseum:category": "Employee Career History",
    "sfomuseum:classification_id": 198,
    "sfomuseum:collection": "Aviation Archive",
    "sfomuseum:creditline": "Gift of Jon E. Krupnick",
    "sfomuseum:date": "1934-1935",
    "sfomuseum:date_acquired": "2022-12-14",
    "sfomuseum:daterange_end": "1935-12-31",
    "sfomuseum:daterange_start": "1934-01-01",
    "sfomuseum:description": "Logbook of pilot Ralph A. Dahlstrom, Pan American Airways, 1934-1935; tan cover with tab closure.",
    "sfomuseum:dimensions": "7 1/4 x 4 1/2 x 1/2 inches (18.4 x 11.4 x 1.3 cm)",
    "sfomuseum:medium": "paper, cardboard, ink",
    "sfomuseum:object_id": 233665,
    "sfomuseum:placetype": "object",
    "sfomuseum:publication": ": , 1934-1935.",
    "sfomuseum:subcategory": "Logbook, Employee",
    "src:geom": "sfomuseum#undetermined",
    "wof:belongsto": [
      102527513,
      1159162825,
      102191575,
      85633793,
      102087579,
      85922583,
      85688637,
      1159160869
    ],
    "wof:country": "XY",
    "wof:created": 1678867876,
    "wof:depicts": [
      1159286839,
      1159284991
    ],
    "wof:geomhash": "c281b9d9eefc83b5710e64b9d646067d",
    "wof:hierarchy": [
      {
        "building_id": -1,
        "campus_id": 102527513,
        "collection_id": 1159162825,
        "concourse_id": 1159162825,
        "continent_id": 102191575,
        "country_id": 85633793,
        "county_id": 102087579,
        "custom_id": 1813567393,
        "locality_id": 85922583,
        "neighbourhood_id": -1,
        "object_id": 1813567393,
        "region_id": 85688637,
        "wing_id": 1159160869
      }
    ],
    "wof:id": 1813567393,
    "wof:lastmodified": 1787988214,
    "wof:name": "logbook: Ralph A. Dahlstrom",
    "wof:parent_id": 1159162825,
    "wof:placetype": "custom",
    "wof:placetype_alt": [
      "object"
    ],
    "wof:repo": "sfomuseum-data-collection",
    "wof:superseded_by": [],
    "wof:supersedes": []
  },
  "bbox": [
    -122.38647222518921,
    37.6161053594541,
    -122.38583385944366,
    37.61661101879963
  ],
  "geometry": {"type":"Polygon","coordinates":[[[-122.38647222518921,37.61631782178288],[-122.386434674263,37.61623283692423],[-122.38637566566466,37.61617759671399],[-122.38630056381224,37.6161308549656],[-122.38616108894348,37.6161053594541],[-122.38602161407469,37.6161308549656],[-122.38591432571411,37.61618609521055],[-122.38585531711577,37.61626683087935],[-122.38583385944366,37.61636881265146],[-122.38587141036987,37.61646654505181],[-122.38594114780425,37.61654303118856],[-122.38605380058287,37.61660252035167],[-122.38618254661559,37.61661101879963],[-122.3863059282303,37.61657277577607],[-122.3864185810089,37.61650903735973],[-122.3864668607712,37.61641130501523],[-122.38647222518921,37.61631782178288]]]}
}
