{
  "id": 1913890841,
  "type": "Feature",
  "properties": {
    "date:cessation_lower": "1987-01-01",
    "date:cessation_upper": "1987-12-31",
    "date:inception_lower": "1987-01-01",
    "date:inception_upper": "1987-12-31",
    "edtf:cessation": "1987",
    "edtf:inception": "1987",
    "geom:area": 2.475047457570636e-7,
    "geom:bbox": "-122.386472,37.616105,-122.385834,37.616611",
    "geom:latitude": 37.61635747477365,
    "geom:longitude": -122.38615540108617,
    "millsfield:airline_id": [
      1159285271
    ],
    "millsfield:category_id": 1763416397,
    "millsfield:collection_id": 1511214207,
    "millsfield:company_id": [
      1159287519
    ],
    "millsfield:images": [
      1913891055,
      1913891057
    ],
    "millsfield:images_colors_refs": {
      "crayola": [
        {
          "hex": "#000000"
        },
        {
          "hex": "#414a4c"
        },
        {
          "hex": "#cdc5c2"
        },
        {
          "hex": "#dbd7d2"
        },
        {
          "hex": "#1974d2"
        },
        {
          "hex": "#9c2542"
        },
        {
          "hex": "#6699cc"
        }
      ],
      "css4": [
        {
          "hex": "#4169e1"
        },
        {
          "hex": "#a52a2a"
        },
        {
          "hex": "#d3d3d3"
        },
        {
          "hex": "#b22222"
        },
        {
          "hex": "#000000"
        },
        {
          "hex": "#2f4f4f"
        },
        {
          "hex": "#4682b4"
        }
      ],
      "marekm4": [
        {
          "hex": "#b31c44"
        },
        {
          "hex": "#468fca"
        },
        {
          "hex": "#1777c9"
        },
        {
          "hex": "#a5240d"
        },
        {
          "hex": "#2e371b"
        },
        {
          "hex": "#231d16"
        },
        {
          "hex": "#ddd0c2"
        },
        {
          "hex": "#cdd1cb"
        }
      ]
    },
    "millsfield:images_texts": [
      "AR PORTUGAL....\nAIR\nPORTUGAL",
      "AIR\nPORTUGAL\nSetembro\n1987/88\nDezembro\nD\nCalendário Escolar\nOutubro\nNovembro\n9\n1\n0\n1\n1\n12\n13\n14\n15\n16\n17\n18\n19\n20\n21\n22\n23\n24\n25\n26\n27\n28\n29\n30\nJaneiro\n3 10 17 24 31\n4\n11\n18\n25\n12 19 26\n6\n7\n13\n20 27\n14\n21\n28\n1\n5\n16\n22\n:29\n23\n30\nMaio\n10\n11\n12\n13\n14\n15\n16\n17\n18\n19\n20\n21\n22\n23\n24\n25\n26\n27\n28\n29\n30\n31\nDIA DO PAI\n2\n4\n6\n1\n1\n1\n2\n3\n14\n1.\n5\n1\n6\n1\n7\n18\n19\n20\n21\n22\n23\n24\n25\n26\n27\n28\n29\n30\n31\nFevereiro\n10\n11\n12\n13\n14\n15\nE\n17\n18\n19\n20\n21\n22\n23\n24\n25\n26\n27\n28\n29\nJunho\n4\n5\n5\n11\n12\n13\n14\n15\n16\n17\n18\n19\n20\n21\n22\n23\n26\n27\n28\n29\n30\n24\n1\n25\nDIA DA MÃE\n10\n11\n12\n13\n14\n15\n16\n17\n18\n19\n20\n21\n22\n23\n24\n25\n26\n27\n28\n29\n30\nMarço\n10\n11\n12\n13\n14\n15\n16\n17\n18\n20\n21\n22\n23\n24\n25\n26\n27\n28\n29\n30\n31\nJulho\n5\n8\n10\n| 17 24 31\n11\n18 25\n12 19 26\n13\n20 27\n14\n21 28\n15\n22 29\n16\n23 30\n10\n11\n12\n1\n3\n14\n15\n16\n17\n18\n19\n20\n21\n22\n23\n24\nN\n26\nAbril\n10\n1\n13\n14\n15\n16\n17\n18\n19\n20\n21\n22\n23\n27\n28\n29\n30\n31\n24\nF\n26\n27\n28\n29\n30\nAgosto\n14\n21\nF\n22\n16\n23\n17\n24\n28\n29\n30\n31\n11\n18\n25\n12\n19\n26\n6\n13\n20\n27\nDIA DA CRIANÇA"
    ],
    "millsfield:images_texts_ids": [
      1913891055,
      1913891057
    ],
    "millsfield:primary_image": 1913891055,
    "millsfield:subcategory_id": 1511213223,
    "mz:is_approximate": 1,
    "mz:is_current": 1,
    "sfomuseum:accession_number": "2015.160.657",
    "sfomuseum:airline": "TAP Air Portugal",
    "sfomuseum:airline_id": [
      815
    ],
    "sfomuseum:category": "Promotional, Archive",
    "sfomuseum:classification_id": 45,
    "sfomuseum:collection": "Aviation Archive",
    "sfomuseum:creditline": "Gift of Thomas G. Dragges",
    "sfomuseum:date": "1987",
    "sfomuseum:date_acquired": "2016-07-25",
    "sfomuseum:daterange_end": "1987-12-31",
    "sfomuseum:daterange_start": "1987-01-01",
    "sfomuseum:description": "Pocket calendar issued by TAP Air Portugal for September 1987 - August 1988; double-sided card; full color photographic of airplane in flight.",
    "sfomuseum:dimensions": "3 1/2 x 2 1/4 inches (8.9 x 5.7 cm)",
    "sfomuseum:medium": "paper, ink",
    "sfomuseum:object_id": 178133,
    "sfomuseum:placetype": "object",
    "sfomuseum:publication": ": , 1987.",
    "sfomuseum:subcategory": "Calendar, Pocket",
    "src:geom": "sfomuseum#undetermined",
    "wof:belongsto": [
      102527513,
      1159162825,
      102191575,
      85633793,
      102087579,
      85922583,
      85688637,
      1159160869
    ],
    "wof:country": "XY",
    "wof:created": 1715326372,
    "wof:depicts": [
      1159287519,
      1159285273,
      1159285271
    ],
    "wof:geomhash": "c281b9d9eefc83b5710e64b9d646067d",
    "wof:hierarchy": [
      {
        "building_id": -1,
        "campus_id": 102527513,
        "collection_id": 1159162825,
        "concourse_id": 1159162825,
        "continent_id": 102191575,
        "country_id": 85633793,
        "county_id": 102087579,
        "custom_id": 1913890841,
        "locality_id": 85922583,
        "neighbourhood_id": -1,
        "object_id": 1913890841,
        "region_id": 85688637,
        "wing_id": 1159160869
      }
    ],
    "wof:id": 1913890841,
    "wof:lastmodified": 1787988220,
    "wof:name": "pocket calendar: TAP Air Portugal, 1987-1988",
    "wof:parent_id": 1159162825,
    "wof:placetype": "custom",
    "wof:placetype_alt": [
      "object"
    ],
    "wof:repo": "sfomuseum-data-collection",
    "wof:superseded_by": [],
    "wof:supersedes": []
  },
  "bbox": [
    -122.38647222518921,
    37.6161053594541,
    -122.38583385944366,
    37.61661101879963
  ],
  "geometry": {"type":"Polygon","coordinates":[[[-122.38647222518921,37.61631782178288],[-122.386434674263,37.61623283692423],[-122.38637566566466,37.61617759671399],[-122.38630056381224,37.6161308549656],[-122.38616108894348,37.6161053594541],[-122.38602161407469,37.6161308549656],[-122.38591432571411,37.61618609521055],[-122.38585531711577,37.61626683087935],[-122.38583385944366,37.61636881265146],[-122.38587141036987,37.61646654505181],[-122.38594114780425,37.61654303118856],[-122.38605380058287,37.61660252035167],[-122.38618254661559,37.61661101879963],[-122.3863059282303,37.61657277577607],[-122.3864185810089,37.61650903735973],[-122.3864668607712,37.61641130501523],[-122.38647222518921,37.61631782178288]]]}
}
