{
  "id": 1511930365,
  "type": "Feature",
  "properties": {
    "date:cessation_lower": "1987-01-01",
    "date:cessation_upper": "1987-12-31",
    "date:inception_lower": "1987-01-01",
    "date:inception_upper": "1987-12-31",
    "edtf:cessation": "1987",
    "edtf:date": "1987",
    "edtf:inception": "1987",
    "geom:area": 0,
    "geom:bbox": "-122.386155,37.616357,-122.386155,37.616357",
    "geom:latitude": 37.616357,
    "geom:longitude": -122.386155,
    "iso:country": "XX",
    "millsfield:airline_id": [
      1159283791
    ],
    "millsfield:category_id": 1511214223,
    "millsfield:collection_id": 1511214207,
    "millsfield:company_id": [
      1159286809
    ],
    "millsfield:images": [
      1527834711
    ],
    "millsfield:images_colors_refs": {
      "crayola": [
        {
          "hex": "#757575"
        },
        {
          "hex": "#efdecd"
        },
        {
          "hex": "#ff2b2b"
        },
        {
          "hex": "#ffa343"
        },
        {
          "hex": "#414a4c"
        }
      ],
      "css4": [
        {
          "hex": "#dcdcdc"
        },
        {
          "hex": "#191970"
        },
        {
          "hex": "#daa520"
        },
        {
          "hex": "#d2691e"
        },
        {
          "hex": "#708090"
        }
      ],
      "marekm4": [
        {
          "hex": "#eda314"
        },
        {
          "hex": "#e6e5d8"
        },
        {
          "hex": "#e5481d"
        },
        {
          "hex": "#2e1f4f"
        },
        {
          "hex": "#6a648d"
        }
      ]
    },
    "millsfield:images_texts": [
      "AIRCAL\nSAN FRANCISCO\nQUICK REFERENCE TIMETABLE\nEffective May 1, 1987\nReservations: (415) 433-2660\nLeave\nArrive Flight No.\nTo ANCHORAGE\n8 35a\n1150a\n209p\n739p\n2759\n2207/2119\n230p\n2927\n739p\n2739/2927\n6 30p\n1157p\n2761\nTo BURBANK\n825a\n926a 2130\n110p\n216p\n2198\n6 50p\n756p\n2056\nFreq.\nVia/\nStops Remarks\nAir Freight: (415) 877-0113\nFreq.\nVia/\nStops Remarks\nDaily\nDaily\nDaily\nExSa\nRNO\nPDX\nSEA\n1\nDaily\nDaily\nDaily\n0\n0\n0\nTO CHICAGO\n8 56a\n444p\n2048/2095\n235p 1110p\n2144/2097\nTO LAKE TAHOE\n1220p 106p 2251\nDaily\nExSa\nSNA\nSNA\nDaily\nTO LONG BEACH\n856a 1230p\n2048/2094\nExSa\nSNA\nOC2094 Subject to Government approval\nBL\nDS\nDS\nDS\nLS\nD\nS\nLeave\nArrive\nFlight No.\nFrom ANCHORAGE\n110a\n841a 2720\n700a\n141p\n2728\n10 00a\n436p\n3 45p\n1041p\n2926/2718\n2706\nExSu\nDaily\nExSu\nExSa\n1\nSEA\n1\nBL\nFrom BURBANK\n6 55a\n804a 2105\n11 40a\n12 49p\n2177\n520p\n6 30p\n6 50p\n8 29p\n2257\n2103\nFrom CHICAGO\n800a 118p\n2094/2519\n300p 709p 2096\nFrom LAKE TAHOE\n130p 211p 2144\nExSu\nDaily\nDaily\nFr\n0\n0\n0\nExSu\nDaily\nSNA\nDaily\n0\nFrom LONG BEACH\n400p 709p 2097/2096\nExSa\nSNA\nOC2097 Subject to Government approval\nTO LOS ANGELES\n700a\n730a\n809a\n2160\n0\n844a\n2266\n800a\n911a\n2688\n900a\n10 11a\n2720\n10 00a\n1108a\n2152\n1100a\n12 08p\n2136\n1100a\n1200n\n12 08p\n2312\n100p\n108p\n2112\n200p\n211p\n308p\n2702\n408p\n2728\n3 00p\n2176\n4 00p\n500p\n5 08p\n2126\n6 00p\n611p\n711p\n2718\n700p\n2154\n800p\n8 08p\n908p\n2724\n900p\n2128\n10 08p\n2138\n10 00p\n11 04p\n1100p\n11 58p\n2178\n11 55p\n109a\n2706\n2196\nSa\nDaily\nDaily\nDaily\nExSa\nSa\nExSa\nDaily\nDaily\nDaily\nExSa\nDaily\nDaily\nDaily\nDaily\nDaily\nDaily\nExSa\nDaily\n0\n0\n0\n0\nFrom LOS ANGELES\n700a\n807a\n2759\n800a\n907a\n900a\n10 07a\n2109\n10 00a\n1100a\n1107a\n2607\n1207p\n2135\n1200n\n107p\n2763\n2183\n100p\n207p\n200p\n2739\n307p\n300p\n4 07p\n2153\n400p\n507p\n2175\n500p\n2147\n6 07p\n600p\n707p\n2761\n700p\n800p\n807p\n2129\n907p\n2189\n900p\n10 07p\n2195\n1000p\n1107p\n2161\n11 00p\n1207a\n2181\n2199\nDaily\nDaily\nExSa\nDaily\nDaily\nDaily\nDaily\nExSa\nDaily\nDaily\nDaily\nExSa\nDaily\nDaily\nDaily\nDaily\nDaily\nEx-Except\nTu-Tuesday\nTh-Thursday\nMo-Monday\nWe-Wednesday\nFr-Friday\nSa-Saturday\nSu-Sunday\nB-Breakfast\nL-Lunch\nD-Dinner\nS-Snack\nCertain Flight Schedules And Equipment Types Subject To Change.\n*Night Coach Fare Applies\n- Subject To Change. Consult Your AirCal Agent For Details.\nE-Effective.\nD-Discontinued.\nPRINTED IN U.S.A."
    ],
    "millsfield:images_texts_ids": [
      1527834711
    ],
    "millsfield:primary_image": 1527834711,
    "millsfield:subcategory_id": 1511213425,
    "mz:hierarchy_label": 1,
    "mz:is_current": 1,
    "sfomuseum:accession_number": "2007.039.024",
    "sfomuseum:airline": "AirCal",
    "sfomuseum:airline_id": [
      143
    ],
    "sfomuseum:category": "Scheduling / Ticketing",
    "sfomuseum:classification_id": 158,
    "sfomuseum:collection": "Aviation Archive",
    "sfomuseum:creditline": "Gift of Tryg McCoy",
    "sfomuseum:date": "1987",
    "sfomuseum:date_acquired": "2007-05-31",
    "sfomuseum:daterange_end": "1987-12-31",
    "sfomuseum:daterange_start": "1987-01-01",
    "sfomuseum:description": "Quick reference timetable issued by AirCal for service to and from San Francisco, effective May 1, 1987; white card.",
    "sfomuseum:dimensions": "8 1/2 x 4 inches (21.6 x 10.2 cm)",
    "sfomuseum:issues_held": "                                                                                                                                                                                                                  ",
    "sfomuseum:media_ids": [
      1527834711
    ],
    "sfomuseum:medium": "paper, ink",
    "sfomuseum:object_id": 87110,
    "sfomuseum:placetype": "object",
    "sfomuseum:primary_media_id": 1527834711,
    "sfomuseum:publication": ": , 1987.",
    "sfomuseum:subcategory": "Timetable",
    "sfomuseum:subject": "Airlines -- Commercial -- AirCal                                             ",
    "src:geom": "sfomuseum#undetermined",
    "wof:belongsto": [
      1511214223,
      102527513,
      102191575,
      85633793,
      1511213425,
      85922583,
      102087579,
      1511214277,
      1511214207,
      85688637
    ],
    "wof:breaches": [],
    "wof:country": "XX",
    "wof:created": 1579906663,
    "wof:depicts": [
      1159283791,
      1159286809
    ],
    "wof:geomhash": "30c8a918561c84bb2daa2b97fc7c5353",
    "wof:hierarchy": [
      {
        "arcade_id": 1511213425,
        "building_id": 1511214277,
        "campus_id": 102527513,
        "concourse_id": 1511214223,
        "continent_id": 102191575,
        "country_id": 85633793,
        "county_id": 102087579,
        "custom_id": 1511930365,
        "locality_id": 85922583,
        "neighbourhood_id": -1,
        "object_id": 1511930365,
        "region_id": 85688637,
        "venue_id": 1511930365,
        "wing_id": 1511214207
      }
    ],
    "wof:id": 1511930365,
    "wof:lastmodified": 1787988180,
    "wof:name": "timetable: AirCal, quick reference, San Francisco",
    "wof:parent_id": 1159162825,
    "wof:placetype": "custom",
    "wof:placetype_alt": [
      "object"
    ],
    "wof:repo": "sfomuseum-data-collection",
    "wof:superseded_by": [],
    "wof:supersedes": [],
    "wof:tags": []
  },
  "bbox": [
    -122.386155,
    37.616357,
    -122.386155,
    37.616357
  ],
  "geometry": {"type":"Point","coordinates":[-122.386155,37.616357]}
}
