{
  "id": 1762683539,
  "type": "Feature",
  "properties": {
    "date:cessation_lower": "1950-01-01",
    "date:cessation_upper": "1950-12-31",
    "date:inception_lower": "1950-01-01",
    "date:inception_upper": "1950-12-31",
    "edtf:cessation": "1950~",
    "edtf:inception": "1950~",
    "geom:area": 2.475047457570636e-7,
    "geom:bbox": "-122.386472,37.616105,-122.385834,37.616611",
    "geom:latitude": 37.61635747477365,
    "geom:longitude": -122.38615540108617,
    "millsfield:airline_id": [
      1159285393
    ],
    "millsfield:category_id": 1511214223,
    "millsfield:collection_id": 1511214207,
    "millsfield:company_id": [
      1159287531
    ],
    "millsfield:images": [
      1762700755,
      1762700757
    ],
    "millsfield:images_colors_refs": {
      "crayola": [
        {
          "hex": "#414a4c"
        },
        {
          "hex": "#87a96b"
        },
        {
          "hex": "#85754e"
        },
        {
          "hex": "#efcdb8"
        }
      ],
      "css4": [
        {
          "hex": "#6b8e23"
        },
        {
          "hex": "#556b2f"
        },
        {
          "hex": "#8fbc8f"
        },
        {
          "hex": "#f5deb3"
        },
        {
          "hex": "#228b22"
        }
      ],
      "marekm4": [
        {
          "hex": "#396e25"
        },
        {
          "hex": "#638c48"
        },
        {
          "hex": "#93a56f"
        },
        {
          "hex": "#92a66f"
        },
        {
          "hex": "#688d4b"
        },
        {
          "hex": "#266117"
        },
        {
          "hex": "#e4d8b4"
        },
        {
          "hex": "#e3d8b4"
        }
      ]
    },
    "millsfield:images_texts": [
      "TWA's New\nSKY COACH SERVICE\nLos Angeles • Phoenix • Albuquerque\nAmarillo • Wichita • Kansas City\n(In addition to regular fare TWA Luxury Service)\nEASTBOUND\nRead Down\nTwe\nFlights Nightly\nEach Way\nWESTBOUND\nRead Up\n7:05\n10:15\n10:25\n12:30\n12:40\n3:20\n3:30\n5:15\n5:25\n6:35\n9:15 LV Los Angeles\nAR\n6:45\n12:25\nAR Phoenix\nLV\n5:25\n12:35\nLV Phoenix\nAR\n5:15\n2:40\nAR Albuquerque\nLV\n3:00\n2:50\nLV Albuquerque\nAR\n2:50\n5:30\nAR Amarillo\nLV\n2:00\n5:40\nLV Amarillo\nAR\n1:50\n7:25\nAR Wichita\nLV\n11:55\n7:35\nLV Wichita\nAR\n11:45\n8:45\nAR Kansas City\nLV\n10:30\n8:25\n7:05\n6:55\n4:40\n4:30\n3:40\n3:30\n1:35\n1:25\n12:10\nLIGHT FACE indicates AM - DARK FACE indicates PM\nAll times shown are local standard times.\nFacts on TWA Sky Coach Service:\n1. The speed of air travel, at a big saving in\nmoney.\n2. Scheduled airline dependability and safety, with\na crew of three on every flight.\n3. Dependable 24-passenger Douglas DC-3's.\n4. Ticket must be purchased to reserve space.\nTWA\nTRANS WORLD AIRLINE\nU. 8.A. • EUROPE • AFRICA• ASIA",
      "Albuquerque\nAmarilio. .\nKansas City\nLos Angeles\nPhoenix . .\nWichita . .\nSky Coach fares are low!\n(Sky Coach Service available befween Kansas City, Wichita,\nAmarillo, Albuquerque, Phoenix and Los Angeles)\nAlbu-\nKan-\nLos\nquer-\nAma-\nsas\nAn-\nque\nrillo\nCity\ngeles\nXX\n11.20\n30.20\n29.30\n11.20\nxX\n19.05\n40.50\n30.20\n19.05\nxX\n59.50\n29.30\n40.50\n59.50\nXX\n14.60\n25.80\n44.80\n14.70\n23.05\n11.90\n7.15\n52.35\nFederal fax extra.\n*For Information call the TWA offices shown below.\nCALL FOR\nINFORMATION\nPhoe-\nnix\n14.60\n25.80\n44.80\n14.70\nXX\n37.65\nWichi-\nta\n23.05\n11.90\n7.15\n52.35\n37.65\nXX\nCITY\nTICKET OFFICE\n540 W. 6th Street\nLos Angeles Airport\nLockheed Airport\nBurbank\nLos Angeles\nMichigan 8141\n9482 Wilshire Blyd.\nBeverly Hills\nPalladium Bidg.\nHollywood\n6308 Pacific Bivd.\nHuntington Park\nZenith 8881\nZenith 8881\nWilton Hotel\nLong Beach\nConstance Hotel\nPasadena\nPhoenix\n4-7164\n30 East Adams Street\nAlbuquerque\nAmarillo\n4537\nSky Harbor Airport\n322 W. Gold\nMunicipal Airport\n5392\nHerring Hotel Lobby\nWichita\n6-4646\nEnglish Field\nAllis Hotel\nMunicipal Airport\nKansas City\nGrand 2266\nMuehlebach Hotel\nMunicipal Airport\n* For reservations, visit the above offices or write your nearest TWA office\nenclosing check or money order (include 15% Federal tax). Indicate\ndate and flight desired.\nTWA\nTHA\nTWA\n.089.1-"
    ],
    "millsfield:images_texts_ids": [
      1762700755,
      1762700757
    ],
    "millsfield:primary_image": 1762700755,
    "millsfield:subcategory_id": 1511213425,
    "mz:is_current": 1,
    "sfomuseum:accession_number": "2014.084.1436",
    "sfomuseum:airline": "TWA (Trans World Airlines)",
    "sfomuseum:airline_id": [
      874
    ],
    "sfomuseum:category": "Scheduling / Ticketing",
    "sfomuseum:classification_id": 158,
    "sfomuseum:collection": "Aviation Archive",
    "sfomuseum:creditline": "Gift of Thomas G. Dragges",
    "sfomuseum:date": "c. 1950",
    "sfomuseum:date_acquired": "2015-07-02",
    "sfomuseum:daterange_end": "1955-12-31",
    "sfomuseum:daterange_start": "1945-01-01",
    "sfomuseum:description": "Pocket timetable issued by TWA (Trans World Airlines) for Sky Coach service, undated (c. 1950); double-sided white and green card with schedule information; includes fare information.",
    "sfomuseum:dimensions": "5 x 3 inches (12.7 x 7.6 cm)",
    "sfomuseum:medium": "paper, ink",
    "sfomuseum:object_id": 159051,
    "sfomuseum:placetype": "object",
    "sfomuseum:publication": ": , c. 1950.",
    "sfomuseum:subcategory": "Timetable",
    "src:geom": "sfomuseum#undetermined",
    "wof:belongsto": [
      102527513,
      1159162825,
      102191575,
      85633793,
      102087579,
      85922583,
      85688637,
      1159160869
    ],
    "wof:country": "XY",
    "wof:created": 1641340706,
    "wof:depicts": [
      1159287531,
      1159285393
    ],
    "wof:geomhash": "c281b9d9eefc83b5710e64b9d646067d",
    "wof:hierarchy": [
      {
        "building_id": -1,
        "campus_id": 102527513,
        "collection_id": 1159162825,
        "concourse_id": 1159162825,
        "continent_id": 102191575,
        "country_id": 85633793,
        "county_id": 102087579,
        "custom_id": 1762683539,
        "locality_id": 85922583,
        "neighbourhood_id": -1,
        "object_id": 1762683539,
        "region_id": 85688637,
        "wing_id": 1159160869
      }
    ],
    "wof:id": 1762683539,
    "wof:lastmodified": 1787988194,
    "wof:name": "timetable: TWA (Trans World Airlines), pocket schedule, Sky Coach service",
    "wof:parent_id": 1159162825,
    "wof:placetype": "custom",
    "wof:placetype_alt": [
      "object"
    ],
    "wof:repo": "sfomuseum-data-collection",
    "wof:superseded_by": [],
    "wof:supersedes": []
  },
  "bbox": [
    -122.38647222518921,
    37.6161053594541,
    -122.38583385944366,
    37.61661101879963
  ],
  "geometry": {"type":"Polygon","coordinates":[[[-122.38647222518921,37.61631782178288],[-122.386434674263,37.61623283692423],[-122.38637566566466,37.61617759671399],[-122.38630056381224,37.6161308549656],[-122.38616108894348,37.6161053594541],[-122.38602161407469,37.6161308549656],[-122.38591432571411,37.61618609521055],[-122.38585531711577,37.61626683087935],[-122.38583385944366,37.61636881265146],[-122.38587141036987,37.61646654505181],[-122.38594114780425,37.61654303118856],[-122.38605380058287,37.61660252035167],[-122.38618254661559,37.61661101879963],[-122.3863059282303,37.61657277577607],[-122.3864185810089,37.61650903735973],[-122.3864668607712,37.61641130501523],[-122.38647222518921,37.61631782178288]]]}
}
