{
  "id": 1511956635,
  "type": "Feature",
  "properties": {
    "date:cessation_lower": "1981-01-01",
    "date:cessation_upper": "1981-12-31",
    "date:inception_lower": "1980-01-01",
    "date:inception_upper": "1980-12-31",
    "edtf:cessation": "1981",
    "edtf:date": "1980",
    "edtf:inception": "1980",
    "geom:area": 0,
    "geom:bbox": "-122.386155,37.616357,-122.386155,37.616357",
    "geom:latitude": 37.616357,
    "geom:longitude": -122.386155,
    "iso:country": "XX",
    "millsfield:airline_id": [
      1159284989
    ],
    "millsfield:category_id": 1511214223,
    "millsfield:collection_id": 1511214207,
    "millsfield:company_id": [
      1159286839
    ],
    "millsfield:images": [
      1527853629
    ],
    "millsfield:images_colors_refs": {
      "crayola": [
        {
          "hex": "#a8e4a0"
        },
        {
          "hex": "#6dae81"
        },
        {
          "hex": "#757575"
        },
        {
          "hex": "#414a4c"
        }
      ],
      "css4": [
        {
          "hex": "#8fbc8f"
        },
        {
          "hex": "#2f4f4f"
        },
        {
          "hex": "#808080"
        }
      ],
      "marekm4": [
        {
          "hex": "#6a9173"
        },
        {
          "hex": "#96c3a1"
        },
        {
          "hex": "#2a3c2e"
        },
        {
          "hex": "#7aaa89"
        }
      ]
    },
    "millsfield:images_texts": [
      "LAX\nJFK\nORD\nLHR\nBRU\nDEL\nDXB\nOXB\nTXL\nFRA\nBRU\nLHR\nBRU\nORO\nATLANTIC ALL-CARGO\nSERVICES\nEASTBOUND\nTh\nSu\nLOS ANGELES\nNEW YORK/NEWARK, J. F. Kennedy Interna\nCHICAGO, O'Hare ..\n05 30\n06 05\n+1\nLONDON, Motow\n19\nBRUSSELS.\n22421\nHASI\n#2*\n+St\nJERLIN, Tege\nDUBAI\nWESTBOUND\nMo Su\n+\n+4\nDUBAI\n+ Si\n+4\n+2 A\nBERLIN, Togel\narr\n+2 A FRANKFURT....\nBRUSSELS\nLONDON, Heathrow\n02435\nDIAIS\n03435\n03430\n+2 A BRUSSELS\n14030\n163\narr\n05 00\n0340\n09 15\n07 33\n17/20\nA-From 28 Sep I hour earlier.\nPACIFIC ALL-CARGO SERVICES\nWESTBOUND\nEASTBOUND\nSa\n+\n74F\n=\n- 7\nBE\nlICAGO, O'HI\nLOS ANGELES\ndep\n- 10\n• INTERNATIONAL DATE LINE\nNAN\n+12\ni3 25\n13 25\nSYD\n+10\n22 00\nAKL\nSYD\n222 00\n+12\n+10\nAUCKLAND\nSYDNEY\n1-Operational landing.\nLATIN AMERICA ALL-CARGO SERVICES\nao c\nWe\nFr\nSa\nMo\nHours\n=\nMIARKNEWASK,1.F. Kennedy international\nCARACAS\n98\n(TRINIDAD-TOBAGO)\n88.\n12\n14 30\n14 30\n-3\nBUENOS AIRES, Exeiza .\nVCP\n-1\nSAO PAULO, Viracepor\nNORTHBOUND\n15'30\nWe\nE3=\nTu Fe\nTu Th\nMo TH\n293\nVCP\n20\nPOS\nCCS\n-4\n-4\n• 8\nCARLA CITY\n82.\n8:\nJFK\nNEW YORK/NEWARK, 1. F. Kennedy Internations\nA-Applies enly on Fr ex Caracar.\n05 10\n-Applies enly on We ex Buenos Aires.\n=98\n0343:\n03 40\n10\n10\n0343.\n03 40\n03A35\n16s\n07 10 09 10\n14 45\n..:\nTu\n283\nMo\nMN:\nN==\n22 00\nFr\n838°\n0630\n15\nОЗДО\n09100\nTU\nis\n30"
    ],
    "millsfield:images_texts_ids": [
      1527853629
    ],
    "millsfield:primary_image": 1527853629,
    "millsfield:subcategory_id": 1511213425,
    "mz:hierarchy_label": 1,
    "mz:is_current": 1,
    "sfomuseum:accession_number": "2005.127.002.010",
    "sfomuseum:airline": "Pan American World Airways",
    "sfomuseum:airline_id": [
      684
    ],
    "sfomuseum:category": "Scheduling / Ticketing",
    "sfomuseum:classification_id": 158,
    "sfomuseum:collection": "Aviation Archive",
    "sfomuseum:creditline": "Gift of the William Hough Collection",
    "sfomuseum:date": "1980-1981",
    "sfomuseum:date_acquired": "2006-12-14",
    "sfomuseum:daterange_end": "1981-12-31",
    "sfomuseum:daterange_start": "1980-01-01",
    "sfomuseum:description": "Cargo schedule for Pan American World Airways; single-sided on green paper; with information on services in the Atlantic, Latin America and Pacific; part of 11 issues dated 1980-1981.",
    "sfomuseum:dimensions": "14 x 8 1/2 inches (35.6 x 21.6 cm)",
    "sfomuseum:media_ids": [
      1527853629
    ],
    "sfomuseum:medium": "paper, ink",
    "sfomuseum:object_id": 151533,
    "sfomuseum:placetype": "object",
    "sfomuseum:primary_media_id": 1527853629,
    "sfomuseum:publication": ": , 1980-1981.",
    "sfomuseum:subcategory": "Timetable",
    "src:geom": "sfomuseum#undetermined",
    "wof:belongsto": [
      1511214223,
      102527513,
      102191575,
      85633793,
      1511213425,
      85922583,
      102087579,
      1511214277,
      1511214207,
      85688637
    ],
    "wof:breaches": [],
    "wof:country": "XX",
    "wof:created": 1579906659,
    "wof:depicts": [
      1159286839,
      1159284991,
      1159284989
    ],
    "wof:geomhash": "30c8a918561c84bb2daa2b97fc7c5353",
    "wof:hierarchy": [
      {
        "arcade_id": 1511213425,
        "building_id": 1511214277,
        "campus_id": 102527513,
        "concourse_id": 1511214223,
        "continent_id": 102191575,
        "country_id": 85633793,
        "county_id": 102087579,
        "custom_id": 1511956635,
        "locality_id": 85922583,
        "neighbourhood_id": -1,
        "object_id": 1511956635,
        "region_id": 85688637,
        "venue_id": 1511956635,
        "wing_id": 1511214207
      }
    ],
    "wof:id": 1511956635,
    "wof:lastmodified": 1787988190,
    "wof:name": "timetable: Pan American World Airways, cargo schedule",
    "wof:parent_id": 1159162825,
    "wof:placetype": "custom",
    "wof:placetype_alt": [
      "object"
    ],
    "wof:repo": "sfomuseum-data-collection",
    "wof:superseded_by": [],
    "wof:supersedes": [],
    "wof:tags": []
  },
  "bbox": [
    -122.386155,
    37.616357,
    -122.386155,
    37.616357
  ],
  "geometry": {"type":"Point","coordinates":[-122.386155,37.616357]}
}
