{
  "id": 1511930377,
  "type": "Feature",
  "properties": {
    "date:cessation_lower": "1974-01-01",
    "date:cessation_upper": "1974-12-31",
    "date:inception_lower": "1974-01-01",
    "date:inception_upper": "1974-12-31",
    "edtf:cessation": "1974~",
    "edtf:date": "1974~",
    "edtf:inception": "1974~",
    "geom:area": 0,
    "geom:bbox": "-122.386155,37.616357,-122.386155,37.616357",
    "geom:latitude": 37.616357,
    "geom:longitude": -122.386155,
    "iso:country": "XX",
    "millsfield:aircraft_id": [
      1159290173
    ],
    "millsfield:category_id": 1762671311,
    "millsfield:collection_id": 1511214207,
    "millsfield:images": [
      1527850853,
      1527850855
    ],
    "millsfield:images_colors_refs": {
      "crayola": [
        {
          "hex": "#e7c697"
        },
        {
          "hex": "#cdc5c2"
        },
        {
          "hex": "#c46210"
        },
        {
          "hex": "#414a4c"
        },
        {
          "hex": "#bf4f51"
        }
      ],
      "css4": [
        {
          "hex": "#b22222"
        },
        {
          "hex": "#2f4f4f"
        },
        {
          "hex": "#c0c0c0"
        },
        {
          "hex": "#a0522d"
        },
        {
          "hex": "#daa520"
        }
      ],
      "marekm4": [
        {
          "hex": "#d2c9ba"
        },
        {
          "hex": "#a74e36"
        },
        {
          "hex": "#3e392c"
        },
        {
          "hex": "#d7c8a9"
        },
        {
          "hex": "#c63f09"
        },
        {
          "hex": "#dba009"
        },
        {
          "hex": "#403a3f"
        }
      ]
    },
    "millsfield:images_texts": [
      "Conc\norde\nprocédures de secours\nemergency procedures\n1-2. Gardez votre calme, éteignez\nvotre cigarette. N'utilisez ni bri-\nquet ni allumette. Desserrez votre\ncol, enlevez votre cravate, débar-\nrassez-vous de vos lunettes, de vos\nchaussures à talons hauts et de\ntous objets pointus ou tranchants\ncontenus dans vos poches.\nKeep calm. Extinguish cigarettes.\nDo\nnot\nuse\nlighter\nor matches.\nLoosen neckwear, remove glasses,\ndentures, high heeled shoes, and\nany sharp objects from pockets.\n3. Tirez votre\ngilet de\nsauvetage\nde son logement placé sous votre\nsiège.\nCe logement s'ouvre sur le\ndevant.\nTake life jacket-from under seat\nby opening the front flap.\n6\n4. Passez la tête dans l'ouverture\ndu gilet.\nPlace over head.\n5. Adultes : attachez\nles sangles\nautour de votre taille. Ne pas gon-\nfler le gilet.\nAdults:\nTie\ntapes around waist.\nDo not inflate.\n6. Enfants : attachez les sangles\nautour du\ncorps et\npar-dessus le\ngilet avec deux nœuds dans le dos.\nGonflez le gilet avant de quitter\nl'avion.\nChildren:\nTie tapes around body\nand over life jacket in a double\nknot at the back. Inflate before\nleaving aircraft.\n7. Asseyez-vous et serrez étroite-\nment votre ceinture de sécurité.\nRepérez les sorties.\nSit\ndown\nand\nadjust seat belt\nfirmly. Note exits.\n8-9.\nAu commandement\n\"prépa-\nrez-vous pour atterrir ou amerrir\"\nposez le front sur vos bras croisés\nsur le haut du dossier devant vous.\nAppuyez les pieds par terre aussi\nfort que possible.\nS'il n'y a pas de\ndossier devant vous,\ncroisez\nles\nbras sur les\ngenoux\net\nappuyez\nvotre tête dessus.\nOn\nreceiving\nthe\nwarning • to\n\"Brace\", rest the forehead on fol-\nded arms against the top of the\nseat in front.\nBrace\nfeet firmly\non floor.\nIf there is no seat in\nfront, fold arms across knees and\ncradle head.\n10. Dès que\nvous serez hors de\nl'avion, gonflez le\ngilet en tirant\nfermement sur le bouton rouge.\nEn cas d'amerrissage, évacuez par\nles portes avant.\nWhen clear of the aircraft inflate\njacket by pulling firmly red knob.\nIn case of ditching leave by the\nforward exits.\n11. Le tube à gonflage bucal per-\nmet de regonfler le gilet si néces-\nsaire. Vous disposez d'un\nsifflet\npour attirer l'attention.\nInflate or\ntop up using\nmouth\npiece.\nA whistle is provided for\nattracting attention.\n12. Tirez sur un des\nmasques et\nadaptez-le sur votre visage.\nGrasp the nearest mask and ad-\njust it on your face.",
      "Concorde\nconsignes de sécurité\nsafety instructions\nRENSEIGNEMENTS GENERAUX\nLisez\nattentivement\nles\ninstruc-\ntions suivantes, à appliquer en cas\nd'urgence :\n— Rappelez-vous que le Comman-\ndant de bord détient une autorité\nabsolue\net que les\nmembres de\nl'équipage\nsavent\nexactement\nce\nqu'il\nfaut\nfaire dans\ntoutes\ncir-\nconstances et vous donneront les\nordres précis à suivre.\n- Restez calme et\nne vous affo-\nlez pas. Quand l'avion sera com-\nplètement\nimmobilisé,\ndétachez\nvos ceintures de sécurité et soyez\nprêt à suivre les ordres de l'équi-\npage pour évacuer l'avion.\n— Les hommes doivent prêter as-\nsistance\naux\nfemmes\net\naux\nen-\nfants.\n- En\nd'amerrissage forcé,\nrestez\ngroupés dans l'eau.\nCeci\nrend\nvotre détection plus facile\npar les sauveteurs.\n- Pendant\nla\ndurée du vol le\nCommandant est en liaison radio\nconstante avec d'autres avions et\navec des stations au sol. Notre\nposition est exactement connue à\ntout moment.\nPOSTES PORTATIFS\nLes postes portatifs peuvent occa-\nsionner le brouillage des équipe-\nments de radiocommunication et\nde\nnavigation\nde\nl'avion.\nPour\ncette raison, l'utilisation de radios\nportatives, de magnétophones, etc.,\nest formellement interdite.\nGENERAL INFORMATION\nPlease,\nwill you read\nattentively\nthe following instructions to ap-\nply in an emergency situation:\n- Remember\nthat\nthe Captain\nhas absolute authority and the\n- Throughout the flight, the Cap-\ntain is in constant radio commu-\nnication\nwith other aircraft and\nshore bases\nand our position is\naccurately\nknown\nat\nall\ntimes.\ncrew know what to do in any\nPORTABLE RADIOS\neventuality and will issue specific\ninstructions accordingly.\nThe\nportable\nelectronic\nequip-\nments may cause interference with\n- When the aircraft has stopped\n. the\nradio-navigational\ncompletely unfasten your seat belt\ntions in\nthe\ninstalla-\naircraft.\nFor this\nand\nbe\nready to follow instruc-\nreason the use of portable radio\ntions of crews members for de-\nreceivers,\ntape recorders, etc., is\nparture from the aircraft.\nKeep\nnot permitted.\ncalm and do not rush.\n— Men should assist women and\nchildren.\n-In case of dithing,\nkeep to-\ngether in the water.\nThis makes\ndetection easier for rescue parties.\nTOBOGGANS ET CANOTS\nDes toboggans sont disponibles à\nchacune des sorties de\nLes toboggans des portes centrales\nsont également des canots de sau-\nvetage.\nESCAPE SLIDES AND RAFTS\nAn\nescape slide is\navailable at\neach of the emergency\nexit.\nThe\nescape slides located\nat\ncentre\ndoors are also life rafts.\nSORTIES DE SECOURS\nLes sorties principales de secours\nsont les portes centrales droite et\ngauche et la porte arrière gauche\nde cabine.\nDe\nplus, il\ny\nune\nissue de secours dans la\nsoute à\nbagages extrême arrière. Notez la\nposition\nde\ncelles-ci\nqui\nsont\nclairement indiquées par le mot\n« exit ».\nLa porte\nd'embarque-\nment extrême avant n'est pas une\nissue de secours.\nEMERGENCY EXITS\nThe main line of emergency exit\nis through the R.H. and L.H.\ncentre doors and rear cabin L.H.\ndoor.\nIn\naddition there is an\nemergency\nexit in\n. the\nextreme\nrear baggage hold. You are ask-\ned to note the positions of these\nwhich\nare clearly\nmarked with\nthe word « exit ».\nThe extreme\nforward boarding door is not an\nemergency\nexit.\n2007 116.036"
    ],
    "millsfield:images_texts_ids": [
      1527850853,
      1527850855
    ],
    "millsfield:primary_image": 1527850853,
    "millsfield:subcategory_id": 1511213703,
    "mz:hierarchy_label": 1,
    "mz:is_current": 1,
    "sfomuseum:accession_number": "2007.116.036",
    "sfomuseum:aircraft": "Concorde",
    "sfomuseum:aircraft_id": [
      366
    ],
    "sfomuseum:category": "Passenger Amenity, Archive",
    "sfomuseum:classification_id": 581,
    "sfomuseum:collection": "Aviation Archive",
    "sfomuseum:creditline": "Gift of the Honorable Larry Mazzola",
    "sfomuseum:date": "c. 1974",
    "sfomuseum:date_acquired": "2007-10-12",
    "sfomuseum:daterange_end": "1979-12-31",
    "sfomuseum:daterange_start": "1969-01-01",
    "sfomuseum:description": "Safety information card issued for the Concorde fleet; double-sided card with illustrations depicting inflight safety and emergency procedures; no identification code; no revision date.",
    "sfomuseum:dimensions": "11 3/4 x 16 1/2 inches (29.8 x 41.9 cm)",
    "sfomuseum:media_ids": [
      1527850853,
      1527850855
    ],
    "sfomuseum:medium": "paper, plastic, ink",
    "sfomuseum:object_id": 87206,
    "sfomuseum:placetype": "object",
    "sfomuseum:primary_media_id": 1527850853,
    "sfomuseum:publication": ": , c. 1974.",
    "sfomuseum:subcategory": "Safety Information Card",
    "sfomuseum:subject": "Aircraft Industry -- Manufacturers -- Concorde",
    "src:geom": "sfomuseum#undetermined",
    "wof:belongsto": [
      1511214243,
      102527513,
      102191575,
      85633793,
      1511213703,
      85922583,
      102087579,
      1511214277,
      1511214203,
      85688637
    ],
    "wof:breaches": [],
    "wof:country": "XX",
    "wof:created": 1579906684,
    "wof:depicts": [
      1159290173,
      1159293811
    ],
    "wof:geomhash": "30c8a918561c84bb2daa2b97fc7c5353",
    "wof:hierarchy": [
      {
        "arcade_id": 1511213703,
        "building_id": 1511214277,
        "campus_id": 102527513,
        "concourse_id": 1511214243,
        "continent_id": 102191575,
        "country_id": 85633793,
        "county_id": 102087579,
        "custom_id": 1511930377,
        "locality_id": 85922583,
        "neighbourhood_id": -1,
        "object_id": 1511930377,
        "region_id": 85688637,
        "venue_id": 1511930377,
        "wing_id": 1511214203
      }
    ],
    "wof:id": 1511930377,
    "wof:lastmodified": 1787988180,
    "wof:name": "safety information card: Concorde",
    "wof:parent_id": 1159162825,
    "wof:placetype": "custom",
    "wof:placetype_alt": [
      "object"
    ],
    "wof:repo": "sfomuseum-data-collection",
    "wof:superseded_by": [],
    "wof:supersedes": [],
    "wof:tags": []
  },
  "bbox": [
    -122.386155,
    37.616357,
    -122.386155,
    37.616357
  ],
  "geometry": {"type":"Point","coordinates":[-122.386155,37.616357]}
}
