{
  "id": 1511909689,
  "type": "Feature",
  "properties": {
    "date:cessation_lower": "1980-01-01",
    "date:cessation_upper": "1980-12-31",
    "date:inception_lower": "1980-01-01",
    "date:inception_upper": "1980-12-31",
    "edtf:cessation": "1980",
    "edtf:date": "1980",
    "edtf:inception": "1980",
    "geom:area": 0,
    "geom:bbox": "-122.386155,37.616357,-122.386155,37.616357",
    "geom:latitude": 37.616357,
    "geom:longitude": -122.386155,
    "iso:country": "US",
    "millsfield:airline_id": [
      1159285413
    ],
    "millsfield:category_id": 1511214223,
    "millsfield:collection_id": 1511214207,
    "millsfield:company_id": [
      1159288779
    ],
    "millsfield:images": [
      1527838787,
      1527838789
    ],
    "millsfield:images_colors_refs": {
      "crayola": [
        {
          "hex": "#efdecd"
        },
        {
          "hex": "#ff2b2b"
        },
        {
          "hex": "#1a4876"
        },
        {
          "hex": "#324ab2"
        },
        {
          "hex": "#eceabe"
        }
      ],
      "css4": [
        {
          "hex": "#483d8b"
        },
        {
          "hex": "#ffe4c4"
        },
        {
          "hex": "#ffebcd"
        },
        {
          "hex": "#dc143c"
        },
        {
          "hex": "#191970"
        }
      ],
      "marekm4": [
        {
          "hex": "#f7edcb"
        },
        {
          "hex": "#183594"
        },
        {
          "hex": "#d71213"
        },
        {
          "hex": "#f0e4c3"
        },
        {
          "hex": "#2b349a"
        }
      ]
    },
    "millsfield:images_texts": [
      "UNITED AIRLINES\nCARGO\nswissair+\nJOINT CARGO TIMETABLE\nEFFECTIVE JULY 2, 1980\nSWISSAIR CARGO SCHEDULE\nFROM\nZurich, Switzerland\nLeave\nArrive\nFlight\nTo Chicago, III.\n1155\n1715\n128\nFROM\nChicago, III.\nTo Zurich, Switzerland\n1845\n1050\n129\nFROM\nNew York, N.Y.\nTo Zurich, Switzerland\n1900\n2155\n0855\n111\n1030\n101\nFreq.\nDaily\nEquipt.\nDC-10\nDaily\nDC-10\nEX TU\nDaily\nB.747\nB.747",
      "UNITED AIRLINES CARGO SCHEDULE\nFROM\nChicago,\nIII. (CDT)\n# 686-3500\nEff. 7/2/80\nFROM\nEff. 7/2/80\nNew York, N.Y.\n= (212)656-7300\nStops\nNewark, N.J. (EDT)\nor\n8(201)961-5000\nLeave Arrive Flight Frequency Via\nTo Denver, Colo. (MDT)\n1010(0) 1134\n0410(0)\n0518\nG 263\n2837\nEX MO,SU\nLeave Arrive\nFlight Frequency\nTo Detroit, Mich. (EDT)\nTo Denver, Colo. (MDT)\n0845(0) 1045\nG 560\n0855 (J) 1050\n2841\nEX MO,SU\n0205(0) 0354\n2892\nEX MO,SU\nTo Detroit, Mich. (EDT)\nTo Honolulu, Hi. (HST)\n2355 (J) 0130\n2823\nEX SA, SU\n2330(0) 1015(H) G 127/G*185\nSto\nTo Los Angeles, /\nTo Los Angeles, /\nOntario, Cal. (PDT)\nOntario, Cal. (PDT)\n0900 (J)\n1130\nY 193\n0830(0) 1035\nY 101\n2355 (J)\n0400\n2823\n0405(0) 0600\n2839\nEX MO,SU\n0210 (J)\n0445\n2895\nEX SA,SU\nEX MO,SU\nTo Portland, Ore. (PDT)\nTo Portland, Ore. (PDT)\n0515(0) 0847\n2883\nEX MO,SU\n0259 (J) 0847\n2877 / 2883 EX MO,SU\nTo San Francisco / Oakland/\nTo San Francisco / Oakland/\nSan Jose, Cal. (PDT)\nSan Jose, Cal. (PDT)\n2330(0) 0140\n0320 (J) 0605\n0255(0) 0500\n2855 EX MO,SU\n° To Seattle/\n2879\nON SU\nTo Seattle/\nTacoma, Wash. (PDT)\nTacoma, Wash. (PDT)\n0259 (J) 0534\n2877\nEX MO,SU\n0515(0) 0710\n2883\nEX MO,SU\nFROM\nDetroit, Mich. (EDT)\nE 942-9100\nEff. 7/2/80\nFROM\nPortland, Ore. (PDT)\n8 249-4300\nEff. 7/2/80\nTo Chicago, III. (CDT)\n2235 0405(0)\n2890\nEX SA,SU\nTo Chicago, III. (CDT)\n0905\n0910(0)\nG 263\nFROM\nHonolulu, Hi. (HST)\n8 842-5311\nEff. 7/2/80\nTo Chicago, III. (CDT)\n0900 (H) 0400(0) Y 114/G*116\n0930 (H) 0410(0) Y 180/G*124\nTo New York, N.Y.\nNewark, N.J. (EDT)\n0930 (H) 0605(J) Y 180/G* 24\nLax\nSfo\nFROM\nEff. 7/2/80\nSan Francisco, Cal. (PDT)\n2 876-3443\nOakland, Cal. (PDT)\n2 569-3134\nSan Jose, Cal. (PDT)\nT 292-1984\nSto\nFROM\nLos Angeles,\nS 776-2000\nOntario, Cal. (PDT)\na 983-8311\nEff. 7/2/80\nTo Chicago, III. (CDT)\n2230\n0410(0)\nG 124\n2300\n0450(0)\n2844\n0015\n0015\n0600(0)\n2834\n0600(0)\nG 136\nTo New York, N.Y.\nNewark, N.J. (EDT)\n2200\n0605 (J)\n2230\nG 24\n0640 (J)\n0015\n1009 (J)\n2872\n0115\n2834\n0925 (J)\n2870\nEX SA, SU\nON SU\nEX SA,SU\nON SU\nON SU\nTo\nChicago, Ill. (CDT)\n2220\n2340\n0400(0)\nG 116\n0520 (0)\n2898\n0030\n0615(0)\nY 118\nTo New York, N.Y.\nNewark, N.J. (EDT)\n2215\n0610 (J)\nY 28\n2310\n0710 (J)\n~ 2856\nEX SA,SU\nFROM\nSeattle\nEff. 7/2/80\nEX SA,SU\n2 433-4000\nTacoma, Wash. (PDT)\n2 927-6715\nG-Wide-Body DC-10\nY-Wide-Body B-747\nTo Chicago, III. (CDT)\n2245\n2359\n0410(0)\n0100\n0524(0)\nG 138\nG 158\n0630(0)\n2822\nEX MO,SU\nTo New York, N.Y.\nNewark, N.J. (EDT)\n0100\n1039 (J)\n2822\nEX MO,SU\nStops\nor\nVia\nSea\n(D) —Washington Dulles(I) —Balt /Wash. Int'l\n(M) —Midway (Chi)\n(E)\n-Newark\nor Hilo, Hawaii\nor Miami Int'l\n-Washington National\nHollywood Int'l\nor San Jose (Calif.)\n(H)-Honolulu Int'l\n(L) -LaGuardia (New York)\nOntario (Calif)\n(K)-Oakland Int'l\nor Los Angeles Int'l\n(S)-San Francisco Int'l\n1999.047,436"
    ],
    "millsfield:images_texts_ids": [
      1527838787,
      1527838789
    ],
    "millsfield:primary_image": 1527838787,
    "millsfield:subcategory_id": 1511213425,
    "mz:hierarchy_label": 1,
    "mz:is_current": 1,
    "sfomuseum:accession_number": "1999.047.436",
    "sfomuseum:airline": "United Airlines",
    "sfomuseum:airline_id": [
      883
    ],
    "sfomuseum:category": "Scheduling / Ticketing",
    "sfomuseum:classification_id": 158,
    "sfomuseum:collection": "Aviation Archive",
    "sfomuseum:continent": "North America",
    "sfomuseum:country": "United States",
    "sfomuseum:creditline": "Gift of United Airlines Archives",
    "sfomuseum:date": "1980",
    "sfomuseum:date_acquired": "2000-05-11",
    "sfomuseum:daterange_end": "1980-12-31",
    "sfomuseum:daterange_start": "1980-01-01",
    "sfomuseum:description": "Joint timetable issued by United Airlines Cargo and Swissair, effective July 2, 1980; fold-out format.",
    "sfomuseum:dimensions": "9 x 4 inches (22.9 x 10.2 cm)",
    "sfomuseum:media_ids": [
      1527838787,
      1527838789
    ],
    "sfomuseum:medium": "paper, ink",
    "sfomuseum:object_id": 49788,
    "sfomuseum:placetype": "object",
    "sfomuseum:primary_media_id": 1527838787,
    "sfomuseum:publication": ": , 1980.",
    "sfomuseum:subcategory": "Timetable",
    "src:geom": "sfomuseum#undetermined",
    "wof:belongsto": [
      1511214223,
      102527513,
      102191575,
      85633793,
      1511213425,
      85922583,
      102087579,
      1511214277,
      1511214207,
      85688637,
      136253057
    ],
    "wof:breaches": [],
    "wof:country": "US",
    "wof:created": 1579906676,
    "wof:depicts": [
      1159285413,
      1159288779
    ],
    "wof:geomhash": "30c8a918561c84bb2daa2b97fc7c5353",
    "wof:hierarchy": [
      {
        "arcade_id": 1511213425,
        "building_id": 1511214277,
        "campus_id": 102527513,
        "concourse_id": 1511214223,
        "continent_id": 102191575,
        "country_id": 85633793,
        "county_id": 102087579,
        "custom_id": 1511909689,
        "locality_id": 85922583,
        "neighbourhood_id": -1,
        "object_id": 1511909689,
        "region_id": 85688637,
        "venue_id": 1511909689,
        "wing_id": 1511214207
      },
      {
        "continent_id": 102191575,
        "country_id": 85633793,
        "custom_id": 1511909689,
        "empire_id": 136253057,
        "object_id": 1511909689,
        "venue_id": 1511909689
      }
    ],
    "wof:id": 1511909689,
    "wof:lastmodified": 1787988176,
    "wof:name": "timetable: United Airlines Cargo and Swissair",
    "wof:parent_id": 1159162825,
    "wof:placetype": "custom",
    "wof:placetype_alt": [
      "object"
    ],
    "wof:repo": "sfomuseum-data-collection",
    "wof:superseded_by": [],
    "wof:supersedes": [],
    "wof:tags": []
  },
  "bbox": [
    -122.386155,
    37.616357,
    -122.386155,
    37.616357
  ],
  "geometry": {"type":"Point","coordinates":[-122.386155,37.616357]}
}
