{
  "id": 1762829115,
  "type": "Feature",
  "properties": {
    "date:cessation_lower": "1950-01-01",
    "date:cessation_upper": "1959-12-31",
    "date:inception_lower": "1950-01-01",
    "date:inception_upper": "1959-12-31",
    "edtf:cessation": "195X",
    "edtf:inception": "195X",
    "geom:area": 2.475047457570636e-7,
    "geom:bbox": "-122.386472,37.616105,-122.385834,37.616611",
    "geom:latitude": 37.61635747477365,
    "geom:longitude": -122.38615540108617,
    "millsfield:aircraft_id": [
      1159290421,
      1159290427
    ],
    "millsfield:airline_id": [
      1159285415
    ],
    "millsfield:category_id": 1762671311,
    "millsfield:collection_id": 1511214207,
    "millsfield:company_id": [],
    "millsfield:images": [
      1762896331
    ],
    "millsfield:images_colors_refs": {
      "crayola": [
        {
          "hex": "#ffae42"
        },
        {
          "hex": "#414a4c"
        },
        {
          "hex": "#efdecd"
        }
      ],
      "css4": [
        {
          "hex": "#dcdcdc"
        },
        {
          "hex": "#2f4f4f"
        },
        {
          "hex": "#daa520"
        }
      ],
      "marekm4": [
        {
          "hex": "#e7bc20"
        },
        {
          "hex": "#322f16"
        },
        {
          "hex": "#e7decb"
        }
      ]
    },
    "millsfield:images_texts": [
      "CARGO DOOR\nDC-4 AIRPLANE\nCARGO\nDOOR\nUp forward by the pilot's compartment is the flight deck door. Turn handle and\npull door wide open. An escape rope is in a canvas case at the upper left hand\ncorner. Remove the rope from case and drop it to the ground. Test it-then slide down.\nWINDOW EXITS\nDROP TO\nGROUND\nDROP TO\nGROUND\nMAIN DOOD\nLEGEND\nHANDAYE\nCiDe\nEXTINGUISHER\nFLASH LIGHT\nFIRST AID KIT\n1.\nYou have probably located the emergency exit nearest you-there's a sign reading\n\"Emercency Exitll over the window. Just below the window is lastic co.\ning with a red handle. 1. A quick jerk removes the case. 2. Then grasp the handle,\nturn it to the right and pull exit inward. 3. Lift exit panel from hinge. If on the\nground, throw it out; if in flight store it under a seat. You'll find the wing is just\nbelow the exit. Sit on wing and slide to ground.\n1.\n2.\nMAIN\nDOOR\n1.\n2.\n3.\n4.\nPull out ring-toss aside\nPush up on door latch\nPush door outward\nThere is ar\nescape rone above and\nto the right of the door frame if you\nneed it.\nEMERGENCY DOOR\n1.\nRemove panel over slide\n2.\nRemove cover over handle\n3.\nPull handle and door inward - lift\ndoor - turn on edae - shove out\nonenine\nEMERGENCY DOOR\nDC-6 AIRPLANE\nCARGO DOOR\n1.\nC.1=\nUp forward by the pilot's compartment is the flight deck door. 1. Turn handle and\npush door wide open. 2. An escape rope is in door frame at the upper right hand\ncorner. Pull the rope from the recess and drop it to the ground. Test it - then\nslide down.\nWINDOW EXITS\n3.\nMost likely you\nhave observed the Emergency Window Exit near you-there's a\nsign\nreading\n\"Emergency Exit\" over the window. Just below the window is a\nplastic case covering a handle.\n1. A quick jerk removes the case. 2. Then, grasp\nthe handle and pull up on it. 3. Push the window outward. It is hinged to the\nforward edge and remains on the airplane. Where the window exit is over a\nwing, sit on wing and slide to ground.\nMAIN DOOR\n4.\nPull out ring - toss aside\nPush up on door latch\nPush door outward\nThere is an\nASCODA TOME\n• recessed in\nthe top\nof the door frame if you\nneed it\nMAIN DOOR EVACUATION SLIDE\nDC-4 and DC-6\nн7.20?\nInside the main cabin door, all neatly tied in a bundle is a slide not too different\nthan you enjoyed at grade school. Just pull the red ring on the canvas housing\nand mac dr dt did wil cad to the around To back ld.\npreviously selected by the crew will slip to the ground and hold the end of the\nslide\nantondad away from the alans\nlide in sitting position and slide to the ground. See illustration above\nDROP\nTO\nGROUND\nCARGO DOOR\nROP\nTO\nGROUND\nGROUND\nMAIN DOOR\nPULL ROPE\nCRAN\nWINNAI\nFRAME\nSLIDE DOWN\nLEGEND\nHAND AYE\ncine\nEXTINGUISHER\nFLASHLIGHT\nFIRST AID KIT"
    ],
    "millsfield:images_texts_ids": [
      1762896331
    ],
    "millsfield:primary_image": 1762896331,
    "millsfield:subcategory_id": 1511213703,
    "mz:is_current": 1,
    "sfomuseum:accession_number": "2014.110.017",
    "sfomuseum:aircraft": "Douglas DC-4",
    "sfomuseum:aircraft_id": [
      489,
      491
    ],
    "sfomuseum:airline": "United Air Lines",
    "sfomuseum:airline_id": [
      884
    ],
    "sfomuseum:category": "Passenger Amenity, Archive",
    "sfomuseum:classification_id": 581,
    "sfomuseum:collection": "Aviation Archive",
    "sfomuseum:creditline": "Gift of Thomas G. Dragges",
    "sfomuseum:date": "1950s",
    "sfomuseum:date_acquired": "2015-01-06",
    "sfomuseum:daterange_end": "1959-12-31",
    "sfomuseum:daterange_start": "1950-01-01",
    "sfomuseum:description": "Safety information card issued by United Air Lines for its Douglas DC-6 and DC-8 fleet; yellow and white double-sided fold-out sheet with illustrations and text demonstrating safety instructions and emergency procedures.",
    "sfomuseum:dimensions": "9 x 4 inches (22.9 x 10.2 cm)",
    "sfomuseum:medium": "paper, ink",
    "sfomuseum:object_id": 159175,
    "sfomuseum:placetype": "object",
    "sfomuseum:publication": ": , 1950s.",
    "sfomuseum:subcategory": "Safety Information Card",
    "src:geom": "sfomuseum#undetermined",
    "wof:belongsto": [
      102527513,
      1159162825,
      102191575,
      85633793,
      102087579,
      85922583,
      85688637,
      1159160869
    ],
    "wof:country": "XY",
    "wof:created": 1642729607,
    "wof:depicts": [
      1159290427,
      1159285415,
      1159288779,
      1159290421
    ],
    "wof:geomhash": "c281b9d9eefc83b5710e64b9d646067d",
    "wof:hierarchy": [
      {
        "building_id": -1,
        "campus_id": 102527513,
        "collection_id": 1159162825,
        "concourse_id": 1159162825,
        "continent_id": 102191575,
        "country_id": 85633793,
        "county_id": 102087579,
        "custom_id": 1762829115,
        "locality_id": 85922583,
        "neighbourhood_id": -1,
        "object_id": 1762829115,
        "region_id": 85688637,
        "wing_id": 1159160869
      }
    ],
    "wof:id": 1762829115,
    "wof:lastmodified": 1787988200,
    "wof:name": "safety information card: United Air Lines",
    "wof:parent_id": 1159162825,
    "wof:placetype": "custom",
    "wof:placetype_alt": [
      "object"
    ],
    "wof:repo": "sfomuseum-data-collection",
    "wof:superseded_by": [],
    "wof:supersedes": []
  },
  "bbox": [
    -122.38647222518921,
    37.6161053594541,
    -122.38583385944366,
    37.61661101879963
  ],
  "geometry": {"type":"Polygon","coordinates":[[[-122.38647222518921,37.61631782178288],[-122.386434674263,37.61623283692423],[-122.38637566566466,37.61617759671399],[-122.38630056381224,37.6161308549656],[-122.38616108894348,37.6161053594541],[-122.38602161407469,37.6161308549656],[-122.38591432571411,37.61618609521055],[-122.38585531711577,37.61626683087935],[-122.38583385944366,37.61636881265146],[-122.38587141036987,37.61646654505181],[-122.38594114780425,37.61654303118856],[-122.38605380058287,37.61660252035167],[-122.38618254661559,37.61661101879963],[-122.3863059282303,37.61657277577607],[-122.3864185810089,37.61650903735973],[-122.3864668607712,37.61641130501523],[-122.38647222518921,37.61631782178288]]]}
}
