{
  "id": 1511930381,
  "type": "Feature",
  "properties": {
    "date:cessation_lower": "1976-01-01",
    "date:cessation_upper": "1976-12-31",
    "date:inception_lower": "1976-01-01",
    "date:inception_upper": "1976-12-31",
    "edtf:cessation": "1976",
    "edtf:date": "1976",
    "edtf:inception": "1976",
    "geom:area": 0,
    "geom:bbox": "-122.386155,37.616357,-122.386155,37.616357",
    "geom:latitude": 37.616357,
    "geom:longitude": -122.386155,
    "iso:country": "XX",
    "millsfield:airline_id": [
      1159283793
    ],
    "millsfield:category_id": 1511214223,
    "millsfield:collection_id": 1511214207,
    "millsfield:company_id": [
      1159286809
    ],
    "millsfield:images": [
      1527834619,
      1527844315
    ],
    "millsfield:images_colors_refs": {
      "crayola": [
        {
          "hex": "#fddde6"
        },
        {
          "hex": "#714b23"
        },
        {
          "hex": "#c46210"
        },
        {
          "hex": "#000000"
        },
        {
          "hex": "#efdecd"
        }
      ],
      "css4": [
        {
          "hex": "#556b2f"
        },
        {
          "hex": "#faf0e6"
        },
        {
          "hex": "#b22222"
        },
        {
          "hex": "#dcdcdc"
        },
        {
          "hex": "#000000"
        }
      ],
      "marekm4": [
        {
          "hex": "#191716"
        },
        {
          "hex": "#bf4118"
        },
        {
          "hex": "#f5efe4"
        },
        {
          "hex": "#b72f0d"
        },
        {
          "hex": "#5a3625"
        },
        {
          "hex": "#eadfd3"
        }
      ]
    },
    "millsfield:images_texts": [
      "San Diego - San Jose.\nWe've pulled out\nthe stops to give you\nan easier way...\nAIR\nCALIFORNIA\nWe're easy to take.",
      "Morning and evening,\nAir California has\nthe only nonstops\nbetween San Diego\nand San Jose.\nLowest fare, too...\nNow you can choose\nfrom two round trip nonstops\nSunday through Friday plus\n28 convenient direct flights a week.\nFly a comfortable Boeing 737.\nWe've expanded our Sunjet\nFleet to give San Diego -\nSan Jose the easy way.\nThe thrifty EZ Fare\ncan save you 20%, even on nonstop\nflights. Just check in at the ticket counter 30 minutes\nbefore departure and you'll get the first\navailable seat on a standby basis.\nBig savings with our family plan\nand economy fares for groups and\nmilitary. It's the economical way\nto plan your next weekend\nor vacation trip.\nEasy going service\nfrom the most fashionably uniformed\ncabin attendants in the California sky.\nWrite your own ticket,\nright in your own office. For details on Air\nCalifornia \"Easy Tickets\" contact\nour local representative.\nsave\n20%\nDepart from the easiest gates\nat San Diego and San Jose Airports.\nOur boarding lounges are just a few\nsteps from curbside.\nEnjoy Beringer Wine\non board plus a fine selection\nof premium label cocktails\nfor only $1.00\nCall Easy Information\nfor reservations. It's\nthe most advanced\ncomputerized\nreservations/information\nsystem in the airline\nfinger\nBering bone\nindustry. If there's an\neasier way to get you there,\nwe'll be the first to tell you.\nBoeing 737 Sunjets\nEffective April 12, 1976\nAIR CALIFORNIA EASY REFERENCE FLIGHT SCHEDULE\nSAN DIEGO TO SAN JOSE $31.50 SAN JOSE TO SAN DIEGO\nFit.\nNo.\n+805\n613\n719\n733\n737\n343\n753\n55\n861\n661\n665\nLeave\n8:45A\n9:35A\n10:25A\n1:20P\n2:20P\n3:45P\n4:20P\n5:45P\n7:00P\n7:10P\n7:20P\nArrive\n# Stops\nFreq.\n9:50A Nonstop Mo-Fr\n11:10A\n11:55A\nSa\n2:55P\nDaily\nSu-Fr\n3:55P\n5:15P\nSa\n5:55P\nSu-Fr\n6:50P\n8:05P\nNonstop\nSa\nSu-Fr\n8:40P\nNonstop\nSu\n8:55P\nMo-Th\nFr \u0026 Sa\nFIt.\nNo.\n+ 702\n602\n604\n310\n714\n+ 718\n728\n+840\n+648\n656\n660\n762\n- 870\nLeave\n7:10A\n7:25A\n8:00A\n8:30A\n10:05A\n11:20A\n1:40P\n4:10P\n5:00P\n6:55P\n7:40P\n7:40P\n9:25P\nArrive\n# Stops\nFreq.\n8:15A Nonstop Mo-Fr\n8:55A\n9:35A\nSa\nFr \u0026 Sa\n10:00A\nMo-Th\nMo-Sa\n12:50P\n3:15P\n5:15P\n6:30P\n8:30P\n9:10P\n9:15P\n10:30P\nSu\nNonstop\nDaily\nSu-F\nSa\nFr\nMo-Th\nSa\nNonstop\nSu\nCall Easy Information in San Diego, (714) 235-7301, or in San Jose, (408) 286-7870.\n+ EZ Fare can save you 20%.\nAIR I\nCALIFORNIA\nWe're easy to take."
    ],
    "millsfield:images_texts_ids": [
      1527834619,
      1527844315
    ],
    "millsfield:primary_image": 1527834619,
    "millsfield:subcategory_id": 1511213425,
    "mz:hierarchy_label": 1,
    "mz:is_current": 1,
    "sfomuseum:accession_number": "2007.011.228",
    "sfomuseum:airline": "Air California",
    "sfomuseum:airline_id": [
      144
    ],
    "sfomuseum:category": "Scheduling / Ticketing",
    "sfomuseum:classification_id": 158,
    "sfomuseum:collection": "Aviation Archive",
    "sfomuseum:creditline": "Gift of the William Hough Collection",
    "sfomuseum:date": "1976",
    "sfomuseum:date_acquired": "2006-11-10",
    "sfomuseum:daterange_end": "1976-12-31",
    "sfomuseum:daterange_start": "1976-01-01",
    "sfomuseum:description": "Quick reference timetable issued by Air California, effective April 12, 1976 for service between San Diego and San Jose; bi-fold format; orange and white cover with text \"San Diego-San Jose. We've pulled out the stops to give you an easier way...\".",
    "sfomuseum:dimensions": "4 x 9 inches (10.2 x 22.9 cm)",
    "sfomuseum:media_ids": [
      1527844315,
      1527834619
    ],
    "sfomuseum:medium": "paper, ink",
    "sfomuseum:object_id": 87212,
    "sfomuseum:placetype": "object",
    "sfomuseum:primary_media_id": 1527834619,
    "sfomuseum:publication": ": , 1976.",
    "sfomuseum:subcategory": "Timetable",
    "src:geom": "sfomuseum#undetermined",
    "wof:belongsto": [
      1511214223,
      102527513,
      102191575,
      85633793,
      1511213425,
      85922583,
      102087579,
      1511214277,
      1511214207,
      85688637
    ],
    "wof:breaches": [],
    "wof:country": "XX",
    "wof:created": 1579906660,
    "wof:depicts": [
      1159283793,
      1159286809
    ],
    "wof:geomhash": "30c8a918561c84bb2daa2b97fc7c5353",
    "wof:hierarchy": [
      {
        "arcade_id": 1511213425,
        "building_id": 1511214277,
        "campus_id": 102527513,
        "concourse_id": 1511214223,
        "continent_id": 102191575,
        "country_id": 85633793,
        "county_id": 102087579,
        "custom_id": 1511930381,
        "locality_id": 85922583,
        "neighbourhood_id": -1,
        "object_id": 1511930381,
        "region_id": 85688637,
        "venue_id": 1511930381,
        "wing_id": 1511214207
      }
    ],
    "wof:id": 1511930381,
    "wof:lastmodified": 1787988180,
    "wof:name": "timetable: Air California, quick reference, San Diego, San Jose",
    "wof:parent_id": 1159162825,
    "wof:placetype": "custom",
    "wof:placetype_alt": [
      "object"
    ],
    "wof:repo": "sfomuseum-data-collection",
    "wof:superseded_by": [],
    "wof:supersedes": [],
    "wof:tags": []
  },
  "bbox": [
    -122.386155,
    37.616357,
    -122.386155,
    37.616357
  ],
  "geometry": {"type":"Point","coordinates":[-122.386155,37.616357]}
}
