{
  "id": 1511951231,
  "type": "Feature",
  "properties": {
    "date:cessation_lower": "1951-01-01",
    "date:cessation_upper": "1951-12-31",
    "date:inception_lower": "1951-01-01",
    "date:inception_upper": "1951-12-31",
    "edtf:cessation": "1951",
    "edtf:date": "1951",
    "edtf:inception": "1951",
    "geom:area": 0,
    "geom:bbox": "-122.386155,37.616357,-122.386155,37.616357",
    "geom:latitude": 37.616357,
    "geom:longitude": -122.386155,
    "iso:country": "XX",
    "millsfield:airline_id": [
      1159284989
    ],
    "millsfield:category_id": 1763416397,
    "millsfield:collection_id": 1511214207,
    "millsfield:company_id": [
      1159286839
    ],
    "millsfield:images": [
      1763388361
    ],
    "millsfield:images_colors_refs": {
      "crayola": [
        {
          "hex": "#efdecd"
        },
        {
          "hex": "#414a4c"
        },
        {
          "hex": "#bab86c"
        },
        {
          "hex": "#757575"
        },
        {
          "hex": "#bf4f51"
        }
      ],
      "css4": [
        {
          "hex": "#2f4f4f"
        },
        {
          "hex": "#bdb76b"
        },
        {
          "hex": "#faebd7"
        },
        {
          "hex": "#cd5c5c"
        },
        {
          "hex": "#708090"
        }
      ],
      "marekm4": [
        {
          "hex": "#464044"
        },
        {
          "hex": "#efeada"
        },
        {
          "hex": "#ba5841"
        },
        {
          "hex": "#c5a757"
        },
        {
          "hex": "#66708b"
        }
      ]
    },
    "millsfield:images_texts": [
      "THE SATURDAY EVENING POST\nOctober 20.1951\nTO EUROPE.\n• SOUTH AMERICA... across the PACIFIC\nEnjoy the Worlds Most\nLuxious Air Sewice!\nРАД\nBreakfast in bed aboard\n\"THE PRESIDENT\"\nBed-length Sleeperettes are provided on many Pan American\ndeluxe fliests at no additional cost. They give vou double the usual\nlet room. Large, loam-sort Derins also avanable at a small surcharge\n(free for passengers to Australia).\nDownstairs club lounge is a delightful feature of every Pan\nAmerican Strato Clipper. These sky mants are the world's largest.\nfastest, most luxurious airliners... the steadiest way to cross the ocean!\n\"The President\" and \"The President\nSpecial\" to London,\nParis and Rome\n(Overnight from New York).\n\"El Presidente\"\nto mo and buenos\nAires (from New Yorl).\nThe only Sleeperette \"Strato\" Clippers\nto Hawaii, the Orient and Australia (from\nthe West Coast).\nThe finest way to fly overseas is by Pan\nAmerican's\n\"blue-ribbon\" services.\nThese\nfliahts are aboard double-decked\"Strato\nClippers. You enjoy many advantages:\nThe President: seven-course dinner by\nMaxim's, Paris ... with cocktails, French\nwine. liqueurs. For each passenger, a smart\novernight bag. And, for the ladies—orchids\nand Lanvin's \"Arpège.\" No extra fare.\nThe President Specials all the luxuries of The\nPresident, plus Sleeperettes\", champagne, five\ncapi attendants Dassencer uselmted to\n47. Surcharge, ten dollars.\nEl Presidente: the only double-decked air-\nliner flights to South America. Comparable\nin axury and service to rue rrescent one\ncial. Surcharge, $10 to Rio, S20 to \"B.A.\nAcross the Pacite: onlv Pan American\noffers \"Strato\" Clippers with Sleeperettes.\nCall your Travel Agent or Pan American.\nBack of the luxuries aboard \"The President\"\n-and back of the million-and-a-half-dollar cost\nof the Clipper\" itself-stands the priceless knowledge\nthat you are flying on-\nPAN AMERICAN\nWorld's Most Experienced Airline"
    ],
    "millsfield:images_texts_ids": [
      1763388361
    ],
    "millsfield:primary_image": 1763388361,
    "millsfield:subcategory_id": 1511213149,
    "mz:hierarchy_label": 1,
    "mz:is_current": 1,
    "sfomuseum:accession_number": "2001.038.164.059 a b",
    "sfomuseum:airline": "Pan American World Airways",
    "sfomuseum:airline_id": [
      684
    ],
    "sfomuseum:category": "Promotional, Archive",
    "sfomuseum:classification_id": 6,
    "sfomuseum:collection": "Aviation Archive",
    "sfomuseum:creditline": "Gift of Barnaby Conrad III",
    "sfomuseum:date": "1951",
    "sfomuseum:date_acquired": "2003-05-16",
    "sfomuseum:daterange_end": "1951-12-31",
    "sfomuseum:daterange_start": "1951-01-01",
    "sfomuseum:description": "Two-page advertisement from October 20, 1951 issue of Saturday Evening Post promoting Pan American World Airways, titled “Enjoy the World’s Most Luxurious Air Service!” with color illustration depicting flight attendant serving inflight meal to woman and child.",
    "sfomuseum:dimensions": "14 x 21 inches (35.6 x 53.3 cm)",
    "sfomuseum:medium": "paper, ink",
    "sfomuseum:object_id": 122770,
    "sfomuseum:placetype": "object",
    "sfomuseum:publication": ": , 1951.",
    "sfomuseum:subcategory": "Advertisement, 2D",
    "sfomuseum:subject": "Pan Am promotional advertisement",
    "src:geom": "sfomuseum#undetermined",
    "wof:belongsto": [
      1511214205,
      102527513,
      102191575,
      85633793,
      1511213149,
      85922583,
      102087579,
      1511214277,
      1511214207,
      85688637
    ],
    "wof:breaches": [],
    "wof:country": "XX",
    "wof:created": 1618962246,
    "wof:depicts": [
      1159284989,
      1159286839
    ],
    "wof:geomhash": "30c8a918561c84bb2daa2b97fc7c5353",
    "wof:hierarchy": [
      {
        "arcade_id": 1511213149,
        "building_id": 1511214277,
        "campus_id": 102527513,
        "concourse_id": 1511214205,
        "continent_id": 102191575,
        "country_id": 85633793,
        "county_id": 102087579,
        "custom_id": 1511951231,
        "locality_id": 85922583,
        "neighbourhood_id": -1,
        "object_id": 1511951231,
        "region_id": 85688637,
        "venue_id": 1511951231,
        "wing_id": 1511214207
      }
    ],
    "wof:id": 1511951231,
    "wof:lastmodified": 1787988188,
    "wof:name": "advertisement: Pan American World Airways, Saturday Evening Post",
    "wof:parent_id": 1159162825,
    "wof:placetype": "custom",
    "wof:placetype_alt": [
      "object"
    ],
    "wof:repo": "sfomuseum-data-collection",
    "wof:superseded_by": [],
    "wof:supersedes": [],
    "wof:tags": []
  },
  "bbox": [
    -122.386155,
    37.616357,
    -122.386155,
    37.616357
  ],
  "geometry": {"type":"Point","coordinates":[-122.386155,37.616357]}
}
