{
  "id": 1779565711,
  "type": "Feature",
  "properties": {
    "date:cessation_lower": "1986-01-01",
    "date:cessation_upper": "1986-12-31",
    "date:inception_lower": "1986-01-01",
    "date:inception_upper": "1986-12-31",
    "edtf:cessation": "1986",
    "edtf:inception": "1986",
    "geom:area": 2.475047457570636e-7,
    "geom:bbox": "-122.386472,37.616105,-122.385834,37.616611",
    "geom:latitude": 37.61635747477365,
    "geom:longitude": -122.38615540108617,
    "millsfield:airline_id": [
      1159284857
    ],
    "millsfield:category_id": 1511214223,
    "millsfield:collection_id": 1511214207,
    "millsfield:company_id": [
      1159288319
    ],
    "millsfield:images": [
      1779566127,
      1897763657
    ],
    "millsfield:images_colors_refs": {
      "crayola": [
        {
          "hex": "#9f8170"
        },
        {
          "hex": "#6e5160"
        },
        {
          "hex": "#757575"
        },
        {
          "hex": "#000000"
        },
        {
          "hex": "#cdc5c2"
        },
        {
          "hex": "#dbd7d2"
        },
        {
          "hex": "#9c2542"
        }
      ],
      "css4": [
        {
          "hex": "#000000"
        },
        {
          "hex": "#808080"
        },
        {
          "hex": "#b22222"
        },
        {
          "hex": "#696969"
        },
        {
          "hex": "#d3d3d3"
        }
      ],
      "marekm4": [
        {
          "hex": "#d4d5bf"
        },
        {
          "hex": "#c80a21"
        },
        {
          "hex": "#291b1d"
        },
        {
          "hex": "#7b8275"
        },
        {
          "hex": "#aa132e"
        },
        {
          "hex": "#8c8871"
        },
        {
          "hex": "#66665c"
        },
        {
          "hex": "#d8d8cd"
        }
      ]
    },
    "millsfield:images_texts": [
      "ONEW YORK AIR\nSYSTEM TIMETABLE\nSCHEDULE EFFECTIVE OCTOBER 1, 1986\nNEW WASHINGION\nDULLES SERVICE!\nCHARLESTON, SC\nPHILADELPHIA",
      "Stops/\nVia\nLeave Arrive Freq.\nFit. No.\nWASHINGTON DULLES\nLeave Arrive Freq.\nFlt No.\nStops/\nVia\nTo Ft. Lauderdale\n8 45a\n11 15a 1234567\n143\n11 45a\n2 25p 1234567\n89\n3 30p\n6 10p\n1234567\n77\n6 40p\n910p\n-----6-\n893\n8 35p 11 10p\n----5-\n891\n9 15p\n11 55p\n12345-7\n137\nTo Newark\n8 40a\n9 40a\n-----6-\n406\n11 55a 12 55p\n1234567\n402\n2 35p\n3 35p\n-----6-\n408\n9 10p 10 20p 12345-7\n404\n9 50p 10 50p\n-----6-\n410\nTo Orlando\n8 50a\n11 10a\n1234567\n151\n1155a\n2 15p\n1234567\n135\n3 45p\n6 05p\n1234567\n504\n6 50p\n9 05p\n----6-\n873\n915p 11 50p\n12345-7\n881\nTo Tampa\n8 45a\n1115a\n1234567\n87\n11 50a\n2 20p\n-----6-\n3 40p\n663\n6 10p\n1234567\n205\n9 15p 11 45p 12345-7\n161\nFrom Ft. Lauderdale\n7 30a\n9 50a\n----67\n8 00a\n10 20a\n12345-7\n11 45a\n2 05p\n1234567\n2 55p\n5 15p\n1234567\n7 00p\n9 25p\n12345-7\n7 00p\n9 25p\n-----6-\n890\n74\n86\n146\n82\n142\nFrom Newark\n6 50a\n7 55a 1234567\n401\n10 10a\n11 15a\n-----6-\n405\n150p\n2 55p 1234567\n403\n4 50p\n6 00p\n-----6-\n407\n0\n0\n• c\nTo West Palm Beach\n8 25a 10 50a 1234567\n781\n11 50a\n215p\n- -7\n731\n3 45p\n6 10p 1234567 147\n9 20p 11 35p 12345-7\n681\n1-Monday\n2-Tuesday\nOff-Peak-Red\n3-Wednesday\n4- Thursday\nFrom Orlando\n8 00a\n9 55a\n1234567\n882\n12 00n\n200p 1234567\n136\n3 00p\n500p\n1234567\n158\n6 55p\n8 45p\n-----6-\n160\n6 55p\n8 45p\n12345-7\n507\nFrom Tampa\n8 00a\n10 15a\n123456-\n11 50a\n250p\n2 05p 1234567\n7 10p\n515p\n-..--6-\n9 25p 12345-7\n7 10p\n9 25p\n-..--6-\n154\n204\n664\n210\n649\n0\n•..\nFrom West Palm Beach\n12 20a\n2 40a 12345-7\n11 35a\n1 55p\n1234567\n2 50p\n5 05p\n-----7\n7 10p\n9 25p\n-----6-\n7 10p\n9 25p\n12345-7\n682\n230\n732\n82\n142\n5-Friday\n6-Saturday\nPeak-Black\n7-Sunday\n(-) Except\nIAD-Washington Dulles\n14 Day\nAdvance Purchase*\nMon-Thurs Fri-Sun\nNEW YORK/JFK TO:\nBoston\nCleveland\nFt. Lauderdale, Orlando,\nTampa, West Palm Beach\nWashington Dulles\nPeak\n$ 65.00\n$ 99.00\n$139.00\nOff-Peak\n$ 50.00\n$\n69.00\n$119.00\n$98.95\n$119.00\n$\n75.00\n$\n50.00\nNEW YORK/NEWARK TO:\nFt. Lauderdale (Nonstops)\nFt. Lauderdale (Connecting\nFlights), Orlando,\nTampa, West Palm Beach\nJacksonville\nPeak\n$ 98.95\n$139.00\n$139.00\n7 Day\nAdvance Purchase*\nOff-Peak\nMon- Thurs\nFri-Sun\nALL SEATS THROUGH 6/15/86.\n$119.00\n$98.95\n$119.00\n$119.00\n$98.95\n$ 98.95\nWASHINGTON\nDULLES TO:\nFt. Lauderdale, Orlando,\nTampa\nNewark\nWest Palm Beach\nPeak\n$139.00\n$ 39.00\n$139.00\nOff-Peak\n$119.00\n$ 39.00\n$119.00\n14 Day\nAdvance Purchase*\nMon-Thurs\nFri-Sun\n$98.95\n$119.00\n$89.00\n$109.00\n*Seats are limited at these fares.\nFares, fare designations and schedules are subject to change without notice.\nONEW YORK AIR"
    ],
    "millsfield:images_texts_ids": [
      1779566127,
      1897763657
    ],
    "millsfield:primary_image": 1779566127,
    "millsfield:subcategory_id": 1511213425,
    "mz:is_approximate": 1,
    "mz:is_current": 1,
    "sfomuseum:accession_number": "2021.102.029",
    "sfomuseum:airline": "New York Air",
    "sfomuseum:airline_id": [
      625
    ],
    "sfomuseum:category": "Scheduling / Ticketing",
    "sfomuseum:classification_id": 158,
    "sfomuseum:collection": "Aviation Archive",
    "sfomuseum:creditline": "Gift of Michael Exstein",
    "sfomuseum:date": "1986",
    "sfomuseum:date_acquired": "2022-01-22",
    "sfomuseum:daterange_end": "1986-12-31",
    "sfomuseum:daterange_start": "1986-01-01",
    "sfomuseum:description": "System timetable issued by New York Air, effective October 1, 1986; multipage booklet; gray and red cover with illustration of airplane tail section, Washington Monument in background; announces new service for Washington Dulles.",
    "sfomuseum:dimensions": "9 x 4 inches (22.9 x 10.2 cm)",
    "sfomuseum:medium": "paper, ink",
    "sfomuseum:object_id": 228464,
    "sfomuseum:placetype": "object",
    "sfomuseum:publication": ": , 1986.",
    "sfomuseum:subcategory": "Timetable",
    "src:geom": "sfomuseum#undetermined",
    "wof:belongsto": [
      102527513,
      1159162825,
      102191575,
      85633793,
      102087579,
      85922583,
      85688637,
      1159160869
    ],
    "wof:country": "XY",
    "wof:created": 1654016979,
    "wof:depicts": [
      1159288319,
      1159284857
    ],
    "wof:geomhash": "c281b9d9eefc83b5710e64b9d646067d",
    "wof:hierarchy": [
      {
        "building_id": -1,
        "campus_id": 102527513,
        "collection_id": 1159162825,
        "concourse_id": 1159162825,
        "continent_id": 102191575,
        "country_id": 85633793,
        "county_id": 102087579,
        "custom_id": 1779565711,
        "locality_id": 85922583,
        "neighbourhood_id": -1,
        "object_id": 1779565711,
        "region_id": 85688637,
        "wing_id": 1159160869
      }
    ],
    "wof:id": 1779565711,
    "wof:lastmodified": 1787988208,
    "wof:name": "timetable: New York Air",
    "wof:parent_id": 1159162825,
    "wof:placetype": "custom",
    "wof:placetype_alt": [
      "object"
    ],
    "wof:repo": "sfomuseum-data-collection",
    "wof:superseded_by": [],
    "wof:supersedes": []
  },
  "bbox": [
    -122.38647222518921,
    37.6161053594541,
    -122.38583385944366,
    37.61661101879963
  ],
  "geometry": {"type":"Polygon","coordinates":[[[-122.38647222518921,37.61631782178288],[-122.386434674263,37.61623283692423],[-122.38637566566466,37.61617759671399],[-122.38630056381224,37.6161308549656],[-122.38616108894348,37.6161053594541],[-122.38602161407469,37.6161308549656],[-122.38591432571411,37.61618609521055],[-122.38585531711577,37.61626683087935],[-122.38583385944366,37.61636881265146],[-122.38587141036987,37.61646654505181],[-122.38594114780425,37.61654303118856],[-122.38605380058287,37.61660252035167],[-122.38618254661559,37.61661101879963],[-122.3863059282303,37.61657277577607],[-122.3864185810089,37.61650903735973],[-122.3864668607712,37.61641130501523],[-122.38647222518921,37.61631782178288]]]}
}
