{
  "id": 1511938907,
  "type": "Feature",
  "properties": {
    "date:cessation_lower": "1984-01-01",
    "date:cessation_upper": "1984-12-31",
    "date:inception_lower": "1984-01-01",
    "date:inception_upper": "1984-12-31",
    "edtf:cessation": "1984",
    "edtf:date": "1984",
    "edtf:inception": "1984",
    "geom:area": 0,
    "geom:bbox": "-122.386155,37.616357,-122.386155,37.616357",
    "geom:latitude": 37.616357,
    "geom:longitude": -122.386155,
    "iso:country": "XX",
    "millsfield:airline_id": [
      1159285439
    ],
    "millsfield:category_id": 1511214223,
    "millsfield:collection_id": 1511214207,
    "millsfield:company_id": [],
    "millsfield:images": [
      1527854677,
      1527854681,
      1527854683
    ],
    "millsfield:images_colors_refs": {
      "crayola": [
        {
          "hex": "#000000"
        },
        {
          "hex": "#efdecd"
        },
        {
          "hex": "#714b23"
        },
        {
          "hex": "#dbd7d2"
        },
        {
          "hex": "#9c2542"
        },
        {
          "hex": "#414a4c"
        }
      ],
      "css4": [
        {
          "hex": "#000000"
        },
        {
          "hex": "#2f4f4f"
        },
        {
          "hex": "#800000"
        },
        {
          "hex": "#a52a2a"
        },
        {
          "hex": "#dcdcdc"
        }
      ],
      "marekm4": [
        {
          "hex": "#e7e4df"
        },
        {
          "hex": "#3b322f"
        },
        {
          "hex": "#dcdddd"
        },
        {
          "hex": "#262420"
        },
        {
          "hex": "#e7e2e0"
        },
        {
          "hex": "#8b3647"
        },
        {
          "hex": "#6d1328"
        }
      ]
    },
    "millsfield:images_texts": [
      "America West\nAirlines\nTIMETABLE\nEFFECTIVE JULY 15, 1985\nN TUCSON TUCSON TUCSON TU\nA WICHITA WICHITA WICHITA WI\nJERQUE ALBUQUERQUE ALBUQUE\nTIN AUSTIN\nAUSTIN AUSTIN AUSTI\nBURBANK\nBURBANK\nBURBANK BE\nY CALGAR\nCALGARY CALGARY CA\nINGS COLORADO SPRINGS COLO\nS MOINES\nDES MOINES DES MOIN\nDURANGO DURANGO DURANGO I\nMONTON EDMONTON\nEDMONTO\nSO EL PASO EL PASO EL\nPASO EL P\nCTION GRAND JUNCTION\nI GRAND\nAS VEGAS LAS VEGAS LAS VEGAS\nN LINCOLN\nLINCOLN LINCOLN LI\nANGELES\nLOS ANGELES LOS ANGE\nOAKLAND\nOAKLAND OAKLAND C\nHA OMAHA OMAHA OMAHA OMA\nONTARIO\nONTARIO ONTARIO O\nBUNTY ORANGE COUNTY ORANG\nPHOENIX PHOENIX PHOENIX PH\nAMENTO SACRAMENTO SACRAME\nKE CITY SALT LAKE CITY SALT LAK\nAN DIEGO SAN DIEGO SAN DIECO\nE SAN JOSE SAN JOSE SAN JOSE SA\nN TUCSON\nTUCSON\nTUCSON TU\nA WICHITA WICHITA WICHITA WI\nJERQUE ALBUQUERQUE ALBUOUI",
      "FLY\nFREE.\nCOPENHAGEN\nWAmerica West Airlines\nFRANKFURT\nFREE\nHONOLULU\nFLIGHT\nPLAN\nHONG KONG\nLONDON\nMIAMI\nNEW YORK\nSINGAPORE\nSTOCKHOLM\nRules and Information\nTOKYO\nAND MORE.\nIntroducing America West's\nFree Flight Plan.\nAmerica West's new Free Flight Plan lets you earn\ncredit toward exciting free travel awards whenever\nyou enjoy our less fare, more care service.\nYou'll earn Free Flight Plan certificates that\nare honored by both America West Airlines and our\nprogram partner, Northwest Orient Airlines. That\nmeans every time you fly America West, you get closer\nto London. Or Honolulu. Or Hong Kong. Anywhere\nAmerica West or Northwest Orient flies.\nIn addition to free tickets, your credit miles add\nup to free or discounted rental cars and hotel stays\nat several participating companies.\nIt's easy to get started with America West's Free\nFlight Plan. Just pick up a Free Flight Plan coupon\nbook and brochure at an America West ticket counter,\nor from your Travel Agent. And start flying the\nless fare, more care way...more often.\n2003105,024\nLess Fare, More Care.\"\nAmerica West Airlines\nPRINTED IN U.S.A. 300 7/85",
      "FLY\nFREE\nCOPENHAGEN\nFRANKFURT\nHONOLULU\nWAmerica West Airlines\nFREE\nFLIGHT\nPLAN\nHONG KONG\nLONDON\nMIAMI\nNEW YORK\nSINGAPORE\nSTOCKHOLM\nRules and Information\nTOKYO\nAND MORE.\nIntroducing America West's\nFree Flight Plan.\nAmerica West's new Free Flight Plan lets you earn\ncredit toward exciting free travel awards whenever\nyou enjoy our less fare, more care service.\nYou'll earn Free Flight Plan certificates that\nare honored by both America West Airlines and our\nprogram partner, Northwest Orient Airlines. That\nmeans every time you fly America West, you get closer\nto London. Or Honolulu. Or Hong Kong. Anywhere\nAmerica West or Northwest Orient flies.\nIn addition to free tickets, your credit miles add\nup to free or discounted rental cars and hotel stays\nat several participating companies\nIt's easy to get started with America West's Free\nFlight Plan. Just pick up a Free Flight Plan coupon\nbook and brochure at an America West ticket counter,\nor from your Travel Agent. And start flying the\nless fare, more care way... more often.\nLess Fare, More Care.\"\nAmerica West Airlines\nReservations: (505) 247-0737\nDepart\nAUSTIN\nCentral Daylight Time\nBURBANK\nPacific Daylight Time\nCALGARY\nMountain Daylight Time\nCOLORADO\nSPRINGS\nMountain Daylight Time\nDES MOINES\nCentral Daylight Time\nDURANGO\nMountain Daylight Time\nEDMONTON\nMountain Daylight Time\nEL PASO\nMountain Daylight Time\nGRAND\nJUNCTION\nMountain Daylight Time\nLAS VEGAS\nPacific Daylight Time\nLINCOLN\nCentral Daylight Time\nLOS ANGELES\nPacific Daylight Time\nALBUQUERQUE To:\nMountain Daylight Time\nSmall Package Service: (505) 842-4037\nArrive\n8:40a\n5:20p\n1:20p\n11:15p\nFlt #(s)\n85/156\n242/166\nFreq.\nStops\nVia Snack Remarks\nPHX\nPHX\n6:30a\n10:50a\n3:10p\n5:20p\n6:30a\n6:30a\n8:40a\n1:00p\n7:30p\n6:30a\n1:00p\n3:10p\n5:20p\n8:40a\n10:50a\n5:20p\n6:30a\n6:30a\n10:50a\n1:00p\n7:30p\n8:40a\n10:50a\n5:20p\n6:30a\n6:30a\n8:40a\n10:50a\n1:00p\n3: 10p\n5:20p\n7:30p\n6:30a\n8:40a\n3:10p\n8:15a\n1:40p\n4:55p\n8:10p\n1:15p\n10:50a\n1:00p\n5:20p\n10:45p\n12:55p\n6: 10p\n10:40p\n10:40p\n11:20a\n3:43p\n9:10p\n2:14p\n10:25a\n1:35p\n4:45p\n10:10p\n12:18p\n2:45p\n10:08p\n8:05a\n9:05a\n10:15a\n12:15p\n2:35p\n4:45p\n6:55p\n9:10p\n12:15p\n2:35p\n10:25p\n216/179\n124/199\n317/149\n242/189\n216/477\n216/8\n85/88\n319/108\n154/78\n216/222\n319/232\n317/242\n242\n85/18\n124/98\n242/118\n216/477\n216/238\n124/248\n319/258\n154/268\n85/18\n124/98\n242/118\n216/177\n216/477\n85/187\n124\n319/307\n317\n242/147\n154/167\n216/102\n85/24\n317/112\nX7\nX7\nX7\nX7\nX6\nX7\nX7\nX6\nX7\nX7\n2\n1\n2\n2\n2\nPHX\nPHX\nPHX\nPHX\nPHX\nS\nPHX\nPHX\nPHX\nPHX\nPHX\nPHX\nPHX\nPHX\nPHX\nPHX\nPHX\nPHX\nPHX\nPHX\nPHX\nPHX\nPHX\nPHX\nPHX\nPHX\nPHX\nPHX\nPHX\nPHX\nPHX\nPHX\nPHX\nS\nas cs cs co\nS\nS\n6:30a\n6:30a\n8:40a\n8:40a\n10:50a\n10:50a\n1:00p\n1:00p\n3:10p\n3:10p\n5:20p\n5:20p\n7:30p\n7:30p\n8: 15a\n9:20a\n10:25a\n11:30a\n12:35p\n1:40p\n2:45p\n3:50p\n4:55p\n6:00p\n7:05p\n8:10p\n9:15p\n10:20p\n216/21\n216/23\n85/31\n85/33\n124/41\n124/43\n319/51\n319/53\n317/61\n317/63\n242/71\n242/73\n154/83\n154/81\nX7\nX7\nPHX\nPHX\nPHX\nPHX\nPHX\nPHX\nPHX\nPHX\nPHX\nPHX\nPHX\nPHX\nX6\nX6\nPHX\nPHX\nContinued on Next Page\nFlights Operate Daily Unless Otherwise Noted.\nSchedules Subject To Change\nConsult America West Reservations For Confirmation."
    ],
    "millsfield:images_texts_ids": [
      1527854677,
      1527854681,
      1527854683
    ],
    "millsfield:primary_image": 1527854677,
    "millsfield:subcategory_id": 1511213425,
    "mz:hierarchy_label": 1,
    "mz:is_current": 1,
    "sfomuseum:accession_number": "2003.105.024.002",
    "sfomuseum:airline": "America West Airlines",
    "sfomuseum:airline_id": [
      894
    ],
    "sfomuseum:category": "Scheduling / Ticketing",
    "sfomuseum:classification_id": 158,
    "sfomuseum:collection": "Aviation Archive",
    "sfomuseum:creditline": "Gift of Craig Lynes",
    "sfomuseum:date": "1984",
    "sfomuseum:date_acquired": "2003-12-29",
    "sfomuseum:daterange_end": "1984-12-31",
    "sfomuseum:daterange_start": "1984-01-01",
    "sfomuseum:description": "Timetable issued by America West Airlines, effective July 15, 1985; 44-page schedule; dark red and white cover with list of destination cities.",
    "sfomuseum:dimensions": "9 x 4 inches (22.9 x 10.2 cm)",
    "sfomuseum:media_ids": [
      1527854677,
      1527854681,
      1527854683
    ],
    "sfomuseum:medium": "paper, ink",
    "sfomuseum:object_id": 100007,
    "sfomuseum:placetype": "object",
    "sfomuseum:primary_media_id": 1527854677,
    "sfomuseum:publication": ": , 1984.",
    "sfomuseum:subcategory": "Timetable",
    "src:geom": "sfomuseum#undetermined",
    "wof:belongsto": [
      1511214223,
      102527513,
      102191575,
      85633793,
      1511213425,
      85922583,
      102087579,
      1511214277,
      1511214207,
      85688637
    ],
    "wof:breaches": [],
    "wof:country": "XX",
    "wof:created": 1579906662,
    "wof:depicts": [
      1159285439
    ],
    "wof:geomhash": "30c8a918561c84bb2daa2b97fc7c5353",
    "wof:hierarchy": [
      {
        "arcade_id": 1511213425,
        "building_id": 1511214277,
        "campus_id": 102527513,
        "concourse_id": 1511214223,
        "continent_id": 102191575,
        "country_id": 85633793,
        "county_id": 102087579,
        "custom_id": 1511938907,
        "locality_id": 85922583,
        "neighbourhood_id": -1,
        "object_id": 1511938907,
        "region_id": 85688637,
        "venue_id": 1511938907,
        "wing_id": 1511214207
      }
    ],
    "wof:id": 1511938907,
    "wof:lastmodified": 1787988184,
    "wof:name": "timetable: America West Airlines",
    "wof:parent_id": 1159162825,
    "wof:placetype": "custom",
    "wof:placetype_alt": [
      "object"
    ],
    "wof:repo": "sfomuseum-data-collection",
    "wof:superseded_by": [],
    "wof:supersedes": [],
    "wof:tags": []
  },
  "bbox": [
    -122.386155,
    37.616357,
    -122.386155,
    37.616357
  ],
  "geometry": {"type":"Point","coordinates":[-122.386155,37.616357]}
}
