{
  "id": 1913796021,
  "type": "Feature",
  "properties": {
    "date:cessation_lower": "1949-06-17",
    "date:cessation_upper": "1949-06-17",
    "date:inception_lower": "1949-06-17",
    "date:inception_upper": "1949-06-17",
    "edtf:cessation": "1949-06-17",
    "edtf:inception": "1949-06-17",
    "geom:area": 2.475047457570636e-7,
    "geom:bbox": "-122.386472,37.616105,-122.385834,37.616611",
    "geom:latitude": 37.61635747477365,
    "geom:longitude": -122.38615540108617,
    "millsfield:airline_id": [
      1159284991
    ],
    "millsfield:category_id": 1511214251,
    "millsfield:collection_id": 1511214207,
    "millsfield:company_id": [
      1159286839
    ],
    "millsfield:images": [
      1913799491,
      1913799493,
      1913799495
    ],
    "millsfield:images_colors_refs": {
      "crayola": [
        {
          "hex": "#757575"
        },
        {
          "hex": "#efdecd"
        }
      ],
      "css4": [
        {
          "hex": "#708090"
        },
        {
          "hex": "#faebd7"
        }
      ],
      "marekm4": [
        {
          "hex": "#efe8ce"
        },
        {
          "hex": "#ede7cd"
        },
        {
          "hex": "#eee8cf"
        },
        {
          "hex": "#697588"
        }
      ]
    },
    "millsfield:images_texts": [
      "Angking- June. 7\n1949\nDearest Dibs.\n1 tad tiffin at gornment Hows wit HE\nSir Alexander and Lady Grant ham graturday. Present\naloo Bond, Ali, mr green and\nNal opens.\nLady Grantram is a San Francisco\ngirl - or was a ger\nlong ago - She knew the\ngleah els.\nany brat to you and the girls.\ngar a dennn gart, last night for my\ndo finds P.y. Wong, Ki Chun, Bad, and ali.\nDia nt tree thim it was my beth day untie\nthey all arrors her at 8ob gloenth Hatre\nfor a drink and then showed them my\npao port\nand the dats. It was lat.\ntan can\nO wao quite touched le\nhe real appetion which\nthey showed for\nme.\neir had dinnur at a new air\ncondition restaunt on Quers road called\nthe Paris an gree inding up with Crep\nSuggete. wr\nhad lots of fun. F. g. also\nimminent ercause the Naturalists arz now\ndroppig bombs on the airport (none of them\nhair hit it which is normal) just to\nJust as\nsoon ply in but dont think Did\ntino a load of passings in because the",
      "Chines → one side or the other - might\ndo some crazy thing.\nI dont think\nthe Nationalists\nwill sand many planes\nour be cause\nthe ds we no doubt\noff the piloto 20 or 30 thousand US$\npu ai plane and this is not a singer\nment of the Chiiiss airfore who cant\nIs bought - from the top on down. al\nforeignes ont here art for the new regime\njust\nbe cause the ds one is so rotten\nand corrupt.\nKi Chun say he'd rathe\npull a ricksha than lur under the Chiang\nKai - state gorment and Cy. wong trus\nthe same.\nOfth a urak in manila\nI'le come back her and then Bondy and\nO we go to Tokyo.\nTokyo thin\nOf Sanghai\ndont open up la thin\n- and my\nwork is faished\nat manila and Tokyo\nthin lee go on\nto Bangkok for a wick\nane thin\nhome.\nnot old\nyestuda, 9 bought some blue china -\n- 7 large size soup bowls, q cups\nwet handles, 3\ncorned bowls and one\nwith ont con, r lile ask trays, 10 spoons\nand V plates - all for 220 Hongkon, dollars\nwhich are now\n1 so it was abort\n35° U.S.\nlour price for cant buy anything here at a\nnor. can you buy a digin of\nany thing. So In not",
      "more.\nI did buy some prett gord thing\nMy nylon shirt is wonderfue. I can\nwash it in a feus minutes - it dries\nout in an hour\nand looks will ace the\ntime. Au of our girls onght to buy\nent for this respectior hustan do. The\nwie be tard in laundry bies. S\ncones resee git\nalong on this trip with\none shit!\nHair it had a lette from you for a\nlong time but thee was a Plane in\nyestr day\nand Ii hopesy for some mai\ntoday. we frish this\nlatu\nSat. June\n8* No liters. Though I got some\nCompany mie this morning and an sure that there\nunz lettes in the Hopking Got offin which - in gond\nold torten fashion - will be deline on monday. 9p\nso land wee send them to me in manila.\nam going to sund this in the Company\nmanila on this sama airplane.\n→ continue hale and heaty - thongs 9 am\ntrying hard to lon ten pounds - my suits ars\ntight!\nyor and Hit and Elma\nThink Sie prone from\nLets of four to guils to find out home go\nan and space\nCat-\nyour Had"
    ],
    "millsfield:images_texts_ids": [
      1913799491,
      1913799493,
      1913799495
    ],
    "millsfield:primary_image": 1913799491,
    "millsfield:subcategory_id": 1511213489,
    "mz:is_approximate": 1,
    "mz:is_current": 1,
    "sfomuseum:accession_number": "2019.121.1126 a c",
    "sfomuseum:airline": "Pan American Airways",
    "sfomuseum:airline_id": [
      685
    ],
    "sfomuseum:category": "Employee Career History",
    "sfomuseum:classification_id": 195,
    "sfomuseum:collection": "Aviation Archive",
    "sfomuseum:creditline": "Collection of SFO Museum",
    "sfomuseum:date": "06/17/1949",
    "sfomuseum:date_acquired": "2019-11-22",
    "sfomuseum:daterange_end": "1949-06-17",
    "sfomuseum:daterange_start": "1949-06-17",
    "sfomuseum:description": "Handwritten letter from Harold M. Bixby to his wife, Debby Bixby, dated June 17, [1949], in Hong Kong; includes description of situation in China regarding the Nationalists and Communists and uncertainty of CNAC operation in Shanghai; mentions Sir Alexander and Lady Grantham, Bondy [William L. Bond], Alli [Ernest Allison], Mr. Gellion, Ki Chun, P.Y. Wong.",
    "sfomuseum:dimensions": "10 3/4 x 8 inches (27.3 x 20.3 cm)",
    "sfomuseum:medium": "paper, ink",
    "sfomuseum:object_id": 211489,
    "sfomuseum:placetype": "object",
    "sfomuseum:publication": ": , 06/17/1949.",
    "sfomuseum:subcategory": "Correspondence, Personal",
    "src:geom": "sfomuseum#undetermined",
    "wof:belongsto": [
      102527513,
      1159162825,
      102191575,
      85633793,
      102087579,
      85922583,
      85688637,
      1159160869
    ],
    "wof:country": "XY",
    "wof:created": 1714548961,
    "wof:depicts": [
      1159284991,
      1159286839
    ],
    "wof:geomhash": "c281b9d9eefc83b5710e64b9d646067d",
    "wof:hierarchy": [
      {
        "building_id": -1,
        "campus_id": 102527513,
        "collection_id": 1159162825,
        "concourse_id": 1159162825,
        "continent_id": 102191575,
        "country_id": 85633793,
        "county_id": 102087579,
        "custom_id": 1913796021,
        "locality_id": 85922583,
        "neighbourhood_id": -1,
        "object_id": 1913796021,
        "region_id": 85688637,
        "wing_id": 1159160869
      }
    ],
    "wof:id": 1913796021,
    "wof:lastmodified": 1787988219,
    "wof:name": "correspondence: Harold M. Bixby to Debby Bixby",
    "wof:parent_id": 1159162825,
    "wof:placetype": "custom",
    "wof:placetype_alt": [
      "object"
    ],
    "wof:repo": "sfomuseum-data-collection",
    "wof:superseded_by": [],
    "wof:supersedes": []
  },
  "bbox": [
    -122.38647222518921,
    37.6161053594541,
    -122.38583385944366,
    37.61661101879963
  ],
  "geometry": {"type":"Polygon","coordinates":[[[-122.38647222518921,37.61631782178288],[-122.386434674263,37.61623283692423],[-122.38637566566466,37.61617759671399],[-122.38630056381224,37.6161308549656],[-122.38616108894348,37.6161053594541],[-122.38602161407469,37.6161308549656],[-122.38591432571411,37.61618609521055],[-122.38585531711577,37.61626683087935],[-122.38583385944366,37.61636881265146],[-122.38587141036987,37.61646654505181],[-122.38594114780425,37.61654303118856],[-122.38605380058287,37.61660252035167],[-122.38618254661559,37.61661101879963],[-122.3863059282303,37.61657277577607],[-122.3864185810089,37.61650903735973],[-122.3864668607712,37.61641130501523],[-122.38647222518921,37.61631782178288]]]}
}
