{
  "id": 1913795345,
  "type": "Feature",
  "properties": {
    "date:cessation_lower": "1933-07-16",
    "date:cessation_upper": "1933-07-16",
    "date:inception_lower": "1933-07-16",
    "date:inception_upper": "1933-07-16",
    "edtf:cessation": "1933-07-16",
    "edtf:inception": "1933-07-16",
    "geom:area": 2.475047457570636e-7,
    "geom:bbox": "-122.386472,37.616105,-122.385834,37.616611",
    "geom:latitude": 37.61635747477365,
    "geom:longitude": -122.38615540108617,
    "millsfield:airline_id": [
      1159284991,
      1159285931
    ],
    "millsfield:category_id": 1511214251,
    "millsfield:collection_id": 1511214207,
    "millsfield:company_id": [
      1159286721
    ],
    "millsfield:images": [
      1913800721,
      1913800723
    ],
    "millsfield:images_colors_refs": {
      "crayola": [
        {
          "hex": "#414a4c"
        },
        {
          "hex": "#bab86c"
        },
        {
          "hex": "#e7c697"
        }
      ],
      "css4": [
        {
          "hex": "#2f4f4f"
        },
        {
          "hex": "#bdb76b"
        },
        {
          "hex": "#deb887"
        }
      ],
      "marekm4": [
        {
          "hex": "#40483f"
        },
        {
          "hex": "#3b453c"
        },
        {
          "hex": "#dccd91"
        },
        {
          "hex": "#ddd18f"
        },
        {
          "hex": "#c6b879"
        },
        {
          "hex": "#d2c57b"
        }
      ]
    },
    "millsfield:images_texts": [
      "Jun day\nдля,\n33\nDebs Dearist\nI've bren reading over all\nyour lettirs. it sirms to make\nthis Sunday aftirnoon less falan.\nI lovid your litter and 13os\nabort\nthe try\nto limberst. Im so glao\nthe maid decidid to stay breause\nOner hang made up her mend to\nCarry on she'll probaba, do so and\nould not hair wichout\nher. Its awfull, funny about Cat\nand googie peeking\nthat dirty place\nAm glad Cats\nChicken pox was a legut case - of\nCours Hit was next are botk cole\nprobate, be ale over by the time\nthis letter arrurs.\nDrabs 2 hate to gir you thin\nbad - viry bad pier of news but\nsometime soon See hair to dy\nup alont $300.00 orcause my expres\naccount is unaccounted for to itat\ntextent.\nI hair spant ale\nont $1250° for\nclottis, about. 100 dollars for trag\nwhich I hai shut home and the\nbalance on odds and rads - dentrat\nbarter, stamps ete, ete. moves rite\nIf you hair a wind fall or Bile",
      "is able to sell any of thor scurities\nfor us pleass sand me\na draft on\nп.4.\nChes is no sprcial rush\nabont it.\nI hate to burder you with\nthis added responsibilit, when you\nars carrying so much already\nYou hair it said anything latel\nabort your frayer a eith mone\nthat you cha\nthis summer if all gos will. Next\nface as 'ee hour the taprus of school\nAnd insurance Policies and you'e hair\nto lay asede rough to coon bott\nthon itims which means that you\nwont hair much left to pay agamet\nthat intrat bie at the miss vasee.\nWee Dibs its all pretti, awful\nbut lets work along and hop that\nsome way or othis it will all turn\nout for the brat.\nLots of for to you\nprecions lamb from your our-\nHad.\n20191210687"
    ],
    "millsfield:images_texts_ids": [
      1913800721,
      1913800723
    ],
    "millsfield:primary_image": 1913800721,
    "millsfield:subcategory_id": 1511213489,
    "mz:is_approximate": 1,
    "mz:is_current": 1,
    "sfomuseum:accession_number": "2019.121.0687",
    "sfomuseum:airline": "Pan American Airways",
    "sfomuseum:airline_id": [
      685,
      1131
    ],
    "sfomuseum:category": "Employee Career History",
    "sfomuseum:classification_id": 195,
    "sfomuseum:collection": "Aviation Archive",
    "sfomuseum:creditline": "Collection of SFO Museum",
    "sfomuseum:date": "07/16/1933",
    "sfomuseum:date_acquired": "2019-11-22",
    "sfomuseum:daterange_end": "1933-07-16",
    "sfomuseum:daterange_start": "1933-07-16",
    "sfomuseum:description": "Handwritten letter from Harold M. Bixby to his wife, Debby Bixby, dated Sunday, July 16, [1933]; includes personal and family matters.",
    "sfomuseum:dimensions": "12 1/2 x 8 inches (31.8 x 20.3 cm)",
    "sfomuseum:medium": "paper, ink",
    "sfomuseum:object_id": 211025,
    "sfomuseum:placetype": "object",
    "sfomuseum:publication": ": , 07/16/1933.",
    "sfomuseum:subcategory": "Correspondence, Personal",
    "src:geom": "sfomuseum#undetermined",
    "wof:belongsto": [
      102527513,
      1159162825,
      102191575,
      85633793,
      102087579,
      85922583,
      85688637,
      1159160869
    ],
    "wof:country": "XY",
    "wof:created": 1714548765,
    "wof:depicts": [
      1159286721,
      1159284991,
      1159285931
    ],
    "wof:geomhash": "c281b9d9eefc83b5710e64b9d646067d",
    "wof:hierarchy": [
      {
        "building_id": -1,
        "campus_id": 102527513,
        "collection_id": 1159162825,
        "concourse_id": 1159162825,
        "continent_id": 102191575,
        "country_id": 85633793,
        "county_id": 102087579,
        "custom_id": 1913795345,
        "locality_id": 85922583,
        "neighbourhood_id": -1,
        "object_id": 1913795345,
        "region_id": 85688637,
        "wing_id": 1159160869
      }
    ],
    "wof:id": 1913795345,
    "wof:lastmodified": 1787988219,
    "wof:name": "correspondence: Harold M. Bixby to Debby Bixby",
    "wof:parent_id": 1159162825,
    "wof:placetype": "custom",
    "wof:placetype_alt": [
      "object"
    ],
    "wof:repo": "sfomuseum-data-collection",
    "wof:superseded_by": [],
    "wof:supersedes": []
  },
  "bbox": [
    -122.38647222518921,
    37.6161053594541,
    -122.38583385944366,
    37.61661101879963
  ],
  "geometry": {"type":"Polygon","coordinates":[[[-122.38647222518921,37.61631782178288],[-122.386434674263,37.61623283692423],[-122.38637566566466,37.61617759671399],[-122.38630056381224,37.6161308549656],[-122.38616108894348,37.6161053594541],[-122.38602161407469,37.6161308549656],[-122.38591432571411,37.61618609521055],[-122.38585531711577,37.61626683087935],[-122.38583385944366,37.61636881265146],[-122.38587141036987,37.61646654505181],[-122.38594114780425,37.61654303118856],[-122.38605380058287,37.61660252035167],[-122.38618254661559,37.61661101879963],[-122.3863059282303,37.61657277577607],[-122.3864185810089,37.61650903735973],[-122.3864668607712,37.61641130501523],[-122.38647222518921,37.61631782178288]]]}
}
