{
  "id": 1511930613,
  "type": "Feature",
  "properties": {
    "date:cessation_lower": "2000-01-01",
    "date:cessation_upper": "2000-12-31",
    "date:inception_lower": "2000-01-01",
    "date:inception_upper": "2000-12-31",
    "edtf:cessation": "2000~",
    "edtf:date": "2000~",
    "edtf:inception": "2000~",
    "geom:area": 0,
    "geom:bbox": "-122.386155,37.616357,-122.386155,37.616357",
    "geom:latitude": 37.616357,
    "geom:longitude": -122.386155,
    "iso:country": "XX",
    "millsfield:airline_id": [
      1159285043
    ],
    "millsfield:category_id": 1762671311,
    "millsfield:collection_id": 1511214207,
    "millsfield:company_id": [
      1159287479
    ],
    "millsfield:images": [
      1527846389,
      1527846391
    ],
    "millsfield:images_colors_refs": {
      "crayola": [
        {
          "hex": "#000000"
        },
        {
          "hex": "#eceabe"
        },
        {
          "hex": "#9c2542"
        }
      ],
      "css4": [
        {
          "hex": "#8b0000"
        },
        {
          "hex": "#800000"
        },
        {
          "hex": "#fafad2"
        }
      ],
      "marekm4": [
        {
          "hex": "#410100"
        },
        {
          "hex": "#f8f5d1"
        },
        {
          "hex": "#960700"
        }
      ]
    },
    "millsfield:images_texts": [
      "ME\nN\nU",
      "MAIN\nMEAL\nENTRÉE\nSPICED CHICKEN ON GARDEN GREENS\nMAIN\nCOURSE\nBEEF TENDERLOIN WITH MADEIRA SAUCE\nGRILLED SALMON WITH CHILLI JAM AND STIR FRIED VEGETABLES\nSALAD OF PRAWNS AND PROSCHITTO\nDESSERT\nMACADAMIA CHEESE CAKE\nSELECTION OF CHEESE AND FRUIT\nCOFFEE TEA HERBAL TEA\nPlease accent our anoloov if vour choice is not wailable\nWINE LIST\nFRENCH CHAMPAGNE\nAUSTRALIAN SPARKING WINE\nAUSTRALIAN VINTAGES\nThe Australian wine industry is one of the most advanced in the world. The first vines were\nplanted in Sydney in 1788, and today, the wines of Australia are internationally recognised and\nEach Australian state has premium wine growing regions,\nSouth Australia's Coonawarra, Clare and Barossa;\nVictoria's Yarra Valley and Mornington Peninsula;\nMargaret River in Western Australia,\nand the Hunter Valley in New South Wales.\nFrom these and other Australian regions we offer you a selection of the following wines:\nRIESLING\nCharacterised by a highly aromatic, flowery nose, a tangy freshness on the palate with a crisp, clean,\nrefreshing finish.\nCHARDONNAY\nA very full and complex wine, with fresh fruity flavour ranging from green stone fruit to ripe\ntropical fruit.\nATICTDATIAN CorT PEnd\nAustralia makes flavoursome reds of a very good quality, deep in colour, rich tasting and verging on\ngenerous or full-bodied styles.\nPORT\nRich and sweet flavour, a pronounced fruity character with a lingering after taste."
    ],
    "millsfield:images_texts_ids": [
      1527846389,
      1527846391
    ],
    "millsfield:primary_image": 1527846389,
    "millsfield:subcategory_id": 1511213567,
    "mz:hierarchy_label": 1,
    "mz:is_current": 1,
    "sfomuseum:accession_number": "2007.086.095",
    "sfomuseum:airline": "Qantas Airways",
    "sfomuseum:airline_id": [
      710
    ],
    "sfomuseum:category": "Passenger Amenity, Archive",
    "sfomuseum:classification_id": 242,
    "sfomuseum:collection": "Aviation Archive",
    "sfomuseum:creditline": "Gift of Ian H. Dally of Auckland, New Zealand",
    "sfomuseum:date": "c. 2000",
    "sfomuseum:date_acquired": "2007-09-29",
    "sfomuseum:daterange_end": "2005-12-31",
    "sfomuseum:daterange_start": "1995-01-01",
    "sfomuseum:description": "Menu and wine list issued by Qantas Airways; red-toned photographic image of ripples in sand; menu items include beef tenderloin and grilled salmon; menu number: J_TAS_MM1.039; date: NOV03.",
    "sfomuseum:dimensions": "11 x 4 inches (27.9 x 10.2 cm)",
    "sfomuseum:media_ids": [
      1527846389,
      1527846391
    ],
    "sfomuseum:medium": "paper, ink",
    "sfomuseum:object_id": 87504,
    "sfomuseum:placetype": "object",
    "sfomuseum:primary_media_id": 1527846389,
    "sfomuseum:publication": ": , c. 2000.",
    "sfomuseum:subcategory": "Menu",
    "src:geom": "sfomuseum#undetermined",
    "wof:belongsto": [
      1159162825,
      102527513,
      102191575,
      85633793,
      85922583,
      102087579,
      1159160869,
      85688637
    ],
    "wof:breaches": [],
    "wof:country": "XX",
    "wof:created": 1579906666,
    "wof:depicts": [
      1159285043,
      1159287479
    ],
    "wof:geomhash": "30c8a918561c84bb2daa2b97fc7c5353",
    "wof:hierarchy": [
      {
        "building_id": -1,
        "campus_id": 102527513,
        "concourse_id": 1159162825,
        "continent_id": 102191575,
        "country_id": 85633793,
        "county_id": 102087579,
        "custom_id": 1511930613,
        "locality_id": 85922583,
        "neighbourhood_id": -1,
        "object_id": 1511930613,
        "region_id": 85688637,
        "venue_id": 1511930613,
        "wing_id": 1159160869
      }
    ],
    "wof:id": 1511930613,
    "wof:lastmodified": 1787988180,
    "wof:name": "menu: Qantas Airways",
    "wof:parent_id": 1159162825,
    "wof:placetype": "custom",
    "wof:placetype_alt": [
      "object"
    ],
    "wof:repo": "sfomuseum-data-collection",
    "wof:superseded_by": [],
    "wof:supersedes": [],
    "wof:tags": []
  },
  "bbox": [
    -122.386155,
    37.616357,
    -122.386155,
    37.616357
  ],
  "geometry": {"type":"Point","coordinates":[-122.386155,37.616357]}
}
