{
  "id": 1913795855,
  "type": "Feature",
  "properties": {
    "date:cessation_lower": "1935-07-06",
    "date:cessation_upper": "1935-07-06",
    "date:inception_lower": "1935-07-06",
    "date:inception_upper": "1935-07-06",
    "edtf:cessation": "1935-07-06",
    "edtf:inception": "1935-07-06",
    "geom:area": 2.475047457570636e-7,
    "geom:bbox": "-122.386472,37.616105,-122.385834,37.616611",
    "geom:latitude": 37.61635747477365,
    "geom:longitude": -122.38615540108617,
    "millsfield:airline_id": [
      1159284991
    ],
    "millsfield:category_id": 1511214251,
    "millsfield:collection_id": 1511214207,
    "millsfield:company_id": [
      1159286839
    ],
    "millsfield:images": [
      1913802205,
      1913802207,
      1913802209
    ],
    "millsfield:images_colors_refs": {
      "crayola": [
        {
          "hex": "#414a4c"
        },
        {
          "hex": "#efcdb8"
        }
      ],
      "css4": [
        {
          "hex": "#2f4f4f"
        },
        {
          "hex": "#f5deb3"
        }
      ],
      "marekm4": [
        {
          "hex": "#e6d9bb"
        },
        {
          "hex": "#e6d8b9"
        },
        {
          "hex": "#393840"
        },
        {
          "hex": "#413c2c"
        },
        {
          "hex": "#e9dbbb"
        }
      ]
    },
    "millsfield:images_texts": [
      "anagemi\nbert U. Anders\nCable Address\nANIL\nManhoco - Manila\nManila, Philippines\nDarrot Debo\nIts Saturday afternoon and\nam just\nup fom a siesta\nwhich I now take regularly -\nnever cond when I was hers\nbefore\nLast night turned out to\nbr worse than I Expretso beaut\nthe boat did nit finish loading\nin the aftacos - rained ale dan-\nAn ele\nas a reavet the sailing\nwas post pored untie be a.m.\nFortunately the edea of staying\nup untie sailing time\ndid nt go\nour very big\nand\nand ur frace put\n- them all on board\nat 2 am and\nnow l am gonn",
      "get a letle reat. Tonight am\ngong to sir\n\"missiociggi\" with the\nboys and turn in tarly. That\nmovie has bem ver popular it\nhas Jules and Bing Crosy as\nthe head liners.\nThe god. Grie his come out\nstrong for our franchise and s\nhear\nthat it may he eggard\nthis coming\nit myse this time 9 hair\nhandled the situation uree. First\n2 got j.T. T.\nto let me changs a\ntwo thugs\nwhich wire of no rea\nimportance to P.a.a. and thin\nI proponed a merger with Paa.\nstance to te to local\ncompanies - bott of whom.\nnow suporting ratke than\nopposing our franchis - yet 2\nhaos not committed Paa to\n2019.121.09090",
      "Management\nHubert C. Anderson\nA\nCable Address\nManhoco - Manila\nOт\nManila, Philippines\ndo anything\nand\nthe plan s\nworked out for P.a.a. participation\nis so good\nthat Im quit\nsurr 2T.T. wile be Enthuaastic\nabout it.\nAm gong over to the\nArmy and navy chl now te\ntake a swim - they hair a\nbaut fue. tact watu pose. John\nStarle is\ngoing with me. I\nlike him\ntry much and hopr\nhe wice come to China on\nhome.\nhis way el my lor to you\ndarling\nmy lovs too to\nma and Ruth as\nwree as the kid-\nHad"
    ],
    "millsfield:images_texts_ids": [
      1913802205,
      1913802207,
      1913802209
    ],
    "millsfield:primary_image": 1913802205,
    "millsfield:subcategory_id": 1511213489,
    "mz:is_approximate": 1,
    "mz:is_current": 1,
    "sfomuseum:accession_number": "2019.121.0909 a b",
    "sfomuseum:airline": "Pan American Airways",
    "sfomuseum:airline_id": [
      685
    ],
    "sfomuseum:category": "Employee Career History",
    "sfomuseum:classification_id": 195,
    "sfomuseum:collection": "Aviation Archive",
    "sfomuseum:creditline": "Collection of SFO Museum",
    "sfomuseum:date": "07/06/1935",
    "sfomuseum:date_acquired": "2019-11-22",
    "sfomuseum:daterange_end": "1935-07-06",
    "sfomuseum:daterange_start": "1935-07-06",
    "sfomuseum:description": "Handwritten letter from Harold M. Bixby to his wife, Debby Bixby, dated July 6, [1935] on stationery from the Manila Hotel; includes description of status of PAA franchise in the Filipino legislature; mentions J.T.T [Juan Trippe], Governor General [Frank Murphy], John Steele.",
    "sfomuseum:dimensions": "11 x 8 1/2 inches (27.9 x 21.6 cm)",
    "sfomuseum:medium": "paper, ink",
    "sfomuseum:object_id": 211272,
    "sfomuseum:placetype": "object",
    "sfomuseum:publication": ": , 07/06/1935.",
    "sfomuseum:subcategory": "Correspondence, Personal",
    "src:geom": "sfomuseum#undetermined",
    "wof:belongsto": [
      102527513,
      1159162825,
      102191575,
      85633793,
      102087579,
      85922583,
      85688637,
      1159160869
    ],
    "wof:country": "XY",
    "wof:created": 1714548913,
    "wof:depicts": [
      1159284991,
      1159286839
    ],
    "wof:geomhash": "c281b9d9eefc83b5710e64b9d646067d",
    "wof:hierarchy": [
      {
        "building_id": -1,
        "campus_id": 102527513,
        "collection_id": 1159162825,
        "concourse_id": 1159162825,
        "continent_id": 102191575,
        "country_id": 85633793,
        "county_id": 102087579,
        "custom_id": 1913795855,
        "locality_id": 85922583,
        "neighbourhood_id": -1,
        "object_id": 1913795855,
        "region_id": 85688637,
        "wing_id": 1159160869
      }
    ],
    "wof:id": 1913795855,
    "wof:lastmodified": 1787988219,
    "wof:name": "correspondence: Harold M. Bixby to Debby Bixby",
    "wof:parent_id": 1159162825,
    "wof:placetype": "custom",
    "wof:placetype_alt": [
      "object"
    ],
    "wof:repo": "sfomuseum-data-collection",
    "wof:superseded_by": [],
    "wof:supersedes": []
  },
  "bbox": [
    -122.38647222518921,
    37.6161053594541,
    -122.38583385944366,
    37.61661101879963
  ],
  "geometry": {"type":"Polygon","coordinates":[[[-122.38647222518921,37.61631782178288],[-122.386434674263,37.61623283692423],[-122.38637566566466,37.61617759671399],[-122.38630056381224,37.6161308549656],[-122.38616108894348,37.6161053594541],[-122.38602161407469,37.6161308549656],[-122.38591432571411,37.61618609521055],[-122.38585531711577,37.61626683087935],[-122.38583385944366,37.61636881265146],[-122.38587141036987,37.61646654505181],[-122.38594114780425,37.61654303118856],[-122.38605380058287,37.61660252035167],[-122.38618254661559,37.61661101879963],[-122.3863059282303,37.61657277577607],[-122.3864185810089,37.61650903735973],[-122.3864668607712,37.61641130501523],[-122.38647222518921,37.61631782178288]]]}
}
