{
  "id": 1913795141,
  "type": "Feature",
  "properties": {
    "date:cessation_lower": "1952-10-29",
    "date:cessation_upper": "1952-10-29",
    "date:inception_lower": "1952-10-29",
    "date:inception_upper": "1952-10-29",
    "edtf:cessation": "1952-10-29",
    "edtf:inception": "1952-10-29",
    "geom:area": 2.475047457570636e-7,
    "geom:bbox": "-122.386472,37.616105,-122.385834,37.616611",
    "geom:latitude": 37.61635747477365,
    "geom:longitude": -122.38615540108617,
    "millsfield:airline_id": [
      1159284989
    ],
    "millsfield:category_id": 1511214251,
    "millsfield:collection_id": 1511214207,
    "millsfield:company_id": [
      1159286839
    ],
    "millsfield:images": [
      1913796759,
      1913796761
    ],
    "millsfield:images_colors_refs": {
      "crayola": [
        {
          "hex": "#414a4c"
        },
        {
          "hex": "#9f8170"
        },
        {
          "hex": "#efcdb8"
        },
        {
          "hex": "#efdecd"
        }
      ],
      "css4": [
        {
          "hex": "#808080"
        },
        {
          "hex": "#2f4f4f"
        },
        {
          "hex": "#556b2f"
        },
        {
          "hex": "#f5deb3"
        }
      ],
      "marekm4": [
        {
          "hex": "#4d4833"
        },
        {
          "hex": "#e4d8c2"
        },
        {
          "hex": "#46422d"
        },
        {
          "hex": "#e3d6c0"
        },
        {
          "hex": "#968d74"
        }
      ]
    },
    "millsfield:images_texts": [
      "Tokyo\nOctober 29, 195k\nDear Girls, Family and Friends,\nI think my last letter covered our\narrival Tokyo on October 21st.\nSince\nthen in a business way we\nhave been more or less stymied by politics all same like home.\nThe Premier Yoshida was re-elected but his margin in the Diet was\nsmell and opposition in his own and other parties large.\nI do not\neven pretend to understand Japanese polities but it seems\nthe op-\nposition is clamoring for the scalps of\nsome of our most influential\nfriends in high places. Until the new Cebinet is selected and\napproved by the Diet no one will do anything. In fact,\nthey con't\nand won't even\nmernibile, our hotel del hrs descended to\nen area of petty bickering and we\nare occupied mostly with smell\naffairs dealt in by small people.\nWe hope within a week or ten days\nto move it up on the plateau of high endeavor.\nJapen is booming.\nEveryone is working\nBuilding end rebuilding are everywhere in evidence.\nbusinesses are\nbeing re-established.\nNew ones are being formed.\nThere is feverish activity in shipbuilding, textiles, cement pro-\nduction, steel mills, menufacturing of all kinds.\nNo doubt there\nare those - and I don't blame them a bit - who will never forgive\nJapen or the Japanese for the way in which the war was conducted.\nHowever, I think we must look to U.S. interests down through the\nfirst and foremost. Not a single Japinese Conmunist won\na seat in the recent elections.\nIf we have to fight Russia and/or\nChins at some time in the future - God forbid - one of our strongest\nand most loyal allies will be Japen. I do not meen to be an\napologist for Japan, but it is true that the militarists here were\nthe ones to blame for most of the atrocities.\nThey, as their counter-\nparts in Germany, do not represent e true cross-section of the people.\nIn thet connection,\nthe firing of MacArthur had what I am sure was\na wholly unanticipated effect upon the Japanese.\nWe had been\ntalking against militerism beforeand after V-J Day but our prope-\ngenda was not going over very well. While we condemned the military\nwe ourselves had instelled the grentest American military leader -\nGeneral MacArthur - as Supreme Commander over all the Japanese.\nThen when he - the Grent Emperor who out-Emperored 'em all and out-\nCaesered Caeser - was fired by a second grade unsuccessful civilian\nhaberdasher who happened to hold the political U.S. helm at the\nmoment, the Jops were suddenly made aware that we really practiced",
      "what we nreached - that in the U.S. the pen was indeed nightier\nIt had a good effect here in Japan and\nHirohito n chance to resume his post as Emperor which he would\nnever have had with MacArthur on hand.\nLast weekend ve motored up to\nKaruizawa with the Shermans who have a cottage there.\nIt is a\nmountain resort ebout 100 miles northwest of Tokyo where the foreign\nresidents go in summer to escape the heat and din of Tokyo.\nthe very great inventions here would be a hornless automobile.\nwould help solve their over-population problem and give the poor\ncity dweller some respite from\nthe incessant clamor.\nwas lovely.\nThe Fall colors not as varigated as lake George but\nthe reds of the Japanese maples more brilliant then at home.\nwas interesting, too, going along the road through smell towns and\nopen country.\nOn the 28th we celebrated the Twenty-\nFifth Anniversery of the founding of PAA with the showing of e Pan\nAmericen historical film.\nJapanese staff with their wives and\nchildren were on hand and the party ended up with ice cream and\ncoke and also a \"presento\" for each of the kids. You never saw as\ncute kids in all your life or as well behaved.\nThis weekend we're going to motor down\nto Hakone where there is a good hotel on\nthe edge of the lake with\na fine close-up view of Fuji. Debby has been in Jopen several tines\nthe sacred mountain.\nThe jinx may continue through\nthe weekend but we're hoping for one or two clear days. It should be\nbeautiful this time of the year with weather much like our seme\nmonths at home.\nTonight we are to be the guests of\nhonor at a dinner party which the Dellas Shermons are giving in\nour honor.\nThey built a house of their own when they could not\nfind one to rent.\nHe is s former Colonel in the Army Air Force\nand\nnow ects as Far Estern #1 for PAA.\nWill write agoin soon end hope then\nto give you some idea es to our plans and schedule. Meanwhile, our\nvery best.\nH. M. B."
    ],
    "millsfield:images_texts_ids": [
      1913796759,
      1913796761
    ],
    "millsfield:primary_image": 1913796759,
    "millsfield:subcategory_id": 1511213489,
    "mz:is_approximate": 1,
    "mz:is_current": 1,
    "sfomuseum:accession_number": "2019.121.1175 a b",
    "sfomuseum:airline": "Pan American World Airways",
    "sfomuseum:airline_id": [
      684
    ],
    "sfomuseum:category": "Employee Career History",
    "sfomuseum:classification_id": 195,
    "sfomuseum:collection": "Aviation Archive",
    "sfomuseum:creditline": "Collection of SFO Museum",
    "sfomuseum:date": "10/29/1952",
    "sfomuseum:date_acquired": "2019-11-22",
    "sfomuseum:daterange_end": "1952-10-29",
    "sfomuseum:daterange_start": "1952-10-29",
    "sfomuseum:description": "Typewritten letter from Harold M. Bixby to his family, dated October 29, 1952, in Tokyo; includes description of postwar Japan, celebration of Pan American Airways’ 25th anniversary; mentions General Douglas A. MacArthur.",
    "sfomuseum:dimensions": "11 x 8 1/2 inches (27.9 x 21.6 cm)",
    "sfomuseum:medium": "paper, ink",
    "sfomuseum:object_id": 211538,
    "sfomuseum:placetype": "object",
    "sfomuseum:publication": ": , 10/29/1952.",
    "sfomuseum:subcategory": "Correspondence, Personal",
    "src:geom": "sfomuseum#undetermined",
    "wof:belongsto": [
      102527513,
      1159162825,
      102191575,
      85633793,
      102087579,
      85922583,
      85688637,
      1159160869
    ],
    "wof:country": "XY",
    "wof:created": 1714548704,
    "wof:depicts": [
      1159284989,
      1159286839
    ],
    "wof:geomhash": "c281b9d9eefc83b5710e64b9d646067d",
    "wof:hierarchy": [
      {
        "building_id": -1,
        "campus_id": 102527513,
        "collection_id": 1159162825,
        "concourse_id": 1159162825,
        "continent_id": 102191575,
        "country_id": 85633793,
        "county_id": 102087579,
        "custom_id": 1913795141,
        "locality_id": 85922583,
        "neighbourhood_id": -1,
        "object_id": 1913795141,
        "region_id": 85688637,
        "wing_id": 1159160869
      }
    ],
    "wof:id": 1913795141,
    "wof:lastmodified": 1787988219,
    "wof:name": "correspondence: Harold M. Bixby, family circular letter",
    "wof:parent_id": 1159162825,
    "wof:placetype": "custom",
    "wof:placetype_alt": [
      "object"
    ],
    "wof:repo": "sfomuseum-data-collection",
    "wof:superseded_by": [],
    "wof:supersedes": []
  },
  "bbox": [
    -122.38647222518921,
    37.6161053594541,
    -122.38583385944366,
    37.61661101879963
  ],
  "geometry": {"type":"Polygon","coordinates":[[[-122.38647222518921,37.61631782178288],[-122.386434674263,37.61623283692423],[-122.38637566566466,37.61617759671399],[-122.38630056381224,37.6161308549656],[-122.38616108894348,37.6161053594541],[-122.38602161407469,37.6161308549656],[-122.38591432571411,37.61618609521055],[-122.38585531711577,37.61626683087935],[-122.38583385944366,37.61636881265146],[-122.38587141036987,37.61646654505181],[-122.38594114780425,37.61654303118856],[-122.38605380058287,37.61660252035167],[-122.38618254661559,37.61661101879963],[-122.3863059282303,37.61657277577607],[-122.3864185810089,37.61650903735973],[-122.3864668607712,37.61641130501523],[-122.38647222518921,37.61631782178288]]]}
}
