{
  "id": 1763240809,
  "type": "Feature",
  "properties": {
    "date:cessation_lower": "1951-01-01",
    "date:cessation_upper": "1951-12-31",
    "date:inception_lower": "1951-01-01",
    "date:inception_upper": "1951-12-31",
    "edtf:cessation": "1951",
    "edtf:inception": "1951",
    "geom:area": 2.475047457570636e-7,
    "geom:bbox": "-122.386472,37.616105,-122.385834,37.616611",
    "geom:latitude": 37.61635747477365,
    "geom:longitude": -122.38615540108617,
    "millsfield:airline_id": [
      1159285883
    ],
    "millsfield:category_id": 1511214223,
    "millsfield:collection_id": 1511214207,
    "millsfield:company_id": [
      1159288141
    ],
    "millsfield:images": [
      1763241493
    ],
    "millsfield:images_colors_refs": {
      "crayola": [
        {
          "hex": "#efcdb8"
        },
        {
          "hex": "#58427c"
        },
        {
          "hex": "#1a4876"
        }
      ],
      "css4": [
        {
          "hex": "#483d8b"
        },
        {
          "hex": "#f5deb3"
        },
        {
          "hex": "#2f4f4f"
        }
      ],
      "marekm4": [
        {
          "hex": "#16314d"
        },
        {
          "hex": "#e2d6b5"
        },
        {
          "hex": "#494c90"
        }
      ]
    },
    "millsfield:images_texts": [
      "REAL\nTRANSRORTES RÉREOS\nNOVEMBRO DE 1951\nDE SÃO PAULO\nPARA:\nANDRADINA\nARAÇATUBA\nARAPONGAS\nAVARE\nBANDEIRANTES\nTARA\nBELO HORIZONTE\nBIRIGUi\nCAMPO GRANDE\n3.a, 5.a e Domingo às 14:30\nDiário às 8:45\n24 115%02 1900 80 10-305\n2.a, 4.a e 6.ª às 13:00\n2.a, 4.8 e 6.8 às 13:00\n: 5.a e 5.. ds 10:30\n5.a e Dom. às 14:30\nDiário menos Domingo às 7:00\nHORARIOS E TARIFAS\nCATANDU A\nCAXAMBÚ\nCURITIBA\nSÃO PAULO Rua Coali peland, 35 - Fones : 3-346 - 33644 e 340744\n• Fones: 36-3443 e 33-3498\nROTA\nPARA SÃO PAULO\nTARIFAS DE PASSAGENS\nPARTE\nS. Paulo - Birigui - Andradina\n2.8, 4.9 e 6.a às 7:30\nS. Paulo - Lins - Araçatuba\nDiário às 14:15\nBandeirantes\n34, 5,9 e Sa as 1 9:0\n5.4, e Bm. as 12: 9:05\nPaulo - Avaré - Jacarezinho - Bandeirantes 3.8, 5,9 e Sab. às 11:3\n.ondrina - Arapongas - Curitiba\nS. Londrina A Arapo gaare Curiti - Bandeirantes 3.9, 5.9 e Sab. às 10:20\n- Londrina -\n. Pauo - caxamou - belo Horizont\nPaulo - Guaxupé - Passos - Belo Horizonte2a, 4.8 e 6,9 às 11:10\nS. Paulo - Birigui - Andradina\n2.8 4,3 e 6,3 às 8:15\nCHEGA\n10:05\n16:20\n14:30\n12:30\n12:30\n12:30\n14:30\n10:05\n16.50\n15:40\n15:55\nIDA\nICA E VOLTA\nMEIA\n548,20\n991,40, 285,60\n407,20\n738,50 217,40\nCOLO\n75,50\n65,60\n491,00\n888,40 257,00\n242,60\n439,40 128,20\n356,40\n645,20 187,40\n52,20\n552,80\n290,20\n80,10\n407,20\n738,50 217,40\n65,60\n815,601.477,30\n430,80 123,00\n413,60\n748,20\n216,00\n57,90\n310,20\n561,10 162,00\n43,40\n8:00\nIO.UU\n366,80\n663,90 192,60\n53,20\nPREÇO DIRETO\nPARA CURITIBA\nDOURADOS\nDRACENA\nFLORIANOPOLIS\nFOZ DO IGUAÇU\nGARÇA\nGUAIRA\nGUAXUPE\nJACAREZINHO\nLINS\nWenceslau - Campo Grande\n3. 5.\" e Sab. as 10:00\nS. Paulo - Catanduva - Rio Preto - Votuporanga 3.°, 5.a e Sab. às 14:10\n3.a, 5.a e Sab. às 10:30\nS. Paulo - Caxambú - Belo Horizonte.\n[3.a, 5.a e Sab. às 14:50\n2.8,\n4.8 e 6.8 às\n12:00\nRio - S. Paulo - Curitiba - Fiorianópolis •\nDiário menos Domingo as 6:30\nPorto Alegre\n3.3\n5.a e Sab. às 10:00\nDiário\nmenos\nDomingo\nRio -. Paulo Curitina\nDiários\nmenos cominco\n8:00\n\u003c10 - S. Paulo - Curitiba - Porto Alegr\nPaulo • Curitiba . Ponta Grosca - ii Vitori:\n4.3 e 6.8\n7:30\n13:00\naulo - Curitiba - Foz do iguaçu - Guaira -\n6.8\n24 2: 80% 1300\naulo - Avare - Jacarezinho - Bandeirantes :\n7:45\nonarina - Aradonoas - Curitib\nàs\n16: Sab. às 17:45\nraulo - Jacarezinno - _onerina • Ponta cro.\nàs 7:30\nCuritiba\n5. Paulo - Marriga : Curtibe\nB 2:502 300\nS. Porlo - Londrina - Paranavaí - Dourados - 2.a e 6.9 às 13:25\nS. Paulo - Garça - Tupã - Lucélia - Dracena 2,3, 4,ª e 6.3 às 13:30\nS. Paulo - Curitiba - Florianópolis - P. Alegre 3.8, 5.8 e Sab. às 8:30\n14:10\nS. Paulo. - Garça - Tupã - Lucélia - Dracena 2.8, 4,9 e 6.8 às 15:05\nS. Paulo - Curitiba - Fóz do Iguaçu - Guaira 3.a às 13:00\nS. Paulo - Guaxupé - Passos - Belo Horizonte 2.8, 4,8 e 6.ª às 13:15\nJacarezinho - Londrina - Ponta\nLONDRINA\nLUCELIA\nMANDAGUARI\nMARINGÁ\nMARTINOPOLIS\nPARANAVAI\nPASSOS\nPONTA GROSSA\nPONTA PORÃ\nPORTO ALEGRE\n2.ª e 6.ª às 7:15\n2.ª, 4.ª e 6.ª às 10:00\n2.ª, 4.ª e 6.ª às 12:00\n3.a às 7:30\nDomingo\nàs 9:00\n2.ª, 4.ª e 6.ª às 10:00\n3.8 às 7:30\n2.8, 4.8 e 6.8 às 7:30\nDá, 0, à e 6.4 ds 13:00\nDiário as 19:05\nPaulo - Lins - Araçatu\naulo . Lins . Rio Pro\nMário às 14:5\nFarin\n. Paulo - Jacarezinho - Londrina - Ponta\n12 120-16\n2.8, 4.3 e 6.8 às 10:00\nS. Paulo - Garça - Tupã - Lucélia - Dracena 2.a, 4.8 e 6.ª às 14:00\n3.8, 5.a e Sab. às 9:00\nRio - S. Paulo - Curitiba. - Mandaguari\n3.8, 5.8 e Sab. às 12:30\n2.8, 4.8 e 6.a às 9:15\nS. Paulo - Maringá - Curitiba\n2.a, 4.8 e 6.8 às 15:30\n4.8 e 6.3 às 7:00\n4.%. e 6.%. 14,50\n2.8 e 6.8 às 7:15\nS. Pa Por Londrina - Paranavai - Dourados - 2.4 e 6.9 às 14:45\n2.9, 4.4 e 6.8 às 7:30\nS. Paulo - Guaxupé - Passos - Belo Horizonte 2.3, 4.8 e 6.9 às 12:40\nDi, 5a e 10:30\nàs 8:0\nLa Via Culto Prin 03 - Uni 8, 3 e 1025 de 1320\n2.8 e 6.8 às 7:15\nPonta Por Londrina - Paranavaí - Dourados 2. e 6.9 as 12:45\nDiário menos Domingo às 6:3\n0 40 6 9 2s 12:0\na paulo Peca Curtor e Alegre\nPorto Alegre\n12:30\n17:35\n17:35\n16:25\n13:25\n7.50\n16:25\n14:20\n12:50\n19:20\n16:50\n16:25\n15:45\n17•25\n17:10\n17:35\n14:20\n15:35\n17:35\n13:45\nPRES. PRUDENTE\n2ª, 3.*, 5.* e Sab. às 7:00\n4.. e 69 as 7:10\nDiário às 14:15\n• Paulo - Rancharia . Pros. Pricenta _ Or\nVenceslau - Campo Grand\n5. Paulo - Rancharia - Martinopolis - Pres. 2ª, 39, 5, e Sab. às 14,25\ni. Paulo - Rancharia - Pres. Prudente\nCampo (irand\nS. Paulo - Londrina - Pres. Prudente\n16.50\n2ª, 3 • 5.9 e Sab. às 7:00\n. Paulo - Rancharia - Pres. Prudente - Pres. 2. 3. 5° e Sab, às 135\nNenceslau - Campo Grand\n16.50\nDANCHADIA\n2.* 3.* 5.\" e Sab. às 7:00\n4.* e 6.ª às 7-00\nRIBEIRÃO PRETO Diário às 7:30\nenceslau Campia rande. Prudente - Pres\n• 2.*, 3.* 5.ª e Sab. às 14:\n5. Paulo - Rancharia - Martinopolis - Pres. 4.* e 6.ª às 15,2\nPrudente - Campo Grande\nDiréto\nDiário às 9:10\n873401.580 40 457,40 124,60\n454,00\n822,70\n240 80\n70,20\n667,20 1.206,50 347,40\n91,60\n1.060,60 1.917,40\n551,00\n143,30\n299,20\n542,20\n158,80\n46,50\n1.236,20 2.235,30 643,40\n169,20\n284,20\n514,30 149,00\n40,80\n346,00\n51,20\n377,20\n682,60\n54,30\n413,00\n748 00\n2800\n62,00\n397,40\n719.90 210,20\n560,30 1.014,10 293,90\n560,30 1.014,10 293,90\n480,60\n869,70 251,80\n60,40\n80,80\n80,80\n68,80\n641,20\n1.159,70\n224 40\n89,00\n351,20\n635,80\n184,80\n51,70\n428,60\n776,10 225,80\n63,60\n987,20\n1179420\n516,60 140,10\n1.158,80 2.095,00 602,40 157,30\n495,60\n897,60 261,60 74,40\n568,401.028,60 298,00 81,70\n459,80\n832,20 241,40\n66,70\n17:10\n10:20\n8:25\n14:25\n294.60\n533,00 154,20 41,90\nRIO DE JANEIRO\nDiários\n8:00\n17:00 -\n11:00\n12:00\n17:00 -\n18:00\nDIRETOS\n330,40\n30\n18:00\n49,60\n18:00 - 19:30 - 21:00\nS. J. RIO PRETO\nTUPÃ\nUNIÃO\nDA\nVITÓRIA\nVATHDADANCA\niário às 15:00\n2.a, 4,a e 6,a às 10:00\n3.8, 5.9 e Sab. às 8:00\n38. 5a e Sab. às 10:00\nS. Paulo = Lata Ria Prio Preto - Votuporanga 3.4, . e 7:00. as 13:40\nS. Pauio - Garça - Tupã - Lucélia - Dracena 2.8, 4,9 e 6.8 às 14:30\nS. Paulo - Curitiba - Ponta Grossa - União 3.ª, 5,4 e Sabado as 12:30\nS. Paulo - Catanduva - Rio Preto - Votuporanga 3.a, 5.a e Sab. às 13:00\n16:25\n19:00\n15:40\n439,00\n70 4 90 22 1 00\n366.20\n663,80\n194,60\n599.60\n1.084,.80\n313,60\n558,00 1.009.90\n292.80\n64,60\n57,30\n84,80\n80,60"
    ],
    "millsfield:images_texts_ids": [
      1763241493
    ],
    "millsfield:primary_image": 1763241493,
    "millsfield:subcategory_id": 1511213425,
    "mz:is_approximate": 1,
    "mz:is_current": 1,
    "sfomuseum:accession_number": "2014.084.1424",
    "sfomuseum:airline": "Real Transportes Aereos",
    "sfomuseum:airline_id": [
      1109
    ],
    "sfomuseum:category": "Scheduling / Ticketing",
    "sfomuseum:classification_id": 158,
    "sfomuseum:collection": "Aviation Archive",
    "sfomuseum:creditline": "Gift of Thomas G. Dragges",
    "sfomuseum:date": "1951",
    "sfomuseum:date_acquired": "2015-07-02",
    "sfomuseum:daterange_end": "1951-12-31",
    "sfomuseum:daterange_start": "1951-01-01",
    "sfomuseum:description": "Timetable issued by Real S.A. Transportes Aereos, effective November 1, 1951; double-sided white sheet with schedule information; includes fare information.",
    "sfomuseum:dimensions": "4 x 9 inches (10.2 x 22.9 cm)",
    "sfomuseum:medium": "paper, ink",
    "sfomuseum:object_id": 159039,
    "sfomuseum:placetype": "object",
    "sfomuseum:publication": ": , 1951.",
    "sfomuseum:subcategory": "Timetable",
    "src:geom": "sfomuseum#undetermined",
    "wof:belongsto": [
      102527513,
      1159162825,
      102191575,
      85633793,
      102087579,
      85922583,
      85688637,
      1159160869
    ],
    "wof:country": "XY",
    "wof:created": 1646901824,
    "wof:depicts": [
      1159285883,
      1159288141
    ],
    "wof:geomhash": "c281b9d9eefc83b5710e64b9d646067d",
    "wof:hierarchy": [
      {
        "building_id": -1,
        "campus_id": 102527513,
        "collection_id": 1159162825,
        "concourse_id": 1159162825,
        "continent_id": 102191575,
        "country_id": 85633793,
        "county_id": 102087579,
        "custom_id": 1763240809,
        "locality_id": 85922583,
        "neighbourhood_id": -1,
        "object_id": 1763240809,
        "region_id": 85688637,
        "wing_id": 1159160869
      }
    ],
    "wof:id": 1763240809,
    "wof:lastmodified": 1787988205,
    "wof:name": "timetable: Real S.A. Transportes Aereos",
    "wof:parent_id": 1159162825,
    "wof:placetype": "custom",
    "wof:placetype_alt": [
      "object"
    ],
    "wof:repo": "sfomuseum-data-collection",
    "wof:superseded_by": [],
    "wof:supersedes": []
  },
  "bbox": [
    -122.38647222518921,
    37.6161053594541,
    -122.38583385944366,
    37.61661101879963
  ],
  "geometry": {"type":"Polygon","coordinates":[[[-122.38647222518921,37.61631782178288],[-122.386434674263,37.61623283692423],[-122.38637566566466,37.61617759671399],[-122.38630056381224,37.6161308549656],[-122.38616108894348,37.6161053594541],[-122.38602161407469,37.6161308549656],[-122.38591432571411,37.61618609521055],[-122.38585531711577,37.61626683087935],[-122.38583385944366,37.61636881265146],[-122.38587141036987,37.61646654505181],[-122.38594114780425,37.61654303118856],[-122.38605380058287,37.61660252035167],[-122.38618254661559,37.61661101879963],[-122.3863059282303,37.61657277577607],[-122.3864185810089,37.61650903735973],[-122.3864668607712,37.61641130501523],[-122.38647222518921,37.61631782178288]]]}
}
