{
  "id": 1511951169,
  "type": "Feature",
  "properties": {
    "date:cessation_lower": "1946-01-01",
    "date:cessation_upper": "1946-12-31",
    "date:inception_lower": "1946-01-01",
    "date:inception_upper": "1946-12-31",
    "edtf:cessation": "1946",
    "edtf:date": "1946",
    "edtf:inception": "1946",
    "geom:area": 0,
    "geom:bbox": "-122.386155,37.616357,-122.386155,37.616357",
    "geom:latitude": 37.616357,
    "geom:longitude": -122.386155,
    "iso:country": "XX",
    "millsfield:airline_id": [
      1159284989
    ],
    "millsfield:category_id": 1763416397,
    "millsfield:collection_id": 1511214207,
    "millsfield:company_id": [
      1159286839
    ],
    "millsfield:images": [
      1763388317
    ],
    "millsfield:images_colors_refs": {
      "crayola": [
        {
          "hex": "#fddde6"
        },
        {
          "hex": "#ffae42"
        },
        {
          "hex": "#6699cc"
        },
        {
          "hex": "#b4674d"
        },
        {
          "hex": "#414a4c"
        }
      ],
      "css4": [
        {
          "hex": "#f4a460"
        },
        {
          "hex": "#f5f5dc"
        },
        {
          "hex": "#2f4f4f"
        },
        {
          "hex": "#cd5c5c"
        },
        {
          "hex": "#6495ed"
        }
      ],
      "marekm4": [
        {
          "hex": "#e1b253"
        },
        {
          "hex": "#c05c40"
        },
        {
          "hex": "#f1eae0"
        },
        {
          "hex": "#483b38"
        },
        {
          "hex": "#6b96cd"
        }
      ]
    },
    "millsfield:images_texts": [
      "Dawnfinds your Clipper high\nover the Pacific and right on its\ncourse. You left San Francisco\nor Los Angeles late yesterday\nafternoon.... Less than an hour\nfrom now you'll be landing at\nHonoll where a warm island\nwelcome is waiting.\nRed canoe on the Blue Pacific.\nThat's Diamond Head in the\nbackground, lying with its paws\nin the sea as it guards the beach\nat Waikiki.... But there are plenty\nof other beaches in the Islands\n..Here's a beauty (right) on\nKaui, called the \"Garden Isle.\"\nThe cliff which guards this beach.\n(hackground) is called Napali...\nWill, someday, be as justly famous\nas Diamond Head.\nNature's spectacular fireworks in. the\ncrater of famed volcano Mauna Loa. This\npicture was taken in 1942; Mauna Loa\nerupts about every four years. When you\nvisit Mauna Loa and its sister volcano\nKilauea, you'll also see luxuriant tropical\nforests with gorgeous tree ferns, sandal-\nwoods, koa (Hawaiian mahogany), flower-\ning ohia trees... and quaint native vil-\nlages nestling amongst them.\ncan fly\nNow you\nto\nParadise\nEven color photography cannot do\n¡ustice to the beauty of Hawaii...\nBut now you can go there by Clipper\nand judge for yourself! 10 hours\nfrom the West Coast...\nWEST SOUTHWEST from San Francisco and Los Angeles\nlie what many people consider to be the most beautifu\nof all the islands in the Pacific Ocean -the Hawaiian.\nHawaii, experienced travelers like to point out, is not just\nHonolulu and Waikiki Beach. The Territory of Hawaii has\ntwo islands larger than Oahu (where Honolulu is\nsituated) and literally hundreds of smaller islands.\nNow, since it takes you only 10 hours to get there\nby Clipper, you can visit other Hawaiian Islands-\nswim at still \"undiscovered\" and still uncrowded\nbeaches-all on a two weeks vacation!\nGet the details now from your Travel Agent or the nearest\nPan American office. Whether you are flying to Hawaii...\nor taking a Clipper to Alaska, Latin America, Europe, Africa\n... you'll find the same world-famous Pan American service that\nmakes every moment of your trip a pleasure.\nM-M-M-M! The juice runs down\nyour chin and you don't care! Be-\ncause this is not pineapple out of a\ncan. This is ripe pineapple, right\nfrom the fields. It's the kind of am-\nbrosia you'd expect the gods to have\nin paradise. The flavor? It's like\nhoney stirred into champagne.\nModern hotels... delicious food... here, on\nthe lawn of the lovely Halekulani Hotel, guests\nready fora day of fun hail a late arrival. The Islands\nare a paradise for sports lovers, with tennis, golf,\nriding, polo, camping, deer hunting, big game fish-\ning, or surfboarding (note guest with surfboard).\nAn old island custom. A sunset toast...\n\"Hawaii no ka oy\" (there's no place like\nHawaii)... ends your first day on the\nislands. Now dinner... And dancing out-\ndoors in air so free from dust and fog that\nthe stars leave shining paths across the sea.\nColor and more color... Flowers and more flow-\ners... Countless waterfalls and cascades... This is\nHawaii, land of the graceful hula and the flowered\nlei. Remember this fact! U.S. Weather Bureau rec-\nords show that Honolulu has never been hotter than\n88 degrees or colder than 56 degrees.\nYou can now fly by Clipper to 4 Continents\nPAN AMERICAN\nWORLD AIRWAYS\nPAA\nThe System of the\nHying Clippers\nFIRST ACROSS THE PACIFIC... FIRST ACROSS THE ATLANTIC\nFIRST THROUGHOUT LATIN AMERICA"
    ],
    "millsfield:images_texts_ids": [
      1763388317
    ],
    "millsfield:primary_image": 1763388317,
    "millsfield:subcategory_id": 1511213149,
    "mz:hierarchy_label": 1,
    "mz:is_current": 1,
    "sfomuseum:accession_number": "2001.038.164.020",
    "sfomuseum:airline": "Pan American World Airways",
    "sfomuseum:airline_id": [
      684
    ],
    "sfomuseum:category": "Promotional, Archive",
    "sfomuseum:classification_id": 6,
    "sfomuseum:collection": "Aviation Archive",
    "sfomuseum:creditline": "Gift of Barnaby Conrad III",
    "sfomuseum:date": "1946",
    "sfomuseum:date_acquired": "2003-05-16",
    "sfomuseum:daterange_end": "1946-12-31",
    "sfomuseum:daterange_start": "1946-01-01",
    "sfomuseum:description": "Two-page advertisement from March 30, 1946 issue of Saturday Evening Post promoting Pan American World Airways, titled “Now you can fly to Paradise”; color illustration depicting tropical landscape framed by lei, surrounded by smaller color photographic images of tourist activities.",
    "sfomuseum:dimensions": "14 x 21 inches (35.6 x 53.3 cm)",
    "sfomuseum:medium": "paper, ink",
    "sfomuseum:object_id": 122722,
    "sfomuseum:placetype": "object",
    "sfomuseum:publication": ": , 1946.",
    "sfomuseum:subcategory": "Advertisement, 2D",
    "sfomuseum:subject": "Pan Am promotional advertisement",
    "src:geom": "sfomuseum#undetermined",
    "wof:belongsto": [
      1511214205,
      102527513,
      102191575,
      85633793,
      1511213149,
      85922583,
      102087579,
      1511214277,
      1511214207,
      85688637
    ],
    "wof:breaches": [],
    "wof:country": "XX",
    "wof:created": 1618962245,
    "wof:depicts": [
      1159284989,
      1159286839
    ],
    "wof:geomhash": "30c8a918561c84bb2daa2b97fc7c5353",
    "wof:hierarchy": [
      {
        "arcade_id": 1511213149,
        "building_id": 1511214277,
        "campus_id": 102527513,
        "concourse_id": 1511214205,
        "continent_id": 102191575,
        "country_id": 85633793,
        "county_id": 102087579,
        "custom_id": 1511951169,
        "locality_id": 85922583,
        "neighbourhood_id": -1,
        "object_id": 1511951169,
        "region_id": 85688637,
        "venue_id": 1511951169,
        "wing_id": 1511214207
      }
    ],
    "wof:id": 1511951169,
    "wof:lastmodified": 1787988188,
    "wof:name": "advertisement: Pan American World Airways, Saturday Evening Post",
    "wof:parent_id": 1159162825,
    "wof:placetype": "custom",
    "wof:placetype_alt": [
      "object"
    ],
    "wof:repo": "sfomuseum-data-collection",
    "wof:superseded_by": [],
    "wof:supersedes": [],
    "wof:tags": []
  },
  "bbox": [
    -122.386155,
    37.616357,
    -122.386155,
    37.616357
  ],
  "geometry": {"type":"Point","coordinates":[-122.386155,37.616357]}
}
