{
  "id": 1913795463,
  "type": "Feature",
  "properties": {
    "date:cessation_lower": "1936-01-04",
    "date:cessation_upper": "1936-01-04",
    "date:inception_lower": "1936-01-04",
    "date:inception_upper": "1936-01-04",
    "edtf:cessation": "1936-01-04",
    "edtf:inception": "1936-01-04",
    "geom:area": 2.475047457570636e-7,
    "geom:bbox": "-122.386472,37.616105,-122.385834,37.616611",
    "geom:latitude": 37.61635747477365,
    "geom:longitude": -122.38615540108617,
    "millsfield:airline_id": [
      1159284991
    ],
    "millsfield:category_id": 1511214251,
    "millsfield:collection_id": 1511214207,
    "millsfield:company_id": [
      1159286839
    ],
    "millsfield:images": [
      1913801887,
      1913801889,
      1913801891,
      1913801893,
      1913801897,
      1913801899
    ],
    "millsfield:images_colors_refs": {
      "crayola": [
        {
          "hex": "#9f8170"
        },
        {
          "hex": "#714b23"
        },
        {
          "hex": "#efcdb8"
        },
        {
          "hex": "#6e5160"
        },
        {
          "hex": "#414a4c"
        }
      ],
      "css4": [
        {
          "hex": "#f5deb3"
        },
        {
          "hex": "#556b2f"
        },
        {
          "hex": "#808080"
        }
      ],
      "marekm4": [
        {
          "hex": "#9e926f"
        },
        {
          "hex": "#5c5338"
        },
        {
          "hex": "#9c916e"
        },
        {
          "hex": "#5f5941"
        },
        {
          "hex": "#e4d5b0"
        },
        {
          "hex": "#5e563b"
        },
        {
          "hex": "#978f72"
        },
        {
          "hex": "#e3d5b3"
        },
        {
          "hex": "#50482e"
        },
        {
          "hex": "#e3d4b0"
        },
        {
          "hex": "#635c42"
        },
        {
          "hex": "#e4d6b4"
        },
        {
          "hex": "#9a9070"
        },
        {
          "hex": "#e5d7b3"
        },
        {
          "hex": "#9a9071"
        },
        {
          "hex": "#5b5235"
        }
      ]
    },
    "millsfield:images_texts": [
      "TEL. ADDRESS:\n\"VICTORIA\"\nCODES:\nBENTLEY'S\nTHE VICTORIA HOTEL.\nCanton,\nSaturday\n1/4 1936.\nA.B.C. 5TH EDITION\nTELEPHONE-13501\nDearest Dibs-\nJust back from the\nsnake dinner so if my.\nhandwriting wrairs a lettle\nmor than usual blame\nit on the diet. There wire\nten in the part, including\nsome Chinor fuends of\nour host all men, Mr.\nDooley joined us but mrs.\nD. was not invited and\nShe said theo the was\nsaurd the smea\nrent\nof refusing. Pop Silens,\na the Corra - the man",
      "a get my cigarette care\ntom,\nmr Russle\nof the Mational Cie, Bank\nmade up the foegness...\nThe denna was\nCooked by the most\nfamous of snake chefs\nwho works for a fuend\nof om host. Cu hat\nMr Chuck (dont read\nWhat follows out chine)\ntand\nthat his find\n(the man who imploys\nthe cook) was a guat\nsmoke of opum and\nArcame impotiat as a\nresult. stin\ndoctor tael\nhim thata snake diet\nworld fix hini ups - so\nhe imploged the best",
      "snake chef in Canton\nand Eats\n•Thousands\nsnakes with the react\nthat though advanced\nin yars and stre an\npum smoker\nhe now\nhas a new baby boy\nand four concubines\nDennir evas in the\nCanton Bankers Club on\nthe sixth floor of a\nrickety old\nbrulding fin\nWhich so far a D comes\nsee thee wored be no\nposable escape in con\nof fur. Hower I soon\nforget ans\naprehantion\nof firz in the absorption\nof dranking snake wine",
      "Shis is a wine into which\nplen of snake t\nis auful - tastes not\nвікг\nlicoria with giunin.\nflavoring - very\nand very bile. The\nsnake is tired in a\nsoup- the meat bring\nshredded.\nIt is vin\ngood like a Chinin\nsoupo. The snake meat\nas you hair so often\nhrare tastro just like\nChick. Our soup\nmade out of 20\nsnakes and\nmou than\nmore than a it",
      "антонофітань\nsimple procios of .\nthat late.\ntuo snaks.\neir came\naway carly\nand on\nreaching the hote\nfound mrs booky, thes.\nCorra and am fuend\nIns Brown whom you\nreminta from manila\nale iatiny\ndunna, so\n* course ur had to\njoin them for coffee.\nThey sumed a luthe\nbit distant and 9 noted\na decided slacking of\naprtets when ur\na",
      "in the mornin\na 5 kar at\nPleast had a\nI hair at\nCanton. True the Cold\nhas depreed me of most\nof the\nbeneft but\ndo fare buen.\nTree be awfue, busy.\nin Shanghai but I hair\nhigh hopes of giving\nsomething dose.\nAle my lour to you\ndarling - take good care\nof yourse. and hair\ngood time. Am so\nansions tu\nhear fion\nyou and hope\nfind a liken at\nShanghai -\nyour own.\nHad"
    ],
    "millsfield:images_texts_ids": [
      1913801887,
      1913801889,
      1913801891,
      1913801893,
      1913801897,
      1913801899
    ],
    "millsfield:primary_image": 1913801887,
    "millsfield:subcategory_id": 1511213489,
    "mz:is_approximate": 1,
    "mz:is_current": 1,
    "sfomuseum:accession_number": "2019.121.0864 a f",
    "sfomuseum:airline": "Pan American Airways",
    "sfomuseum:airline_id": [
      685
    ],
    "sfomuseum:category": "Employee Career History",
    "sfomuseum:classification_id": 195,
    "sfomuseum:collection": "Aviation Archive",
    "sfomuseum:creditline": "Collection of SFO Museum",
    "sfomuseum:date": "01/04/1936",
    "sfomuseum:date_acquired": "2019-11-22",
    "sfomuseum:daterange_end": "1936-01-04",
    "sfomuseum:daterange_start": "1936-01-04",
    "sfomuseum:description": "Handwritten letter from Harold M. Bixby to his wife, Debby Bixby, dated January 4, 1936; includes description of a “snake” dinner with Mr. and Mrs. Dooley, [Cecil] Pop Sellers, Mr. and Mrs. Corra, Mrs. Brown, and Mr. Russell.",
    "sfomuseum:dimensions": "8 1/2 x 5 1/2 inches (21.6 x 14 cm)",
    "sfomuseum:medium": "paper, ink",
    "sfomuseum:object_id": 211217,
    "sfomuseum:placetype": "object",
    "sfomuseum:publication": ": , 01/04/1936.",
    "sfomuseum:subcategory": "Correspondence, Personal",
    "src:geom": "sfomuseum#undetermined",
    "wof:belongsto": [
      102527513,
      1159162825,
      102191575,
      85633793,
      102087579,
      85922583,
      85688637,
      1159160869
    ],
    "wof:country": "XY",
    "wof:created": 1714548800,
    "wof:depicts": [
      1159284991,
      1159286839
    ],
    "wof:geomhash": "c281b9d9eefc83b5710e64b9d646067d",
    "wof:hierarchy": [
      {
        "building_id": -1,
        "campus_id": 102527513,
        "collection_id": 1159162825,
        "concourse_id": 1159162825,
        "continent_id": 102191575,
        "country_id": 85633793,
        "county_id": 102087579,
        "custom_id": 1913795463,
        "locality_id": 85922583,
        "neighbourhood_id": -1,
        "object_id": 1913795463,
        "region_id": 85688637,
        "wing_id": 1159160869
      }
    ],
    "wof:id": 1913795463,
    "wof:lastmodified": 1787988219,
    "wof:name": "correspondence: Harold M. Bixby to Debby Bixby",
    "wof:parent_id": 1159162825,
    "wof:placetype": "custom",
    "wof:placetype_alt": [
      "object"
    ],
    "wof:repo": "sfomuseum-data-collection",
    "wof:superseded_by": [],
    "wof:supersedes": []
  },
  "bbox": [
    -122.38647222518921,
    37.6161053594541,
    -122.38583385944366,
    37.61661101879963
  ],
  "geometry": {"type":"Polygon","coordinates":[[[-122.38647222518921,37.61631782178288],[-122.386434674263,37.61623283692423],[-122.38637566566466,37.61617759671399],[-122.38630056381224,37.6161308549656],[-122.38616108894348,37.6161053594541],[-122.38602161407469,37.6161308549656],[-122.38591432571411,37.61618609521055],[-122.38585531711577,37.61626683087935],[-122.38583385944366,37.61636881265146],[-122.38587141036987,37.61646654505181],[-122.38594114780425,37.61654303118856],[-122.38605380058287,37.61660252035167],[-122.38618254661559,37.61661101879963],[-122.3863059282303,37.61657277577607],[-122.3864185810089,37.61650903735973],[-122.3864668607712,37.61641130501523],[-122.38647222518921,37.61631782178288]]]}
}
