{
  "id": 1762694773,
  "type": "Feature",
  "properties": {
    "date:cessation_lower": "1966-01-01",
    "date:cessation_upper": "1966-12-31",
    "date:inception_lower": "1966-01-01",
    "date:inception_upper": "1966-12-31",
    "edtf:cessation": "1966",
    "edtf:inception": "1966",
    "geom:area": 0,
    "geom:bbox": "-122.212464,37.721310,-122.212464,37.721310",
    "geom:latitude": 37.72131,
    "geom:longitude": -122.212464,
    "iso:country": "US",
    "millsfield:airport_id": [
      102531041
    ],
    "millsfield:category_id": 1511214223,
    "millsfield:collection_id": 1511214207,
    "millsfield:images": [
      1762715455
    ],
    "millsfield:images_colors_refs": {
      "crayola": [
        {
          "hex": "#cdc5c2"
        },
        {
          "hex": "#1974d2"
        },
        {
          "hex": "#000000"
        },
        {
          "hex": "#6699cc"
        }
      ],
      "css4": [
        {
          "hex": "#000000"
        },
        {
          "hex": "#4682b4"
        },
        {
          "hex": "#c0c0c0"
        }
      ],
      "marekm4": [
        {
          "hex": "#5592be"
        },
        {
          "hex": "#25241b"
        },
        {
          "hex": "#bdc9c8"
        },
        {
          "hex": "#1d78c0"
        }
      ]
    },
    "millsfield:images_texts": [
      "f4 Los Angeles\nand San Diego\nOAKLAND\nNORTHBOUND\nEFECTIVE MARCH 1, 1966\nLeave\nSan\nDiego\nUnited 144 (B-720)\nWestern 74 (Electra)\nPSA 705 (Electra) (Ex. Su.)\nPSA 805 (Electra) [Su. only)\n7:00 a.\n8:00 a.\nJnited 540 (B-727) (Ex. Sa., Su.)\nSA 915 Electra) Ex. Su.)\n9:20 a.\nPSA 125 (Electra) (Su. only)\nWestern 114 (Electra)\nPSA 105 (Electra)\nUnited 542 (B-727)\nPSA 115 (Electra)\nPSA 135 (Electra) (F. only)\nPSA 235 (Electra) (Su. only)\nPSA 205 (Electra) (Ex. F., Sa., Su.) 2:00 p.\nPSA 435 (Electra)\nUnited 546 (B-727)\nPSA 515 (Electra) |Su. only.\nPSA 525 (Electra) (F. only)\nPSA 535 (Electra)\n5:10 p.\nWestern 184 (Electra)\nPSA 725\n(Electra)\nPSA 755 (Electra) (Su. only)\nPSA 825 (Electra) (F., Su. only)\nUnited. 548 (B-727)\nPSA 935 (Electra) [F., Su. only)\nPSA 195 (Electra) (Su. only)\nLeave\nLos\nAngeles\n7:15 a.\n7:30 a.\n7:35 a.\n8:35 a.\n9:05 a.\n9:55 a.\n10:00 a.\n11:00 a.\n11:15 a.\n12:30\np\n1:00\np.\n1:30 p.\n2:30 p.\n2:35 p.\n4:30\np.\n4:45 p.\n5:15 p.\n5:20 p.\n5:45 p.\n6:30 p.\n7:20 p.\n7:55 p.\n8:25 p.\n8:40 p.\n9:45 p.\n11:15 p.\nArrive\nOakland\n8:15 a.\n8:38 a.\n8:35 a.\n9:35 a.\n10:00 a.\n10:55 a.\n11:00 a.\n12:08 p.\n12:15 p.\n1:25\n2:00\np.\np.\n2:30\nP\n3:30 p.\n3:35 p.\n5:30\np.\n5:40\np.\n6:15 p.\n6:20 p.\n6:45 p.\n7:38 p.\n8:20\nP.\n8:55\n9:25\nP.\np.\n9:35\np.\n10:45\np.\n12:15 p.\nIn Los Angeles, phone:\nPSA\nWESTERN\nUNITED\n776-0125\nMA 6-4242\nHU 2-2000\nMETROPOLITAN OAKLAND\nINTERNATIONAL AIRPORT"
    ],
    "millsfield:images_texts_ids": [
      1762715455
    ],
    "millsfield:primary_image": 1762715455,
    "millsfield:subcategory_id": 1511213425,
    "mz:is_approximate": 1,
    "mz:is_current": 1,
    "sfomuseum:accession_number": "2018.141.192",
    "sfomuseum:airport": "Oakland International Airport",
    "sfomuseum:airport_id": [
      97
    ],
    "sfomuseum:category": "Scheduling / Ticketing",
    "sfomuseum:classification_id": 158,
    "sfomuseum:collection": "Aviation Archive",
    "sfomuseum:creditline": "Gift of Helene and Rudy Stahl",
    "sfomuseum:date": "1966",
    "sfomuseum:date_acquired": "2019-04-17",
    "sfomuseum:daterange_end": "1966-12-31",
    "sfomuseum:daterange_start": "1966-01-01",
    "sfomuseum:description": "Pocket airport timetable issued by Metropolitan Oakland International Airport, effective March 1, 1966; double-sided pocket format with blue, black, and white text and graphics.",
    "sfomuseum:dimensions": "6 1/4 x 3 1/2 inches (15.9 x 8.9 cm)",
    "sfomuseum:medium": "paper, ink",
    "sfomuseum:object_id": 201383,
    "sfomuseum:placetype": "object",
    "sfomuseum:publication": ": , 1966.",
    "sfomuseum:subcategory": "Timetable",
    "src:geom": "sfomuseum#derived",
    "src:geom_derived_from": [
      102531041
    ],
    "wof:belongsto": [
      102527513,
      1159162825,
      102191575,
      85633793,
      102087579,
      85922583,
      85688637,
      1159160869,
      102531041,
      102086959,
      85921881,
      1108794155
    ],
    "wof:country": "US",
    "wof:created": 1641344420,
    "wof:depicts": [
      102531041
    ],
    "wof:geomhash": "8407a5ccb5bd03a21f74c212a83bc905",
    "wof:hierarchy": [
      {
        "building_id": -1,
        "campus_id": 102527513,
        "collection_id": 1159162825,
        "concourse_id": 1159162825,
        "continent_id": 102191575,
        "country_id": 85633793,
        "county_id": 102087579,
        "custom_id": 1762694773,
        "locality_id": 85922583,
        "neighbourhood_id": -1,
        "object_id": 1762694773,
        "region_id": 85688637,
        "wing_id": 1159160869
      },
      {
        "campus_id": 102531041,
        "continent_id": 102191575,
        "country_id": 85633793,
        "county_id": 102086959,
        "custom_id": 1762694773,
        "locality_id": 85921881,
        "neighbourhood_id": 1108794155,
        "object_id": 1762694773,
        "region_id": 85688637
      }
    ],
    "wof:id": 1762694773,
    "wof:lastmodified": 1787988198,
    "wof:name": "timetable: Metropolitan Oakland International Airport, pocket schedule",
    "wof:parent_id": 1159162825,
    "wof:placetype": "custom",
    "wof:placetype_alt": [
      "object"
    ],
    "wof:repo": "sfomuseum-data-collection",
    "wof:superseded_by": [],
    "wof:supersedes": []
  },
  "bbox": [
    -122.212464,
    37.72131,
    -122.212464,
    37.72131
  ],
  "geometry": {"type":"MultiPoint","coordinates":[[-122.212464,37.72131]]}
}
