{
  "id": 1511909213,
  "type": "Feature",
  "properties": {
    "date:cessation_lower": "1943-01-01",
    "date:cessation_upper": "1943-12-31",
    "date:inception_lower": "1943-01-01",
    "date:inception_upper": "1943-12-31",
    "edtf:cessation": "1943",
    "edtf:date": "1943",
    "edtf:inception": "1943",
    "geom:area": 0,
    "geom:bbox": "-122.386155,37.616357,-122.386155,37.616357",
    "geom:latitude": 37.616357,
    "geom:longitude": -122.386155,
    "iso:country": "US",
    "millsfield:category_id": 1763416373,
    "millsfield:collection_id": 1511214203,
    "millsfield:images": [
      1746680899,
      1897762151
    ],
    "millsfield:images_colors_refs": {
      "crayola": [
        {
          "hex": "#cd9575"
        },
        {
          "hex": "#000000"
        },
        {
          "hex": "#cdc5c2"
        },
        {
          "hex": "#9c2542"
        },
        {
          "hex": "#bab86c"
        },
        {
          "hex": "#cd4a4c"
        }
      ],
      "css4": [
        {
          "hex": "#b22222"
        },
        {
          "hex": "#000000"
        },
        {
          "hex": "#bdb76b"
        },
        {
          "hex": "#c0c0c0"
        },
        {
          "hex": "#bc8f8f"
        }
      ],
      "marekm4": [
        {
          "hex": "#c42e27"
        },
        {
          "hex": "#0b180b"
        },
        {
          "hex": "#c79974"
        },
        {
          "hex": "#d9c7b1"
        },
        {
          "hex": "#132211"
        },
        {
          "hex": "#cfb16e"
        },
        {
          "hex": "#d8cbaf"
        },
        {
          "hex": "#ba0603"
        }
      ]
    },
    "millsfield:images_texts": [
      "NEw AIR EXPRESS SHIPPING ESTIMATOR\nNEW LOW\nRATES\nin effect July 15, 1943.\nSavings\nup to\n122%\nover\nold rates - de-\npending on weight of\nshipment and distance\nto be shipped. Same\n3-mile-a-minute speed.\nAIR\nEXPRESS\nHOW TO USE THE SHIPPING ESTIMATOR\nFind the approximate distance. Use map on other side to\nlocate shipping and destination\npoints, (or\non nother ride to\ncities to these points). Pull out sliding part of estimator and\nuse proper scale (depending on direction in which shipment\nis being made to determine approximate airline distance\nbetween airline cities.\n2: Find the approximate hours. Directly under each mileage\nscale is another scale showing\nthe approximate hours between\nairport cities. There are separate seales for Eastbound,\nbound and North or Southbound shipments. By referrina to\nthe proper scale you can determine the approximate air\ntime for your shipment.\n3. Find the approximate cost.\nRe-insert the slide and pull it to\nset the weight of your shipment in the top window.\ndown to proper distance and you will find the approximate\ncost in the window opposite the distance.\nAIR\n\"FASTEST WAY\" MEANS AIR EXPRESS\ncair your local\nFor exact schedules, rates and other information cair your local\nRailway Express office - ask for Air Express Div sion.\nEXPRESS Gets there FIRST\nRepresenting the AIRLINES of the United States\nWEIGHT\nin pounds\nAPPROXIMATE\nCOST\n1\n1.00\nDISTANCE\nin air miles\n200\n1.00\n400\n1.00\n600\n1.00\n1000\n1.00\n1500\n1.00\n2000\n1.00\n2500\nTotal cost between addresses\nin airport cities: no extras.",
      "eXX\n1540\nAPFi\nnap on br\nMap showing\nAIRLINE\nROUTES\nBetween\nPrincipal\nAirport\nCities in the\nUNITED\nSTATES\nUSE\nSCALE\nON SLIDING\nPART TO ES-\nTIMATE DIS-\nTANCES\nAND\nHOURS.\n\"FASTEST WAY' MEANS\nAIR EXPRESS\n•PRINCE ALBERT\nEDMONTON-\nNUKI\nBATTLEFORD\nInternational seats\nNCOUVER\nVICTORIA?\nBELUNGHAM\n• WENATCHEE\nC\nMOOSE\nN\nD\nSUMMERSIO CHARIOTS\n-SYONEY\nHALIFAX\nST.J0HN\nPACIFIC\nS WALLA WALLA\nCALGARY\n(LETHBRIDGE\nGUT BANK-SHELBY\nGREAT SALES\nQ.LEWISTOWN\nHELENA\nA\nPRESQUE ISLE\nHOULTO\nMILLINOCKET\nKAPUSKASING\nPORTLAND\nSALEM\nPENOLETON\nPEUGENE\n-MEDFORO\nBOISE\nSUTTE\nIDAHO FALLS\nREMO\nDAKLAND A\n•SACRAMENTO\nSAN FRANCISCO\n• FRESHO\nELKO\nW. YELLOWSTONE (S.K.)\nPOCATELLO\nCASPERS\nSALT LAKE CITY\n•ROCK SPRINGS CHEYENNE\nMONTERET\n• BAKERSFIELD\nI LAS VERBER CITY\nSANTA BARBARA\nLOS ANGELES :\nSPALM SPRINGS\nWINSLOW\nLONG BEACH\nSAR DIEGO\nPHOENIX\nTUCSON\nalienal Air binet elina to\nenco. Centrut und louth America\nALBUQUERQUE\nMILES CITY\nBISMARCK\nSPEARFISHC\nPIERRE\nCIRAPID CITY\n'SCOTTS BLUFF\nWORTH PLATTE\nDENVER\nCOLORADO SPRINGS\nLAUSTA\nGARDEN CITY O HUTCHINSON\nSANTA FLY\nLAS VEGAS\nPONCA CITY\n6 FARGO\nDULUT SUPERIOR\nWATERTOWN®\nMINNEAPOLIS \u003e ST. PAUL\nMUROK\nSOUX ALS\nROCHESTER\nSIOUX CITY\nGRAKO ISLAND\nDES MOINES\nLINCOLN\nTOMAHE\nST. JOSEPK\nKANSAS CITY\nNORTH\nSORTELEP AUGUSTA\nSAULT ATE MARIE\nOTTAWAO BURLNGTONZG\nCONCORDI SENSTOR AUBURN\nCHEBOTEN I\nTRAVERSE CHIT\nTORONTO\n\u003c BOSTON\n/DENCE\nWILKES-BARRE\nMADISON MUSKEGON RAPOS FLETROT\nMILWAUKEE\nLANSING\n→ CLEVELAND\nTOLEDO,\nCHICAGO\nAKRON\nIOWA CITY o\nSPITTSBURGH\nMOLIME\nO OTTUMNE\nCOLUMBUS NORANTO KN\n-BALTIMORE\nINDIANAPOLIS.•\nL CINCINNATI\nST. LOUIS.\n-HUNTINGTON\nCHARLESTO\nLOUISVILLE\n'ROANOKE\n• NOBFOLK\nLEVANSVILLE\nGREENSBORO\nROCKYMOUR\nBRISTOL\nASHEVILLES\nHICKORY SEEN RANS\nMASHVILLE\nTULSA\n•OKLAHOMA CITY\nLITTLE ROCK.\nCHATTANOOGA\nGREENVILLE\nAMARILLE\n•ROSWELL\nHOBBS\nWICKITA FALLS\nCARLSBADG SPRING\nMUSCLE SHOALS/\nCOLUMBIA\n, ALTANT\nAUGUSTA\nCHARLESTOR\nBIRMINGHAMY\nO MACON\nSAVANIAN\n- SMREVEPORT\nMONROE\nMERIDIAN\nARLENE EDALLAS\nJACKSON\nMONTGOMERY\nTRUNSWICK\nFT. WORTH\nWACC\nMOBILE BOTHA\nIACHSONVRLE\nHOUSTON\nPEN ACOLE\nTALLAKASSEE\nC DAYTONA BEACH\nGALVESTOI\nTHEM ORLEANS\nORLANDO\nLAKELAND\nSAMTONIG\nInternational An Express\nconnectiona to Mexico\nGO LAREDO\nCORPUS CHRISTI\nInternational li Feness Connectiona fooT MYERT\nMaico. Central and South tented\n\"VERO BEACH\nHEST PAEM BEAC\nMONTERREY\nHROWNSVLLE\nmalional Au Expreos Connections t\nGolf are\nLO MASSAG\nnerno. Contral and South America\nOCEAX\ncutional Air Fepres\nunections to Bermura"
    ],
    "millsfield:images_texts_ids": [
      1746680899,
      1897762151
    ],
    "millsfield:primary_image": 1746680899,
    "millsfield:subcategory_id": 1511213371,
    "mz:hierarchy_label": 1,
    "mz:is_current": 1,
    "sfomuseum:accession_number": "1999.024.022",
    "sfomuseum:category": "Promotional, Museum",
    "sfomuseum:classification_id": 131,
    "sfomuseum:collection": "Aviation Museum",
    "sfomuseum:continent": "North America",
    "sfomuseum:country": "United States",
    "sfomuseum:creditline": "Collection of SFO Museum",
    "sfomuseum:date": "1943",
    "sfomuseum:date_acquired": "1999-12-31",
    "sfomuseum:daterange_end": "1943-12-31",
    "sfomuseum:daterange_start": "1943-01-01",
    "sfomuseum:description": "Red and green shipping calculator issued by Air Express; with text, “Shipping Estimator” for calculating approximate cost by weight and distance.",
    "sfomuseum:dimensions": "3 1/4 x 6 1/2 inches (8.3 x 16.5 cm)",
    "sfomuseum:medium": "paper, ink",
    "sfomuseum:object_id": 48944,
    "sfomuseum:placetype": "object",
    "sfomuseum:publication": ": , 1943.",
    "sfomuseum:subcategory": "Product",
    "src:geom": "sfomuseum#undetermined",
    "wof:belongsto": [
      102191575,
      85633793,
      136253057,
      1511214205,
      102527513,
      1511213371,
      85922583,
      102087579,
      1511214277,
      1511214207,
      85688637
    ],
    "wof:breaches": [],
    "wof:country": "US",
    "wof:created": 1618962255,
    "wof:geomhash": "30c8a918561c84bb2daa2b97fc7c5353",
    "wof:hierarchy": [
      {
        "continent_id": 102191575,
        "country_id": 85633793,
        "custom_id": 1511909213,
        "empire_id": 136253057,
        "object_id": 1511909213,
        "venue_id": 1511909213
      },
      {
        "arcade_id": 1511213371,
        "building_id": 1511214277,
        "campus_id": 102527513,
        "concourse_id": 1511214205,
        "continent_id": 102191575,
        "country_id": 85633793,
        "county_id": 102087579,
        "custom_id": 1511909213,
        "locality_id": 85922583,
        "neighbourhood_id": -1,
        "object_id": 1511909213,
        "region_id": 85688637,
        "venue_id": 1511909213,
        "wing_id": 1511214207
      }
    ],
    "wof:id": 1511909213,
    "wof:lastmodified": 1787988176,
    "wof:name": "shipping calculator: Air Express",
    "wof:parent_id": 1159162825,
    "wof:placetype": "custom",
    "wof:placetype_alt": [
      "object"
    ],
    "wof:repo": "sfomuseum-data-collection",
    "wof:superseded_by": [],
    "wof:supersedes": [],
    "wof:tags": []
  },
  "bbox": [
    -122.386155,
    37.616357,
    -122.386155,
    37.616357
  ],
  "geometry": {"type":"Point","coordinates":[-122.386155,37.616357]}
}
