{
  "id": 1511933611,
  "type": "Feature",
  "properties": {
    "date:cessation_lower": "1989-01-01",
    "date:cessation_upper": "1989-12-31",
    "date:inception_lower": "1989-01-01",
    "date:inception_upper": "1989-12-31",
    "edtf:cessation": "1989",
    "edtf:date": "1989",
    "edtf:inception": "1989",
    "geom:area": 0,
    "geom:bbox": "-122.386155,37.616357,-122.386155,37.616357",
    "geom:latitude": 37.616357,
    "geom:longitude": -122.386155,
    "iso:country": "XX",
    "millsfield:airline_id": [
      1159284489
    ],
    "millsfield:category_id": 1511214223,
    "millsfield:collection_id": 1511214207,
    "millsfield:company_id": [
      1159287913
    ],
    "millsfield:images": [
      1527839877,
      1527847897
    ],
    "millsfield:images_colors_refs": {
      "crayola": [
        {
          "hex": "#8a795d"
        },
        {
          "hex": "#714b23"
        },
        {
          "hex": "#aaf0d1"
        },
        {
          "hex": "#414a4c"
        },
        {
          "hex": "#45cea2"
        },
        {
          "hex": "#1cd3a2"
        },
        {
          "hex": "#efdecd"
        }
      ],
      "css4": [
        {
          "hex": "#556b2f"
        },
        {
          "hex": "#20b2aa"
        },
        {
          "hex": "#808080"
        },
        {
          "hex": "#2f4f4f"
        },
        {
          "hex": "#f5f5dc"
        },
        {
          "hex": "#add8e6"
        }
      ],
      "marekm4": [
        {
          "hex": "#3fb7b1"
        },
        {
          "hex": "#f4f1d9"
        },
        {
          "hex": "#18c396"
        },
        {
          "hex": "#56352d"
        },
        {
          "hex": "#8a7365"
        },
        {
          "hex": "#b4d8ce"
        },
        {
          "hex": "#51264f"
        }
      ]
    },
    "millsfield:images_texts": [
      "Interisland\nTimetable\nNa 20 rein pn, n g f apaian\nHAWATAN\nThe Colors of Paradise.®",
      "Flight\nFrom Kahului, Maui\n4:35\n5:20\n112\nFrom Kapalua-West Maui\nLeave Arrive\nBB:803338830\n1 Hilo\nFight\nKahului.\n7:02\nMaui\n12.925\nTo Hilo\nStops Freq.\nLeave\nArrive\nFlight\nStops Frea\nHNL\nX5\n160/62\n57\nFrom Kona\nCONSULT HAWAIIAN AIRLINES\nFrom Lanai\nCONSULT HAWAIIAN AIRLINES\nFrom Molokai\n3:30\n5:20\nTo Honolulu\nStops Freg.\nLeave Arrive\nn Kahului, Maui\nFlight\n7•18\nStops Frea.\n1567\n12•20\n12:49\n57\nFlight\nTo Honolulu\nStops Frea.\nLeave\nArrive\nFlight\nFrom Kauai\n10:47\n12040\n12-U42\n11:55\n2:170\nFrom Honolulu\n8:00\n=gi\nMolokai\nTo Kahului, Maui\nStops Freq.\nLeave Arrive\n28388\nFlight\n131\nFlight\nTo Kapalua-West Maui\nStops Freq.\nLeave Arrive\nFlight\nFrom Honolulu\n4:19\n2357\n1567\n1567\n1567\n1567\n5:15\n5:54g\nFrom Kauai\n2883\nmaxing\n58/60\n358/61.\n224/658\n320/63฿\n202/670\n342/674\n332/678\nFrom Kona\n10:25 11:00\nFrom Lanai\nCONSULT HAWAIIAN AIRLINES\nFrom Molokai\n3:30\n3:50\nTo Kauai\nStops Freq\nLeave Arrive\nFrom\nLeave Arrive\nFrom Hilo\n5:35\n9:48\n6:18\nFrom Honolulu\nPove\nArrive\n135 807\n11:27\n1.A0\n2.120\n1:40\n3:320\n3-20\n4:57\nFrom Honolulu\n1567\nFrom Kapalua-West Maui\n4:20\nFrom Kauai\n1 T0D\n10-140\n19.26\n5:21\nFrom Molokai\n9888\nFlight\n311/357\n221/122\n241\n\u002688á898₫88á08{88₫888=588\n146\n1567\nFrom Kona\n8-15\nFrom\n2:36\nLanai\n5:55\n2.20\nLeave Arrive\nFlight\nFrom Hilo\nCONSULT HAWAIIAN AIRLINES\nFrom Honolulu\n6:10\nTo Kapalua-West Maui\nStops Frea\nLeave Arrive\nFlight\nFrom Honolulu\n:10\n7:49\n7:30\n696\n7.40\n0.0/\nStons\nFreg.\nFrom Kahului. Maui\nBEREDEE\n0.10\n1567\nHNL\nFlight\nSERBENE\n135\n609/245\n619/347\n655/125\n66/127\n6721120\n677/147\n675/335\n337\n711/127\n735/325\n607157\n727/123\n710/19g\n761/335\nStops Freq\n1567\n1567\nStops Freq\n1567\nHNL\n1567\nHNL\nX24\nLeave\nArrive\nFrom Honolulu\n5:55\nFrom Kahului, Maui\n10:15\n10:39\n258\nLeave Arrive\nFight\nFrom Hilo\nCONSULT HAWAIIAN AIRLINES\nFrom Honolulu\n1:20\n5:10\n2-21\n712\n5:41\n734\nFrom Kahului, Maui\nCONSULT HAWAIIAN AIRLINES\nFrom Kapalua-West Maui\nCONSULT HAWAIIAN AIRLINES\nLeave Arrive\nFrom Hilo\n9:20 10:45\nFlight\n131/727\nFrom Kahului, Maui\n10:23\n10:45\nTo Kona\nStops Freq.\nLeave Arrive\nFight\nFrom Kahului, Maui\n4:00\n4:32\n1567\nFrom Kapalua-West Maui\n10:10\nFrom Kauai\n158/108\n358/258\n198\n146166\n42/378\n40h4\n5:50\n7:19\nFrom Lanai\nCONSULT HAWAIIAN AIRLINES\nFrom Molokai\nCONSULT HAWAIIAN AIRLINES\nTo Lanai\nStops Freq.\nLeave Arrive\nFlight\nFrom Kauai\n3:37\n2:21\n5:41\n312/712\n42/734\nFrom kons\nCONSULT HAWAIIAN AIRLINES\nFrom Molokai\n712\nTo Molokai\nStops Frea\nLeave Arrive\nFlight\nFrom Kapalua-West Maui\n1567\nFrom Kauai\n10:47\n1:15\n12:08\n3:13\n224/718\nFrom Kona\nCONSULT HAWAIIAN AIRLINES\nFrom Lanai\nCONSULT HAWAIIAN AIRLINES\nStops\nFreq.\nHNL\nOGG\nHNL\n1567\nStops Freq\nHNL\nHNL\n24\nStops Freq.\nHNL\nSymbols\n•Discontinued June 15, 1989\n@Effective June 16, 1989\n© Discontinued August 29, 1989\nALL FLIGHTS OPERATE DAILY UNLESS NOTED: 1 Monday: 2 Tuesday: 3 Wednesday: 4 Thursday:\n5 Friday: 6 Saturday: 7 Sunday; X Except\nLight Face Type = AM Bold Face Type = PM\n• DAsHTRANsIT\n(Dash-7 aircraft oniv.)"
    ],
    "millsfield:images_texts_ids": [
      1527839877,
      1527847897
    ],
    "millsfield:primary_image": 1527839877,
    "millsfield:subcategory_id": 1511213425,
    "mz:hierarchy_label": 1,
    "mz:is_current": 1,
    "sfomuseum:accession_number": "2008.108.364",
    "sfomuseum:airline": "Hawaiian Airlines",
    "sfomuseum:airline_id": [
      457
    ],
    "sfomuseum:category": "Scheduling / Ticketing",
    "sfomuseum:classification_id": 158,
    "sfomuseum:collection": "Aviation Archive",
    "sfomuseum:creditline": "Gift of the William Hough Collection",
    "sfomuseum:date": "1989",
    "sfomuseum:date_acquired": "2008-11-10",
    "sfomuseum:daterange_end": "1989-12-31",
    "sfomuseum:daterange_start": "1989-01-01",
    "sfomuseum:description": "Interisland timetable issued by Hawaiian Airlines, effective April 2, 1989; four page double-sided fold-out; green and purple cover with duotone photographic image of aircraft in flight.",
    "sfomuseum:dimensions": "9 x 4 inches (22.9 x 10.2 cm)",
    "sfomuseum:media_ids": [
      1527847897,
      1527839877
    ],
    "sfomuseum:medium": "paper, ink",
    "sfomuseum:object_id": 93743,
    "sfomuseum:placetype": "object",
    "sfomuseum:primary_media_id": 1527839877,
    "sfomuseum:publication": ": , 1989.",
    "sfomuseum:subcategory": "Timetable",
    "sfomuseum:subject": "Airlines -- Commercial -- Hawaiian",
    "src:geom": "sfomuseum#undetermined",
    "wof:belongsto": [
      1511214223,
      102527513,
      102191575,
      85633793,
      1511213425,
      85922583,
      102087579,
      1511214277,
      1511214207,
      85688637
    ],
    "wof:breaches": [],
    "wof:country": "XX",
    "wof:created": 1579906672,
    "wof:depicts": [
      1159287913,
      1159284489
    ],
    "wof:geomhash": "30c8a918561c84bb2daa2b97fc7c5353",
    "wof:hierarchy": [
      {
        "arcade_id": 1511213425,
        "building_id": 1511214277,
        "campus_id": 102527513,
        "concourse_id": 1511214223,
        "continent_id": 102191575,
        "country_id": 85633793,
        "county_id": 102087579,
        "custom_id": 1511933611,
        "locality_id": 85922583,
        "neighbourhood_id": -1,
        "object_id": 1511933611,
        "region_id": 85688637,
        "venue_id": 1511933611,
        "wing_id": 1511214207
      }
    ],
    "wof:id": 1511933611,
    "wof:lastmodified": 1787988181,
    "wof:name": "timetable: Hawaiian Airlines, interisland service",
    "wof:parent_id": 1159162825,
    "wof:placetype": "custom",
    "wof:placetype_alt": [
      "object"
    ],
    "wof:repo": "sfomuseum-data-collection",
    "wof:superseded_by": [],
    "wof:supersedes": [],
    "wof:tags": []
  },
  "bbox": [
    -122.386155,
    37.616357,
    -122.386155,
    37.616357
  ],
  "geometry": {"type":"Point","coordinates":[-122.386155,37.616357]}
}
