{
  "id": 1511933561,
  "type": "Feature",
  "properties": {
    "date:cessation_lower": "1983-01-01",
    "date:cessation_upper": "1983-12-31",
    "date:inception_lower": "1983-01-01",
    "date:inception_upper": "1983-12-31",
    "edtf:cessation": "1983",
    "edtf:date": "1983",
    "edtf:inception": "1983",
    "geom:area": 0,
    "geom:bbox": "-122.386155,37.616357,-122.386155,37.616357",
    "geom:latitude": 37.616357,
    "geom:longitude": -122.386155,
    "iso:country": "XX",
    "millsfield:airline_id": [
      1762973293
    ],
    "millsfield:category_id": 1511214223,
    "millsfield:collection_id": 1511214207,
    "millsfield:company_id": [
      1159288705
    ],
    "millsfield:images": [
      1527839831,
      1527847889
    ],
    "millsfield:images_colors_refs": {
      "crayola": [
        {
          "hex": "#dbd7d2"
        },
        {
          "hex": "#fddde6"
        },
        {
          "hex": "#cd9575"
        },
        {
          "hex": "#9c2542"
        },
        {
          "hex": "#714b23"
        },
        {
          "hex": "#a5694f"
        }
      ],
      "css4": [
        {
          "hex": "#800000"
        },
        {
          "hex": "#bc8f8f"
        },
        {
          "hex": "#dcdcdc"
        },
        {
          "hex": "#a0522d"
        },
        {
          "hex": "#faf0e6"
        }
      ],
      "marekm4": [
        {
          "hex": "#661212"
        },
        {
          "hex": "#e3e4de"
        },
        {
          "hex": "#915a43"
        },
        {
          "hex": "#c48678"
        },
        {
          "hex": "#9d4437"
        },
        {
          "hex": "#6d220d"
        },
        {
          "hex": "#f8efea"
        }
      ]
    },
    "millsfield:images_texts": [
      "Golden Pacific A\nm mes\nGolden Pacific A\nmines\nGolden Pacific A\nGolden Pacific A\nGolden Pacific A\nGolden PaciticA\nGolden PacificA\nGolden Pacifc A\nGolden PacificA\nGolden Pacific 1\nISCHEDULE\nFLIGHT",
      "SCHEDULE EFFECTIVE JAN. 1, 1983\nPRESCOTT, ARIZONA TO:\n• PHOENIX, ARIZONA\nDEPARTS\nFLT #\n520\n202\n204\n522\n302\n320\nPRESCOTT\nARRIVES\nPHOENIX\n7:25A\n8:00A\n11:00A\n11:35A\n2:30P\n3:05P\n5:25P\n6:00P\n11:00A\n5:25P\n11:35A\n6:00P\n• KINGMAN, ARIZONA\nDEPARTS\nARRIVES\nFLT #\n521\n523\n325\nPRESCOTT\nKINGMAN\n9:05A\n9:45A\n5:05P\n5:45P\n1:50P\n2:30P\n• LAS VEGAS, NEVADA\nDEPARTS\nARRIVES\nFLT #\n521\n523\n325\nPRESCOTT\nLAS VEGAS\n9:05A (MST)\n9:30A (PST)\n5:05P (MST)\n5:35P (PST)\n1:50P (MST)\n2:20P (PST)\nPHOENIX, ARIZONA TO:\n• PRESCOTT, ARIZONA\nDEPARTS\nARRIVES\nFLT #\n521\n203\n523\n205\n325\n303\nPHOENIX\nPRESCOTT\n8:15A\n8:55A\n1:05P\n1:45P\n4:15P\n4:55P\n8:15P\n8:55P\n1:05P\n1:45P\n8:15P\n8:55P\nKINGMAN, ARIZONA\nDEPARTS\nARRIVES\nFLT #\n521\n523\n325\nPHOENIX\nKINGMAN\n8:15A\n9:45A\n4:15P\n5:45P\n1:05P\n2:30P\n• LAS VEGAS, NEVADA\nDEPARTS\nARRIVES\nFLT #\n523\n325\nPHOENIX\nLAS VEGAS\n4:15P (MST)\n5:35P (PST)\n1:05P (MST)\n2:20P (PST)\nNOTE: All times are local\nMST - Mountain Standard Time\nPST - Pacific Standard Time\nREMARKS\nMonday thru Friday\nMonday thru Friday\nMonday thru Friday\nMonday thru Friday\nSat, Sun ONLY\nSat, Sun ONLY\nREMARKS\nMonday thru Friday\nMonday thru Friday\nSat, Sun ONLY\nREMARKS\nMonday thru Friday\nMonday thru Friday\nSat, Sun ONLY\nREMARKS\nMonday thru Friday\nMonday thru Friday\nMonday thru Friday\nMonday thru Friday\nSat, Sun ONLY\nSat, Sun ONLY\nREMARKS\nMonday thru Friday\nMonday thru Friday\nSat, Sun ONLY\nREMARKS\nMonday thru Friday\nSat, Sun ONLY\nKINGMAN, ARIZONA TO:\n• LAS VEGAS, NEVADA\nDEPARTS\nARRIVES\nFLT#\n521\n413\n523\n325\nKINGMAN\nLAS VEGAS\n9:55A (MST)\n9:30A (PST)\n1:35P (MST)\n1:10P (PST)\n6:00P (MST)\n5:35P (PST)\n2.40P (MST)\n2:20P (PST)\nREMARKS\nMonday thru Friday\nMonday thru Friday\nMonday thru Friday\nSat. Sun ONLY\n• PRESCOTT, ARIZONA\nDEPARTS\nARRIVES\nFLT#\n520\n522\n320\nKINGMAN\nPRESCOTT\n6:35A\n7:15A\n4:35P\n5:15P\n4:35P\n5.15P\nREMARKS\nMonday thru Friday\nMonday thru Friday\nSat. Sun ONLY\n• PHOENIX, ARIZONA\nDEPARTS\nFLT #\n520\n522\n320\nKINGMAN\n6:35A\n4:35P\n4:35P\nARRIVES\nPHOENIX\n8:00A\n6:00P\n6:00P\nREMARKS\nMonday thru Friday\nMonday thru Friday\nSat, Sun ONLY\nLAS VEGAS, NEVADA TO:\n• KINGMAN, ARIZONA\nDEPARTS\nFLT #\n412\n522\n414\n320\nLAS VEGAS\nARRIVES\nKINGMAN\n10:45A (PST)\n12:20P (MST)\n2:40P (PST)\n4:15P (MST)\n6:45P (PST)\n8:20P (MST)\n2:40P (PST)\n4:15P (MST)\nREMARKS\nMonday thru Friday\nMonday thru Friday\nMonday thru Friday\nSat, Sun ONLY\n• PRESCOTT, ARIZONA\nDEPARTS\nARRIVES\nFLT #\n522\n320\nLAS VEGAS\nPRESCOTT\n2:40P (PST)\n5:15P (MST)\n2:40P (PST)\n5.15P (MST)\nREMARKS\nMonday thru Friday\nSat, Sun ONLY\n• PHOENIX, ARIZONA\nDEPARTS\nFLT #\n522\n320\nLAS VEGAS\n2:40P (PST)\n2:40P (PST)\nARRIVES\nPHOENIX\n6:00P (MST)\n6:00P (MST)\nREMARKS\nMonday thru Friday\nSat, Sun ONLY\nCHECK IN LOCATIONS:\nPHOENIX - Sky Harbor Intl. Airport Terminal #1\nPRESCOTT - Prescott Municipal Airport (Ernest A. Love Field)\nKINGMAN - Mohave County Airport\nLAS VEGAS — McCarran Intl. Airport\n(across from Eastern counter)"
    ],
    "millsfield:images_texts_ids": [
      1527839831,
      1527847889
    ],
    "millsfield:primary_image": 1527839831,
    "millsfield:subcategory_id": 1511213425,
    "mz:hierarchy_label": 1,
    "mz:is_current": 1,
    "sfomuseum:accession_number": "2008.108.342",
    "sfomuseum:airline": "Golden Pacific Airlines",
    "sfomuseum:airline_id": [
      1505
    ],
    "sfomuseum:category": "Scheduling / Ticketing",
    "sfomuseum:classification_id": 158,
    "sfomuseum:collection": "Aviation Archive",
    "sfomuseum:creditline": "Gift of the William Hough Collection",
    "sfomuseum:date": "1983",
    "sfomuseum:date_acquired": "2008-11-10",
    "sfomuseum:daterange_end": "1983-12-31",
    "sfomuseum:daterange_start": "1983-01-01",
    "sfomuseum:description": "Timetable issued by Golden Pacific Airlines, effective January 1, 1983; fold-out; white and brown cover with pattern of vertical airline logotypes.",
    "sfomuseum:dimensions": "9 x 4 inches (22.9 x 10.2 cm)",
    "sfomuseum:media_ids": [
      1527847889,
      1527839831
    ],
    "sfomuseum:medium": "paper, ink",
    "sfomuseum:object_id": 93721,
    "sfomuseum:placetype": "object",
    "sfomuseum:primary_media_id": 1527839831,
    "sfomuseum:publication": ": , 1983.",
    "sfomuseum:subcategory": "Timetable",
    "sfomuseum:subject": "Airlines -- Commercial -- Golden Pacific",
    "src:geom": "sfomuseum#undetermined",
    "wof:belongsto": [
      1511214223,
      102527513,
      102191575,
      85633793,
      1511213425,
      85922583,
      102087579,
      1511214277,
      1511214207,
      85688637
    ],
    "wof:breaches": [],
    "wof:country": "XX",
    "wof:created": 1579906672,
    "wof:depicts": [
      1762973293,
      1159284451,
      1159288705
    ],
    "wof:geomhash": "30c8a918561c84bb2daa2b97fc7c5353",
    "wof:hierarchy": [
      {
        "arcade_id": 1511213425,
        "building_id": 1511214277,
        "campus_id": 102527513,
        "concourse_id": 1511214223,
        "continent_id": 102191575,
        "country_id": 85633793,
        "county_id": 102087579,
        "custom_id": 1511933561,
        "locality_id": 85922583,
        "neighbourhood_id": -1,
        "object_id": 1511933561,
        "region_id": 85688637,
        "venue_id": 1511933561,
        "wing_id": 1511214207
      }
    ],
    "wof:id": 1511933561,
    "wof:lastmodified": 1787988181,
    "wof:name": "timetable: Golden Pacific Airlines",
    "wof:parent_id": 1159162825,
    "wof:placetype": "custom",
    "wof:placetype_alt": [
      "object"
    ],
    "wof:repo": "sfomuseum-data-collection",
    "wof:superseded_by": [],
    "wof:supersedes": [],
    "wof:tags": []
  },
  "bbox": [
    -122.386155,
    37.616357,
    -122.386155,
    37.616357
  ],
  "geometry": {"type":"Point","coordinates":[-122.386155,37.616357]}
}
