{
  "id": 1913796003,
  "type": "Feature",
  "properties": {
    "date:cessation_lower": "1933-07-13",
    "date:cessation_upper": "1933-07-13",
    "date:inception_lower": "1933-07-13",
    "date:inception_upper": "1933-07-13",
    "edtf:cessation": "1933-07-13",
    "edtf:inception": "1933-07-13",
    "geom:area": 2.475047457570636e-7,
    "geom:bbox": "-122.386472,37.616105,-122.385834,37.616611",
    "geom:latitude": 37.61635747477365,
    "geom:longitude": -122.38615540108617,
    "millsfield:airline_id": [
      1159284991,
      1159285931
    ],
    "millsfield:category_id": 1511214251,
    "millsfield:collection_id": 1511214207,
    "millsfield:company_id": [
      1159286721
    ],
    "millsfield:images": [
      1913800699,
      1913800701,
      1913800703,
      1913800705,
      1913800709,
      1913800711
    ],
    "millsfield:images_colors_refs": {
      "crayola": [
        {
          "hex": "#4a646c"
        },
        {
          "hex": "#414a4c"
        },
        {
          "hex": "#efcdb8"
        },
        {
          "hex": "#9f8170"
        }
      ],
      "css4": [
        {
          "hex": "#808080"
        },
        {
          "hex": "#f5deb3"
        },
        {
          "hex": "#696969"
        },
        {
          "hex": "#2f4f4f"
        }
      ],
      "marekm4": [
        {
          "hex": "#e4d5af"
        },
        {
          "hex": "#404a50"
        },
        {
          "hex": "#e6d6ae"
        },
        {
          "hex": "#465055"
        },
        {
          "hex": "#505753"
        },
        {
          "hex": "#4c5554"
        },
        {
          "hex": "#e7d8b0"
        },
        {
          "hex": "#404b4f"
        },
        {
          "hex": "#e7d7b0"
        },
        {
          "hex": "#535a58"
        },
        {
          "hex": "#969175"
        },
        {
          "hex": "#e6d6af"
        }
      ]
    },
    "millsfield:images_texts": [
      "33\nATHAY HOTELS\nMETROPOLE HOTEL\nSHANGHAI, CHINA.\nThursday 7/13\nDearest Debs-\nI'm styping out\nsociall, tonight ar d\nhark just bathed\nand\nshaus a pro to\ngeeting into um, monkey\nJackst which tongons\nsays is very becomet\nAnd makes me look\nbut mot with-\nstanding\nale that\nChater I fire like\nI should hair a",
      "string tied to\nme\nand Carry\nQ Amale\ntin cup\nspeeding\nmy time\nclimbing\nernes and Eating\ngranuts. Tree argua,\nIm stipping out\nAnd uras asterd\nto bring a gire.\nWee the only one\nI know e\n→ town\nis\nout of town\nдеіт.\nstagy..\nmy gie\nname is Astrid\n2019.121.06830",
      "KATHAY HOTELS.TID\nMETROPOLE HOTEL\nSHANGHAI, CHINA.\nИнды\nand she\nworks at the Am.\nConculats. Hair one,\nbria out\nwith hee\nturier so cant say\nthat us arz Exactl\nintimatr. The part,\na farewree te\nMr Francis hour Pr\nOf Waited Qincraf\nEr port Corp. It is\nviry unpopula and\nis queen\np his our",
      "farree party which\nterryone is auradini\nwith much gusts.\nMr hour is the kan\ncoho thinko he is\ngodo geft to women\na mattr\nof fact he is the\nonly\nOne\n2o jac\na. I know who\ntake that view.\nHe has been ov\nherr as long or\nmeane, as long as\nI hair but so far\n2019.12.06830",
      "THAY HOTELS. ID.\nhao\nMETROPOLE HOTEL\nSHANGHAI, CHINA.\nma a de a\nnot\nAale\nAnything\nat\nale.\nUre must run\nalong now - cock-\ntachs\n8: 30\ndinner at\n9: 30\nand home\nat\nI am if tin\nlucky\nat like You would\nthat\nyou wins her to",
      "Do with me - you\nworld leks that\nI knour and it\ncould be heavin\nindeed for me.\nMust run.\nlots\nof los to you\nand\nalwar - I Bix\n200.121.0683 c"
    ],
    "millsfield:images_texts_ids": [
      1913800699,
      1913800701,
      1913800703,
      1913800705,
      1913800709,
      1913800711
    ],
    "millsfield:primary_image": 1913800699,
    "millsfield:subcategory_id": 1511213489,
    "mz:is_approximate": 1,
    "mz:is_current": 1,
    "sfomuseum:accession_number": "2019.121.0683 a c",
    "sfomuseum:airline": "Pan American Airways",
    "sfomuseum:airline_id": [
      685,
      1131
    ],
    "sfomuseum:category": "Employee Career History",
    "sfomuseum:classification_id": 195,
    "sfomuseum:collection": "Aviation Archive",
    "sfomuseum:creditline": "Collection of SFO Museum",
    "sfomuseum:date": "07/13/1933",
    "sfomuseum:date_acquired": "2019-11-22",
    "sfomuseum:daterange_end": "1933-07-13",
    "sfomuseum:daterange_start": "1933-07-13",
    "sfomuseum:description": "Handwritten letter from Harold M. Bixby to his wife, Debby Bixby, dated Thursday, July 13, [1933], on stationery from the Metropole Hotel in Shanghai; includes description of Francis Love, president of United Aircraft Export Corp.",
    "sfomuseum:dimensions": "7 1/2 x 5 inches (19.1 x 12.7 cm)",
    "sfomuseum:medium": "paper, ink",
    "sfomuseum:object_id": 211021,
    "sfomuseum:placetype": "object",
    "sfomuseum:publication": ": , 07/13/1933.",
    "sfomuseum:subcategory": "Correspondence, Personal",
    "src:geom": "sfomuseum#undetermined",
    "wof:belongsto": [
      102527513,
      1159162825,
      102191575,
      85633793,
      102087579,
      85922583,
      85688637,
      1159160869
    ],
    "wof:country": "XY",
    "wof:created": 1714548955,
    "wof:depicts": [
      1159286721,
      1159284991,
      1159285931
    ],
    "wof:geomhash": "c281b9d9eefc83b5710e64b9d646067d",
    "wof:hierarchy": [
      {
        "building_id": -1,
        "campus_id": 102527513,
        "collection_id": 1159162825,
        "concourse_id": 1159162825,
        "continent_id": 102191575,
        "country_id": 85633793,
        "county_id": 102087579,
        "custom_id": 1913796003,
        "locality_id": 85922583,
        "neighbourhood_id": -1,
        "object_id": 1913796003,
        "region_id": 85688637,
        "wing_id": 1159160869
      }
    ],
    "wof:id": 1913796003,
    "wof:lastmodified": 1787988219,
    "wof:name": "correspondence: Harold M. Bixby to Debby Bixby",
    "wof:parent_id": 1159162825,
    "wof:placetype": "custom",
    "wof:placetype_alt": [
      "object"
    ],
    "wof:repo": "sfomuseum-data-collection",
    "wof:superseded_by": [],
    "wof:supersedes": []
  },
  "bbox": [
    -122.38647222518921,
    37.6161053594541,
    -122.38583385944366,
    37.61661101879963
  ],
  "geometry": {"type":"Polygon","coordinates":[[[-122.38647222518921,37.61631782178288],[-122.386434674263,37.61623283692423],[-122.38637566566466,37.61617759671399],[-122.38630056381224,37.6161308549656],[-122.38616108894348,37.6161053594541],[-122.38602161407469,37.6161308549656],[-122.38591432571411,37.61618609521055],[-122.38585531711577,37.61626683087935],[-122.38583385944366,37.61636881265146],[-122.38587141036987,37.61646654505181],[-122.38594114780425,37.61654303118856],[-122.38605380058287,37.61660252035167],[-122.38618254661559,37.61661101879963],[-122.3863059282303,37.61657277577607],[-122.3864185810089,37.61650903735973],[-122.3864668607712,37.61641130501523],[-122.38647222518921,37.61631782178288]]]}
}
