{
  "id": 1780279217,
  "type": "Feature",
  "properties": {
    "date:cessation_lower": "1960-01-01",
    "date:cessation_upper": "1960-12-31",
    "date:inception_lower": "1960-01-01",
    "date:inception_upper": "1960-12-31",
    "edtf:cessation": "1960",
    "edtf:inception": "1960",
    "geom:area": 2.475047457570636e-7,
    "geom:bbox": "-122.386472,37.616105,-122.385834,37.616611",
    "geom:latitude": 37.61635747477365,
    "geom:longitude": -122.38615540108617,
    "millsfield:airline_id": [
      1159285415
    ],
    "millsfield:category_id": 1746152533,
    "millsfield:collection_id": 1511214203,
    "millsfield:company_id": [
      1159288779
    ],
    "millsfield:exhibition_ids": [
      1159160315,
      1159160725
    ],
    "millsfield:images": [
      1780279345,
      1780280035,
      1780280039
    ],
    "millsfield:images_colors_refs": {
      "crayola": [
        {
          "hex": "#979aaa"
        },
        {
          "hex": "#a5694f"
        },
        {
          "hex": "#414a4c"
        },
        {
          "hex": "#dbd7d2"
        },
        {
          "hex": "#9f8170"
        }
      ],
      "css4": [
        {
          "hex": "#a9a9a9"
        },
        {
          "hex": "#dcdcdc"
        },
        {
          "hex": "#808080"
        },
        {
          "hex": "#a0522d"
        },
        {
          "hex": "#2f4f4f"
        }
      ],
      "marekm4": [
        {
          "hex": "#a09fa2"
        },
        {
          "hex": "#4d403b"
        },
        {
          "hex": "#2b2323"
        },
        {
          "hex": "#423a36"
        },
        {
          "hex": "#d4d7e0"
        },
        {
          "hex": "#a0916c"
        },
        {
          "hex": "#a04f4a"
        }
      ]
    },
    "millsfield:images_texts": [
      "86801551960\nDetroit\n*Mach\nLESS THAN\n2 PINT\nIMPORTED\nWG-40)\nI APRONTMENT\nBY APPONTMENT\nTO HIS MAJESTY KING GEORGE V BO BE\nTO HIS MAJESTY KING GEORGE VESSE 852\nBY APPOINTMENT\nTO HER MAJESTY QUEEN ELIZABETe Il\nCanadian Club\nREG U.S. PAT OFF\nBlended Canadian Whisky\nDistiled and Bottled under\nCanadian Sens\nHiram\ntory fond.\nWalkerville O, Fora Canada\nIMPORTED IN BOTTLE BY HIRAM WALKER IMPORTERS INC, DETROIT, MICH\nBE \u0026 PROOF\nBOTTLED\nTHIS WHISKY IS 6 YEARS OLD\nMO PINT\nFOR\nUNITED\nUNITED\nAIR LINES",
      "1960\nLESS THAN\nV2 PINT\nHiram\nWalke",
      "Ine, Detroit, Mich\nLESSTHAN\n½ PINT\n1868012\nIMPORTED\n\"Canadian\nBlended Canadian Whisky\nDistilled and Karlalunder\nHiram\nCanadian Sauce\nSetorision to\nWalkerville.\nIMPORTED IN BOTTLE HEARTS INGDETRORE MIGH\n8E8 PROOF\nOntario, Canada.\nBOTTLED\nTHIS WHISPAW WANT NEARS OLD\nFOR\nUNITED\nUNITED\nAIR LINES"
    ],
    "millsfield:images_texts_ids": [
      1780279345,
      1780280035,
      1780280039
    ],
    "millsfield:on_view": 0,
    "millsfield:primary_image": 1780280039,
    "millsfield:subcategory_id": 1746152547,
    "mz:is_approximate": 1,
    "mz:is_current": 1,
    "sfomuseum:accession_number": "2010.004.008",
    "sfomuseum:airline": "United Air Lines",
    "sfomuseum:airline_id": [
      884
    ],
    "sfomuseum:category": "Beverage Service",
    "sfomuseum:classification_id": 565,
    "sfomuseum:collection": "Aviation Museum",
    "sfomuseum:creditline": "Gift of Paul and Connie Sunnergren",
    "sfomuseum:date": "1960",
    "sfomuseum:date_acquired": "2010-11-29",
    "sfomuseum:daterange_end": "1960-12-31",
    "sfomuseum:daterange_start": "1960-01-01",
    "sfomuseum:description": "Miniature liquor bottle issued by United Air Lines for inflight beverage service; Canadian Club whiskey, 50 ml.; sealed.",
    "sfomuseum:dimensions": "4 1/2 x 1 1/2 x 1 1/2 inches (11.4 x 3.8 x 3.8 cm)",
    "sfomuseum:exhibition_ids": [
      1191,
      1508
    ],
    "sfomuseum:medium": "glass, paper, ink, whiskey",
    "sfomuseum:object_id": 105233,
    "sfomuseum:placetype": "object",
    "sfomuseum:publication": ": , 1960.",
    "sfomuseum:subcategory": "Liquor Bottle / Alcohol Container",
    "src:geom": "sfomuseum#undetermined",
    "wof:belongsto": [
      102527513,
      1159162825,
      102191575,
      85633793,
      102087579,
      85922583,
      85688637,
      1159160869
    ],
    "wof:country": "XY",
    "wof:created": 1660722440,
    "wof:depicts": [
      1159285415,
      1159288779
    ],
    "wof:geomhash": "c281b9d9eefc83b5710e64b9d646067d",
    "wof:hierarchy": [
      {
        "building_id": -1,
        "campus_id": 102527513,
        "collection_id": 1159162825,
        "concourse_id": 1159162825,
        "continent_id": 102191575,
        "country_id": 85633793,
        "county_id": 102087579,
        "custom_id": 1780279217,
        "locality_id": 85922583,
        "neighbourhood_id": -1,
        "object_id": 1780279217,
        "region_id": 85688637,
        "wing_id": 1159160869
      }
    ],
    "wof:id": 1780279217,
    "wof:lastmodified": 1787988211,
    "wof:name": "miniature liquor bottle: United Air Lines, Canadian Club",
    "wof:parent_id": 1159162825,
    "wof:placetype": "custom",
    "wof:placetype_alt": [
      "object"
    ],
    "wof:repo": "sfomuseum-data-collection",
    "wof:superseded_by": [],
    "wof:supersedes": []
  },
  "bbox": [
    -122.38647222518921,
    37.6161053594541,
    -122.38583385944366,
    37.61661101879963
  ],
  "geometry": {"type":"Polygon","coordinates":[[[-122.38647222518921,37.61631782178288],[-122.386434674263,37.61623283692423],[-122.38637566566466,37.61617759671399],[-122.38630056381224,37.6161308549656],[-122.38616108894348,37.6161053594541],[-122.38602161407469,37.6161308549656],[-122.38591432571411,37.61618609521055],[-122.38585531711577,37.61626683087935],[-122.38583385944366,37.61636881265146],[-122.38587141036987,37.61646654505181],[-122.38594114780425,37.61654303118856],[-122.38605380058287,37.61660252035167],[-122.38618254661559,37.61661101879963],[-122.3863059282303,37.61657277577607],[-122.3864185810089,37.61650903735973],[-122.3864668607712,37.61641130501523],[-122.38647222518921,37.61631782178288]]]}
}
