{
  "id": 1913795159,
  "type": "Feature",
  "properties": {
    "date:cessation_lower": "1936-11-22",
    "date:cessation_upper": "1936-11-22",
    "date:inception_lower": "1936-11-22",
    "date:inception_upper": "1936-11-22",
    "edtf:cessation": "1936-11-22",
    "edtf:inception": "1936-11-22",
    "geom:area": 2.475047457570636e-7,
    "geom:bbox": "-122.386472,37.616105,-122.385834,37.616611",
    "geom:latitude": 37.61635747477365,
    "geom:longitude": -122.38615540108617,
    "millsfield:airline_id": [
      1159284991
    ],
    "millsfield:category_id": 1511214251,
    "millsfield:collection_id": 1511214207,
    "millsfield:company_id": [
      1159286839
    ],
    "millsfield:images": [
      1913802455,
      1913802457
    ],
    "millsfield:images_colors_refs": {
      "crayola": [
        {
          "hex": "#414a4c"
        },
        {
          "hex": "#fcd975"
        },
        {
          "hex": "#f0e891"
        },
        {
          "hex": "#4a646c"
        },
        {
          "hex": "#757575"
        }
      ],
      "css4": [
        {
          "hex": "#deb887"
        },
        {
          "hex": "#708090"
        },
        {
          "hex": "#556b2f"
        },
        {
          "hex": "#696969"
        },
        {
          "hex": "#f0e68c"
        }
      ],
      "marekm4": [
        {
          "hex": "#486343"
        },
        {
          "hex": "#598f72"
        },
        {
          "hex": "#efe299"
        },
        {
          "hex": "#e4d479"
        },
        {
          "hex": "#eee196"
        },
        {
          "hex": "#5e8e6c"
        },
        {
          "hex": "#e0d279"
        },
        {
          "hex": "#4c6b4b"
        }
      ]
    },
    "millsfield:images_texts": [
      "Manila 11/22\nDracot Debs -\nin m\nYou betten amber 2 a\nproguet\n- galling away. The one\nConsolation\n1o that\nO coned it\nhair been with you Even if 3\nhad left on the\n21st boat lats\nis leaving today) It looks now as\nthough 9 coned lear on tirdreada,\non the mokinley and opened\nThanksguing day in routs Hongkong.\ninstrad of with\ntamil as 9 hayor and the\nd plannse\nHow corn leaving on th\n254 will depind on wris\nfrom N.Y. and if the, dont\ncome in time\nD'ee just hair\nto wart.\nMr Patterson is here today.\nI am too busy to Aprad much\ntime will him but had lunch.\nThis aftrason and this a.m\nI had to think out two cables\none of which was 12 pages\nlong\n(you remember thon\npallow\nsheets) end the ohn\ns 26 page long. mus welliam\nis ill in\nhospital - tut her\nsome flours ledne, trouble -\nan el\nI hair not too compitut",
      "esistance - not like having you\nJ, B. Cat and Hit - so I hairto\nwork.\n-Norman Hile was caled\nback to U.S. by murphy and 2\narrand Complementary ticket for\nhim. He left Saturday Q.tn\nand I saw him off. leavi\nhatre at 1:30 Q.m so fr\nlute sleep.\nstair ong\nor in - prasty digit a\nchuch was a\norman All Fun 07 A N\nIncidentally 7\nbought you\na birthday present through mu\nHoter - some\nds potter not\nso good but he went to a lot\nof\ntrouble to\nto I look it fit it for me\nHe did not\nget a lage saladon plate or\na small one coith the fish\nbut will keep on looking.\nQle my for to you\ndarling - must rush\nto boat - terribe, dis appointed\nno etu from.\non - ong one\nfrom traner\nwhy - poor dear - did it know\nto reack -\nne -\nxxx"
    ],
    "millsfield:images_texts_ids": [
      1913802455,
      1913802457
    ],
    "millsfield:primary_image": 1913802455,
    "millsfield:subcategory_id": 1511213489,
    "mz:is_approximate": 1,
    "mz:is_current": 1,
    "sfomuseum:accession_number": "2019.121.0947 a b",
    "sfomuseum:airline": "Pan American Airways",
    "sfomuseum:airline_id": [
      685
    ],
    "sfomuseum:category": "Employee Career History",
    "sfomuseum:classification_id": 195,
    "sfomuseum:collection": "Aviation Archive",
    "sfomuseum:creditline": "Collection of SFO Museum",
    "sfomuseum:date": "11/22/1936",
    "sfomuseum:date_acquired": "2019-11-22",
    "sfomuseum:daterange_end": "1936-11-22",
    "sfomuseum:daterange_start": "1936-11-22",
    "sfomuseum:description": "Handwritten letter from Harold M. Bixby to his wife, Debby Bixby, dated November 22, [1935] in Manila; includes travel plans and family matters; mentions Norman Hill, Governor General [Frank] Murphy, Mr. Patterson.",
    "sfomuseum:dimensions": "13 x 8 inches (33 x 20.3 cm)",
    "sfomuseum:medium": "paper, ink",
    "sfomuseum:object_id": 211310,
    "sfomuseum:placetype": "object",
    "sfomuseum:publication": ": , 11/22/1936.",
    "sfomuseum:subcategory": "Correspondence, Personal",
    "src:geom": "sfomuseum#undetermined",
    "wof:belongsto": [
      102527513,
      1159162825,
      102191575,
      85633793,
      102087579,
      85922583,
      85688637,
      1159160869
    ],
    "wof:country": "XY",
    "wof:created": 1714548710,
    "wof:depicts": [
      1159284991,
      1159286839
    ],
    "wof:geomhash": "c281b9d9eefc83b5710e64b9d646067d",
    "wof:hierarchy": [
      {
        "building_id": -1,
        "campus_id": 102527513,
        "collection_id": 1159162825,
        "concourse_id": 1159162825,
        "continent_id": 102191575,
        "country_id": 85633793,
        "county_id": 102087579,
        "custom_id": 1913795159,
        "locality_id": 85922583,
        "neighbourhood_id": -1,
        "object_id": 1913795159,
        "region_id": 85688637,
        "wing_id": 1159160869
      }
    ],
    "wof:id": 1913795159,
    "wof:lastmodified": 1787988219,
    "wof:name": "correspondence: Harold M. Bixby to Debby Bixby",
    "wof:parent_id": 1159162825,
    "wof:placetype": "custom",
    "wof:placetype_alt": [
      "object"
    ],
    "wof:repo": "sfomuseum-data-collection",
    "wof:superseded_by": [],
    "wof:supersedes": []
  },
  "bbox": [
    -122.38647222518921,
    37.6161053594541,
    -122.38583385944366,
    37.61661101879963
  ],
  "geometry": {"type":"Polygon","coordinates":[[[-122.38647222518921,37.61631782178288],[-122.386434674263,37.61623283692423],[-122.38637566566466,37.61617759671399],[-122.38630056381224,37.6161308549656],[-122.38616108894348,37.6161053594541],[-122.38602161407469,37.6161308549656],[-122.38591432571411,37.61618609521055],[-122.38585531711577,37.61626683087935],[-122.38583385944366,37.61636881265146],[-122.38587141036987,37.61646654505181],[-122.38594114780425,37.61654303118856],[-122.38605380058287,37.61660252035167],[-122.38618254661559,37.61661101879963],[-122.3863059282303,37.61657277577607],[-122.3864185810089,37.61650903735973],[-122.3864668607712,37.61641130501523],[-122.38647222518921,37.61631782178288]]]}
}
