{
  "id": 1762830025,
  "type": "Feature",
  "properties": {
    "date:cessation_lower": "1933-01-01",
    "date:cessation_upper": "1933-12-31",
    "date:inception_lower": "1933-01-01",
    "date:inception_upper": "1933-12-31",
    "edtf:cessation": "1933",
    "edtf:inception": "1933",
    "geom:area": 0,
    "geom:bbox": "-122.370943,37.617990,-122.370943,37.617990",
    "geom:latitude": 37.61799,
    "geom:longitude": -122.370943,
    "iso:country": "US",
    "millsfield:airport_id": [
      102527513
    ],
    "millsfield:category_id": 1511214239,
    "millsfield:collection_id": 1511214207,
    "millsfield:images": [
      1762893211,
      1762893213,
      1762893215
    ],
    "millsfield:images_colors_refs": {
      "crayola": [
        {
          "hex": "#95918c"
        },
        {
          "hex": "#1a4876"
        },
        {
          "hex": "#414a4c"
        },
        {
          "hex": "#eceabe"
        },
        {
          "hex": "#4a646c"
        },
        {
          "hex": "#cdc5c2"
        },
        {
          "hex": "#757575"
        }
      ],
      "css4": [
        {
          "hex": "#c0c0c0"
        },
        {
          "hex": "#dcdcdc"
        },
        {
          "hex": "#778899"
        },
        {
          "hex": "#2f4f4f"
        },
        {
          "hex": "#708090"
        }
      ],
      "marekm4": [
        {
          "hex": "#343e43"
        },
        {
          "hex": "#54748a"
        },
        {
          "hex": "#273e5d"
        },
        {
          "hex": "#738f9a"
        },
        {
          "hex": "#293848"
        },
        {
          "hex": "#748894"
        },
        {
          "hex": "#c5cebc"
        },
        {
          "hex": "#bec9b6"
        },
        {
          "hex": "#718f9b"
        },
        {
          "hex": "#e5e3c6"
        },
        {
          "hex": "#587589"
        },
        {
          "hex": "#566f88"
        }
      ]
    },
    "millsfield:images_texts": [
      "0000@0ll@\n00000\nUNITED STATES OF AMERICA\nSTATE OF CALIFORNIA\nCity and County\nof San Francisco\nAirport Bond 1933\n4%\nPRINCIPAL DUE\nDECEMBER 1, 1938\nFORM OF REGISTRATION\nSan Francisco\n.19.\nThis bond is registered pursuant to Charter of the City and\nCounty of San Francisco, State of California, in the name of\nand the interest and principal thereof are hereafter payable to such\nowner.\nTreasurer.\nSan Francisco\n19.\nThis bond is registered pursuant to Charter of the\nCity\nand\nCounty of San Francisco, State of California, in the name of\nand the interest and principal thereof are hereafter payable to such\nowner.\nTreasurer.\nSan Francisco\n19\nThis bond is registered pursuant to Charter of the City\nCounty of San Francisco, State of California, in the name of\nand\nand the interest and principal thereof are hereafter payable to such\nTreasurer.\nINTEREST PAYABLE\nJune 1 and December 1\nPrincipal and Interest Payable\nat the office of the\nTreasurer of said City and County,\nor at the option of the holder,\nat its fiscal agency in the\nCity and State of New York.\n2013.029.001",
      "No. 00000\nUNITED\nSTATES\nSI0O0\nSTATE OF CALIFORNIA\nCity and County of San Francisco\nAIRPORT BOND 1933\nFOR VALUE RECEIVED, the CITY AND COUNTY OF SAN FRANCISCO, a municipal corporation\norganized and existing under the laws of the State of California, hereby acknowledges itself indebted and\npromises to pay to the bearer on the first day of December, 1938,\nONE THOUSAND DOLLARS ($1,000)\nwith interest thereon at the rate of four per centum per annum, payable semi-annually, December 1 and\nJune 1, on presentation and surrender of the coupons hereto attached as they respectively become due, both\nprincipal and interest being payable in lawful money of the United States at the office of the Treasurer of\nsaid City and County, or, at the option of the holder, af the fiscal agency of said City and County of\nSan Francisco in the City and State of New York.\nThis bond is issued under and pursuant to the Constitution and Statutes of the State of California and\nthe Charter of said City and County of San Francisco and amendments thereto, and under and pursuant to\nordinances and proceedings of said City and County duly adopted and taken and a vote and assent of more\nthan two thirds of all the qualified electors of said City and County voting at a special election duly and\nlegally called and held for that purpose.\nIt is hereby cortifed arecited and declared that all acts, conditions and things required by law to exist,\nhappen and be performed precedent to and in the issuance of this bond have existed, happened and been\nperformed in due time, form and manner as required by law, and that the amount of this bond, together with\nall other indebtedness of said City and County, does not exceed any limit prescribed by the Constitution or\nStatutes of said State or Charter of said City and County, and that provision has been made, as required by\nthe Constitution and Statutes of said State and the Charter of said City and County for the collection of an\nannual tax sufficient to pay the interest on this bond as it falls due, and also provision to constitute a sink-\ning fund for the payment of the principal of this bond on or before maturity!\nThe full faith and credit\nof said City and County are hereby pledged for the punctual payment of the principal and interest of\nthis bond.\nThis bond may be converted into a registered bond upon presentation to the Treasurer of the City\nand County of San Francisco, in/which event such Treasurer shall cut off and cancel the coupons of this\nbond and shall sign a statement stamped, printed or written upon the back or face of the bond to the effect\nthat this bond is registered in the hame of the owner/ and that thereafter the interest and principal of\nthis bond are payable to the registered owner.\nThereafter, and from time to time, this bond may be trans.\nferred by such registered owner in person or by/attorney duly authorized on presentation of this bond to\nthe Treasurer; and the bond be again registered as before, a similar statement being stamped, printed or\nWritten thereon.\nThis bond is exempt from all taxation within the State of California.\nIN WITNESS WHEREOF, said City and County of San Francisco has\ncaused this bond to be executed under its corporate seal, signed by the Mayor\nand the treasurer of said City and County and countersigned by the Clerk of\nthe Board of Supervisors thereof, and has caused the interest coupons attached\nthereto to be signed by its Treasurer, and the bond to be dated the Ist day of\nDecember, 1933, the signature of the Mayor to said bond and the signature of the\nTreasurer to said coupons attached thereto being by facsimile.\nCountersigned:\nClerk of the Board of Supervisors.\nводорон\nMayor.\nSPECIMEN\nTreasurer.\nAMERICAN BANK NOTE COMPANY:",
      "No. 10\nOn DECEMBER 1, 1938,\n$20.00\nTWENTY\nand on AIRPORT BOND 193, dated Deember 11833\nNo. 00000 Дима\ntheon Treasurer,\nNo. 7\nOn JUNE 1, 1937.\n$20.00\nthe CITY AND COUNTY OF SAN FRANCISCO, California,\nSay hi con\nIts AIRPORT BOND 1933,\nbented Decenter 1 te\nNo. 000002\ncheon Treasurer.\nNo. 9\nOn JUNE 1, 1938,\nthe CITY AND COUNTY OF SAN FRANCISCO.\n$20.00\nNo. 00000 D\nbeated month i terest\nChero Treasurer.\nNo. 8\nOn DECEMBER 1, 1937,\n$20.00\nSAN FRANCISCO,\nin the city and State of New York.\nTWENTY DOLLARS ($20.00)\nNo. 000002\nthen Treasurer.\nNo. 6\nOn DECEMBER 1, 1936,\n$20.00\nE SAN FRANCISCO\nEly and Contra\nStion of the hold\nCalifornia,\nily and state of New York\nENTY DOLLARS ($20.00)\nthen dul\ndated benter toss.\nNo. 000002\nany shei Treasurer.\nNo. 5\nOn JUNE 1, 1936,\n$20.00\nto the oile\nCalifornia,\nTreasurer cal general\nand State of New York,\nTWENTY DOLLARS ($20.00)\nNo.00000 eu\nmus lison Treasurer\nNo. 4\nOn DECEMBER 1, 1935,\n$20.00\nthe CITY AND COUNT\nTreasurer\nGry a Cautio me AN FRANCISCO, California,\nin the City\nand State of New\nWENTY DOLLARS ($20.00)\nin lawful\nmonths'\nhen due on\ntON 1933 dinted Decenter 1t5e3\nNo. 00000 Длисии? свельи, Treaurer.\nNo. 3\nOn JUNE 1, 1935,\n$20.00\nCalifornia.\nThen due on T ARPORT BOND dited died bebe 1183\nNo. 00000м\nmaleen Treasurer.\nNo. 2\nOn DECEMBER 1, 1934,\n$20.00\nity and sate a New York\nten ate on a A PORT BOND 138 ad Seconder 1c3.\nNo.00000 Duncan elecon Treasurer.\nNo. 1\n$20.00\nDNE THOUSAND DOLLARS ($1,000)\nrate of four per centum per annum, payable sémi-annually. Décember 1 and\nsurrender of the coupons hereto attached as they respectively become due, both\nthen due on i AIRPORT BOND feis end monter interes\nNo. 00000Дииси 2Avicheon, Treasurer.\npayable in lawful money of the United States at the office of the Treasurer of\nit the option of the holder, at the fiscal agency of said City and County of\nid State of New York.\nader and pursuant to the Constitution and Statutes of the State of California and\nid County of San Francisco and amendments thereto, and under and pursuant to\nordinances and proceedings of said City and County duly adopted and taken and a vote and assent of more\nthan awo thirds of all the qualified electors of said City and County voting at a special election duly and\nlegally called and held for that purpose.\nIt is hereby certified, recited and declared that all acts, conditions and things required by law to exist,\nhappen and be performed precedent to and in the issuance of this bond have existed, happened and been\nperformed in due time, form and manner as required by law, and that the amount of this bond, tosether with\nall other indebtedness of said City and County, does not exceed any limit prescribed by the Constitution of\nStatutes of said State or Charter of said City and County, and that provision has been made, as required by\nthe Constitution and Statutes of said State and the Charter of said City and County for the collection of an\nannual tax sufficient to pay the interest on this bond as it falls due, and also provision to constitute a sink-\ning fund for the payment of the principal of this bond on or before maturity\nThe full faith and credit\nof said City and County are hereby pledged for the punctual payment of the principal and interest of\nthis bond.\nThis bond may be converted into a registered bond upon presentation to the Treasurer of the City\nand County of San Francisco, in which event such Treasurer shall cut off and cancel the coupons of this\nbond and shall sign a statement stamped, printed or written upon the back or face of the bond to the effect\nthat this bond is registered in the name of the owner/and that thereafter the interest and principal of\nthis bond are payable to the registered owner. Thereafter, and from time to time, this bond may be trans-\nferred by such registered owner in person or by attorney duly authorized on presentation of this bond to\nthe Treasurer, and the bond be again registered as before, a similar statement being stamped, printed or\nwritten thereon.\nThis bond is exempt from all taxation within the State of California.\nIN WITNESS WHEREOF, said City and County of San Francisco has\ncaused this bond to be executed under its corporate seal, signed by the Mayor\nand the Treasurer of said City and County and countersigned by the Clerk of\nthe Board of Supervisors thereof, and has caused the interest coupons attached\nthereto to be signed by its Treasurer, and the bond to be dated the Ist day of\nDecember, 1933, the signature of the Mayor to said bond and the signature of the:\nTreasurer to said coupons attached thereto being by facsimile.\nCountersigned:\nClerk of the Board of Supervisors.\nMayor.\nSPECIMEN\nTreasurer."
    ],
    "millsfield:images_texts_ids": [
      1762893211,
      1762893213,
      1762893215
    ],
    "millsfield:primary_image": 1762893213,
    "millsfield:subcategory_id": 1511213681,
    "mz:is_approximate": 1,
    "mz:is_current": 1,
    "sfomuseum:accession_number": "2013.039.001",
    "sfomuseum:airport": "San Francisco International Airport",
    "sfomuseum:airport_id": [
      121
    ],
    "sfomuseum:category": "Company Record / Document",
    "sfomuseum:classification_id": 462,
    "sfomuseum:collection": "Aviation Archive",
    "sfomuseum:creditline": "Transfer from San Francisco Public Utilities Commission",
    "sfomuseum:date": "1933",
    "sfomuseum:date_acquired": "2013-03-07",
    "sfomuseum:daterange_end": "1933-12-31",
    "sfomuseum:daterange_start": "1933-01-01",
    "sfomuseum:description": "Airport bond issued by City and County of San Francisco to bearer in amount of one thousand dollars ($1000), signed by mayor Angelo Rossi, December 1, 1933; blue and white certificate with trimmed sheet of 10 remaining interest coupons attached for incremental payments of twenty dollars ($20) each, to be paid in full by December 1, 1938; serial number 00000.",
    "sfomuseum:dimensions": "14 1/2 x 9 3/4 inches (36.8 x 24.8 cm)",
    "sfomuseum:medium": "paper, ink",
    "sfomuseum:object_id": 140900,
    "sfomuseum:placetype": "object",
    "sfomuseum:publication": ": , 1933.",
    "sfomuseum:subcategory": "Stock Certificate / Bond",
    "src:geom": "sfomuseum#derived",
    "src:geom_derived_from": [
      102527513
    ],
    "wof:belongsto": [
      102527513,
      1159162825,
      102191575,
      85633793,
      102087579,
      85922583,
      85688637,
      1159160869,
      554784711,
      102085387
    ],
    "wof:country": "US",
    "wof:created": 1642729852,
    "wof:depicts": [
      102527513
    ],
    "wof:geomhash": "bf40c3bc435019ba74db5659992d9e04",
    "wof:hierarchy": [
      {
        "building_id": -1,
        "campus_id": 102527513,
        "collection_id": 1159162825,
        "concourse_id": 1159162825,
        "continent_id": 102191575,
        "country_id": 85633793,
        "county_id": 102087579,
        "custom_id": 1762830025,
        "locality_id": 85922583,
        "neighbourhood_id": -1,
        "object_id": 1762830025,
        "region_id": 85688637,
        "wing_id": 1159160869
      },
      {
        "campus_id": 102527513,
        "continent_id": 102191575,
        "country_id": 85633793,
        "county_id": 102087579,
        "custom_id": 1762830025,
        "locality_id": 85922583,
        "object_id": 1762830025,
        "postalcode_id": 554784711,
        "region_id": 85688637
      },
      {
        "campus_id": 102527513,
        "continent_id": 102191575,
        "country_id": 85633793,
        "county_id": 102085387,
        "custom_id": 1762830025,
        "object_id": 1762830025,
        "region_id": 85688637
      }
    ],
    "wof:id": 1762830025,
    "wof:lastmodified": 1787988201,
    "wof:name": "airport bond: City and County of San Francisco",
    "wof:parent_id": 1159162825,
    "wof:placetype": "custom",
    "wof:placetype_alt": [
      "object"
    ],
    "wof:repo": "sfomuseum-data-collection",
    "wof:superseded_by": [],
    "wof:supersedes": []
  },
  "bbox": [
    -122.370943,
    37.61799,
    -122.370943,
    37.61799
  ],
  "geometry": {"type":"MultiPoint","coordinates":[[-122.370943,37.61799]]}
}
