{
  "id": 1913795887,
  "type": "Feature",
  "properties": {
    "date:cessation_lower": "1936-12-16",
    "date:cessation_upper": "1936-12-16",
    "date:inception_lower": "1936-12-16",
    "date:inception_upper": "1936-12-16",
    "edtf:cessation": "1936-12-16",
    "edtf:inception": "1936-12-16",
    "geom:area": 2.475047457570636e-7,
    "geom:bbox": "-122.386472,37.616105,-122.385834,37.616611",
    "geom:latitude": 37.61635747477365,
    "geom:longitude": -122.38615540108617,
    "millsfield:airline_id": [
      1159284991
    ],
    "millsfield:category_id": 1511214251,
    "millsfield:collection_id": 1511214207,
    "millsfield:company_id": [
      1159286839
    ],
    "millsfield:images": [
      1913802477,
      1913802479,
      1913802481,
      1913802483
    ],
    "millsfield:images_colors_refs": {
      "crayola": [
        {
          "hex": "#deaa88"
        },
        {
          "hex": "#414a4c"
        },
        {
          "hex": "#714b23"
        },
        {
          "hex": "#bab86c"
        },
        {
          "hex": "#e7c697"
        }
      ],
      "css4": [
        {
          "hex": "#deb887"
        },
        {
          "hex": "#2f4f4f"
        },
        {
          "hex": "#556b2f"
        },
        {
          "hex": "#bdb76b"
        }
      ],
      "marekm4": [
        {
          "hex": "#40361b"
        },
        {
          "hex": "#544b2a"
        },
        {
          "hex": "#d6c07a"
        },
        {
          "hex": "#e2d092"
        },
        {
          "hex": "#e0cc93"
        },
        {
          "hex": "#544726"
        },
        {
          "hex": "#e0ce93"
        },
        {
          "hex": "#e0cd94"
        },
        {
          "hex": "#4f4324"
        },
        {
          "hex": "#c3ae75"
        },
        {
          "hex": "#d3bd7a"
        },
        {
          "hex": "#cbb477"
        }
      ]
    },
    "millsfield:images_texts": [
      "1936\nViles dearesta\nDonald. birthday. Dont know why\nI always remember that one, pornie,\ncaut he is the baby - Some baby!\nRanking, and so wile catch the\nnext plane Tuesday. the 222. Thats\ndisgustin but this ao keeper tak\ntrying te get angling done here now\nThe Chinese try\nto ke calm let when\nthe surface the official for get blow\nare au\njitter,\nattempting to talk busines wick the top-\nside fficiao. Ern Dai has bum jumpy.\nof court you get as much news as us\ndo her and probabe, as many remors.\nthat is gong on this. The mes is\na lute\nmors renouring\nlooks to me a. though the usuce\nChina Compromise may Engue.\nhopr that Chang will ask for\nmoney and release Chiang kai i",
      "I want to the orning of the Bank of\nCarton the othn day gesteday a.m. t\nbe Exact. Real want b\nrcaus s wa.\naand with all the excitimat hardly\nno one wones go and I knew that\nlots of work.\nhad hen done l, the\nofficis including M. g. Tang to make the\noprang a success.\nTher a tomo\nMY also TV. Soone and manor lueTich\nlooking as calm and greeting us as\nnothing was\nwrong and they wous abont to play\na game of go a something.\nI conce\nnot help len\nTue that T.V. Soorg\nwondo like to jo in retirement at\nHonkory bat which he Coned Ease, do\nbut instal he risks his life to help.\nCountry. Nor coned t help contrusting\nhis\nConduct with that of the. Joinsor\nAm looking forward to a litter from\nIt loserson via Chille who jat in\nafturoon from Honkong.\ncornt to dinnin last night with\nKi chun and then to a boxing and\nwrasling match held at st grays\nCafe.\nIt was lots of fur.\nIts now 8 P.m.\nI called up\nChilli to waits myseef to dinne\nbut they an at the\nClub so 2\nlet it go but left my number and\nif they call tie tile thim to\n201912109519",
      "put some\nmon water in the soup\nfor I'm coming out.\nCacco at qli and tole\nBuddah that you had forgot to pat\nout thon four\n\"immortals\"\n\" to br\npacked and\nWhere was they, tr\nlooked gammme ampuad and D'e\nswear th\nat he\ndid nt hair them.\nWe was poster that nothing of\nours. was left and said there was\nno us looking because he coas\nabsolutely certain.\nSaw the Nortons\nWho hair our old room which ha.\nburn painted and is 20 clean\nand\nresplendant that you wored it\nrecogng it.\nI miss feis was that or at thiss\nEnglando other place and whee 3\nwas spraking to the Routons he\nbuatra up to her room ene 2\n- court had to wait a fro\nmomento when o was alre\nde, late\nfor dinin with gugs fillet in\norder to tir her.\nHope to ter someone in\nNandry about the Jaerse Stire\ncasting deal. I ha\n~ worked up\na good prospectus and hope",
      "that\nSee be able to stay over\nat Ranking Sunday and porably\nsomething done in addition\nIto the affecis of ENAC on\nSaturday.\nHer nt decided what to do\nabont ENAC Chestmas prenato beat.\nto go to the natur\neit and be.\nlargu one.\nven gal for tea cat the ti\nwoe Dats darling its now\n8:45 and I wont hear from the\nVanhas so will toddle oin t\nthe metropale - orda a suras\nChes on rye and bottle of tri\nin my room - put on mu\nP.Js\nand carry on wick\nJone with the\nWind\n- I lour it bou\n* hair n\nher to the\nDest your mess prime on\nnews\nhome was\nnot too\nStinuous and that you got my\nCheck in time te take\ncare of\nall franceal worries for the prest\nleant. Que my lou t\nand the kids - see you Tuesday\nand bung the more for\nshot\nef Kai Tak -\n• Your own - Bix\n2019.121.09516"
    ],
    "millsfield:images_texts_ids": [
      1913802477,
      1913802479,
      1913802481,
      1913802483
    ],
    "millsfield:primary_image": 1913802477,
    "millsfield:subcategory_id": 1511213489,
    "mz:is_approximate": 1,
    "mz:is_current": 1,
    "sfomuseum:accession_number": "2019.121.0951 a b",
    "sfomuseum:airline": "Pan American Airways",
    "sfomuseum:airline_id": [
      685
    ],
    "sfomuseum:category": "Employee Career History",
    "sfomuseum:classification_id": 195,
    "sfomuseum:collection": "Aviation Archive",
    "sfomuseum:creditline": "Collection of SFO Museum",
    "sfomuseum:date": "12/16/1936",
    "sfomuseum:date_acquired": "2019-11-22",
    "sfomuseum:daterange_end": "1936-12-16",
    "sfomuseum:daterange_start": "1936-12-16",
    "sfomuseum:description": "Handwritten letter from Harold M. Bixby to his wife, Debby Bixby, dated December 16, [1936]; includes description of reactions to the Xi’an Incident and detention of Chiang Kai-Shek by Marshal Chang Hsueh-liang, description of actions of T.V. Soong, other CNAC concerns; mentions Dai [Enki], Ki Chun, M.Y. Tang, Mayor Wu Ti Chu, Chilli [Charles “Chili” Vaughn].",
    "sfomuseum:dimensions": "12 1/2 x 8 inches (31.8 x 20.3 cm)",
    "sfomuseum:medium": "paper, ink",
    "sfomuseum:object_id": 211314,
    "sfomuseum:placetype": "object",
    "sfomuseum:publication": ": , 12/16/1936.",
    "sfomuseum:subcategory": "Correspondence, Personal",
    "src:geom": "sfomuseum#undetermined",
    "wof:belongsto": [
      102527513,
      1159162825,
      102191575,
      85633793,
      102087579,
      85922583,
      85688637,
      1159160869
    ],
    "wof:country": "XY",
    "wof:created": 1714548923,
    "wof:depicts": [
      1159286839,
      1159284991
    ],
    "wof:geomhash": "c281b9d9eefc83b5710e64b9d646067d",
    "wof:hierarchy": [
      {
        "building_id": -1,
        "campus_id": 102527513,
        "collection_id": 1159162825,
        "concourse_id": 1159162825,
        "continent_id": 102191575,
        "country_id": 85633793,
        "county_id": 102087579,
        "custom_id": 1913795887,
        "locality_id": 85922583,
        "neighbourhood_id": -1,
        "object_id": 1913795887,
        "region_id": 85688637,
        "wing_id": 1159160869
      }
    ],
    "wof:id": 1913795887,
    "wof:lastmodified": 1787988219,
    "wof:name": "correspondence: Harold M. Bixby to Debby Bixby",
    "wof:parent_id": 1159162825,
    "wof:placetype": "custom",
    "wof:placetype_alt": [
      "object"
    ],
    "wof:repo": "sfomuseum-data-collection",
    "wof:superseded_by": [],
    "wof:supersedes": []
  },
  "bbox": [
    -122.38647222518921,
    37.6161053594541,
    -122.38583385944366,
    37.61661101879963
  ],
  "geometry": {"type":"Polygon","coordinates":[[[-122.38647222518921,37.61631782178288],[-122.386434674263,37.61623283692423],[-122.38637566566466,37.61617759671399],[-122.38630056381224,37.6161308549656],[-122.38616108894348,37.6161053594541],[-122.38602161407469,37.6161308549656],[-122.38591432571411,37.61618609521055],[-122.38585531711577,37.61626683087935],[-122.38583385944366,37.61636881265146],[-122.38587141036987,37.61646654505181],[-122.38594114780425,37.61654303118856],[-122.38605380058287,37.61660252035167],[-122.38618254661559,37.61661101879963],[-122.3863059282303,37.61657277577607],[-122.3864185810089,37.61650903735973],[-122.3864668607712,37.61641130501523],[-122.38647222518921,37.61631782178288]]]}
}
