{
  "id": 1511949975,
  "type": "Feature",
  "properties": {
    "date:cessation_lower": "1971-01-01",
    "date:cessation_upper": "1971-12-31",
    "date:inception_lower": "1971-01-01",
    "date:inception_upper": "1971-12-31",
    "edtf:cessation": "1971",
    "edtf:date": "1971",
    "edtf:inception": "1971",
    "geom:area": 0,
    "geom:bbox": "-122.370943,37.617990,-122.370943,37.617990",
    "geom:latitude": 37.61799,
    "geom:longitude": -122.370943,
    "iso:country": "US",
    "millsfield:airline_id": [
      1159285141
    ],
    "millsfield:airport_id": [
      102527513
    ],
    "millsfield:category_id": 1511214223,
    "millsfield:collection_id": 1511214207,
    "millsfield:company_id": [
      1159288051
    ],
    "millsfield:images": [
      1527851469,
      1527851471
    ],
    "millsfield:images_colors_refs": {
      "crayola": [
        {
          "hex": "#1a4876"
        },
        {
          "hex": "#b0b7c6"
        },
        {
          "hex": "#414a4c"
        },
        {
          "hex": "#fddde6"
        },
        {
          "hex": "#2e5894"
        }
      ],
      "css4": [
        {
          "hex": "#483d8b"
        },
        {
          "hex": "#faf0e6"
        },
        {
          "hex": "#2f4f4f"
        },
        {
          "hex": "#191970"
        },
        {
          "hex": "#c0c0c0"
        }
      ],
      "marekm4": [
        {
          "hex": "#464552"
        },
        {
          "hex": "#202676"
        },
        {
          "hex": "#e9e9e4"
        },
        {
          "hex": "#b6b5b7"
        },
        {
          "hex": "#3d4591"
        }
      ]
    },
    "millsfield:images_texts": [
      "19/38\n• SFO\n2011.0610419",
      "* SFO SKY SCOOP\nSFO HELICOPTER AIRLINES, INC., P. O. Box 2525, Oakland, CA 94614\n5/71\nApril 25th has already passed and we didn't change our schedule. Since many of the\ncarriers had major changes due in\nMay and June, we felt it best to wait until these changes\nwere firm. Our new schedule will become effective on June 1, 1971.\nThere will be no changes in our Oakland/San Francisco service. Two additional flights\nhave been added to our Berkeley and Marin County routes in response to passenger requests.\nThe following is the new Berkeley/Marin County schedule.\nYou might note that there have\nbeen some minor changes on flight times to improve our connections to and from other airlines.\nFROM MARIN COUNTY\nTo San Francisco\nFROM SAN FRANCISCO\nTo Marin County\nLV\nAR\n6:39\nA\n6:52 A\n7:27\nA\n7:40 A\n8:02\nA\n8:25 A\n9:02\nA\n9:25\n10:52 A\n11:15\nA\n12:00Noon 12:23\nP\n1:15 P\n1:38\nP.\n3:55 P\n4:18\nP\n4:45\nP\n5:08\nP\n7:00\nP\n7:23\nP\n8:20\nP\n8:43\nP\n9:21\n9:44 P\nFLI\n404\n414\n424\n434\n454\n464\n474\n504\n514\n534\n544\n554\nSTOPS\nAR\n7:23\nA\n7:58\nA\n8:58 A\n10:48\nA\n11:56 A\nP\nP\nP\nP\n1:11 P\n3:51\nP\n4:41\nP\n6:56\nP\n8:16\nP\nP\n9:17\nP 10:11\nP\nEX SA\nDaily\nEX SA\nDaily\nEX SA\nDaily\nEX SA\nDaily\nDaily\nDaily\nDaily\nEX SA\n423\n433\n453\n463\n473\n503\n513\n533\n543\n553\n563\nFROM BERKELEY\nTo San Francisco\nFROM SAN FRANCISCO\nTo Berkeley\nI.V\nAR\n6:28\n7:16\nA\n8:13\nA\n9:13 A\n11:03 A\n12:11 P\n1:26 P\n4:06 P\n4:56 P\n7:11 P\n8:31\n8:43\n9:32 P 9:44\nSTOPS\nA\nA\nA\nP\nLV\nAR\nFREQ\n7:02\n7:12\nA\nEX SA\n7:47 A\n8:09\nA\nDaily\n8:47\nA\n9:09\nEX SA\n10:37 A\n10:59 A Daily\n11:45 A\n12:07 P EX SA\n1:00\nP\n1:22 P\nDaily\n3:40\nP\n4:02 P\nEX SA\n4:30\nP\n4:52 P\nDaily\n6:45\nP\n7:07 P Daily\n8:05\nP\n8:27 P\nDaily\n9:06\nP\n9:28 P\nDaily\n10:00 P 10:22 P EX SA\nSTOPS\nIn our last issue of the Sky Scoop, we introduced our first and only stewardess,\nMARLINE CHERRY.\nPassenger reaction has been so favorable we have recently added two add i-\ntional stewardesses to our flights. We think this feminine touch will be a welcome sight\nfor our passengers.\nPlans are currently in the mill which will enable our travel agent friends to issue the\nscenic excursion tickets mentioned in the last issue of the Sky Scoop.\nLast but not least --GIVE US A WHIRL! .....and have a nice day."
    ],
    "millsfield:images_texts_ids": [
      1527851469,
      1527851471
    ],
    "millsfield:primary_image": 1527851471,
    "millsfield:subcategory_id": 1511213425,
    "mz:hierarchy_label": 1,
    "mz:is_approximate": 1,
    "mz:is_current": 1,
    "sfomuseum:accession_number": "2011.061.0419",
    "sfomuseum:airline": "SFO Helicopter Airlines",
    "sfomuseum:airline_id": [
      754
    ],
    "sfomuseum:airport": "San Francisco International Airport",
    "sfomuseum:airport_id": [
      121
    ],
    "sfomuseum:category": "Scheduling / Ticketing",
    "sfomuseum:classification_id": 158,
    "sfomuseum:collection": "Aviation Archive",
    "sfomuseum:creditline": "Gift of the Frank J. Lichtanski Collection",
    "sfomuseum:date": "1971",
    "sfomuseum:date_acquired": "2011-08-02",
    "sfomuseum:daterange_end": "1971-12-31",
    "sfomuseum:daterange_start": "1971-01-01",
    "sfomuseum:description": "Timetable issued by SFO Helicopter Airlines, effective May 1971; titled “SFO Sky Scoop” with schedules for San Francisco, Marin County, and Berkeley flights; on reverse, black and white photographic image of four helicopters in air over San Francisco International Airport; air traffic control tower visible at right.",
    "sfomuseum:dimensions": "11 x 8 1/2 inches (27.9 x 21.6 cm)",
    "sfomuseum:media_ids": [
      1527851469,
      1527851471
    ],
    "sfomuseum:medium": "paper, ink",
    "sfomuseum:object_id": 118062,
    "sfomuseum:placetype": "object",
    "sfomuseum:primary_media_id": 1527851471,
    "sfomuseum:publication": ": , 1971.",
    "sfomuseum:subcategory": "Timetable",
    "src:geom": "sfomuseum#derived",
    "src:geom_derived_from": [
      102527513
    ],
    "wof:belongsto": [
      102527513,
      102191575,
      85633793,
      85922583,
      102087579,
      85688637,
      554784711,
      102085387,
      1159162825,
      1159160869
    ],
    "wof:breaches": [],
    "wof:country": "US",
    "wof:created": 1579906685,
    "wof:depicts": [
      1159288051,
      1159285141,
      102527513
    ],
    "wof:geomhash": "bf40c3bc435019ba74db5659992d9e04",
    "wof:hierarchy": [
      {
        "campus_id": 102527513,
        "continent_id": 102191575,
        "country_id": 85633793,
        "county_id": 102087579,
        "custom_id": 1511949975,
        "locality_id": 85922583,
        "object_id": 1511949975,
        "postalcode_id": 554784711,
        "region_id": 85688637
      },
      {
        "campus_id": 102527513,
        "continent_id": 102191575,
        "country_id": 85633793,
        "county_id": 102085387,
        "custom_id": 1511949975,
        "object_id": 1511949975,
        "region_id": 85688637
      },
      {
        "building_id": -1,
        "campus_id": 102527513,
        "collection_id": 1159162825,
        "concourse_id": 1159162825,
        "continent_id": 102191575,
        "country_id": 85633793,
        "county_id": 102087579,
        "custom_id": 1511949975,
        "locality_id": 85922583,
        "neighbourhood_id": -1,
        "object_id": 1511949975,
        "region_id": 85688637,
        "wing_id": 1159160869
      }
    ],
    "wof:id": 1511949975,
    "wof:lastmodified": 1787988187,
    "wof:name": "timetable: SFO Helicopter Airlines",
    "wof:parent_id": 1159162825,
    "wof:placetype": "custom",
    "wof:placetype_alt": [
      "object"
    ],
    "wof:repo": "sfomuseum-data-collection",
    "wof:superseded_by": [],
    "wof:supersedes": [],
    "wof:tags": []
  },
  "bbox": [
    -122.370943,
    37.61799,
    -122.370943,
    37.61799
  ],
  "geometry": {"type":"MultiPoint","coordinates":[[-122.370943,37.61799]]}
}
