{
  "id": 1511939467,
  "type": "Feature",
  "properties": {
    "date:cessation_lower": "1985-01-01",
    "date:cessation_upper": "1985-12-31",
    "date:inception_lower": "1985-01-01",
    "date:inception_upper": "1985-12-31",
    "edtf:cessation": "1985",
    "edtf:date": "1985",
    "edtf:inception": "1985",
    "geom:area": 0,
    "geom:bbox": "-122.386155,37.616357,-122.386155,37.616357",
    "geom:latitude": 37.616357,
    "geom:longitude": -122.386155,
    "iso:country": "XX",
    "millsfield:airline_id": [
      1159285019
    ],
    "millsfield:category_id": 1511214223,
    "millsfield:collection_id": 1511214207,
    "millsfield:company_id": [
      1159287755
    ],
    "millsfield:images": [
      1527847457
    ],
    "millsfield:images_colors_refs": {
      "crayola": [
        {
          "hex": "#fddde6"
        },
        {
          "hex": "#9c2542"
        },
        {
          "hex": "#324ab2"
        }
      ],
      "css4": [
        {
          "hex": "#b22222"
        },
        {
          "hex": "#faf0e6"
        },
        {
          "hex": "#191970"
        }
      ],
      "marekm4": [
        {
          "hex": "#1c299e"
        },
        {
          "hex": "#c30c2c"
        },
        {
          "hex": "#efe8e7"
        }
      ]
    },
    "millsfield:images_texts": [
      "EFFECTIVE\nFEBRUARY 1, 1985\nPIEDMONT\nAIRLINES\nQUICK REFERENCE SCHEDULE\nSAN FRANCISCO\nOAKLAND\nSAN JOSE\nFor Reservations and information in San Francisco\nArea Code 415, call 978-9663; in Oakland and San Jose,\ncall 800-251-5720.\nFor Air Cargo, in San Francisco, call\n415-876-7204; in Oakland, call 415-839-2423;\nin San Jose, call 408-298-0699.\nFly via our Charlotte and\nDayton hubs for super\nservice to many great\nPiedmont destinations.\nMealLy Ap Ar Ap Flight No. Freg. Stops MealLy Ap Ar Ap Flight No. Fred, Stops\nTo Akron/Canton, Oh\nFrom Akron\nCanton\nD 210pS 1036p 8/29\nDAY B 700a 1005aS 32/5\n376-4358\n453-1454\nDAY\nTo Asheville, NC\nL 1215p S\n1002p 6/42\nFrom Asheville\nCLT B 700a\n1125a S 49/7\n254-4621\nCLT\nTo Athens, Ga\nL 1215p S\n930p 6/ED909 X6 CLT B 720a\nFrom Athens Sunbird\n1125a S ED900/7\n800-438-7833\nX67\nCLT\nTo Atlanta, Ga\nContact Piedmont Airlines\nFrom Atlanta\nB 730a 1125aS 766/7\n7\n681-3100\nCLT\nTo Augusta, Ga\nL 1215p S\n906p\n6/269\nFrom Augusta\nCL 750a\n1125a S 214/7\n722-7875\nCLT\nTo Baltimore, Md\nL 1215p S 1119p 6/290\nFrom Baltimore\n761-5402\nCLT\nContact Piedmont Airlines\nTo Champaign/Urbana, IL\nFrom Champaign\nUrbana\nD 210pS 944p 8/437\nDAY B 600a\n1005a S 456/5\n359-3601\n359-3601\nDAY\nTo Charleston, SC\nL 1215p S\n904p\n6/275\nFrom Charleston\nCLT B 750a\n1125aS 242/7\n723-6107\nCLT"
    ],
    "millsfield:images_texts_ids": [
      1527847457
    ],
    "millsfield:primary_image": 1527847457,
    "millsfield:subcategory_id": 1511213425,
    "mz:hierarchy_label": 1,
    "mz:is_current": 1,
    "sfomuseum:accession_number": "2003.105.085.004",
    "sfomuseum:airline": "Piedmont Airlines",
    "sfomuseum:airline_id": [
      700
    ],
    "sfomuseum:category": "Scheduling / Ticketing",
    "sfomuseum:classification_id": 158,
    "sfomuseum:collection": "Aviation Archive",
    "sfomuseum:creditline": "Gift of Craig Lynes",
    "sfomuseum:date": "1985",
    "sfomuseum:date_acquired": "2003-12-29",
    "sfomuseum:daterange_end": "1985-12-31",
    "sfomuseum:daterange_start": "1985-01-01",
    "sfomuseum:description": "Quick reference schedule issued by Piedmont Airlines for flights through San Francisco, Oakland, and San Jose, effective February 1, 1985; two page double-sided guide.",
    "sfomuseum:dimensions": "9 x 4 inches (22.9 x 10.2 cm)",
    "sfomuseum:media_ids": [
      1527847457
    ],
    "sfomuseum:medium": "paper, ink",
    "sfomuseum:object_id": 100279,
    "sfomuseum:placetype": "object",
    "sfomuseum:primary_media_id": 1527847457,
    "sfomuseum:publication": ": , 1985.",
    "sfomuseum:subcategory": "Timetable",
    "src:geom": "sfomuseum#undetermined",
    "wof:belongsto": [
      1511214223,
      102527513,
      102191575,
      85633793,
      1511213425,
      85922583,
      102087579,
      1511214277,
      1511214207,
      85688637
    ],
    "wof:breaches": [],
    "wof:country": "XX",
    "wof:created": 1579906670,
    "wof:depicts": [
      85688637,
      85633793,
      1159285019,
      85921881,
      1159287755
    ],
    "wof:geomhash": "30c8a918561c84bb2daa2b97fc7c5353",
    "wof:hierarchy": [
      {
        "arcade_id": 1511213425,
        "building_id": 1511214277,
        "campus_id": 102527513,
        "concourse_id": 1511214223,
        "continent_id": 102191575,
        "country_id": 85633793,
        "county_id": 102087579,
        "custom_id": 1511939467,
        "locality_id": 85922583,
        "neighbourhood_id": -1,
        "object_id": 1511939467,
        "region_id": 85688637,
        "venue_id": 1511939467,
        "wing_id": 1511214207
      }
    ],
    "wof:id": 1511939467,
    "wof:lastmodified": 1787988184,
    "wof:name": "timetable: Piedmont Airlines, quick reference, San Francisco / Oakland / San Jose",
    "wof:parent_id": 1159162825,
    "wof:placetype": "custom",
    "wof:placetype_alt": [
      "object"
    ],
    "wof:repo": "sfomuseum-data-collection",
    "wof:superseded_by": [],
    "wof:supersedes": [],
    "wof:tags": []
  },
  "bbox": [
    -122.386155,
    37.616357,
    -122.386155,
    37.616357
  ],
  "geometry": {"type":"Point","coordinates":[-122.386155,37.616357]}
}
