{
  "id": 1511938009,
  "type": "Feature",
  "properties": {
    "date:cessation_lower": "1954-01-01",
    "date:cessation_upper": "1954-12-31",
    "date:inception_lower": "1954-01-01",
    "date:inception_upper": "1954-12-31",
    "edtf:cessation": "1954",
    "edtf:date": "1954",
    "edtf:inception": "1954",
    "geom:area": 0,
    "geom:bbox": "-122.386155,37.616357,-122.386155,37.616357",
    "geom:latitude": 37.616357,
    "geom:longitude": -122.386155,
    "iso:country": "XX",
    "millsfield:airline_id": [
      1159285825
    ],
    "millsfield:category_id": 1511214223,
    "millsfield:collection_id": 1511214207,
    "millsfield:company_id": [
      1159287479
    ],
    "millsfield:images": [
      1527841553,
      1527850375
    ],
    "millsfield:images_colors_refs": {
      "crayola": [
        {
          "hex": "#ffcf48"
        },
        {
          "hex": "#9c2542"
        },
        {
          "hex": "#ffae42"
        },
        {
          "hex": "#efcdb8"
        },
        {
          "hex": "#714b23"
        },
        {
          "hex": "#efdecd"
        }
      ],
      "css4": [
        {
          "hex": "#daa520"
        },
        {
          "hex": "#f5deb3"
        },
        {
          "hex": "#ffe4c4"
        },
        {
          "hex": "#ffd700"
        },
        {
          "hex": "#8b4513"
        },
        {
          "hex": "#a0522d"
        }
      ],
      "marekm4": [
        {
          "hex": "#dec9b2"
        },
        {
          "hex": "#e1b626"
        },
        {
          "hex": "#ab3f3e"
        },
        {
          "hex": "#722123"
        },
        {
          "hex": "#8e3d3f"
        },
        {
          "hex": "#f9c727"
        },
        {
          "hex": "#efdeca"
        }
      ]
    },
    "millsfield:images_texts": [
      "QANTAS\nTIMETABLE\nFARES AND CARGO RATES\nUTAS\nFUSTLALIA\nVERSEAS\n•\n=\nAIRLI\nEFFECTIVE 1st JANUARY, 1954\nUNTIL FURTHER NOTICE\nIN ASSOCIATION WITH B•0 A•C BE A AND TEAL",
      "LONDON C\nZURICH\nFRANKFURT\nROME\nLegend\nQANTAS SERVICES\nQANTAS -B-O•A-C SERVICES\nT.E.AL SERVICES\nCONNECTING SERVICES\nIWAKUNI\nBEIRUT\nNOON\nXII\nAIRO\nKARACHI\n*\nHONG KONG\nCALCUTTA\nBOMBAY\nIX\nKHARTOUM\nBANGKOK\nMANILA\nVIII\nCOLOMBO\nLABUAN\nSINGAPORE\nVII\nVI\nENTEBBE O\n• NAIROBI\nDJAKARTA\nCOCOS IS.\n24 HOUR CLOCK\nTimes\nused in this timetable LIVINGSTONE O\nrefer to the 24 hour clock\nas\nshown\nabove.\n1 to\n12\nThe hours from\nare normal\ntime and the\n\"a.m.\"\nJOHANNESBURG\nhours from\n13\nto 24 are normal \"p.m.\" time\nMAURITIUS\nPERTH\nMELBOURNE\nMAIN OFFICES AND ROUTE AGENTS\nTOWN\nSYDNEY\n•.•.\nADDRESS\nTELEPHONE\nADELAIDE\nAUCKLAND:\nBANGKOK\nBEIRUT\nBOMBAY\nBRISBANE\nCAIRNS\nCAIRO\nCALCUTTA\nCHRISTCHURCH\nCOLOMBO\nDARWIN\nDJAKARTA\nESPIRITU SANTO\nFRANKFURT\nHONG\nKONG\nIWAKUNI\nJOHANNESBURG\nKARACHI\nLABUAN\nLAE\nLONDON\nMANILA\nMAURITIUS\nMELBOURNE\nNORFOLK ISLAND\nNOUMEA\nPERTH\nPORT MORESBY\nRABAUL\nROME..\nSAMARAI\nSINGAPORE ..\nSUVA\nTOKYO\nVILA\nWELLINGTON\nZURICH\nQANTAS Air Terminal, Lang Street\nQANTAS, Shell House,\nCarrington Street\nPassenger Department,\nShell\nHouse,\nMargaret Street Entrance\nAir Cargo\nDepartment, 13 Bridge Street.\nElder Smith \u0026 Co.\nLtd., 31 Currie Street\nTEAL World Air Travel, Airways House, 103 Customs Street East\nBorneo Co.,\nLtd.,\nAir Booking\nTrocadero Hotel, Suriwongse Road\nKarnak National Tourist and\nB.O.A.C., Air Booking Centre, The Taj Mahal Hotel\nQANTAS,\n43 Creek Street\nT.A.A.,\n37-41 Abbott Street\nB.O.A.G., Airways House,\n1 Sharia Bustan ..\nB.0.A.C.,\nAir\nBooking Centre, 41 Chowringhee Road (entrance Middleton Street)\nTEAL World Air Travel, 58-60 Cathedral Square\nJames Finlay \u0026 Co. Ltd., 63 Queen Street, Fort\nQANTAS, Darwin Hotel Building, Esplanade\nQANTAS,\nDjalan\nSegara\nSatu 34/35.\nBurns Philp (New Hebrides) Ltd.\nB.E.A., Rathenauplatz,\nJardine,\n4/6\nMatheson\n\u0026 Co. Ltd.,\n14-16 Pedder Street\nQANTAS,\nBritish\nCommonwealth Air Station\nS.A.A., Airways Terminal,\nMaritime House, Loveday Street\nB.O.A.C. Air Booking\nMcLeod Road\nHarrisons \u0026 Crosfield (Borneo) Ltd.,\nQANTAS,\nLae\nHigh Street, Victoria\nCANTAS Booking Office,\n69 piccadilly, w.1\nB.O.A.C.,\nAirways\nTerminal,Buckingham\nPalace Road, S.W.1\nB.O.A.C.,.\n75 Regent Street,\nW.1\nAirways Department, Warner Barnes \u0026 Co.\n221 Dasmarinas\nRogers \u0026 Co.\nQANTAS, Qantas\nas House;\nCnr. Quay\nand Sir\nWilliam Newton Streets, Port Louis\n341\nCollins Street\nBurns\nJean\nPhilp\n(South Sea)\nCo. Ltd., Norfolk Island\nBrock,\n47 Rue de L'Alma\nT.A.A.,\n44 St. Georges Terrace\nQANTAS,\nDouglas Street\nBurns Philp (N.G.), Ltd.,\nRabaul\nB.E.A.,\nHotel Quirinale,\nVia\nNazionale 6b\nBurns Philp (N.G.) Ltd., Samarai\nQANTAS, 86\nTEAL,\nBras Basah Road\nCarpenter's Building,\nThomson Street\nQANTAS,\nGround Floor,\nNikkatsu International Building, Yurakucho, Chiyoda-ku\nBurns Philp (New\nHebrides) Ltd.,\nVila\nTEAL World Air Travel, Ground Floor, D.I.C. Building, Brandon Street\nB.E.A.,\nLowenstrasse\n• a\nB 0271\nB 0271\nB 0271\nB 0271\nLA 0331\n30200\n32961-2\n66-41, 23-18\n35815,\n36147\nFA 2141\n3752/4..\n25250,\n27550\nPK 3670 (5 lines)\n38-887\n2267/8..\n350\nGambir 6010, 6030\n94830,\n93530\n27765/6\nMilitary\nExchange\n33-0050\n(9 lines)\n3741/8.\n16\n85\nMayfair\n9200\nVictoria\n2323\nMayfair\n3-98-43\n6611\n218\nMB 2671/6\n439\nBA 9861(10 lines)\n393/4\n489.111\n5451\n406/7\n27-3091/5\n43-030\n25-54-54\nThe information in this booklet is subject to alteration without notice\nO TOKYO\nMANUS ISLAND\nHOLLANDIA O\nKAVIENG\nCASALI\nBUKA\nPORT MORESBI\nDARWIN\nCAIRNS\n) HONIAR\n(SPIRITU SANTO\nSULA\nNOLAMEA\n'NORFOLK ISLAND,\n'O AUCKLAND\n• WELLINGTON\n• CHRISTCHURCH\nTELEGRAPHIC\nQantas, Sydney\nQantas,\nSydney\nQantas,\nSydney\nQantas, Sydney\nQantas,\nAdelaide\nTasmanair,\nAuckland\nSpeedbird,\nBangkok\nSpeedbird,\nBeirut\nSpeedbird,\nBombay\nQantas, Brisbane\nQantas,\nCairns\nSpeedbird, Cairo\nSpeedbird, Calcutta\nTasmanair, Christchureh\nMercator or Speedbird,\nColombo\nQantas,\nDarwin\nQantas,\nDjakarta\nBurnsouth,\nSanto\nBealine,\nFrankfurt\nQantas,\nHong\nKong\nQantas, Iwakuni\nRailplane, Johannesburg\nSpeedbird,\nKarachi\nQantas,\nLabuan\nQantas,\nLae\nSpeedbird, London\nLondon\nSpeedbird,\nSpeedbird,\nLondon\nQantas,\nManila\nQantas, Mauritius\nQantas,\nMelbourne\nBurnsouth, Norfolk Island\nBrock,\nNoumea\nPerth\nDantas, Moresby\nQantas,\nBurphil, Rabaul\nBealine,\nBurphil,\nRome\nSamarai\nQantas,\nSingapore\nTasmanair,\nSuva\nQantas,\nTokyo\nBurnsouth,\nTasmanair,\nVila\nWellington\nBealine,\nZurich\nPage One"
    ],
    "millsfield:images_texts_ids": [
      1527841553,
      1527850375
    ],
    "millsfield:primary_image": 1527841553,
    "millsfield:subcategory_id": 1511213425,
    "mz:hierarchy_label": 1,
    "mz:is_current": 1,
    "sfomuseum:accession_number": "2005.132.092.001",
    "sfomuseum:airline": "Qantas Empire Airways",
    "sfomuseum:airline_id": [
      1082
    ],
    "sfomuseum:category": "Scheduling / Ticketing",
    "sfomuseum:classification_id": 158,
    "sfomuseum:collection": "Aviation Archive",
    "sfomuseum:creditline": "Gift of the William Hough Collection",
    "sfomuseum:date": "1954",
    "sfomuseum:date_acquired": "2006-12-05",
    "sfomuseum:daterange_end": "1954-12-31",
    "sfomuseum:daterange_start": "1954-01-01",
    "sfomuseum:description": "Timetable issued by Qantas Empire Airways, effective January 1, 1954; 15-page fold-out; dark red and yellow cover with illustration of a globe in a gift box; includes fares and cargo rates.",
    "sfomuseum:dimensions": "8 3/4 x 3 3/4 inches (22.2 x 9.5 cm)",
    "sfomuseum:media_ids": [
      1527841553,
      1527850375
    ],
    "sfomuseum:medium": "paper, ink",
    "sfomuseum:object_id": 98541,
    "sfomuseum:placetype": "object",
    "sfomuseum:primary_media_id": 1527841553,
    "sfomuseum:publication": ": , 1954.",
    "sfomuseum:subcategory": "Timetable",
    "src:geom": "sfomuseum#undetermined",
    "wof:belongsto": [
      1511214223,
      102527513,
      102191575,
      85633793,
      1511213425,
      85922583,
      102087579,
      1511214277,
      1511214207,
      85688637
    ],
    "wof:breaches": [],
    "wof:country": "XX",
    "wof:created": 1579906683,
    "wof:depicts": [
      1159285825,
      1159287479,
      1159285043
    ],
    "wof:geomhash": "30c8a918561c84bb2daa2b97fc7c5353",
    "wof:hierarchy": [
      {
        "arcade_id": 1511213425,
        "building_id": 1511214277,
        "campus_id": 102527513,
        "concourse_id": 1511214223,
        "continent_id": 102191575,
        "country_id": 85633793,
        "county_id": 102087579,
        "custom_id": 1511938009,
        "locality_id": 85922583,
        "neighbourhood_id": -1,
        "object_id": 1511938009,
        "region_id": 85688637,
        "venue_id": 1511938009,
        "wing_id": 1511214207
      }
    ],
    "wof:id": 1511938009,
    "wof:lastmodified": 1787988183,
    "wof:name": "timetable: Qantas Empire Airways",
    "wof:parent_id": 1159162825,
    "wof:placetype": "custom",
    "wof:placetype_alt": [
      "object"
    ],
    "wof:repo": "sfomuseum-data-collection",
    "wof:superseded_by": [],
    "wof:supersedes": [],
    "wof:tags": []
  },
  "bbox": [
    -122.386155,
    37.616357,
    -122.386155,
    37.616357
  ],
  "geometry": {"type":"Point","coordinates":[-122.386155,37.616357]}
}
