{
  "id": 1511934739,
  "type": "Feature",
  "properties": {
    "date:cessation_lower": "1989-01-01",
    "date:cessation_upper": "1989-12-31",
    "date:inception_lower": "1989-01-01",
    "date:inception_upper": "1989-12-31",
    "edtf:cessation": "1989",
    "edtf:date": "1989",
    "edtf:inception": "1989",
    "geom:area": 0,
    "geom:bbox": "-122.386155,37.616357,-122.386155,37.616357",
    "geom:latitude": 37.616357,
    "geom:longitude": -122.386155,
    "iso:country": "XX",
    "millsfield:airline_id": [
      1159285447
    ],
    "millsfield:category_id": 1511214223,
    "millsfield:collection_id": 1511214207,
    "millsfield:company_id": [
      1159288239
    ],
    "millsfield:images": [
      1527843227,
      1527851207
    ],
    "millsfield:images_colors_refs": {
      "crayola": [
        {
          "hex": "#85754e"
        },
        {
          "hex": "#fddde6"
        },
        {
          "hex": "#2e5894"
        },
        {
          "hex": "#cd4a4c"
        },
        {
          "hex": "#c46210"
        },
        {
          "hex": "#414a4c"
        },
        {
          "hex": "#dbd7d2"
        },
        {
          "hex": "#9c7c38"
        }
      ],
      "css4": [
        {
          "hex": "#6b8e23"
        },
        {
          "hex": "#faf0e6"
        },
        {
          "hex": "#4682b4"
        },
        {
          "hex": "#b22222"
        },
        {
          "hex": "#2f4f4f"
        },
        {
          "hex": "#cd853f"
        },
        {
          "hex": "#dcdcdc"
        },
        {
          "hex": "#a0522d"
        },
        {
          "hex": "#556b2f"
        }
      ],
      "marekm4": [
        {
          "hex": "#e5e0d9"
        },
        {
          "hex": "#356b92"
        },
        {
          "hex": "#2f3133"
        },
        {
          "hex": "#a6491b"
        },
        {
          "hex": "#3c4a1b"
        },
        {
          "hex": "#688932"
        },
        {
          "hex": "#bb3a27"
        },
        {
          "hex": "#a6903f"
        },
        {
          "hex": "#f7f1e8"
        }
      ]
    },
    "millsfield:images_texts": [
      "USAIR\nSystem Timetable\nEffective May 2, 1989\nNow's The Time\nTo Get Your Vacation\nPlans Off The Ground.\nFlorida\nCalifornia\nBermuda\nBahamas\n© 1989 USAir Group, Inc.\nIncludes Allegheny Commuter and\nselected Piedmont Airlines flights.",
      "The Long And Short Of\nUSA irs Flight System.\nSEATTLE/TACOMA\n• MONTREAL\nPORTLAND\nBURLINGTON\n• EUGENE\n• REDMOND/BEND\nTORONTO\nJFFALO\nILAGARA F\nMEDFORD •\nMINNEAPOLIS ST. PAUL\nJOHNSON C\n•PORTLAND\nMANCHESTER\nBOSTON\nWORCESTER\nPROVIDENCE\nHARTFORD SPRINGFIELD\nLONG ISLAND\nGRAND •\nMILWAUKEE•\nRAPIDE\nTOLEDO•\nCHICAGO (\n• RENO\nCLEVELAND\nPITTSBURGH\nHARRISBURG • PHILADELPICA\nWHEELING\nATLANTIC CITY\n* • BALTIMORE\n•WASHINGTON, D.C.\nSACRAMENTO •\nCONCORDE\n•STOCKTON\nFRANCISCO\n• OAKLAND\n• SAN JOSE\n• FRESNO\nMONTERE\nDENVER,\nKANSAS\nWICHITA\nLAS VEGAS\nBURBANKE\nOS ANGELES\nONTAR PALM SPRINGS\nLONG BEACH ORANGE COUNTY\n• ALBUQUERQUE\nCHAMPAIGN\nCOLUMBUS\nINDIANAPOLIS\n• DAYTON\n• CINCINNATI\nST. LOUIS O\nLOUISVILE HUNTINGTON\n• CHARLESTON\n•LEXINGTON\n• EVANSVILLE Y\nGREENSBORO/WINSTON-SALEM\nIGH POIN\nBRISTOL JOHNSON CITYIS\n• RALEIGH/DURHAM\nKINGSPORT CHARLOTTE\nNASHVILLE ® KNOXVILLE •\nREENVILLE\nPARTANBURI\nMEMPHIS •\nMYRTLB BEACH\nATLANTA\nNEWPORT NEWS WILLIAMSBURG\nNIA BEACH\nSAN DIEGO\n• PHOENIX\nBIRMINGHAM\n•TUCSON\n• DALLAS/FT. WORTH\nJACKSONYIL\n• AUSTIN\nHOUSTON\nEW ORLEANS\nORLANDO\nSAN ANTONIO•\nTAMPA\nFORT MYERS\n• WEST PALM BEACH\nFORT LAUDERDALE/ HOLLYWOOD\nMIAMI\nPEORIA •\nSPRINGFIELD •\nHAMILTON •\nITHACA\nBINGHAMTON\nMIKA COKNING!\nWILKES-BARRE/SCRANTON •\nJAMESTOW\nBRADFORD\nERIE\nFRANKLIN OIL\nCLEVELAND•\nCHICAGO •\nYOUNGSTOW\nAKRON/CATON®\nSOUTHBENT/ WAYNE®\nPITTSBURC\nMORGANTOW\nLATROBE\nSTOWNA\nPARKERSBURG/MARIETTA •\nDECATUR\n• GREENBRIER\nINDIANAPOLIS\nTERRE HAUTE\nRICHMOND •\nLYNCHBURG •\nROANOKE\nGROTON/NEW LONDON\nTE PLAINS •\nONG\nISLAND\nYORK\nALEHEM/EASTON\nPHILADELPHIA/CAMDEN/WILMINGTON\n• ATLANTIC CITY\nYALTIMORE\nSHINGTON. D.C.\n• NEWPORT NEWS\nOWENSBORO •\nORLANDO •\nVERO BEACH/FORT PIERCE •\nALLEGHENY COMMUTER SYSTEM\nTogether, USAir and Allegheny\nCommuter offer more than 2,200\ndaily flights to over 200 cities\nthroughout the U.S. and Canada.\nSo whether you're flying cross-\ncountry or just a short distance,\nwe re the right pair in the air\nUSAIR A\nALLEGHENY\nCOMMUTER"
    ],
    "millsfield:images_texts_ids": [
      1527843227,
      1527851207
    ],
    "millsfield:primary_image": 1527843227,
    "millsfield:subcategory_id": 1511213425,
    "mz:hierarchy_label": 1,
    "mz:is_current": 1,
    "sfomuseum:accession_number": "2008.108.870",
    "sfomuseum:airline": "USAir",
    "sfomuseum:airline_id": [
      898
    ],
    "sfomuseum:category": "Scheduling / Ticketing",
    "sfomuseum:classification_id": 158,
    "sfomuseum:collection": "Aviation Archive",
    "sfomuseum:creditline": "Gift of the William Hough Collection",
    "sfomuseum:date": "1989",
    "sfomuseum:date_acquired": "2008-11-10",
    "sfomuseum:daterange_end": "1989-12-31",
    "sfomuseum:daterange_start": "1989-01-01",
    "sfomuseum:description": "System timetable issued by USAir, effective May 2, 1989; white cover with color photographic image of two people on chairs in water and text promoting Florida, California, Bermuda and Bahamas service; includes Allegheny Commuter Service and selected Piedmont Airlines flights.",
    "sfomuseum:dimensions": "9 x 4 inches (22.9 x 10.2 cm)",
    "sfomuseum:media_ids": [
      1527843227,
      1527851207
    ],
    "sfomuseum:medium": "paper, ink",
    "sfomuseum:object_id": 94281,
    "sfomuseum:placetype": "object",
    "sfomuseum:primary_media_id": 1527843227,
    "sfomuseum:publication": ": , 1989.",
    "sfomuseum:subcategory": "Timetable",
    "sfomuseum:subject": "Airlines -- Commercial -- USAir",
    "src:geom": "sfomuseum#undetermined",
    "wof:belongsto": [
      1511214223,
      102527513,
      102191575,
      85633793,
      1511213425,
      85922583,
      102087579,
      1511214277,
      1511214207,
      85688637
    ],
    "wof:breaches": [],
    "wof:country": "XX",
    "wof:created": 1579906656,
    "wof:depicts": [
      1159285447,
      1159288239
    ],
    "wof:geomhash": "30c8a918561c84bb2daa2b97fc7c5353",
    "wof:hierarchy": [
      {
        "arcade_id": 1511213425,
        "building_id": 1511214277,
        "campus_id": 102527513,
        "concourse_id": 1511214223,
        "continent_id": 102191575,
        "country_id": 85633793,
        "county_id": 102087579,
        "custom_id": 1511934739,
        "locality_id": 85922583,
        "neighbourhood_id": -1,
        "object_id": 1511934739,
        "region_id": 85688637,
        "venue_id": 1511934739,
        "wing_id": 1511214207
      }
    ],
    "wof:id": 1511934739,
    "wof:lastmodified": 1787988182,
    "wof:name": "timetable: USAir",
    "wof:parent_id": 1159162825,
    "wof:placetype": "custom",
    "wof:placetype_alt": [
      "object"
    ],
    "wof:repo": "sfomuseum-data-collection",
    "wof:superseded_by": [],
    "wof:supersedes": [],
    "wof:tags": []
  },
  "bbox": [
    -122.386155,
    37.616357,
    -122.386155,
    37.616357
  ],
  "geometry": {"type":"Point","coordinates":[-122.386155,37.616357]}
}
