{
  "id": 1511921473,
  "type": "Feature",
  "properties": {
    "date:cessation_lower": "1985-01-01",
    "date:cessation_upper": "1985-12-31",
    "date:inception_lower": "1985-01-01",
    "date:inception_upper": "1985-12-31",
    "edtf:cessation": "1985~",
    "edtf:date": "1985~",
    "edtf:inception": "1985~",
    "geom:area": 0,
    "geom:bbox": "-122.386155,37.616357,-122.386155,37.616357",
    "geom:latitude": 37.616357,
    "geom:longitude": -122.386155,
    "iso:country": "XX",
    "millsfield:airline_id": [
      1159284153
    ],
    "millsfield:category_id": 1762671311,
    "millsfield:collection_id": 1511214207,
    "millsfield:company_id": [
      1159288057
    ],
    "millsfield:images": [
      1527843531,
      1527843533
    ],
    "millsfield:images_colors_refs": {
      "crayola": [
        {
          "hex": "#414a4c"
        },
        {
          "hex": "#9f8170"
        },
        {
          "hex": "#dbd7d2"
        },
        {
          "hex": "#000000"
        },
        {
          "hex": "#85754e"
        },
        {
          "hex": "#ffbd88"
        },
        {
          "hex": "#ffa343"
        }
      ],
      "css4": [
        {
          "hex": "#dcdcdc"
        },
        {
          "hex": "#808080"
        },
        {
          "hex": "#556b2f"
        },
        {
          "hex": "#a0522d"
        },
        {
          "hex": "#daa520"
        },
        {
          "hex": "#deb887"
        },
        {
          "hex": "#000000"
        }
      ],
      "marekm4": [
        {
          "hex": "#554d39"
        },
        {
          "hex": "#8e724a"
        },
        {
          "hex": "#fcb794"
        },
        {
          "hex": "#ee9430"
        },
        {
          "hex": "#291a12"
        },
        {
          "hex": "#e1dcd6"
        },
        {
          "hex": "#a28f60"
        }
      ]
    },
    "millsfield:images_texts": [
      "Occupation\nof\nthe\nTwelve\nMonths\nThe 10th Month\nIn a spacious hall connoisseurs are examining ancient\nobjects d'art and paintings spread out under their\ngaze. In another room an old painter is working on\nsomeone's portrait. The\nladies in their apartments\nare engaged in playing musical instruments and sewing\ngarments.\n+ 83\nrinks\nLiquors\nWhiskey-Scotch, Bourbon\nBrandy-Cognac\nGin\nVodka\nKum\nCocktails\nManhattan,\nMartini\nWhiskey\nSour\n483\nLiqueurs\nCherry Brandy\nDrambuie\nFrench Wines\nJules Sabourin Full Red\nJules Sabourin Medium Dry White\nAmerican\nON:\nBurgundy (Red)\nChablis (White)\nBeer\nSoft Drinks\nSoda Pop, Cola, Fruit Juices\nSoda Water Ginger, Ale,\nTonic\nWater\n370113*051\n*86*\n17 1 ta it\nTR\n* 3B+ 3\n1x 72)\n4*50\n** 7*****~\n- 83"
    ],
    "millsfield:images_texts_ids": [
      1527843533
    ],
    "millsfield:primary_image": 1527843531,
    "millsfield:subcategory_id": 1511213567,
    "mz:hierarchy_label": 1,
    "mz:is_current": 1,
    "sfomuseum:accession_number": "2001.080.066",
    "sfomuseum:airline": "China Airlines",
    "sfomuseum:airline_id": [
      307
    ],
    "sfomuseum:category": "Passenger Amenity, Archive",
    "sfomuseum:classification_id": 242,
    "sfomuseum:collection": "Aviation Archive",
    "sfomuseum:continent": "World Routes",
    "sfomuseum:creditline": "Gift of Thomas G. Dragges",
    "sfomuseum:date": "c. 1985",
    "sfomuseum:date_acquired": "2002-12-24",
    "sfomuseum:daterange_end": "1990-12-31",
    "sfomuseum:daterange_start": "1980-01-01",
    "sfomuseum:description": "Menu issued by China Airlines, San Francisco - Taipei route; color reproduction of Chinese painting; lunch and dinner menu items include beef in oyster sauce, roast duckling á l’orange, and maple forest prawn; menu number: 69S-003Y; undated.",
    "sfomuseum:dimensions": "10 1/2 x 7 1/2 inches (26.7 x 19.1 cm)",
    "sfomuseum:media_ids": [
      1527843531,
      1527843533
    ],
    "sfomuseum:medium": "paper, ink",
    "sfomuseum:object_id": 60691,
    "sfomuseum:placetype": "object",
    "sfomuseum:primary_media_id": 1527843531,
    "sfomuseum:publication": ": , c. 1985.",
    "sfomuseum:subcategory": "Menu",
    "src:geom": "sfomuseum#undetermined",
    "wof:belongsto": [
      1159162825,
      102527513,
      102191575,
      85633793,
      85922583,
      102087579,
      1159160869,
      85688637
    ],
    "wof:breaches": [],
    "wof:country": "XX",
    "wof:created": 1579906657,
    "wof:depicts": [
      1159284153,
      1159288057
    ],
    "wof:geomhash": "30c8a918561c84bb2daa2b97fc7c5353",
    "wof:hierarchy": [
      {
        "building_id": -1,
        "campus_id": 102527513,
        "concourse_id": 1159162825,
        "continent_id": 102191575,
        "country_id": 85633793,
        "county_id": 102087579,
        "custom_id": 1511921473,
        "locality_id": 85922583,
        "neighbourhood_id": -1,
        "object_id": 1511921473,
        "region_id": 85688637,
        "venue_id": 1511921473,
        "wing_id": 1159160869
      }
    ],
    "wof:id": 1511921473,
    "wof:lastmodified": 1787988177,
    "wof:name": "menu: China Airlines",
    "wof:parent_id": 1159162825,
    "wof:placetype": "custom",
    "wof:placetype_alt": [
      "object"
    ],
    "wof:repo": "sfomuseum-data-collection",
    "wof:superseded_by": [],
    "wof:supersedes": [],
    "wof:tags": []
  },
  "bbox": [
    -122.386155,
    37.616357,
    -122.386155,
    37.616357
  ],
  "geometry": {"type":"Point","coordinates":[-122.386155,37.616357]}
}
