{
  "id": 1511951161,
  "type": "Feature",
  "properties": {
    "date:cessation_lower": "1941-01-01",
    "date:cessation_upper": "1941-12-31",
    "date:inception_lower": "1941-01-01",
    "date:inception_upper": "1941-12-31",
    "edtf:cessation": "1941",
    "edtf:date": "1941",
    "edtf:inception": "1941",
    "geom:area": 0,
    "geom:bbox": "-122.386155,37.616357,-122.386155,37.616357",
    "geom:latitude": 37.616357,
    "geom:longitude": -122.386155,
    "iso:country": "XX",
    "millsfield:airline_id": [
      1159284991
    ],
    "millsfield:category_id": 1763416397,
    "millsfield:collection_id": 1511214207,
    "millsfield:company_id": [
      1159286839
    ],
    "millsfield:images": [
      1763388307
    ],
    "millsfield:images_colors_refs": {
      "crayola": [
        {
          "hex": "#2e5894"
        },
        {
          "hex": "#a5694f"
        },
        {
          "hex": "#414a4c"
        },
        {
          "hex": "#6699cc"
        },
        {
          "hex": "#fddde6"
        }
      ],
      "css4": [
        {
          "hex": "#e6e6fa"
        },
        {
          "hex": "#483d8b"
        },
        {
          "hex": "#a0522d"
        },
        {
          "hex": "#5f9ea0"
        },
        {
          "hex": "#2f4f4f"
        }
      ],
      "marekm4": [
        {
          "hex": "#e6e9ec"
        },
        {
          "hex": "#9e5744"
        },
        {
          "hex": "#6393aa"
        },
        {
          "hex": "#4e3445"
        },
        {
          "hex": "#4d5e9b"
        }
      ]
    },
    "millsfield:images_texts": [
      "THE SATURDAY EVENING POST\nJune 14, 1941\nBOTWOOD\nST.JOHNS\nNORTH ATLANTIC bastions of defense are our\nBermuda bases. Clippers link them to U.S.-817\nmiles away-in 5 hours, providing two-days-faster\ndelivery of government men, mail, materials.\nAmerica's Outposts of Security\nSAR ANYA\nand Defense...\nINTANAMO\nDo you know where they are? How far away? How they are\nreached? Important facts for every American citizen\nCARIBBEAN bases are 1800 miles from Florida to\nTrinidad, are joined by as many as 37 weekly Pan\nAmerican schedules. For example, by Clipper from\nMiami to Jamaica it's only 5 hrs.; Puerto Rico, 6¾.\nCANTON 15.\nAMALGA\nCHUNGKIN\nMIDWAY IS\nTECUCICALO\nHONG KONG\nRANGOON\nANICT MINA\nNEW CALEDONIA\nMANILA T\nWAKE IS\nSINGAPOR\nAUSTRALIA\nAUCKLAND\nNEW ZEALAND\nFAR EAST. To Hong Kong by Clipper in 7 days,\nwith Chungking only a day beyond-9,516 miles out\nof California! It's 11 days faster each way than by\nboat-time vital to defense and diplomacy!\nSOUTH PACIFIC outpost is strategic Canton,\nstenning.stone on the 4% dav. 7.927 mile flight from\nCalifornia to Auckland, New Zealand. Flying Clip-\nDers bear sermer ame ov use days exce way.\nHAWAII. kev to our Pacific defenses, is davs nearer\nto the U.S. and to the sentinel isles, Midway and\nWake-by Flying Clipper. From Honolulu to San\nFrancisco is only overnight; a vital defense link.\nPANAMA CANAL to Washington, D. C.-2,185\nmiles and only 16½ hrs, away by air, via Strato.\nClipper from Miami! 24 Pan American schedules\nweekly serve the \"hub of hemisphere defense.\"\nASKA\nSIBERIA\nA SIA\nFARRANKS\nNOMÉ\nPACIFIC\nNORTH\nAMERICA\nEUROPE\nAFRICA\nOCEAN\nBETHEL\nANCHORAGE\nYAKUTATON\nJUNEAU\n• SOUTH\nAMERIC\nOCEAN\nAUSTRALI\nOF THE AIl\nOLTCH HARROR\nCME LAKATLA\nALASKA. $70,000,000 for defense bases at America's\nRock Door! Ready for exnanding demands. new\nClippers speed 942 miles from Seattle to Juneau in\n5¼ hours; swiftly serve other major Alaskan points.\nINDISPENSABLE \"LIFE LINES\" of our nation are\nthe routes of \"America's Merchant Marine of the\nAir.\" Note how Flying\nClippers unite virtually\nevery major sphere of U.S. trade and defense.\nFLAG SYMBOLS on maps indicate location (in\nareas shown) of major U. S. defense bases,\naccording to the most recent facts made public by\nthe government and available at publication time.\nRIGHT NOW all eyes are on America's military\n- air power. But equally vital to this country's\ndefense is its commercial air development. How\ndo we stand there? You probably know that within\nour borders this country has an aerial network\nthat no foreign nation can equal.\nWhat about outside the U.S.? There the 75,556-\nmile system of Pan American Airways is the envy\nof the world. Its great modern Clipper Ships link\n55 countries, fly 98.62% \"on schedule.\" Back of\nthis record are 13 years of \"over-ocean\" flying,\nTravel PAN\nexpert pilots, modern equipment, scores of radio\nand weather stations and a trained, loyal organi-\nzation of more than 7,000 people.\nWhat does this mean? It means that vital as is\nPan American Airways' role in furthering national\ndefense, the Flying Clipper Ships are even more\nvital as Uncle Sam's strong right arm in furthering\nU.S. trade and good will. In the great international\nrace for commercial air supremacy both today and\nafter the war, America is out in front. Our job is\nto see that she stays there.\nRICAN AIRWAYS System"
    ],
    "millsfield:images_texts_ids": [
      1763388307
    ],
    "millsfield:primary_image": 1763388307,
    "millsfield:subcategory_id": 1511213149,
    "mz:hierarchy_label": 1,
    "mz:is_current": 1,
    "sfomuseum:accession_number": "2001.038.164.009",
    "sfomuseum:airline": "Pan American Airways",
    "sfomuseum:airline_id": [
      685
    ],
    "sfomuseum:category": "Promotional, Archive",
    "sfomuseum:classification_id": 6,
    "sfomuseum:collection": "Aviation Archive",
    "sfomuseum:creditline": "Gift of Barnaby Conrad III",
    "sfomuseum:date": "1941",
    "sfomuseum:date_acquired": "2003-05-16",
    "sfomuseum:daterange_end": "1941-12-31",
    "sfomuseum:daterange_start": "1941-01-01",
    "sfomuseum:description": "Advertisement from June 14, 1941 issue of Saturday Evening Post promoting Pan American Airways System, titled “America’s Outposts of Security and Defense...”; color sheet with illustration depicting small route maps of overseas flights; sailor at lower right.",
    "sfomuseum:dimensions": "13 3/4 x 10 1/2 inches (34.9 x 26.7 cm)",
    "sfomuseum:medium": "paper, ink",
    "sfomuseum:object_id": 122711,
    "sfomuseum:placetype": "object",
    "sfomuseum:publication": ": , 1941.",
    "sfomuseum:subcategory": "Advertisement, 2D",
    "sfomuseum:subject": "Pan Am promotional advertisement",
    "src:geom": "sfomuseum#undetermined",
    "wof:belongsto": [
      1511214205,
      102527513,
      102191575,
      85633793,
      1511213149,
      85922583,
      102087579,
      1511214277,
      1511214207,
      85688637
    ],
    "wof:breaches": [],
    "wof:country": "XX",
    "wof:created": 1618962245,
    "wof:depicts": [
      1159286839,
      1159284991,
      1159285809
    ],
    "wof:geomhash": "30c8a918561c84bb2daa2b97fc7c5353",
    "wof:hierarchy": [
      {
        "arcade_id": 1511213149,
        "building_id": 1511214277,
        "campus_id": 102527513,
        "concourse_id": 1511214205,
        "continent_id": 102191575,
        "country_id": 85633793,
        "county_id": 102087579,
        "custom_id": 1511951161,
        "locality_id": 85922583,
        "neighbourhood_id": -1,
        "object_id": 1511951161,
        "region_id": 85688637,
        "venue_id": 1511951161,
        "wing_id": 1511214207
      }
    ],
    "wof:id": 1511951161,
    "wof:lastmodified": 1787988188,
    "wof:name": "advertisement: Pan American Airways System, Saturday Evening Post",
    "wof:parent_id": 1159162825,
    "wof:placetype": "custom",
    "wof:placetype_alt": [
      "object"
    ],
    "wof:repo": "sfomuseum-data-collection",
    "wof:superseded_by": [],
    "wof:supersedes": [],
    "wof:tags": []
  },
  "bbox": [
    -122.386155,
    37.616357,
    -122.386155,
    37.616357
  ],
  "geometry": {"type":"Point","coordinates":[-122.386155,37.616357]}
}
