{
  "id": 1913796617,
  "type": "Feature",
  "properties": {
    "date:cessation_lower": "1947-07-31",
    "date:cessation_upper": "1947-07-31",
    "date:inception_lower": "1947-07-31",
    "date:inception_upper": "1947-07-31",
    "edtf:cessation": "1947-07-31",
    "edtf:inception": "1947-07-31",
    "geom:area": 2.475047457570636e-7,
    "geom:bbox": "-122.386472,37.616105,-122.385834,37.616611",
    "geom:latitude": 37.61635747477365,
    "geom:longitude": -122.38615540108617,
    "millsfield:airline_id": [
      1159284991
    ],
    "millsfield:category_id": 1511214251,
    "millsfield:collection_id": 1511214207,
    "millsfield:company_id": [
      1159286839
    ],
    "millsfield:images": [
      1913799377,
      1913799379,
      1913799381,
      1913799383,
      1913799385,
      1913799387
    ],
    "millsfield:images_colors_refs": {
      "crayola": [
        {
          "hex": "#4a646c"
        },
        {
          "hex": "#eceabe"
        },
        {
          "hex": "#414a4c"
        },
        {
          "hex": "#95918c"
        },
        {
          "hex": "#efcdb8"
        }
      ],
      "css4": [
        {
          "hex": "#f5deb3"
        },
        {
          "hex": "#2f4f4f"
        },
        {
          "hex": "#808080"
        }
      ],
      "marekm4": [
        {
          "hex": "#e4d4ae"
        },
        {
          "hex": "#eadeb8"
        },
        {
          "hex": "#e9dcb2"
        },
        {
          "hex": "#3f5c56"
        },
        {
          "hex": "#385153"
        },
        {
          "hex": "#42645d"
        },
        {
          "hex": "#9c9976"
        },
        {
          "hex": "#415e58"
        },
        {
          "hex": "#eaddb5"
        },
        {
          "hex": "#e3d3ad"
        },
        {
          "hex": "#43635b"
        },
        {
          "hex": "#e4d5b0"
        },
        {
          "hex": "#41605d"
        }
      ]
    },
    "millsfield:images_texts": [
      "Telegraphic Address \"Impho Tokyo\"\nThursday que, 31\n1947\nImperial Hotel\nTokyo\nDearest Deba-\nThirD are not.\ngoing\nWi're in\nthe\nso cree.\ntacks of Army red tapi and\nthe Endless delap due to\nso called \"staff work. The\nJennal who thored decide\nthe question passes\nthe\n• question to a\nCol as the\nattu. on down the len\nand then it comes back\nup again to the same\nguruse eho then makes\nthe same decision\nRe\nworld hair made\nthe\nJust day. In the mean",
      "\"oriot orlam!\" azorbbA sirigengelat\nletoH leineqml\n- dill tarrell\nging ten so get\nN in aire.\n• ere oB\nas spot ber pand po alist\n* and moles multis att\nAsels of\n→ are it att\nto so so eat\nand itt swats so uttoS\nbustant note ate\nas vaug\ntime i'er lot a wick.\nHown the staff function\nis to strong in\nin the Crmy\nthat no one can got\naround it - mot tien\nMac Archer - in addition\nto which he him sep i\na firm belien.\n9 am\nhoping that ur man\n+ some final action in\nOne meet i\nSint a cris to Bice\ntoday wishing;\nthe crowd\nluck. on\nat the\nt the cetchicons last\nnight - very nice part,.\nmit gonnae\nсі сновиди\nWho\nremembed Bie Hawkin\nor saud\nhe did.",
      "Today\nI Lad lunch\nTelegraphic Address\n\"Impho Tokyo\"\nwith\n\"a gune White, Chit\nof Staff\nImperial Hotel fix the\nTokyo\nFar East Ai Forcis, hus\nWhit and Vici Air marsale\nBaucher an head of\nThe\nBritis mie ta, Communion.\nJive white wits to t\npilat for antanan Bullit\nAnd has flown are or\nRuca\na .\nThey with love\ngarder —\nsumming\npose - badmington count\netc. Lat of wile trains\nAvantole and the whole\nLay ont dows it coat them\nmork than\nthan # 200 fur monte\nrent - food - Arvants ans",
      "Assel bst\npis, sete insp\n• rabist\ncorbbA siriggrgoleT\naunt, no set is tan ist\nassessis it uns sto\nits to set usedl\nano as shot and sand\n→ not alT\nvast era to dol sta\naste t no.\nmelt too tir arb tro pat\ntra ND o0S not 350mm\nno toerst - brat - Iner\naul.\nCertaine, the, \"aint\n\"aint\nneer had it to good\nand\nI wonde fist hour\nanxiona\n• thy\nans to har\nthe occupation our. a\nfunny\ncucumatana - mrs\nWhite said \" Dir get a\nreal treat in store for\nlunch - a ten\nova the urik ms.\nскудня\nI hope you like fish fo\ntats all urre going te\nSo o decided\nthat for good old PAA\nI'd takes it on the nos.\nTook a smallis size\npece of fish and refuss\nno did not get",
      "sick\naftiward.\nTelegraphic Address \"Impho Tokyo\"\ndespit Imperibl Hotel fine\no Tokyo\naccount I\nthe continued heat.\nThile I hair boat a\nwriget becaus\nkar takin up. a notch\non my bet and brat of\nall my rigit tar has\nbun popping away in\nguent stgle. Think it\ni improving regat\nalong and my hearing\nComing back.\nback. so s\nhop.\nExpret to get of\nto Shanghai around the\n4t a 5t cuth our\ndeal Eith clood or",
      "so it\npulser\nT° triross\ntitan o que netot not\nto tad eas ten\ntie\nenet\ndead a posite,\nregured to washington\nwhich wrie is as good\nas dead cause Washington\nwile ven act. Most\nof Mac Arthurs advisors\nthink he will hav th\ngit washington approval\nlout some share my vies\nthat if the dee i\nreferred\nit might as\nwree he turaco down here.\nMust get to ro. In\nlooking forward to getting\nmail\na news at\nShanghai.\nLots and loes and\nlots\nloir - you\nHad"
    ],
    "millsfield:images_texts_ids": [
      1913799377,
      1913799379,
      1913799381,
      1913799383,
      1913799385,
      1913799387
    ],
    "millsfield:primary_image": 1913799377,
    "millsfield:subcategory_id": 1511213489,
    "mz:is_approximate": 1,
    "mz:is_current": 1,
    "sfomuseum:accession_number": "2019.121.1111 a c",
    "sfomuseum:airline": "Pan American Airways",
    "sfomuseum:airline_id": [
      685
    ],
    "sfomuseum:category": "Employee Career History",
    "sfomuseum:classification_id": 195,
    "sfomuseum:collection": "Aviation Archive",
    "sfomuseum:creditline": "Collection of SFO Museum",
    "sfomuseum:date": "07/31/1947",
    "sfomuseum:date_acquired": "2019-11-22",
    "sfomuseum:daterange_end": "1947-07-31",
    "sfomuseum:daterange_start": "1947-07-31",
    "sfomuseum:description": "Handwritten letter from Harold M. Bixby to his wife, Debby Bixby, dated July 31, [1947], on stationery from the Imperial Hotel in Tokyo; includes update on air route contract; mentions General Douglas A. MacArthur, Major General White, and Vice Air Marshall Baucher.",
    "sfomuseum:dimensions": "8 x 4 3/4 inches (20.3 x 12.1 cm)",
    "sfomuseum:medium": "paper, ink",
    "sfomuseum:object_id": 211474,
    "sfomuseum:placetype": "object",
    "sfomuseum:publication": ": , 07/31/1947.",
    "sfomuseum:subcategory": "Correspondence, Personal",
    "src:geom": "sfomuseum#undetermined",
    "wof:belongsto": [
      102527513,
      1159162825,
      102191575,
      85633793,
      102087579,
      85922583,
      85688637,
      1159160869
    ],
    "wof:country": "XY",
    "wof:created": 1714549146,
    "wof:depicts": [
      1159284991,
      1159286839
    ],
    "wof:geomhash": "c281b9d9eefc83b5710e64b9d646067d",
    "wof:hierarchy": [
      {
        "building_id": -1,
        "campus_id": 102527513,
        "collection_id": 1159162825,
        "concourse_id": 1159162825,
        "continent_id": 102191575,
        "country_id": 85633793,
        "county_id": 102087579,
        "custom_id": 1913796617,
        "locality_id": 85922583,
        "neighbourhood_id": -1,
        "object_id": 1913796617,
        "region_id": 85688637,
        "wing_id": 1159160869
      }
    ],
    "wof:id": 1913796617,
    "wof:lastmodified": 1787988220,
    "wof:name": "correspondence: Harold M. Bixby to Debby Bixby",
    "wof:parent_id": 1159162825,
    "wof:placetype": "custom",
    "wof:placetype_alt": [
      "object"
    ],
    "wof:repo": "sfomuseum-data-collection",
    "wof:superseded_by": [],
    "wof:supersedes": []
  },
  "bbox": [
    -122.38647222518921,
    37.6161053594541,
    -122.38583385944366,
    37.61661101879963
  ],
  "geometry": {"type":"Polygon","coordinates":[[[-122.38647222518921,37.61631782178288],[-122.386434674263,37.61623283692423],[-122.38637566566466,37.61617759671399],[-122.38630056381224,37.6161308549656],[-122.38616108894348,37.6161053594541],[-122.38602161407469,37.6161308549656],[-122.38591432571411,37.61618609521055],[-122.38585531711577,37.61626683087935],[-122.38583385944366,37.61636881265146],[-122.38587141036987,37.61646654505181],[-122.38594114780425,37.61654303118856],[-122.38605380058287,37.61660252035167],[-122.38618254661559,37.61661101879963],[-122.3863059282303,37.61657277577607],[-122.3864185810089,37.61650903735973],[-122.3864668607712,37.61641130501523],[-122.38647222518921,37.61631782178288]]]}
}
