{
  "id": 2015174199,
  "type": "Feature",
  "properties": {
    "date:cessation_lower": "2004-01-01",
    "date:cessation_upper": "2004-12-31",
    "date:inception_lower": "2004-01-01",
    "date:inception_upper": "2004-12-31",
    "edtf:cessation": "2004",
    "edtf:inception": "2004",
    "geom:area": 2.475047457570636e-7,
    "geom:bbox": "-122.386472,37.616105,-122.385834,37.616611",
    "geom:latitude": 37.61635747477365,
    "geom:longitude": -122.38615540108617,
    "millsfield:aircraft_id": [
      1159289979
    ],
    "millsfield:airline_id": [
      1159285413
    ],
    "millsfield:category_id": 1762671311,
    "millsfield:collection_id": 1511214207,
    "millsfield:company_id": [
      1159293593
    ],
    "millsfield:images": [
      2015174779
    ],
    "millsfield:images_texts": [
      "Safety\nB777 Overwater\nFinal assembly of this aircraft was completed in the USA.\nIf you are sitting in an exit row please identify yourself to a crewmember to allow for reseating if:\nYou lack the ability to read, speak, or understand the language, or the graphic form, or the\nability to understand oral crew commands in the language specified by the airline.\nSicherheit Wenn Sie in einer Reihe von Sitzen neben einem Notausgang sitzen, müssen Sie\ndie Flugzeugbesatzung verständigen, damit diese Ihnen einen neuen Platz zuteilen kann, sollten Sie: die\nSprache nicht sprechen, lesen oder verstehen können, oder die grafischen Darstellungen nicht verstehen,\noder sollten\nSie die mündlichen Anordnungen der Flugzeugbesatzung\nnicht\nverstehen.\nSécurité Si vous êtes assis sur une rangée située près d'une sortie veuillez vous\nidentifier à un membre de l'équipage afin que l'on puisse vous attribue un autre siège si: vous\nne pouvez pas lire, parler ou comprendre l'anglais, ou les illustrations graphiques, ou bien si\nvous ne pouvez pas comprendre les instructions orales de l'équipage.\nSeguridad Por favor identífiquese con un tripulante para ser cambiado de asiento si\nusted está sentado en una de las hileras de la salida, y si tiene problemas para: leer, entender\nel idioma, instrucciones gráficas o la dificultad para entender ordenes verbales de la\ntripulación en el idioma utilizado por la aerolínea.\nExit Row Seating Selection Criteria: U.S.\nFunctions to be performed: In the event of\nFederal Aviation Administration regulations specify\nan emergency in which a crewmember is not available\nprocedures U.S. air carriers must follow concerning exit\nto assist, a passenger occupying an exit row seat may\nrow seating. No air carrier may seat a person in an exit\nbe called upon to perform the following functions:\nseat if it is determined that it is likely that the person\n1) Locate the emergency exit;\nwould be unable to perform one or more of the\n2) Recognize the emergency exit opening mechanism;\napplicable functions listed below or depicted on this\n3) Comprehend the instructions for operating the\nsafety card because the person:\nemergency exit;\n1) Lacks sufficient mobility, strength, or dexterity in\n4) Operate the emergency exit;\nboth arms and hands, and both legs to: a) reach upward,\n5) Assess whether opening the emergency exit will\nsideways, and downward to the location of emergency\nincrease the hazards to which passengers may be exposed;\nexit and exit-slide operating mechanisms; b) grasp and\n6) Follow oral directions and hand signals given by a\npush, pull, turn, or otherwise manipulate those\ncrewmember;\nmechanisms; c) push, shove, pull, or otherwise open\n7) Stow or secure the emergency exit door so that it will\nemergency exits; d) lift out, hold, deposit on nearby\nnot impede use of the exit;\nseats, or maneuver over the seatbacks to the next row\n8) Assess the condition of an escape slide, activate the\nobjects the size and weight of over-wing window exit\nslide, and stabilize the slide after deployment to assist\ndoors; e) remove obstructions similar in size and weight\nothers in getting off the slide;\nto over-wing exit doors; f) reach the emergency exit\n9) Pass expeditiously through the emergency exit; and\nexpeditiously; g maintain balance while removing\n10) Assess, select, and follow a safe path away from the\nobstructions; h) exit expeditiously; i) stabilize an escape\nemergency exit.\nslide after deployment; or j) assist others in getting off\nThe passenger must identify himself or herself to\nan escape slide;\nallow reseating if he or she: a) Cannot meet the\n2) Is less than 15 years of age or lacks the capacity\nselection\ncriteria\nlisted above; b)\nHas\nto perform one or more of the applicable functions\nnondiscernible condition that will prevent him or her\nwithout the\nassistance of an adult companion,\nfrom performing the applicable functions; c) May\nparent, or other relative;\nsuffer bodily harm as the result of performing one or\n3) Lacks the ability to read and understand instructions\nmore of those functions; or d) Does not wish to\nrelated to emergency evacuation provided by the air\nperform those functions (no reason needs to be given).\ncarrier in printed or graphic form or the ability to\nFederal Regulations Require All Passengers:\nunderstand oral crew commands;\n4) Lacks suficient visual capacity to perform one or\n• Regardless of where they are sitting or\nmore of the applicable functions without the assistance\ntheir physical condition, to review this\nof visual aids beyond contact lenses or eyeglasses;\ncard for their safety;\n5) Lacks sufficient aural capacity to hear and •To comply with these instructions, instruct-\nunderstand instructions shouted by flight attendants,\nions of our crew or authorized employees,\nwithout assistance beyond a hearing aid;\nand all posted and lighted signs.\n6) Lacks the ability adequately to impart information\norally to other passengers; or,\nWhen finished reviewing this card\n7) Has: a) a condition or responsibilities, such as caring\nplease return it to the seat pocket for\nfor small children, that might prevent the person from\nour next customer.\nperforming one or more of the applicable functions; or\nb) a condition that might cause the person harm if he or\nshe performs one or more of the applicable functions.\nUNITED"
    ],
    "millsfield:images_texts_ids": [
      2015174779
    ],
    "millsfield:primary_image": 2015174779,
    "millsfield:subcategory_id": 1511213703,
    "mz:is_approximate": 1,
    "mz:is_current": 1,
    "sfomuseum:accession_number": "2020.052.286",
    "sfomuseum:aircraft": "Boeing 777",
    "sfomuseum:aircraft_id": [
      278
    ],
    "sfomuseum:airline": "United Airlines",
    "sfomuseum:airline_id": [
      883
    ],
    "sfomuseum:category": "Passenger Amenity, Archive",
    "sfomuseum:classification_id": 581,
    "sfomuseum:collection": "Aviation Archive",
    "sfomuseum:creditline": "Gift of The David Kliman Collection",
    "sfomuseum:date": "2004",
    "sfomuseum:date_acquired": "2020-10-26",
    "sfomuseum:daterange_end": "2004-12-31",
    "sfomuseum:daterange_start": "2004-01-01",
    "sfomuseum:description": "Safety information card issued by United Airlines for its Boeing 777 fleet; white and brown double-sided tri-fold card with illustrations demonstrating inflight overwater safety and emergency procedures; identification code: CA 385; revision date: 10/04.",
    "sfomuseum:dimensions": "11 x 5 1/4 inches (27.9 x 13.3 cm)",
    "sfomuseum:medium": "paper, ink",
    "sfomuseum:object_id": 218098,
    "sfomuseum:placetype": "object",
    "sfomuseum:publication": ": , 2004.",
    "sfomuseum:subcategory": "Safety Information Card",
    "src:geom": "sfomuseum#undetermined",
    "wof:belongsto": [
      102527513,
      1159162825,
      102191575,
      85633793,
      102087579,
      85922583,
      85688637,
      1159160869
    ],
    "wof:country": "XY",
    "wof:created": 1775077242,
    "wof:depicts": [
      1159285413,
      1159289979,
      1159293593
    ],
    "wof:geomhash": "c281b9d9eefc83b5710e64b9d646067d",
    "wof:hierarchy": [
      {
        "building_id": -1,
        "campus_id": 102527513,
        "collection_id": 1159162825,
        "concourse_id": 1159162825,
        "continent_id": 102191575,
        "country_id": 85633793,
        "county_id": 102087579,
        "custom_id": 2015174199,
        "locality_id": 85922583,
        "neighbourhood_id": -1,
        "object_id": 2015174199,
        "region_id": 85688637,
        "wing_id": 1159160869
      }
    ],
    "wof:id": 2015174199,
    "wof:lastmodified": 1775115227,
    "wof:name": "safety information card: United Airlines, Boeing 777 Overwater",
    "wof:parent_id": 1159162825,
    "wof:placetype": "custom",
    "wof:placetype_alt": [
      "object"
    ],
    "wof:repo": "sfomuseum-data-collection",
    "wof:superseded_by": [],
    "wof:supersedes": []
  },
  "bbox": [
    -122.38647222518921,
    37.6161053594541,
    -122.38583385944366,
    37.61661101879963
  ],
  "geometry": {"type":"Polygon","coordinates":[[[-122.38647222518921,37.61631782178288],[-122.386434674263,37.61623283692423],[-122.38637566566466,37.61617759671399],[-122.38630056381224,37.6161308549656],[-122.38616108894348,37.6161053594541],[-122.38602161407469,37.6161308549656],[-122.38591432571411,37.61618609521055],[-122.38585531711577,37.61626683087935],[-122.38583385944366,37.61636881265146],[-122.38587141036987,37.61646654505181],[-122.38594114780425,37.61654303118856],[-122.38605380058287,37.61660252035167],[-122.38618254661559,37.61661101879963],[-122.3863059282303,37.61657277577607],[-122.3864185810089,37.61650903735973],[-122.3864668607712,37.61641130501523],[-122.38647222518921,37.61631782178288]]]}
}
