{
  "id": 1763248795,
  "type": "Feature",
  "properties": {
    "date:cessation_lower": "1949-10-01",
    "date:cessation_upper": "1949-10-01",
    "date:inception_lower": "1949-10-01",
    "date:inception_upper": "1949-10-01",
    "edtf:cessation": "1949-10-01",
    "edtf:inception": "1949-10-01",
    "geom:area": 2.475047457570636e-7,
    "geom:bbox": "-122.386472,37.616105,-122.385834,37.616611",
    "geom:latitude": 37.61635747477365,
    "geom:longitude": -122.38615540108617,
    "millsfield:airline_id": [
      1159285663
    ],
    "millsfield:category_id": 1511214223,
    "millsfield:collection_id": 1511214207,
    "millsfield:company_id": [
      1159287595
    ],
    "millsfield:images": [
      1763249339
    ],
    "millsfield:images_colors_refs": {
      "crayola": [
        {
          "hex": "#efcdb8"
        },
        {
          "hex": "#a5694f"
        },
        {
          "hex": "#714b23"
        },
        {
          "hex": "#9f8170"
        }
      ],
      "css4": [
        {
          "hex": "#bc8f8f"
        },
        {
          "hex": "#696969"
        },
        {
          "hex": "#8b4513"
        },
        {
          "hex": "#f5deb3"
        }
      ],
      "marekm4": [
        {
          "hex": "#e3d4bb"
        },
        {
          "hex": "#723835"
        },
        {
          "hex": "#93605a"
        },
        {
          "hex": "#ac8779"
        }
      ]
    },
    "millsfield:images_texts": [
      "Eff. Oct. 1, 1949\nLos Angeles.\nLas Vegas..\nCedar City\nSalt Lake City\nSalt Lake City.\nOgden.\nLogan.\nPocatello..\nIdaho Falls\nButte..\nHelena\nGreat Falls\nGreat Falls\nCut Bank-Shelby.\nLethbridge.\nLethbridge.\nCut Bank-Shelby.\nGreat Falls.\nGreat Falls.\nHelena.\nButte\nIdaho Falls\nPocatello.\nLogan..\nOgden\nSalt Lake City\nSalt Lake City\nCedar City.\nLas Vegas.\nLas Vegas\nLos Angeles\nWESTERN DIVISION\nNORTHBOUND\nFlight Number\nSOUTHBOUND\nFlight Number\nFlight Number\n4\n46\n. (PST) Lv\n8\n30 11\n40\n. (PST) Ar 10 10/12\n(MST) Lv 12\n25\n55\n.. Ar\n1 50\n50\nLV\nLv\nLv\nLv\nLv\nLv\nLv\nАг\nLv\nLv\n(MST) Ar\n4 30\n5\n6\n45\n20\n7\n40\n9\n25\n00\n(MST) Lv\nLv\nAr\nLV\nLV\nLv\nAr\n3\nLv\n00\n(MST) Lv 10\n30\n. (PST) Ar 10\n35\n3\ntv 10\n45\n(OST) A 12\n: 20\nRead Down\n•14\n26\n8\n30\n00\n1 25\n3 05\n10\n11\n55\n12\n35\n55\n30\n15\n45\n05\n• 5\n4\n:50\n5 30\n6 30\n26\n20\n7\n45\n9\n15\n05\n9\n40\n11 00\n11\n40\n12\n15\n30\n40\n3 15\n23\n5\n00\n5\n00\n45\n7\n7\n20\n05\n50\n10\n9\n45\n10 45\n23\n11 30\n12 35\n•5\n•15\n23\n5\n45\n8\n: 30\n12\n00/10\n00\n2\n45\n25\nWESTERN AIR LINES\nNORTHBOUND\nSan Diego\nLong Beach.\nLos Angeles\nLos Angeles.\nBurbank..\nSan Francisco\nSan Francisco.\nOakland.\nPortland\nSeattle-Tacoma.\nSOUTHBOUND\nSeattle-Tacoma\nPortland\nOakland\nSan Francisco.\nSan Francisco.\nBurbank\nLos Angeles\nLos Angeles\nLong Beach.\nSan Diego\nEFFECTIVE OCTOBER 1, 1949\nRead Down\nLv\nLV\nAr\n606\n8\n25\n9\n06\n9\n23\n628\n3\n20\n4\n01\n4\n18\n336\n6\n21\n7\n38\n600\n606\n614\n628\n334\n336\nLV\nLv\nAr\n7\n30\n45\n12\n01\n9 15 11\n30\n45\n4 45\n6 30\n6 00\n7 45\n8 10\n9 55\n606\nLv\n9 40 12 10\nAr\nAr 12\nAr\n20\n2 50\n1 25\n3 55\n614\n628\n2 15\n7 10\n2\n31\n25\n9 50\n6 30 10 55\n336\n10 10\n10 26\n301\nLv\nLv\n615\n7\n30\n8 35\n00\n215 11 15\n625\n12 10\n1\n. 15\n4 05\n$ 20\n627\n3\n4\n10\n15\n6 55\n635\n5\n15\n6\n20\n9 00\n301\n615\n8 30 11 55\nLv\nAr\nAr 10 15\n1 40\n625\n5 00\n6 45\n627\n329\n635\n7 35\n8\n30\n9\n30\n9 20 10 15 11 15\n301\n615\nLv 10\n35\nLv 11\n00\nAr 11\n39\n. 05\n2 30\n3 09\n625\n7\n15\n8\n40\n19"
    ],
    "millsfield:images_texts_ids": [
      1763249339
    ],
    "millsfield:primary_image": 1763249339,
    "millsfield:subcategory_id": 1511213425,
    "mz:is_approximate": 1,
    "mz:is_current": 1,
    "sfomuseum:accession_number": "2015.167.880",
    "sfomuseum:airline": "Western Air Lines",
    "sfomuseum:airline_id": [
      1005
    ],
    "sfomuseum:category": "Scheduling / Ticketing",
    "sfomuseum:classification_id": 158,
    "sfomuseum:collection": "Aviation Archive",
    "sfomuseum:creditline": "Gift of Thomas G. Dragges",
    "sfomuseum:date": "10/01/1949",
    "sfomuseum:date_acquired": "2016-07-06",
    "sfomuseum:daterange_end": "1949-10-01",
    "sfomuseum:daterange_start": "1949-10-01",
    "sfomuseum:description": "Timetable issued by Western Air Lines, effective October 1, 1949; double-sided bi-fold sheet; brown and white cover with brown text; includes reservation information.",
    "sfomuseum:dimensions": "9 x 4 inches (22.9 x 10.2 cm)",
    "sfomuseum:medium": "paper, ink",
    "sfomuseum:object_id": 175072,
    "sfomuseum:placetype": "object",
    "sfomuseum:publication": ": , 1949.",
    "sfomuseum:subcategory": "Timetable",
    "src:geom": "sfomuseum#undetermined",
    "wof:belongsto": [
      102527513,
      1159162825,
      102191575,
      85633793,
      102087579,
      85922583,
      85688637,
      1159160869
    ],
    "wof:country": "XY",
    "wof:created": 1646987968,
    "wof:depicts": [
      1159285663,
      1159287595
    ],
    "wof:geomhash": "c281b9d9eefc83b5710e64b9d646067d",
    "wof:hierarchy": [
      {
        "building_id": -1,
        "campus_id": 102527513,
        "collection_id": 1159162825,
        "concourse_id": 1159162825,
        "continent_id": 102191575,
        "country_id": 85633793,
        "county_id": 102087579,
        "custom_id": 1763248795,
        "locality_id": 85922583,
        "neighbourhood_id": -1,
        "object_id": 1763248795,
        "region_id": 85688637,
        "wing_id": 1159160869
      }
    ],
    "wof:id": 1763248795,
    "wof:lastmodified": 1787988205,
    "wof:name": "timetable: Western Air Lines",
    "wof:parent_id": 1159162825,
    "wof:placetype": "custom",
    "wof:placetype_alt": [
      "object"
    ],
    "wof:repo": "sfomuseum-data-collection",
    "wof:superseded_by": [],
    "wof:supersedes": []
  },
  "bbox": [
    -122.38647222518921,
    37.6161053594541,
    -122.38583385944366,
    37.61661101879963
  ],
  "geometry": {"type":"Polygon","coordinates":[[[-122.38647222518921,37.61631782178288],[-122.386434674263,37.61623283692423],[-122.38637566566466,37.61617759671399],[-122.38630056381224,37.6161308549656],[-122.38616108894348,37.6161053594541],[-122.38602161407469,37.6161308549656],[-122.38591432571411,37.61618609521055],[-122.38585531711577,37.61626683087935],[-122.38583385944366,37.61636881265146],[-122.38587141036987,37.61646654505181],[-122.38594114780425,37.61654303118856],[-122.38605380058287,37.61660252035167],[-122.38618254661559,37.61661101879963],[-122.3863059282303,37.61657277577607],[-122.3864185810089,37.61650903735973],[-122.3864668607712,37.61641130501523],[-122.38647222518921,37.61631782178288]]]}
}
