{
  "id": 1913796197,
  "type": "Feature",
  "properties": {
    "date:cessation_lower": "1933-11-26",
    "date:cessation_upper": "1933-11-26",
    "date:inception_lower": "1933-11-26",
    "date:inception_upper": "1933-11-26",
    "edtf:cessation": "1933-11-26",
    "edtf:inception": "1933-11-26",
    "geom:area": 2.475047457570636e-7,
    "geom:bbox": "-122.386472,37.616105,-122.385834,37.616611",
    "geom:latitude": 37.61635747477365,
    "geom:longitude": -122.38615540108617,
    "millsfield:airline_id": [
      1159284991,
      1159285931
    ],
    "millsfield:category_id": 1511214251,
    "millsfield:collection_id": 1511214207,
    "millsfield:company_id": [
      1159286721
    ],
    "millsfield:images": [
      1913801477,
      1913801479
    ],
    "millsfield:images_colors_refs": {
      "crayola": [
        {
          "hex": "#6e5160"
        },
        {
          "hex": "#414a4c"
        },
        {
          "hex": "#9f8170"
        },
        {
          "hex": "#efcdb8"
        }
      ],
      "css4": [
        {
          "hex": "#f5deb3"
        },
        {
          "hex": "#808080"
        },
        {
          "hex": "#2f4f4f"
        },
        {
          "hex": "#556b2f"
        }
      ],
      "marekm4": [
        {
          "hex": "#5b5e4b"
        },
        {
          "hex": "#ded1b4"
        },
        {
          "hex": "#e1d6bc"
        },
        {
          "hex": "#352e1b"
        },
        {
          "hex": "#939075"
        }
      ]
    },
    "millsfield:images_texts": [
      "33\nHAROLD MCMILLAN BIXBY\n3 CANTON ROAD, SHANGHAI\nSunday\nnow. 264\nDearest Deles.\nI hair n't written in surral\nday - the reason you porcine,\nabrady know leut\nIf not the\nclippings melond tree the ston\nbut do not tree of the agony\nI hair gome through. Ner narded\nyour good adres and sympathy\nso badly but think I am OK\nso far. It may mean the and\nOf my dreams of coming home\nand all the heart acke of\nthat for you but again that\ncome\nale ir known long befor\nthis lin arris.\no got up at staM friday\nmorning - was up all Freday\nnight and didnt get a wink\nof sleep until \" Om Saturday",
      "When o tumbled into bed and\nsgt unte 10 a.m. this morning.\nNow, I'm witing to you from the\noffice and will try to\ncatch\nup on some of my work after\nday spent in confereners\nat the\nhospital.\nDebs it was all so enfue\nsiring the passagus Off at be aim\nand then the\n-werry- the news\nat 2 P.m that all mine was\ndead land the hours of worry\nafterward. Ito all a terrible\nnight marr now whick 9 want\nto forget if 9 can. the whole\nthug was fuat rotten luck and\nno one is to blame. Jur so\ntold r.y. the felot and groach\nbut on the fat trip wah fangers\nit quat trem\ntoo unfair for words.\nsurat im one mental\nnow. All my lor\nshysicall, nor-\nYour\n2019.121.6"
    ],
    "millsfield:images_texts_ids": [
      1913801477,
      1913801479
    ],
    "millsfield:primary_image": 1913801477,
    "millsfield:subcategory_id": 1511213489,
    "mz:is_approximate": 1,
    "mz:is_current": 1,
    "sfomuseum:accession_number": "2019.121.0792",
    "sfomuseum:airline": "Pan American Airways",
    "sfomuseum:airline_id": [
      685,
      1131
    ],
    "sfomuseum:category": "Employee Career History",
    "sfomuseum:classification_id": 195,
    "sfomuseum:collection": "Aviation Archive",
    "sfomuseum:creditline": "Collection of SFO Museum",
    "sfomuseum:date": "11/26/1933",
    "sfomuseum:date_acquired": "2019-11-22",
    "sfomuseum:daterange_end": "1933-11-26",
    "sfomuseum:daterange_start": "1933-11-26",
    "sfomuseum:description": "Handwritten letter from Harold M. Bixby to his wife, Debby Bixby, dated Sunday, November 26, [1933]; includes description of his experience of the accident at Chusan [Zhoushan] Island [aircraft registration number NC16V]; mentions [William] Grooch.",
    "sfomuseum:dimensions": "10 3/4 x 7 1/4 inches (27.3 x 18.4 cm)",
    "sfomuseum:medium": "paper, ink",
    "sfomuseum:object_id": 211140,
    "sfomuseum:placetype": "object",
    "sfomuseum:publication": ": , 11/26/1933.",
    "sfomuseum:subcategory": "Correspondence, Personal",
    "src:geom": "sfomuseum#undetermined",
    "wof:belongsto": [
      102527513,
      1159162825,
      102191575,
      85633793,
      102087579,
      85922583,
      85688637,
      1159160869
    ],
    "wof:country": "XY",
    "wof:created": 1714549014,
    "wof:depicts": [
      1159286721,
      1159284991,
      1159285931
    ],
    "wof:geomhash": "c281b9d9eefc83b5710e64b9d646067d",
    "wof:hierarchy": [
      {
        "building_id": -1,
        "campus_id": 102527513,
        "collection_id": 1159162825,
        "concourse_id": 1159162825,
        "continent_id": 102191575,
        "country_id": 85633793,
        "county_id": 102087579,
        "custom_id": 1913796197,
        "locality_id": 85922583,
        "neighbourhood_id": -1,
        "object_id": 1913796197,
        "region_id": 85688637,
        "wing_id": 1159160869
      }
    ],
    "wof:id": 1913796197,
    "wof:lastmodified": 1787988219,
    "wof:name": "correspondence: Harold M. Bixby to Debby Bixby",
    "wof:parent_id": 1159162825,
    "wof:placetype": "custom",
    "wof:placetype_alt": [
      "object"
    ],
    "wof:repo": "sfomuseum-data-collection",
    "wof:superseded_by": [],
    "wof:supersedes": []
  },
  "bbox": [
    -122.38647222518921,
    37.6161053594541,
    -122.38583385944366,
    37.61661101879963
  ],
  "geometry": {"type":"Polygon","coordinates":[[[-122.38647222518921,37.61631782178288],[-122.386434674263,37.61623283692423],[-122.38637566566466,37.61617759671399],[-122.38630056381224,37.6161308549656],[-122.38616108894348,37.6161053594541],[-122.38602161407469,37.6161308549656],[-122.38591432571411,37.61618609521055],[-122.38585531711577,37.61626683087935],[-122.38583385944366,37.61636881265146],[-122.38587141036987,37.61646654505181],[-122.38594114780425,37.61654303118856],[-122.38605380058287,37.61660252035167],[-122.38618254661559,37.61661101879963],[-122.3863059282303,37.61657277577607],[-122.3864185810089,37.61650903735973],[-122.3864668607712,37.61641130501523],[-122.38647222518921,37.61631782178288]]]}
}
