{
  "id": 1762887741,
  "type": "Feature",
  "properties": {
    "date:cessation_lower": "1966-01-01",
    "date:cessation_upper": "1966-12-31",
    "date:inception_lower": "1966-01-01",
    "date:inception_upper": "1966-12-31",
    "edtf:cessation": "1966",
    "edtf:inception": "1966",
    "geom:area": 0,
    "geom:bbox": "-122.370943,37.617990,-122.370943,37.617990",
    "geom:latitude": 37.61799,
    "geom:longitude": -122.370943,
    "iso:country": "US",
    "millsfield:airport_id": [
      102527513
    ],
    "millsfield:category_id": 1511214233,
    "millsfield:collection_id": 1511214207,
    "millsfield:images": [
      1763445527,
      1763445529,
      1763445531,
      1763445533,
      1763445535,
      1763445539,
      1763445541
    ],
    "millsfield:images_colors_refs": {
      "crayola": [
        {
          "hex": "#9f8170"
        },
        {
          "hex": "#b0b7c6"
        },
        {
          "hex": "#6e5160"
        },
        {
          "hex": "#979aaa"
        },
        {
          "hex": "#414a4c"
        },
        {
          "hex": "#8a795d"
        }
      ],
      "css4": [
        {
          "hex": "#556b2f"
        },
        {
          "hex": "#bc8f8f"
        },
        {
          "hex": "#808080"
        },
        {
          "hex": "#a9a9a9"
        }
      ],
      "marekm4": [
        {
          "hex": "#8b7565"
        },
        {
          "hex": "#5e5248"
        },
        {
          "hex": "#5a4e46"
        },
        {
          "hex": "#5f5249"
        },
        {
          "hex": "#8b7764"
        },
        {
          "hex": "#a69178"
        },
        {
          "hex": "#b0aca9"
        },
        {
          "hex": "#a68f76"
        },
        {
          "hex": "#8c7666"
        },
        {
          "hex": "#8b7664"
        },
        {
          "hex": "#a58f77"
        },
        {
          "hex": "#8a7768"
        },
        {
          "hex": "#b6aa9d"
        },
        {
          "hex": "#a79077"
        },
        {
          "hex": "#a79076"
        },
        {
          "hex": "#554a41"
        },
        {
          "hex": "#8a7866"
        },
        {
          "hex": "#b3ada7"
        },
        {
          "hex": "#a28c76"
        },
        {
          "hex": "#605348"
        },
        {
          "hex": "#594d44"
        },
        {
          "hex": "#b6aa9c"
        },
        {
          "hex": "#b7aa9c"
        },
        {
          "hex": "#b7ab9e"
        }
      ]
    },
    "millsfield:images_texts": [
      "San Bruno Herald\nRECORDER-PROGRESS \u0026 COASTSIDE CHRONICLE\nPresents San Bruno's First Annual\nAVIATION APPRECIATION WEEK\nMÀY : 15-24, 7966\nI JOUVENIR EDITION",
      "Only Lufthansa\nserves\nLondon,\nParis,\nFrankfurt,\nCologne/Bonn\nDüsseldorf\nDirect from\nSan Francisco!\nSeven excellent reasons for flying to Europe with us. You'll enjoy the ease,\nspeed and convenience of direct jet service. We serve six European cities\ndirect - more than any other airline. The seventh reason? Our famous in-\nflight service and hospitality - the number one reason we're one of the top\n4 airlines to Europe and the choice of millions of travelers, everywhere.\nCall your Travel Agent for reservations or call us direct at EX 7-6969.\nLufthansa\nGerman Airlines\n205 Geary Street, San Francise\nA Salute to the Airport\nFamed Senator to Keynote\nChamber's Aviation Banquet\nTours Slated\nThru Airport\nLandmark\nSEN. HOWAKD W. CANNON\nGo Around the World!'\nDisplays Set on S.M. Ave.\nthe located por is Biggenance Dote a\nI have . ON OUR COVER\nFull Hour Jet Trip, Cocktails for $5\nHIH\nLufthansa Serves World Network with 3 Types of Jets\nven har mater her you at alone you out at hear you comp plane yee fel to be a big as they'd nee.\nWhy Aviation Appreciation Week\npor is i a test pure to of the Tatematies Ar.\nNur Gargo in assuming an Incressingy important role in\nно стри та ро мі ароя, ал.\nrestonable\nand about their me mile are at age plans for tomorro\nit men, ta taxes, in pil\nWe Are Happy to Join With The\nCan Bans Chamber af Commans CAlabel\nThe First Annual Aviation Appreciation Wee\nAE SURE AND SEE THI\nPhilippine Air Lines Display\n\"Far-Away Places\"\nAT OUR STORE\nMcAfees\n453 SAN MATEO AVE.\nThey Sat in Front of the Pilot\nIt's nice to be\nappreciated.\nHow do we\nsay thanks?\nWe could send you 9,812 cards, one from each Bay\nArea United Employee.\nWe could spend more than the 100 million dollars we\nspent here last year. (We probably will anyway.)\nMaybe the best way is to continue to improve our\nservice. To offer you more flights. and more sched.\nules, and more individual care.\nThis way we will continue to grow together.\nfly the friendly skies of United",
      "Herald - Recorder - Chronicle Supplement\nMav. ISCe\nMay, 1966\nSan Bruno's Chamber Of Commerce 'Adopts\" Airlines\nJAL Provides 'Gateway to Orient'\nThe Helpful Bank\nSalutes the Aviation Industry\n4th Weekly Jet\nFlight Added\nTo\nPhilippines\n747 subsonie let. too. and today's Boeina 707.321 le1\nVISIT\nDISPLAY\nLAS VEGAS DAYS\nCELEBRATINO\nAVIATIOM APPRECIATION WEE\nsponsored b\nSan Bruno Chamber of Commere\nDon's\nMenes Shope\nHeadquarters For Pamous Brande\nBotany \"100 Salte\n•Towne \u0026 King Sweater\nDon's\nMoes Chop\nCROCKER\nCITIZENS\nNATIONAL\nBANK ©\nnasreat booamo Real\nJAPAN AIR LINES\nSALUTES\nSAN BRUNO\nON ITS CONTRIBUTION TO\nTHE AIRLINE INDUSTRY\nJAL IS PROUD\nTo Have Been a\nPart of This Industry\nDuring Its\nDynamic Growth!\nMail Chief At\nAir Post Office\nGroundbreaking\nTWA Has Long History of Flying Both U.S., Foreign Routes\ninekok later cae /\nole te menis there r Porce\nSee the city\nfrom the top...\non aTWA\nsightseeing flight.\nWoll tato von un low a holt haun af anaataenlae wisna af\nour StarStream Theater: wide-screen color movies\"\n5 each, available now at any TWA tieket offic\nUnited Sets\nRecord For\nPassengers\nNamed to Hent\n\"Small\nJAPAN AIR LINES\nThe Worldwide Airline of Janar\nEICHEN'S\nLIGHTING\nSAN BR Matee Ave\nComplete\nSelections in\nLIGHTING\nfor the Home\nLAMPS REPAIRED\nRESTYLED • REWRED\nTABEN TAMPE\n. walyan.. TWA",
      "WE SALUTE THE AVIATION INDUSTRY\nEUREKA FEDERAL\nZanetti's Liquors\nAvenue Liquors\nSAVINGS and LOAN\nASSOCIATION\n730 Kains Avenue\nOF SAN FRANCISCO\nSan Brun\nJUne 3-2755\nRoss Department Store\n561-532 San Mateo Avi\nSan brune\nALL THE GANG AT\nGrand Leader Super\n598 San Mateo Avenue\nHAKLAN MOW ARAY\nSAN BRUNO OFFICE\nDairy Belle Freeze Drive-In\n585 El Camino Rea\nSouth San Fri\nUno 3-6989\nHenderson's Paint and\nWall Paper\nJ. V. Fitzgerald Co.\n460-A San Mateo Ave\nHighsmith Realty\n223 El Camino Real\nSan Brun\nJU 3-2732\nStanley R. Ret\nRobert Hone\nLynn's Print Shop\n657 San Mateo Avenue\nJUno 8-0385\nTreeo Realty\nSan Bruno\nHouse of Murphy\nBeauty Salon\nOpen Evesinzs Ay Asmintment\n430 San Bruno Avenue West\nJUno 3-2229\nHammack\nInsurance Agency\nWESTERN\nHardwood Floor Co.\nHarry's Flying A Service\nSan Francisce\n586-1677\nSan Bruno W. San Bruno Ayana\nThe Man\n527 San Matoo Avenuo\nSinger Sewing Center\nHOME OF THE FAGO TONG AND SEN\n632 San Mateo Avenue\nCustom Stationery and\nRubber\n-Stamps\n583-6833\nPhilippine Airlines Expands\ncorder - Chronicle Suppleme\nМат, 1966-\nWorld's First Stewardess^s\nNITED AIR\nPHILIPPINE AIR LINES now operates fou\nTHEY'RE MAKING HISTORY - as the world's\nYou Too Can\nSit at Airport\nControl Tower!\n* \"Farewell to Mills Field'\n= Slated by Historical Soc.\nerial being a t\nWEEK IN, WEEK OUT.\nHONG KONG\nSAN FRANCISCO\nSan Bruno Lumber\nSan Bruno Avenue at Railroad\nSan Brune\nABC Music\n595 Sen Mateo Avenue\nSan Brune\n580-2581\nRio Cocktail Lounge\nAl and Charlotte Barrell\n414 San Mateo Avenue\nSan Bruno\nlee 80724\nBud Tuite's\nChevron Station\nThe Beat in Serolee\n2100 Can Raise Avenue\nSan Brune\nJUne 8-9332\nNewell's Cocktail Lounge\nSan Bruna97 San Maico Avenuno B4100\nMills Park Pharmacy\n701 Camino Plaza\nCan Reuni\nJU 8-786\nMills Park\nCleaners \u0026 Laundry\n709 Camino Plaza\nSan Brune\nJUne 8.1498\nMcGovern Bros.\nReally\nS07 ll Camina Ban\nSan Brune\nTick - Tock Shop\nSan Brune San Mateo A June B3927\nRongey Realty\nFeldman-Peninsula Tire\nSales and Service\n205 W. San Brune Avenue\nA \u0026 S Plumbing and\nHeating Co.\n210 WAnnus Ave\nSan Bruno\nJUno 8-1030\nTurf Club\nMario Tam\nMaria Nati\n715 San Mateo Avenue\nSan Bruno\n588-8041\nWhitie's Auto Parts\n430 El Camino Real\n568 San Mateo Avenue\nSan Bruno\nJUno 8-6284\nSan Bruno\nFulton's Stationery\nAnd Gift Shop\n502 San are So\nSan Brune\nPaul Vogel Realty\n187 fi Camina Pas\nSan Bruno\nJUne 3.1010\nFrost's Paint \u0026 Glass\nFULLER PAINTI\n668 San Mateo Avenu\nSan Brune\nLullaby Lane\n188 Son Mateo Avenue\nSan Brune\nJU 8-7644\nRobert N. Milller\n711 Kains Aven\nSan Bruno\nSAN BRUNC\nVOLKSWAGEN\n393 El Camino-SS.F\nJUno 9.9788\nSan Bruno Flower Salon\nJoe Monteblans Ancele Iaccher\n442 Can Ma Aun\nSan Brune\nThe Mesa\nTom and Wall\nEllingson's Sport Center\n551 San Mateo Avenu\nWalter's Cocktail Lounge\n418 San Mateo Avenu\nSan Bruno\nSYDNEY\nNational Airlines\nSet New Records\n. For roderations, Bae your travel apon. or eat 305. 28.\nPHILIPPINE AIR LINES\nWE HAVE NOT YET HAD THE PLEASURE OF YOUR ACQUAINTANCE. MAY W\nEXTEND A HEARTY INVITATION DURING\nAVIATION\nAPPRECIATION WEEK MAY 15-21\nPHARMACY\n458 SAN MATEO AVENUI\nSAN ARUNC\nAVIATION APPRECIATION WEEK\nMay 15-21, 1966\nDISCOUNT\nSPECIAL\n14 TRAN\nPORTABLE RADIO\nBUFFERIN\nJUST A\n• PHONE CAI\n6.99\n9-Volt TRANSISTOR\nRADIO BATTERIES\n29c\nSUPER PLENAMINS\nReg. 1.31\nNow Oniy 83c\nGOLF BALLS\nDESERT FLOWER\n1.00\nSEAMLESS NYLONS 2 pr. 77c\nGLOVES\nSPECIAL LOW PRICEI\nRexal\nBRITE SET SPRAY\n2,59 L\nBIG VALUE\nBIG VALUE\nBIG VALUE\n59c\nBIG VALUE\nNo fron sick 49c\nMAULE\n1.00\nREYALL\n583-0325\nYOUR COMPLETE DRUG CENTI\n47c\nZippered 1.79\nDRUGS",
      "UNITE\nAR LIE\nTHE CITY OF\nSAN BRUNO\nEXTENDS BEST WISHES TO\nTHE PEOPLE\nIN THE\nAviation Industry\nWe Are Pleased That Our\nCity Has the Privilege of\nHonoring Those in the\nAviation Industry and Being\nAble to Thank Them For\nBeing Part of Our Fine\nCommunity!\nOn Bahalf of\nKARNEY BARBERIAN, Mayor\nAnd Members of San Bruno City Cour\nMAURICE Y HAMUTAL\nGEORGE INCHAN\nAnd Official Family..\nAAG\n! MAC\u0026 MAC\n478 SAN MATEO AVENUE\nAVIATION\nWITH THE LOWEST\n• PRICES ANYWHERE •\nTHESE ARE JUST A FEW OF OUR THOUSANDS OI\nSENSATIONAL BARGAINS\nRea. 4.9%\nJAMAICA SETS\nFAMOUS MAKE BIKINI\n1.69\n12,90 Value\nSWIM SUITS\n5.99\nZIPPER FRONT\nSHIFT DRESSES\n1.77\nREGULAR 2.99\nCOTTON SHELLS\n89c\nREGULAR 4.99\nSIZES 34 to 46\nSHELL SWEATERS. 2.99\nDACRON AND COTTON\nSKIRTS.......\nReg 6953 99 2\nI NYLONIZE\nBRAS.\nBRAS: 86c/ Panties\n25c2\nMAC \u0026 MAC\u0026 MAC\u0026 MAC AMAC\u0026 MARRI\nHerald - Recorder - Chroakle Supplemer\n#rorlamatio\nof the Internstions! Alenort he sirlines and the austian.\nno jet age with its impact upon every facet of the adjac\nChess, Chairmar\nA SALUTE!!\nOur Airport Is 4th Biggest; Here Are Facts About It\nSand Box Sale\nSan Francisco International Airport is still\nthe Major Magnet that is drawing industry\nin this area.\nThis is our major employment center and\none of our major attractions to\nthose\nchoosing to invest money and create new\npayrolls in San Mateo County.\nWe must work together in seeing that this\nAirport keeps up with our growth.\nThe People in the\nAVIATION INDUSTRY\nDURING SAN BRUNO'S FIRST ANNUAL\nDr. Anthony F. LALLY, D.C.\n671 San Mateo Ave\nSan Brune\nRE $11.44\nPRIce $8.44\nTodd Her oys\nCOUNTY BOARD OF SUPERVISORS\nT. Louis Chess, Chairman\nWilliam Werder\nJames V. Fitzgerald\nJean Fassler\nA. C. Bud Harrison\nOF",
      "New Ways of Moving Air Freight Coming Into Use\nAir Cargo 'Fastest Growi\nSabena Air Line Has European Helicopter, African, Aflantic Neworks\nA\nAI\nTELEVISION\n6760 Mission St.\nIN THE HEART OF DALY CITY\n755.0766\nRENT to BUY\nCOLOR TV TONITE\nAS LOW AS $3 PER WEEK\nCALL 755-0766 NOW\nFREE!\nSPECIAL!\nYOUR CHOICE\n*POOL TABLE\nPOLAROID\nCAMERA\n$100\nFREE WITH PURCHASES\nOPEN\nDAILY\nTIL 9\nAdmiral\nQUALITY\nRECTANGULAR\nCOLOR\nTV\n37995\nSEWING\nMACHINE\nFREE W PURCHASE\nRENT\nTO BUT 300.\nWK.\nCALL\nNOW\nHURR OFFLASTSI\n755-0766\n* COLOR DRICIS STADT AT OMLY $209.05 *\nTIL 5\nAdmiral\nQuality Portable TV\nneed, room and badget!\nAAA LOW PRICED!\nPOWERFUL SOLID-STATE STEREOS\nSTAND\nUNBELIEVABLI LOW, LOW PRICEST\nOPENING\nSPECIAL!\nFROM ONLY\nAAA\nTELEVISION\n3995\n6760 Mission St.\n755-0766\nPLEASE BE EARLY!\nComplete 8 Pc.\nBUNK BED\nOUTFITS\n59g95\nWhat One Airport Business\nContributes to This Area\nUNITED AIR LINES - PAnico bay porate clizen of the Sen\nPLACE MATS\nAsserted Pa\n1, Shapes, Colors\nSpecial 35c to 68c each\nBULLETIN BOARDS\nAnd Waste Basken\nSpecial 1.88\n12.95\nSNACK SETS\nSpecial 4,9%\nMONKEY POD\nWOOD\nSpecial 2.49 to 28.88\nPEACOCK'S\nDisplay\nGLASS VASES\nSpecial 88c to 1.88\nTEA CUPS\nSpecial 1.39\nELECTRIC TEA POT\nOnly \"1.39\nLACE EDGE\nCRYSTAL\nCake Dish and Fruit Bowle\nRegular Price $3.95\nSpecial \"2.88\nHOUSE\nLET'S GO SWIMMING\nROSS\n361 SAN MATIO AVE\nSAN BRUNO\n$10995\n$119°5\nWEST COAST AIR LINES\nCUTAWAY DISPLAY OF THE NEV\nerbert\nSons\nTo by Are chard employe ter on on 12000.\nWant to Buy Jet Freighter?\nHere Are Specifications!\n• aircraft: Late April 1966\nweight: 170,000 pounds\nsent. Length: 58.7 feet, Width. 125°\n: 8 27 0c. 8\n\"JUST SAY CHARGEIT\n3-PIECE SWIM SUIT\nOlOrs: Red/White. Blue/White Sizes: 30-30\n$8.99\nCAM ABUNA STORE\nOPEN WED. AND FRI, NITES TILI\n2-PIECE SWIM SUIT\noy leg helenca\n$10.99\nOPEN FRIDAY MIGHTS GANE",
      "Navy Hero Named Manager\nOf S.M. County's Airport\nAVIATION APPRECIATION WEEK\nMay 15-21. 1964\nThe San Bruno Chamber of Commerce\nPROUDLY SPONSORS\nAVIATION APPRECIATION WEEK\nMay 15-21, 1966\n20,000 men and women of Aviation in San Mates County\nPROGRAM\nALL WEEK - MONDAY THRU SATURDAY-DOWNTOWN SAN BRUNO\nautiful Displays showing fascinating scenes from every corner of the glot\nver 30 manificent windo\nBlonder the Conder, Fro i-\nFARLIOUS EXHIRITE\n15' Jet Plane Model From World's Fair. Other Detailed and Expensive le\nwellery of Prize-Winning Color Photo\nInteresting True-to-Scale Model of Airport Terminal\nCourtesy of S. F. Airport\nemier Exhibit from Federal Aviation Age\neking Model of Control and Radar Facilik\nSee Radar in Action\nTours start at Main Elevator. Central Terminal Buildina at Aironi\nSATURDAY, May 21, at 4 p.m.\nbution to Chamber /\nmotion Fund wei ate your\nGALA AVIATION BANQUET\nFriday, May 20, 8 p.m., Hyatt House\n1e Speaker: United States\nTickets $7.50 at Chamber Office\nSan Bruno Chamber of Commerce\n502 San Mateo Ave. 588-2374\nno strings\nattached\nno time limit\nno minimum\nrequirement\nno fooling!\nAccounts Insured to $10,000 • Open every\nDollar Savings\n175 San Mateo Ave. • San Bruno, California\nPhone 589-7337\nASK AROUT OUR SPECIAL LONG-TERM SAVINGS PLAN THAT CAN EARN YOU EVEN MORE THAN 5%"
    ],
    "millsfield:images_texts_ids": [
      1763445527,
      1763445529,
      1763445531,
      1763445533,
      1763445535,
      1763445539,
      1763445541
    ],
    "millsfield:primary_image": 1763445527,
    "millsfield:subcategory_id": 1511213233,
    "mz:is_approximate": 1,
    "mz:is_current": 1,
    "sfomuseum:accession_number": "2015.044.001",
    "sfomuseum:airport": "San Francisco International Airport",
    "sfomuseum:airport_id": [
      121
    ],
    "sfomuseum:category": "Published Media",
    "sfomuseum:classification_id": 50,
    "sfomuseum:collection": "Aviation Archive",
    "sfomuseum:creditline": "Gift of William Angelopoulos",
    "sfomuseum:date": "1966",
    "sfomuseum:date_acquired": "2015-05-11",
    "sfomuseum:daterange_end": "1966-12-31",
    "sfomuseum:daterange_start": "1966-01-01",
    "sfomuseum:description": "Souvenir edition of San Bruno Herald newspaper, titled “San Bruno Herald Recorder - Progress \u0026 Coastside Chronicle presents San Bruno’s first annual Aviation Appreciation Week,” May 15 - 21, 1966, with full-spread images of San Francisco International Airport (SFO), including rendering of South Terminal and 1954 opening of Terminal Building; contains various articles, images, and advertisements; 12 pages.",
    "sfomuseum:dimensions": "23 x 16 inches (58.4 x 40.6 cm)",
    "sfomuseum:medium": "newsprint, ink",
    "sfomuseum:object_id": 166018,
    "sfomuseum:placetype": "object",
    "sfomuseum:publication": ": , 1966.",
    "sfomuseum:subcategory": "Article / Clipping",
    "src:geom": "sfomuseum#derived",
    "src:geom_derived_from": [
      102527513
    ],
    "wof:belongsto": [
      102527513,
      1159162825,
      102191575,
      85633793,
      102087579,
      85922583,
      85688637,
      1159160869,
      554784711,
      102085387
    ],
    "wof:country": "US",
    "wof:created": 1643411724,
    "wof:depicts": [
      102527513
    ],
    "wof:geomhash": "bf40c3bc435019ba74db5659992d9e04",
    "wof:hierarchy": [
      {
        "campus_id": 102527513,
        "continent_id": 102191575,
        "country_id": 85633793,
        "county_id": 102085387,
        "custom_id": 1762887741,
        "object_id": 1762887741,
        "region_id": 85688637
      },
      {
        "building_id": -1,
        "campus_id": 102527513,
        "collection_id": 1159162825,
        "concourse_id": 1159162825,
        "continent_id": 102191575,
        "country_id": 85633793,
        "county_id": 102087579,
        "custom_id": 1762887741,
        "locality_id": 85922583,
        "neighbourhood_id": -1,
        "object_id": 1762887741,
        "region_id": 85688637,
        "wing_id": 1159160869
      },
      {
        "campus_id": 102527513,
        "continent_id": 102191575,
        "country_id": 85633793,
        "county_id": 102087579,
        "custom_id": 1762887741,
        "locality_id": 85922583,
        "object_id": 1762887741,
        "postalcode_id": 554784711,
        "region_id": 85688637
      }
    ],
    "wof:id": 1762887741,
    "wof:lastmodified": 1787988202,
    "wof:name": "newspaper supplement: San Bruno Herald, San Francisco International Airport (SFO)",
    "wof:parent_id": 1159162825,
    "wof:placetype": "custom",
    "wof:placetype_alt": [
      "object"
    ],
    "wof:repo": "sfomuseum-data-collection",
    "wof:superseded_by": [],
    "wof:supersedes": []
  },
  "bbox": [
    -122.370943,
    37.61799,
    -122.370943,
    37.61799
  ],
  "geometry": {"type":"MultiPoint","coordinates":[[-122.370943,37.61799]]}
}
