{
  "id": 1914430755,
  "type": "Feature",
  "properties": {
    "date:cessation_lower": "1978-01-01",
    "date:cessation_upper": "1978-12-31",
    "date:inception_lower": "1978-01-01",
    "date:inception_upper": "1978-12-31",
    "edtf:cessation": "1978",
    "edtf:inception": "1978",
    "geom:area": 2.475047457570636e-7,
    "geom:bbox": "-122.386472,37.616105,-122.385834,37.616611",
    "geom:latitude": 37.61635747477365,
    "geom:longitude": -122.38615540108617,
    "millsfield:aircraft_id": [
      1159290471
    ],
    "millsfield:airline_id": [
      1159286455
    ],
    "millsfield:category_id": 1762671311,
    "millsfield:collection_id": 1511214207,
    "millsfield:company_id": [
      1159290443
    ],
    "millsfield:images": [
      1914430885,
      1914430889
    ],
    "millsfield:images_colors_refs": {
      "crayola": [
        {
          "hex": "#1a4876"
        },
        {
          "hex": "#000000"
        },
        {
          "hex": "#efdecd"
        },
        {
          "hex": "#414a4c"
        }
      ],
      "css4": [
        {
          "hex": "#ffe4c4"
        },
        {
          "hex": "#f5deb3"
        },
        {
          "hex": "#000000"
        },
        {
          "hex": "#191970"
        },
        {
          "hex": "#2f4f4f"
        }
      ],
      "marekm4": [
        {
          "hex": "#181d24"
        },
        {
          "hex": "#e9e2ca"
        },
        {
          "hex": "#2b2a22"
        },
        {
          "hex": "#e7dcc6"
        },
        {
          "hex": "#093d9e"
        }
      ]
    },
    "millsfield:images_texts": [
      "DC8-62\nFORE\nNARIZ\nPROA\nPRIMARY EXITS\nFORWARD CABIN DOOR\nPORTA DA CABINE DIANTEIRA\nPUERTA DE PROA\nSLIDE\nRAMPA\nRAMPA DE\nEVACUACION\nFORWARD GALLEY DOOR\nPORTA DA COZINHA DIANTERIA\nPUERTA DE LA COCINA DE PROA\nSLIDE\nRAMPA\nRAMPA DE\nEVACUACION\nWINDOW EXITS\nJANELAS DE ESCAPE\nSALIDAS DE EMERGENCIA\nWINDOW EXITS\nJANELAS DE ESCAPE\nSALIDAS DE EMERGENCIA\nEXIT NOT ON ALL AIRCRAFT.\nCABIN CREW\nWILL MAKE ANNOUNCEMENT.\nRAMPA\nESTA SALIDA NO EXISTE EN TODOS LOS AVIONES.\nTRIPULACION LO AMUNCIARA\nTODOAS LAS DEMAS SALIDAS SON PRINCIPALES.\nRAMPA\nCERTOS AVIÕES NAO POSSUEM ESTA SAÍDA. OS\nTRIPULANTES QUE SERVEM O SEU SETOR DI\nARÃO SÈ ESTE APARELHO CONTAN\nTODAS AS OUTRAS SAÍDAS SÃO PRINCIPAIS.\nSECONDARY\nEXIT\nSALIDA SECUNDARIA\nSAÍDA AUXILIAR\nSLIDE\nRAMPA\nRAMPA DE\nEVACUACION\nAFT CABIN DOOR\nPORTA DA CABINE DA CAUDA\nPUERTA DE COLA\nSLIDE\nRAMPA\nRAMPA DE\nEVACUACION\nSECONDARY\nEXIT\nSALIDA SECUNDARIA\nSAÍDA AUXILIAR\nSLIDE\nRAMPA\nRAMPA DE\nEVACUACION\nAFT GALLEY DOOR\nPORTA DA COZINHA TRAZEIRA\nPUERTA DA LA COCINA DE COLA\nSLIDE\nRAMPA\nRAMPA DE\nEVACUACION\nAFT\nCAUDA\nCOLA\n963-525017-22 (REV. 2-78)\n2002./27.180\nEMERGENCY INFORMATION\nEM CASO DE EMERGENCIA\nEN CASO DE EMERGENCIA\nDC 8-62\nBRANIFF INTERNATIONAL",
      "OXYGEN SYSTEM / SISTEMA DE OXIGENIO / SISTEMA DE OXIGENIO\nPULL MASK TO YOUR FACE - COVER\nMOUTH AND NOSE\nPUXE A MASCARA DE OXIGÊNIO ATÉ\nSEU\nROSTO\nCOBRINDO\nNARIZ\nE BÖCA\nNARIZ\nOXYGEN SYSTEM\nSA HACKCONTANER\nFOR:\n6 FIRST\nSEATS, FORWARD OF\nGALLEY AREA ONLY\nDOOR OPERATION /\nFUNCIONAMENTO DA PORTA /\nCOMO ABRIR LAS PUERTAS\nYour seat cushion is a flotation device.\nA almofada de sua poltrona é um ob.\njeto flutuante.\nEl cojin de su\nasiento es\nuna\nunidad\nque flota.\nThe\njet's cabin is pressurized down to an altitude of 5000 to\n8000 feet.\nShould\nlose pressure\nan\noxygen\nmask\nunit over your\nhead\nmask\nto your\ncovering both\nmouth\nand\nPull\nnose.\nBreathe normally. Slip the band over your head and adjust to\nfit.\nContinue to use\nthe mask until advised to\nremove\nit.\nde ocorrer despressurização,\na mascara de oxigenio descera automaticamente do comparti\nmento situado acima de sua cabeça.\nPuxe a\nmáscara ate seu\nrosto\nnariz e boca. Adapte a alça por\ncima\nda sua\ncabeça a fim de fixar a máscara.\nPermaneça utilizando-se da\nmáscara até receber ordem para retirá-la.\nEl interior de éste avión JET mantiene una\npresión equivalente\nuna\nultura de unos 1.500 a 2.400 metros. En caso de que la\naisminlivera\nautomaticamente emergera una mascara\nde oxigeno del dispositivo instalado sobre\nla\nmási\ncara\nhasta colocarla en\ncubriendo la boca y la\nn2ri7\nPace\nCard\nsu\nasiento.\nTire\nde\npastica\najustela\ndebidamente.\nse le indique que puede quitarsela.\nROTATE HANDLE TO \"OPEN\" POSITION\n- OPEN DOOR\nDE VUELTA A LA MANIVELA HASTA\nDE OPEN - PROCEDA\nA ABRIR LA PUERTA\nLIFE RAFTS:\nEnough rafts are aboard for everyone,\neach with room\nfor 25 or 42 people.\nEvery raft contains an emergency locator\ntransmitter and\nvarious items of emer-\ngency\nequipment. Your highly trained\ncrew will explain their use.\nWINDOW EXIT OPERATION / FUNCIONAMENTE O DA JANELA DE ESCAPE\n/ COMO ABRIR LAS SALIDAS DE EMERGENCIA\nPULL INWARD ON WINDOW HANDLE\nPUXE A MACANETA DA JANELA PARA DENTRO\nTIRE DE LA AGARRADERA HACIA ABAJO\nLEVANTE A JANELA PARA DENTRO\nLEVANTE LA VENTANA HACIA USTED\nBRACING POSITION / POSICOES PARA CASOS DE IMPACTO\n/ POSICIONES DE EMERGENCIA\nEVACUATION SLIDES / RAMPAS DE ESCAPE\n/ RAMPAS DE EVACUACION\nBALSAS SALVA VIDAS:\nExisten a bordo balsas\nem\nnúmero\nsuficiente para todos, cada uma com\ncapacidade\npare 25\nou 42 pessoas.\nCada\nbalsa\nesta\nequipada\ncom\num\ntransmissor e varios\nartigos de\nemer-\ngência. Os\ntripulantes\naltamente pre-\nparados, darão detalhes sôbre a sua\nutilizacão.\nBOTES SALVAVIDAS:\nHav suficientes botes salvavidas a bordo\ntodos, cada uno\ncapacidad\npara 25 ó 42 personas.\nCada bote\ncontiene un transmisor y varios artículos\nde emergencia. La tripulación altamente\nentrenada, le indicará su uso apropiado.\nFORWARD-FACING\nSEAT\nPOLTRONAS DE FRENTE PARA O NARIZ\nDE FRENTE A LA PROA DEL AVIÓN\nSlides are provided at each door.\nEssas rampas encontramse em cada porta.\nEstas rampas están ubicadas en cada puerta."
    ],
    "millsfield:images_texts_ids": [
      1914430885,
      1914430889
    ],
    "millsfield:primary_image": 1914430885,
    "millsfield:subcategory_id": 1511213703,
    "mz:is_approximate": 1,
    "mz:is_current": 1,
    "sfomuseum:accession_number": "2002.127.180",
    "sfomuseum:aircraft": "Douglas DC-8-62",
    "sfomuseum:aircraft_id": [
      511
    ],
    "sfomuseum:airline": "Braniff International",
    "sfomuseum:airline_id": [
      1378
    ],
    "sfomuseum:category": "Passenger Amenity, Archive",
    "sfomuseum:classification_id": 581,
    "sfomuseum:collection": "Aviation Archive",
    "sfomuseum:creditline": "Gift of Thomas G. Dragges",
    "sfomuseum:date": "1978",
    "sfomuseum:date_acquired": "2003-12-22",
    "sfomuseum:daterange_end": "1978-12-31",
    "sfomuseum:daterange_start": "1978-01-01",
    "sfomuseum:description": "Safety information card issued by Braniff International for the Douglas DC-8-62 fleet; blue double-sided bi-fold card with illustrations depicting inflight safety and emergency procedures; identification code: 963-525017-22; revision date: 2-78.",
    "sfomuseum:dimensions": "9 1/2 x 5 inches (24.1 x 12.7 cm)",
    "sfomuseum:medium": "paper, ink",
    "sfomuseum:object_id": 68680,
    "sfomuseum:placetype": "object",
    "sfomuseum:publication": ": , 1978.",
    "sfomuseum:subcategory": "Safety Information Card",
    "src:geom": "sfomuseum#undetermined",
    "wof:belongsto": [
      102527513,
      1159162825,
      102191575,
      85633793,
      102087579,
      85922583,
      85688637,
      1159160869
    ],
    "wof:country": "XY",
    "wof:created": 1719300721,
    "wof:depicts": [
      1159290443,
      1159286455,
      1159290471
    ],
    "wof:geomhash": "c281b9d9eefc83b5710e64b9d646067d",
    "wof:hierarchy": [
      {
        "building_id": -1,
        "campus_id": 102527513,
        "collection_id": 1159162825,
        "concourse_id": 1159162825,
        "continent_id": 102191575,
        "country_id": 85633793,
        "county_id": 102087579,
        "custom_id": 1914430755,
        "locality_id": 85922583,
        "neighbourhood_id": -1,
        "object_id": 1914430755,
        "region_id": 85688637,
        "wing_id": 1159160869
      }
    ],
    "wof:id": 1914430755,
    "wof:lastmodified": 1787988220,
    "wof:name": "safety information card: Braniff International, Douglas DC-8-62",
    "wof:parent_id": 1159162825,
    "wof:placetype": "custom",
    "wof:placetype_alt": [
      "object"
    ],
    "wof:repo": "sfomuseum-data-collection",
    "wof:superseded_by": [],
    "wof:supersedes": []
  },
  "bbox": [
    -122.38647222518921,
    37.6161053594541,
    -122.38583385944366,
    37.61661101879963
  ],
  "geometry": {"type":"Polygon","coordinates":[[[-122.38647222518921,37.61631782178288],[-122.386434674263,37.61623283692423],[-122.38637566566466,37.61617759671399],[-122.38630056381224,37.6161308549656],[-122.38616108894348,37.6161053594541],[-122.38602161407469,37.6161308549656],[-122.38591432571411,37.61618609521055],[-122.38585531711577,37.61626683087935],[-122.38583385944366,37.61636881265146],[-122.38587141036987,37.61646654505181],[-122.38594114780425,37.61654303118856],[-122.38605380058287,37.61660252035167],[-122.38618254661559,37.61661101879963],[-122.3863059282303,37.61657277577607],[-122.3864185810089,37.61650903735973],[-122.3864668607712,37.61641130501523],[-122.38647222518921,37.61631782178288]]]}
}
