{
  "id": 1846753667,
  "type": "Feature",
  "properties": {
    "date:cessation_lower": "1922-01-01",
    "date:cessation_upper": "1922-12-31",
    "date:inception_lower": "1922-01-01",
    "date:inception_upper": "1922-12-31",
    "edtf:cessation": "1922",
    "edtf:inception": "1922",
    "geom:area": 2.475047457570636e-7,
    "geom:bbox": "-122.386472,37.616105,-122.385834,37.616611",
    "geom:latitude": 37.61635747477365,
    "geom:longitude": -122.38615540108617,
    "millsfield:aircraft_id": [
      1159289369
    ],
    "millsfield:airline_id": [
      1796785063
    ],
    "millsfield:category_id": 1763416397,
    "millsfield:collection_id": 1511214207,
    "millsfield:company_id": [
      1159293955
    ],
    "millsfield:images": [
      1846755115,
      1846755119,
      1846755121,
      1846755123
    ],
    "millsfield:images_colors_refs": {
      "crayola": [
        {
          "hex": "#dbd7d2"
        },
        {
          "hex": "#c5d0e6"
        },
        {
          "hex": "#757575"
        },
        {
          "hex": "#95918c"
        },
        {
          "hex": "#414a4c"
        }
      ],
      "css4": [
        {
          "hex": "#dcdcdc"
        },
        {
          "hex": "#2f4f4f"
        },
        {
          "hex": "#d3d3d3"
        },
        {
          "hex": "#778899"
        },
        {
          "hex": "#708090"
        }
      ],
      "marekm4": [
        {
          "hex": "#d6e1e6"
        },
        {
          "hex": "#d0d7db"
        },
        {
          "hex": "#3f3f3f"
        },
        {
          "hex": "#d1d9de"
        },
        {
          "hex": "#cfdadf"
        },
        {
          "hex": "#434343"
        },
        {
          "hex": "#332a25"
        },
        {
          "hex": "#382d28"
        },
        {
          "hex": "#778898"
        },
        {
          "hex": "#66748b"
        }
      ]
    },
    "millsfield:images_texts": [
      "NINETY\nMINUTES\nIN HEAVEN\nMAR I 1923\nA. \u0026 D. R. BLACK\nCONSULTING ENGINEERS\n25 DRIXTON ROAD\nGARDEN CITY,N. Ld\nAn Interesting Narrative\nDescribing the FUN, FAS-\nCINATION and SAFETY of\n\"Traveling by Air\"\nReproduced by courtesy of The Detroit News",
      "40. me wan\n75. roundlinh\nDETROIT TO CLEVELAND\nIN 90 MINUTES\nSwift - Safe - Delightful —Boats fly only over the\nwater; and generally only a few feet above the water,\nhence a convenient landing space is always available.\n• I have traveled over 3,000 miles in an Aeromarine Flying Cruiser.\nIt was a de-\nlightful experience, with no soot, no dirt, and without even the danger of ordinary\n(Signed) DR. JAMES W. INCHES, Commissioner of Police.\n*The flight to Cleveland is not only the most pleasant and entertaining method of\nmaking the trip, but / am convinced it is not as dangerous as making the same trit\nover the congested highways.\n(Signed) W. E. METZGER, President, Detroit Athletic Club.\n\"The flight over the water from Detroit to Cleveland is a most alluring experience\nand affords wonderfully beautiful views.\nI consider it absolutelv safe\n(Signed) COL, SIDNEY D. WALDON, President, Detroit Aviation Society.\nImpressions of this form of nat\nigation cannot possibly be had at second hand\n(Signed) HOWARD E. COFFIN, Vice-President, Hudson Motor Car Co.\n\"The sensation after leaving the water was like a dream, soaring through the won-\nderful balmy air.... it is simply beyond description.\n(Signed) IRA C. FARLEY, Vice-President, The Davis \u0026- Farley Co.\nINTERIOR VIEW FORWARD CABIN\nDetroit Station and Ticket Offices\nOperating Base and Passenger Station Memorial Park and the River.\nAutomobile Entrance, East Side of Park at 8820 Jefferson Avenue East.\nPhone Hickory 6954.\nOffice and Downtown Passenger Station\n-Foot of\nIst Street.\nPhone Cadillac 5480. Tickets can also be purchased at the D.\nand C. Ticket Offices.\nYou Can Park Your Automobile All Day at Either of the Detroit Stations.\nCleveland Station and Ticket Offices\nD.and C. Dock-Foot of 9th Street. Phone Main 5704. Tickets can also be\npurchased at the D. and C. Ticket Offices.\nUptown Office--2010 East 9th\nStreet.\nDock-Foot of 9th St.\nPhone Main\nAeromarine passengers may use the waiting rooms of the D. and C. Co. until taken\nout to the flying boats in our motor launch.\nAeromarine Airways, Inc. (Great Lakes Division)\nCOPYRIGHT AEROMARINE AIRWAYS, INC., 1922\n2022.124.695",
      "\"Played\nwith the\nclouds\nand sea\ngulls\"\n\"It's\nmagic,\nsublime\"\n\"Rose\ninto the\nblue sky\"\nNinety Minutes\nin Heaven\nas related by\nMiss \"Peggy\" MacLean\nHAVE you ever lain flat on your back in a\ngreen meadow, day-dreaming, envying\nthe little puffs of\nclouds, and wishing you\ncould float with them up in the blue sky? I\nplayed with the clouds and sea gulls yesterday,\nfiguratively speaking, in their own domain and\nmany of my air castles came true.\nYesterday I flew to Cleveland for lunch in\nthe \"Buckeye,\" an 11-passenger flying limou-\nsine in the Aeromarine Airway Co.'s service, in\nninety minutes. It's magic! If I could only\nmake you feel my thrills and sensations you\nwould agree that the world and the inventions\nof man have almost attained the sublime. It\nwas like being in heaven and looking benevo-\nlently down on the little spot of earth known\nas the world.\nAt 9 a.m. we were taken by launch from the\nMemorial Park dock out to the flying boat. I\nwas particularly impressed with the size of the\ncraft; they are immense, and fitted out with all\nthe luxuries of a small yacht. After taxi-ing\naround a while to test the motors, we increased\nour speed, traveling up the river like a shot.\nLittle by little I could feel the boat rise in the\n\"The islands oss nestdng be a pondutches of soft\n\"Fat,\npompous\nman, as\nelated as\na small\nboy\"\n\"So\nelated he\nalmost\nstuttered\"\nhad the strangest impression of being anchored\nin eternity. Soon we descended almost to the\nwater and skimmed along a few feet from its\nsurface.\nAt Put-in-Bay we passed the sister\naircraft Wolverine on its way from Cleveland\nto Detroit. I went forward into the open to\nwave to it; I raised my hand and it came back,\nslapping me in the face by the tremendous\npressure of the wind.\nThe sensation of passing the Wolverine was\none of the important thrills of the trip. My\nheart missed three beats!\nA very fat and pompous man in the ship was\nas delighted as a small boy. He sat forever on\nthe edge of his chair waving a huge handker-\nchief at the port hole, even when there was no\none to wave\nback.\nEveryone beamed with\nenjoyment and made word pictures or wrote\nout their thrills on paper against the roar of\nthe engines.\nArrived at Cleveland, we gradually floated\ndown, nearer and nearer to the water. Our\nlanding was exactly like a butterfly kiss, no jar\nor jolt; we simply caressed the water. When we\nreached the dock the pompous man was so\nelated with his experience that he almost stut-\ntered. He came within an ace of jumping up\nand down and clapping his hands.\nI felt as if\nhe were a kindred spirit and loved him for his\nenthusiasm.\nThe return trip into the heart of the sunset\nwas even more exhilarating.\nFor comfort,\nsafety, thrills, and as a remedy against the\ncares and disillusionments of the world I can\nrecommend nothing better than flying.\nThe world looks wonderful from heaven.\n•We were always above the water, therefore,\nalways had a safe\nOur landing was exactly like a butterfly's\nkiss: no jolt or jar-we simply caressed the water.",
      "\"Played\nwith the\nclouds\nand sea\ngulls»\n\"It's\nmagic,\nsublime\"\n\"Rose\ninto the\nblue sky\"\nNinety Minutes\nin Heaven\nas related by\nMiss \"Peggy\" MacLean\nHAVE you ever lain flat on your back in a\ngreen\nmeadow,\nday-dreaming,\nenvying\nthe little puffs of clouds,\nand wishing you\ncould float with them up in the blue sky? I\nplayed with the clouds and sea gulls yesterday,\nfiguratively speaking, in their own domain and\nmany of my air castles came true.\nYesterday I flew to Cleveland for lunch in\nthe \"Buckeye,\" an 11-passenger flying limou-\nsine in the Aeromarine Airway Co.'s service, in\nninety minutes.\nIt's magic!\nmake you feel my thrills and sensations you\nwould agree that the world and the inventions\nof man have almost attained the sublime.\nIt\nwas like being in heaven and looking benevo-\nlently down on the little spot of earth known\nas the world.\nAt 9 a.m. we were taken by launch from the\nMemorial Park dock out to the flying boat.\nwas particularly impressed with the size of the\ncraft; they are immense, and fitted out with all\nthe luxuries of a small yacht. After taxi-ing\naround a while to test the motors, we increased\nour speed,\ntraveling up the river like a shot.\nLittle by little I could feel the boat rise in the\n\"The islands appeared to be little\nsoppeeseling in a pondatches of soft\n\"It's in-\nspiring,\nexhilara-\nting\"\n\"Never\nfelt so se-\ncure and\nexcited,\nsimulta-\nneously \"\n\"Always\nabore\nthe\nwater\"\n\"Three\nyears\noper-\nations\"\nwater, the air creep under her hull; and then\ncame the gloriously free sensation of leaving\nthe water.\nThere was no longer any resistance\nbeneath us; the limitations of the earth melted\naway and we rose like a great gull into the blue\nsky.\nOVER BELLE ISLE\nOver Belle Isle, which looked like a tiny min-\niature painting,\nperfect in every detail, a toy\nisland to delight the heart of anyone possessing\nthe spirit of youth, we soared. How can I con-\nvey the thrill of the take-off and the novelty\nof feeling one's self a winged creature?\nIt's\ninspiring,\nexhilarating!\nThe worries of the\nworld fade away with the earth.\nThere was positively no sensation of a roller\ncoaster ride-oh, nothing so earthly as that!\nI expected my breath would go down to my\nshoes and my heart race madly, but the ascent\nwas so gradual, so steady and sure, that one\ncould not possibly be afraid.\nThe air seems to\noffer a foundation, firmly sustaining the craft.\nI have never in all my experience with life felt\nso secure and so excited simultaneously. Seated\nin my soft leather-cushioned chair, I felt that\npositively nothing could happen to the valiant\nBuckeye.\nWe were always above the water,\nso the\nproblem confronting land-planes, of finding a\nsuitable landing field, the most dangerous con-\nsideration in their flying, does not bother ma-\nrine craft.\nIn case of engine trouble they would\nsimply coast softly down to the water, fix the\ndifficulty, and fly away again.\nThere are look-out points all along the way:\nWescott,\nPut-in-Bay,\nVermilion, and Lorain\nwatched for our passage and wired to the sta-\ntion: \"Buckeye just passed, all is well.\"\nsafety accommodation is provided. Mr. Every\n\"A wonderful view of Perry's Monument at Put-in-Bay.\"\n\"Canada\nJarms\nook like\ntiny\nhandker-\nchiefs\"\n\"Flying\nis best\nway to\ntorm\nhappy 1l-\nlusions\"\n\"Trains\nand\nsteamers\nlook like\ntoys from\nthe air\"\nRedden, President of the corporation, states\nthat in all the three years of the company's\noperation, on other air routes, not a single\naccident has occurred.\nDOWN THE RIVER\nWe flew down the river. The little farms of\nCanada, in different shades of green, looked for\nall the world like tiny drawn-work handker-\nchiefs, with a tree now and then embroidered\nin the corner. The roads were ribbons, wind-\ning in and out the sidewalks were narrow\nlittle paths.\nI never before realized how perfect our little\nworld is.\nEverything seemed to be laid out\nwith mathematical precision; there were no\ndump heaps, no dirty downtown streets.\nThe\ncities from above look one extensive park kept\nin the neatest order.\nFlying is certainly the\nbest way I know to form happy illusions and\nto be able to believe in them.\nLooking down at the trains and boats, I was\nsurprised to find that no hand was pulling them\nalong.\nThey are toys from the air, and you ex-\npect to see a draw-string attached to them.\nThe islands appeared to be little patches of\nsoft moss nestling in a pond. The sea gulls\nwere fluttering scraps of paper.\nThe steamers\nbelow seemed scarcely to move. One marveled\nthat there were still people who availed them-\nselves of such slow transportation.\nSKIMMING ALONG THE WATER\nWhen we ree see leake lose all mine l\nland, the plane seemed to lose all motion.\n\"The farms, in their different shades of green, looked like the\nentire country was one vast park."
    ],
    "millsfield:images_texts_ids": [
      1846755115,
      1846755119,
      1846755121,
      1846755123
    ],
    "millsfield:primary_image": 1846755115,
    "millsfield:subcategory_id": 1511213631,
    "mz:is_approximate": 1,
    "mz:is_current": 1,
    "sfomuseum:accession_number": "2022.124.695",
    "sfomuseum:aircraft": "Aeromarine 75",
    "sfomuseum:aircraft_id": [
      6
    ],
    "sfomuseum:airline": "Aeromarine Airways",
    "sfomuseum:airline_id": [
      1582
    ],
    "sfomuseum:category": "Promotional, Archive",
    "sfomuseum:classification_id": 283,
    "sfomuseum:collection": "Aviation Archive",
    "sfomuseum:creditline": "Gift of Jon E. Krupnick",
    "sfomuseum:date": "1922",
    "sfomuseum:date_acquired": "2022-12-14",
    "sfomuseum:daterange_end": "1922-12-31",
    "sfomuseum:daterange_start": "1922-01-01",
    "sfomuseum:description": "Brochure issued by Aeromarine Airways, titled “Ninety minutes in heaven,” promoting service between Detroit and Cleveland; tri-fold format; black and white illustration of Aeromarine 75 in flight over river; promotional text and black and white photographic images on interior.",
    "sfomuseum:dimensions": "8 1/2 x 4 1/4 inches (21.6 x 10.8 cm)",
    "sfomuseum:medium": "paper, ink",
    "sfomuseum:object_id": 233617,
    "sfomuseum:placetype": "object",
    "sfomuseum:publication": ": , 1922.",
    "sfomuseum:subcategory": "Brochure, Airline",
    "src:geom": "sfomuseum#undetermined",
    "wof:belongsto": [
      102527513,
      1159162825,
      102191575,
      85633793,
      102087579,
      85922583,
      85688637,
      1159160869
    ],
    "wof:country": "XY",
    "wof:created": 1680078157,
    "wof:depicts": [
      1159293955,
      1796785063,
      1159289369
    ],
    "wof:geomhash": "c281b9d9eefc83b5710e64b9d646067d",
    "wof:hierarchy": [
      {
        "building_id": -1,
        "campus_id": 102527513,
        "collection_id": 1159162825,
        "concourse_id": 1159162825,
        "continent_id": 102191575,
        "country_id": 85633793,
        "county_id": 102087579,
        "custom_id": 1846753667,
        "locality_id": 85922583,
        "neighbourhood_id": -1,
        "object_id": 1846753667,
        "region_id": 85688637,
        "wing_id": 1159160869
      }
    ],
    "wof:id": 1846753667,
    "wof:lastmodified": 1787988214,
    "wof:name": "brochure: Aeromarine Airways, “Ninety minutes in heaven”",
    "wof:parent_id": 1159162825,
    "wof:placetype": "custom",
    "wof:placetype_alt": [
      "object"
    ],
    "wof:repo": "sfomuseum-data-collection",
    "wof:superseded_by": [],
    "wof:supersedes": []
  },
  "bbox": [
    -122.38647222518921,
    37.6161053594541,
    -122.38583385944366,
    37.61661101879963
  ],
  "geometry": {"type":"Polygon","coordinates":[[[-122.38647222518921,37.61631782178288],[-122.386434674263,37.61623283692423],[-122.38637566566466,37.61617759671399],[-122.38630056381224,37.6161308549656],[-122.38616108894348,37.6161053594541],[-122.38602161407469,37.6161308549656],[-122.38591432571411,37.61618609521055],[-122.38585531711577,37.61626683087935],[-122.38583385944366,37.61636881265146],[-122.38587141036987,37.61646654505181],[-122.38594114780425,37.61654303118856],[-122.38605380058287,37.61660252035167],[-122.38618254661559,37.61661101879963],[-122.3863059282303,37.61657277577607],[-122.3864185810089,37.61650903735973],[-122.3864668607712,37.61641130501523],[-122.38647222518921,37.61631782178288]]]}
}
