{
  "id": 1914622391,
  "type": "Feature",
  "properties": {
    "date:cessation_lower": "1993-01-01",
    "date:cessation_upper": "1993-12-31",
    "date:inception_lower": "1993-01-01",
    "date:inception_upper": "1993-12-31",
    "edtf:cessation": "1993",
    "edtf:inception": "1993",
    "geom:area": 2.475047457570636e-7,
    "geom:bbox": "-122.386472,37.616105,-122.385834,37.616611",
    "geom:latitude": 37.61635747477365,
    "geom:longitude": -122.38615540108617,
    "millsfield:aircraft_id": [
      1159291223
    ],
    "millsfield:airline_id": [
      1159285447
    ],
    "millsfield:category_id": 1762671311,
    "millsfield:collection_id": 1511214207,
    "millsfield:company_id": [],
    "millsfield:images": [
      1914622741,
      1914622743,
      1914622745
    ],
    "millsfield:images_colors_refs": {
      "crayola": [
        {
          "hex": "#9c2542"
        },
        {
          "hex": "#5d76cb"
        },
        {
          "hex": "#a5694f"
        },
        {
          "hex": "#6699cc"
        },
        {
          "hex": "#414a4c"
        },
        {
          "hex": "#000000"
        },
        {
          "hex": "#dbd7d2"
        },
        {
          "hex": "#cdc5c2"
        },
        {
          "hex": "#bab86c"
        }
      ],
      "css4": [
        {
          "hex": "#6495ed"
        },
        {
          "hex": "#000000"
        },
        {
          "hex": "#dcdcdc"
        },
        {
          "hex": "#a0522d"
        },
        {
          "hex": "#4682b4"
        },
        {
          "hex": "#bdb76b"
        },
        {
          "hex": "#a52a2a"
        },
        {
          "hex": "#c0c0c0"
        },
        {
          "hex": "#2f4f4f"
        }
      ],
      "marekm4": [
        {
          "hex": "#984849"
        },
        {
          "hex": "#dadad5"
        },
        {
          "hex": "#05050a"
        },
        {
          "hex": "#995536"
        },
        {
          "hex": "#363032"
        },
        {
          "hex": "#c1bcbe"
        },
        {
          "hex": "#3d342d"
        },
        {
          "hex": "#5f76b1"
        },
        {
          "hex": "#658dcb"
        },
        {
          "hex": "#bcb34d"
        },
        {
          "hex": "#8b2528"
        },
        {
          "hex": "#dedcd7"
        }
      ]
    },
    "millsfield:images_texts": [
      "DC-9\nSafety Instructions\nInstructions de Sécurité\nInstrucciones de Seguridad\nSicherheitsanleitungen\nUSAir",
      "FVACUATON PROCEDUKES\nPROCEDIMIENTOS DE EVACUACION\nEVAKUIERUNGSVERFAHREN\nPROCEDURES D'EVACUATION\nAHA\nAHA\nB\n6\nD\n0000\nExit Row Seating\n•\nSi usted está sentado en una fila de salida, y no\npuede leer, hablar o entender inglés, sirvase\ncontactar a un representante de UsAIro USAIr\nExpress para que se le cambie de astento.\n• Falls sich Ihr Sitz in einer Reihe an einem\nder Notausgänge befindet und wenn Sie weder\nEnglisch lesen, spreenen oder verstenen konnen,\nwenden Sie sich bitte an einen Vertreter von\nanderen Sitzplatz zuweisen wird.\nSi vous êtes assis près d'une issue de secours, et\nvous n'êtes pas en mesure de lire l'anglais, ni de le\nparler ou de le comprendre, veuillez contacter un\nreprésentant de la compagnie USAir ou USAir\nExpress pour obtenir un autre siege\nIf you are seated in an exit row, please review the\nfollowing. Federal Aviation Regulations require that\npassengers seated in this row meet the selection\ncriteria and are willing and able to operate the exit\nand assist others in the event of an emergency in\nwhich a crewmember is not available to do so.\nPlease identify the exit nearest to you and review the\ncorresponding functions found on this \"Safety\nInstructions\" card.\nPlease contact your Flight Attendant for reseating if\nyou have a condition, which is not apparent, that\nwould prevent you from performing the functions\nshown on this \"Safety Instructions\" card; would be\nharmed from doing so; do not wish to do so; or if\nany of the following apply:\n•\nMobility, strength or dexterity in both arms and\nhands. and both leas is not sumicientto derrorn\nthe functions and assist others, including:\n-Reaching the exit quickly\n-Reaching in every direction for mechanisms used\n-Securing the exit open\n-Removing obstructions (maintaining balance\nwhile doing so)\n-Quickly passing through the exit\n• You are less than 15 years old, require assistance\nfrom someone else to perform one or more of the\nfunctions, or would be prevented from doing so\nbecause of a condition or responsibility, such as\ncaring for a small child.\n• You cannot sufficiently impart information orally\nto others or understand oral crew commands.\n• You cannot read or understand the written and\norannie incrucions novice orrecute asssance\n(other than a hearing aid to hear or understand\ninstructions shouted by a crewmember.\n•You do not have the visual capacity to assess\nconditions outside of the exit or perform any other\nfunction described without the assistance of visual\naids other than contactlenses or evea asses\nIn the event of an emergency, follow the directions\nand hand signals of your crew. If a crewmember is\nnot available to assist you, follow the instructions on\nthe \"Safety Instructions\" card and posted signs. Wait\nuntil the airplane has stopped before opening the exit\nand look through the window, assessing conditions\n(looking for smoke, fire or obstructions) to\ndetermine whether it is safe to proceed. If it is safe to\ndo so, operate the exit and assist others according to\nthe instructions. Assess, select and follow a safe path\naway rom me aim ane.\nYour Flight Attendants will be glad to answer any\nquestions you may have.",
      "BRACE POSITIONS\nPOSICIONES PARA PROTECCION\nNOTLANDUNGEN\nPOSITIONS DE PROTECTION\nRESTRICTIONS\nRESTRICCIONES\nBESCHRÄNKUNGEN\nINTERDICTIONS\nWATER EVACUATION\nEVACUACION EN EL MAR\nEVAKUIERUNG ZU WASSER\nEVACUATION SUR L'EAU\nCopyright 01989 USAir\nDC9-3-ECPS\nC/C 190-0353\nRev. 8/93\n2002.127.650"
    ],
    "millsfield:images_texts_ids": [
      1914622741,
      1914622743,
      1914622745
    ],
    "millsfield:primary_image": 1914622741,
    "millsfield:subcategory_id": 1511213703,
    "mz:is_approximate": 1,
    "mz:is_current": 1,
    "sfomuseum:accession_number": "2002.127.650",
    "sfomuseum:aircraft": "Douglas DC-9",
    "sfomuseum:aircraft_id": [
      848
    ],
    "sfomuseum:airline": "USAir",
    "sfomuseum:airline_id": [
      898
    ],
    "sfomuseum:category": "Passenger Amenity, Archive",
    "sfomuseum:classification_id": 581,
    "sfomuseum:collection": "Aviation Archive",
    "sfomuseum:creditline": "Gift of Thomas G. Dragges",
    "sfomuseum:date": "1993",
    "sfomuseum:date_acquired": "2003-12-22",
    "sfomuseum:daterange_end": "1993-12-31",
    "sfomuseum:daterange_start": "1993-01-01",
    "sfomuseum:description": "Safety information card issued by USAir for the Douglas DC-9 fleet; dark blue double-sided tri-fold card with illustrations depicting inflight safety and emergency procedures; identification code: DC9-3-ECPS C/C 190-0353; revision date: 8/93.",
    "sfomuseum:dimensions": "10 x 6 inches (25.4 x 15.2 cm)",
    "sfomuseum:medium": "paper, ink",
    "sfomuseum:object_id": 70168,
    "sfomuseum:placetype": "object",
    "sfomuseum:publication": ": , 1993.",
    "sfomuseum:subcategory": "Safety Information Card",
    "src:geom": "sfomuseum#undetermined",
    "wof:belongsto": [
      102527513,
      1159162825,
      102191575,
      85633793,
      102087579,
      85922583,
      85688637,
      1159160869
    ],
    "wof:country": "XY",
    "wof:created": 1721028773,
    "wof:depicts": [
      1159285447,
      1159291223
    ],
    "wof:geomhash": "c281b9d9eefc83b5710e64b9d646067d",
    "wof:hierarchy": [
      {
        "building_id": -1,
        "campus_id": 102527513,
        "collection_id": 1159162825,
        "concourse_id": 1159162825,
        "continent_id": 102191575,
        "country_id": 85633793,
        "county_id": 102087579,
        "custom_id": 1914622391,
        "locality_id": 85922583,
        "neighbourhood_id": -1,
        "object_id": 1914622391,
        "region_id": 85688637,
        "wing_id": 1159160869
      }
    ],
    "wof:id": 1914622391,
    "wof:lastmodified": 1787988221,
    "wof:name": "safety information card: USAir, Douglas DC-9",
    "wof:parent_id": 1159162825,
    "wof:placetype": "custom",
    "wof:placetype_alt": [
      "object"
    ],
    "wof:repo": "sfomuseum-data-collection",
    "wof:superseded_by": [],
    "wof:supersedes": []
  },
  "bbox": [
    -122.38647222518921,
    37.6161053594541,
    -122.38583385944366,
    37.61661101879963
  ],
  "geometry": {"type":"Polygon","coordinates":[[[-122.38647222518921,37.61631782178288],[-122.386434674263,37.61623283692423],[-122.38637566566466,37.61617759671399],[-122.38630056381224,37.6161308549656],[-122.38616108894348,37.6161053594541],[-122.38602161407469,37.6161308549656],[-122.38591432571411,37.61618609521055],[-122.38585531711577,37.61626683087935],[-122.38583385944366,37.61636881265146],[-122.38587141036987,37.61646654505181],[-122.38594114780425,37.61654303118856],[-122.38605380058287,37.61660252035167],[-122.38618254661559,37.61661101879963],[-122.3863059282303,37.61657277577607],[-122.3864185810089,37.61650903735973],[-122.3864668607712,37.61641130501523],[-122.38647222518921,37.61631782178288]]]}
}
