{
  "id": 1913796659,
  "type": "Feature",
  "properties": {
    "date:cessation_lower": "1936-04-11",
    "date:cessation_upper": "1936-04-11",
    "date:inception_lower": "1936-04-11",
    "date:inception_upper": "1936-04-11",
    "edtf:cessation": "1936-04-11",
    "edtf:inception": "1936-04-11",
    "geom:area": 2.475047457570636e-7,
    "geom:bbox": "-122.386472,37.616105,-122.385834,37.616611",
    "geom:latitude": 37.61635747477365,
    "geom:longitude": -122.38615540108617,
    "millsfield:airline_id": [
      1159284991
    ],
    "millsfield:category_id": 1511214251,
    "millsfield:collection_id": 1511214207,
    "millsfield:company_id": [
      1159286839
    ],
    "millsfield:images": [
      1913802005,
      1913802007
    ],
    "millsfield:images_colors_refs": {
      "crayola": [
        {
          "hex": "#efcdb8"
        },
        {
          "hex": "#9f8170"
        },
        {
          "hex": "#000000"
        },
        {
          "hex": "#414a4c"
        }
      ],
      "css4": [
        {
          "hex": "#f5deb3"
        },
        {
          "hex": "#2f4f4f"
        },
        {
          "hex": "#bc8f8f"
        },
        {
          "hex": "#000000"
        }
      ],
      "marekm4": [
        {
          "hex": "#e1d3b6"
        },
        {
          "hex": "#a49572"
        },
        {
          "hex": "#dfd1b3"
        },
        {
          "hex": "#a69470"
        },
        {
          "hex": "#39311c"
        },
        {
          "hex": "#2e2513"
        }
      ]
    },
    "millsfield:images_texts": [
      "Saturdan, 4/\" '36\nDearest Dibs.\nJust anure\nat kongkong - must\non to the\nK.K. side end back\nagain to catch\nthe train to Canton.\nso can one with briefs. Do net\n• write\nwant to lears her hower befere\nurting you re- macao\nevangements.\nThe raelond skitchand-\nletter will\njust about the the whate story. The\napartment builday to very mies - rooms\nfare we furnished - food good but\nsimple. managu er, anxious to\nWrath shored be about\nplean.\nlike St Lous in same tracon -\nmagh hat - mayh delightful. The\nrats for 5 proface includes or wa\nmade Considerig Cat \u0026 Hit as under\nCertaint 150 U.5. pu month for\nour famish is not too much. That\nof course\nrichedes meals.\nmust run\nalong now. The net\nat macao is that Erything will be\nor and i think of blows rum\nalong as pre queant indication un\nshall i retending the live to Macao\nabont the latte part of man - so",
      "you win then for the sxertiment.\nI told in You, (Chain) that ur\naccyted he proposal\nand that\nлог\nthe\ntime\nat Bagnio.\nAnguata lift\nhere this At to tragica ama,\nand if is pick it up tomorrow\nark chilli to circle it\nmust - run\nmonit all.\nlorr, to you.\ndearest in the world.\nВіх\n. SI\nsit to ost san i limit us\nms ano fi dintt e\nas as it inel sta pirates\non - past to trap -tal utt trads\n2019.121.0881"
    ],
    "millsfield:images_texts_ids": [
      1913802005,
      1913802007
    ],
    "millsfield:primary_image": 1913802005,
    "millsfield:subcategory_id": 1511213489,
    "mz:is_approximate": 1,
    "mz:is_current": 1,
    "sfomuseum:accession_number": "2019.121.0881",
    "sfomuseum:airline": "Pan American Airways",
    "sfomuseum:airline_id": [
      685
    ],
    "sfomuseum:category": "Employee Career History",
    "sfomuseum:classification_id": 195,
    "sfomuseum:collection": "Aviation Archive",
    "sfomuseum:creditline": "Collection of SFO Museum",
    "sfomuseum:date": "04/11/1936",
    "sfomuseum:date_acquired": "2019-11-22",
    "sfomuseum:daterange_end": "1936-04-11",
    "sfomuseum:daterange_start": "1936-04-11",
    "sfomuseum:description": "Handwritten letter from Harold M. Bixby to his wife, Debby Bixby, dated April 11, [1936]; includes update on negotiations in Macau; mentions Mr. Young, Chili [Charles “Chili”] Vaughn.",
    "sfomuseum:dimensions": "13 x 8 1/2 inches (33 x 21.6 cm)",
    "sfomuseum:medium": "paper, ink",
    "sfomuseum:object_id": 211234,
    "sfomuseum:placetype": "object",
    "sfomuseum:publication": ": , 04/11/1936.",
    "sfomuseum:subcategory": "Correspondence, Personal",
    "src:geom": "sfomuseum#undetermined",
    "wof:belongsto": [
      102527513,
      1159162825,
      102191575,
      85633793,
      102087579,
      85922583,
      85688637,
      1159160869
    ],
    "wof:country": "XY",
    "wof:created": 1714549157,
    "wof:depicts": [
      1159284991,
      1159286839
    ],
    "wof:geomhash": "c281b9d9eefc83b5710e64b9d646067d",
    "wof:hierarchy": [
      {
        "building_id": -1,
        "campus_id": 102527513,
        "collection_id": 1159162825,
        "concourse_id": 1159162825,
        "continent_id": 102191575,
        "country_id": 85633793,
        "county_id": 102087579,
        "custom_id": 1913796659,
        "locality_id": 85922583,
        "neighbourhood_id": -1,
        "object_id": 1913796659,
        "region_id": 85688637,
        "wing_id": 1159160869
      }
    ],
    "wof:id": 1913796659,
    "wof:lastmodified": 1787988220,
    "wof:name": "correspondence: Harold M. Bixby to Debby Bixby",
    "wof:parent_id": 1159162825,
    "wof:placetype": "custom",
    "wof:placetype_alt": [
      "object"
    ],
    "wof:repo": "sfomuseum-data-collection",
    "wof:superseded_by": [],
    "wof:supersedes": []
  },
  "bbox": [
    -122.38647222518921,
    37.6161053594541,
    -122.38583385944366,
    37.61661101879963
  ],
  "geometry": {"type":"Polygon","coordinates":[[[-122.38647222518921,37.61631782178288],[-122.386434674263,37.61623283692423],[-122.38637566566466,37.61617759671399],[-122.38630056381224,37.6161308549656],[-122.38616108894348,37.6161053594541],[-122.38602161407469,37.6161308549656],[-122.38591432571411,37.61618609521055],[-122.38585531711577,37.61626683087935],[-122.38583385944366,37.61636881265146],[-122.38587141036987,37.61646654505181],[-122.38594114780425,37.61654303118856],[-122.38605380058287,37.61660252035167],[-122.38618254661559,37.61661101879963],[-122.3863059282303,37.61657277577607],[-122.3864185810089,37.61650903735973],[-122.3864668607712,37.61641130501523],[-122.38647222518921,37.61631782178288]]]}
}
