{
  "id": 1511951255,
  "type": "Feature",
  "properties": {
    "date:cessation_lower": "1953-01-01",
    "date:cessation_upper": "1953-12-31",
    "date:inception_lower": "1953-01-01",
    "date:inception_upper": "1953-12-31",
    "edtf:cessation": "1953",
    "edtf:date": "1953",
    "edtf:inception": "1953",
    "geom:area": 0,
    "geom:bbox": "-122.386155,37.616357,-122.386155,37.616357",
    "geom:latitude": 37.616357,
    "geom:longitude": -122.386155,
    "iso:country": "XX",
    "millsfield:airline_id": [
      1159284993
    ],
    "millsfield:category_id": 1763416397,
    "millsfield:collection_id": 1511214207,
    "millsfield:company_id": [
      1159288567
    ],
    "millsfield:images": [
      1527829225
    ],
    "millsfield:images_colors_refs": {
      "crayola": [
        {
          "hex": "#414a4c"
        },
        {
          "hex": "#d68a59"
        },
        {
          "hex": "#b4674d"
        },
        {
          "hex": "#979aaa"
        },
        {
          "hex": "#cdc5c2"
        }
      ],
      "css4": [
        {
          "hex": "#f4a460"
        },
        {
          "hex": "#c0c0c0"
        },
        {
          "hex": "#778899"
        },
        {
          "hex": "#2f4f4f"
        },
        {
          "hex": "#cd5c5c"
        }
      ],
      "marekm4": [
        {
          "hex": "#d7a65a"
        },
        {
          "hex": "#434040"
        },
        {
          "hex": "#b46a4c"
        },
        {
          "hex": "#7491a6"
        },
        {
          "hex": "#c4c7c2"
        }
      ]
    },
    "millsfield:images_texts": [
      "new PANAGRA CoTToNS\nby EVERFAST\nin brilliant\nPanagra\nThater Americano\nSouth American colors\n, PAA\n•PAN AMERICAN -GRACE A\nPanagra\nELMER AMERICANO\nGUAYAQUIL\nPanegro plones fly non-stop\nfrom Miami to Panama over\nthe route of Pon Americen\nand continue to Buenos Aires\nover Ponegro's scenic\nWest Coast Route\nFly PANAGRA to glorious South America today... wear your Panagra Cottons\nthere tomorrow! It's the fastest U. S. Commercial Airline... winner of the\ncoveted Frye Speed Trophy... and the world's friendliest! Leave any day via\nPanagra ... board El InterAmericano, the luxurious express sleeper, at Miami\nand enjoy red carpet service all the way. Remember, Panagra is the only U.S.\nairline with twenty-four years' experience flying South America's West Coast. See\nyour Travel Agent or any office of Pan American. Airways. (U.S. General Sales Asents).\nPANAGRA\nPAN AMERICAN-GRACE AIRWAYS\nCOLE of California chose this striking striped Panagra Cotton\nby EVEREAST for a stunning swim suit. It is just one of an exciting\ncollection of stripes and prints-all vibrant with color, authentic\nin concept-taking their theme from the rich lore and vivid beauty\nof South America-just a sky away via Panagra. Everfast designers\nborrowed colors and ideas from Argentina, Bolivia, Chile and Peru\n... blending all together in a thrilling group of new fabrics.\nSuit by CoLE of California in a Panagra Cotton by Everfast, made crease-resistant\no ever are sies oman Meatam and Larre about so ar\nBONWIT TELLER, NEW YORK, CARSON, PIRTE SCOTT and Co., Chicago,\nNEIMAN - MARCUS CO.\nDallas, SCRUGGS- VANDERVOORT-BARNEY,\nSt. Louis,\nCITY OF PARIS DRY GOODS Co., San Francisco, and leading stores everywhere.\nCOLORS GUARANTEED\nEVERFAST FABRICS ine.\n\"Reg. U.S. Pat. Or."
    ],
    "millsfield:images_texts_ids": [
      1527829225
    ],
    "millsfield:primary_image": 1527829225,
    "millsfield:subcategory_id": 1511213149,
    "mz:hierarchy_label": 1,
    "mz:is_current": 1,
    "sfomuseum:accession_number": "2001.038.164.071 a b",
    "sfomuseum:airline": "Panagra (Pan American-Grace Airways)",
    "sfomuseum:airline_id": [
      687
    ],
    "sfomuseum:category": "Promotional, Archive",
    "sfomuseum:classification_id": 6,
    "sfomuseum:collection": "Aviation Archive",
    "sfomuseum:creditline": "Gift of Barnaby Conrad III",
    "sfomuseum:date": "1953",
    "sfomuseum:date_acquired": "2003-05-16",
    "sfomuseum:daterange_end": "1953-12-31",
    "sfomuseum:daterange_start": "1953-01-01",
    "sfomuseum:description": "Two-page advertisement  from May 1953 issue of Holiday magazine promoting Everfast Fabrics, featuring Panagra (Pan American-Grace Airways), titled “New Panagra cottons by Everfast in brilliant South American colors” with color illustration depicting passengers deplaning from aircraft and image of woman in swimsuit.",
    "sfomuseum:dimensions": "14 x 21 inches (35.6 x 53.3 cm)",
    "sfomuseum:media_ids": [
      1527829225
    ],
    "sfomuseum:medium": "paper, ink",
    "sfomuseum:object_id": 122782,
    "sfomuseum:placetype": "object",
    "sfomuseum:primary_media_id": 1527829225,
    "sfomuseum:publication": ": , 1953.",
    "sfomuseum:subcategory": "Advertisement, 2D",
    "sfomuseum:subject": "Pan Am promotional advertisement",
    "src:geom": "sfomuseum#undetermined",
    "wof:belongsto": [
      1511214205,
      102527513,
      102191575,
      85633793,
      1511213149,
      85922583,
      102087579,
      1511214277,
      1511214207,
      85688637
    ],
    "wof:breaches": [],
    "wof:country": "XX",
    "wof:created": 1579906675,
    "wof:depicts": [
      1159284993,
      1159288567
    ],
    "wof:geomhash": "30c8a918561c84bb2daa2b97fc7c5353",
    "wof:hierarchy": [
      {
        "arcade_id": 1511213149,
        "building_id": 1511214277,
        "campus_id": 102527513,
        "concourse_id": 1511214205,
        "continent_id": 102191575,
        "country_id": 85633793,
        "county_id": 102087579,
        "custom_id": 1511951255,
        "locality_id": 85922583,
        "neighbourhood_id": -1,
        "object_id": 1511951255,
        "region_id": 85688637,
        "venue_id": 1511951255,
        "wing_id": 1511214207
      }
    ],
    "wof:id": 1511951255,
    "wof:lastmodified": 1787988188,
    "wof:name": "advertisement: Panagra (Pan American-Grace Airways), Everfast, Holiday magazine advertisement",
    "wof:parent_id": 1159162825,
    "wof:placetype": "custom",
    "wof:placetype_alt": [
      "object"
    ],
    "wof:repo": "sfomuseum-data-collection",
    "wof:superseded_by": [],
    "wof:supersedes": [],
    "wof:tags": []
  },
  "bbox": [
    -122.386155,
    37.616357,
    -122.386155,
    37.616357
  ],
  "geometry": {"type":"Point","coordinates":[-122.386155,37.616357]}
}
