{
  "id": 1511910899,
  "type": "Feature",
  "properties": {
    "date:cessation_lower": "1993-01-01",
    "date:cessation_upper": "1993-12-31",
    "date:inception_lower": "1993-01-01",
    "date:inception_upper": "1993-12-31",
    "edtf:cessation": "1993",
    "edtf:date": "1993",
    "edtf:deprecated": "2026-04-02",
    "edtf:inception": "1993",
    "geom:area": 0,
    "geom:bbox": "-118.389510,33.942593,-118.389510,33.942593",
    "geom:latitude": 33.942593,
    "geom:longitude": -118.38951,
    "isbn:number": "1884166016, 9781884166013",
    "iso:country": "US",
    "mz:hierarchy_label": 1,
    "mz:is_approximate": 1,
    "mz:is_current": 0,
    "sfomuseum:placetype": "object",
    "src:geom": "sfomuseum#derived",
    "src:geom_derived_from": [
      102533795
    ],
    "wof:belongsto": [],
    "wof:breaches": [],
    "wof:concordances": {
      "isbn:number": "1884166016, 9781884166013"
    },
    "wof:country": "US",
    "wof:created": 1618961162,
    "wof:depicts": [
      102533795
    ],
    "wof:geomhash": "fecd3d7ab1fc2bc81dc4fce83bbb8c45",
    "wof:hierarchy": [
      {
        "custom_id": 1511910899,
        "object_id": 1511910899
      }
    ],
    "wof:id": 1511910899,
    "wof:lastmodified": 1775155438,
    "wof:name": "This record has been deprecated.",
    "wof:parent_id": -1,
    "wof:placetype": "custom",
    "wof:placetype_alt": [
      "object"
    ],
    "wof:repo": "sfomuseum-data-collection",
    "wof:superseded_by": [],
    "wof:supersedes": [],
    "wof:tags": []
  },
  "bbox": [
    -118.38951,
    33.942593,
    -118.38951,
    33.942593
  ],
  "geometry": {"type":"MultiPoint","coordinates":[[-118.38951,33.942593]]}
}
