{
  "id": 1913796407,
  "type": "Feature",
  "properties": {
    "date:cessation_lower": "1933-11-17",
    "date:cessation_upper": "1933-11-17",
    "date:inception_lower": "1933-11-17",
    "date:inception_upper": "1933-11-17",
    "edtf:cessation": "1933-11-17",
    "edtf:inception": "1933-11-17",
    "geom:area": 2.475047457570636e-7,
    "geom:bbox": "-122.386472,37.616105,-122.385834,37.616611",
    "geom:latitude": 37.61635747477365,
    "geom:longitude": -122.38615540108617,
    "millsfield:airline_id": [
      1159284991,
      1159285931
    ],
    "millsfield:category_id": 1511214251,
    "millsfield:collection_id": 1511214207,
    "millsfield:company_id": [
      1159286721
    ],
    "millsfield:images": [
      1913801441,
      1913801449,
      1913801451,
      1913801453
    ],
    "millsfield:images_colors_refs": {
      "crayola": [
        {
          "hex": "#9f8170"
        },
        {
          "hex": "#000000"
        },
        {
          "hex": "#efcdb8"
        }
      ],
      "css4": [
        {
          "hex": "#000000"
        },
        {
          "hex": "#bc8f8f"
        },
        {
          "hex": "#f5deb3"
        }
      ],
      "marekm4": [
        {
          "hex": "#e9daaf"
        },
        {
          "hex": "#231e13"
        },
        {
          "hex": "#241f13"
        },
        {
          "hex": "#e7d9ad"
        },
        {
          "hex": "#221d12"
        },
        {
          "hex": "#a29873"
        },
        {
          "hex": "#a29773"
        },
        {
          "hex": "#a19773"
        },
        {
          "hex": "#a19772"
        },
        {
          "hex": "#e8daae"
        }
      ]
    },
    "millsfield:images_texts": [
      "24442\n133\nTHE VICTORIA HOTEL.\n—:0:-\nTEL.\nADDRESS :\n\"VICTORIA\"\nКликну\nCODES:\nBENTLEY'S\nCanton, 1\n..193 .\nA.B.C. 5TH EDITION\nTELEPHONE-13501\nDearest Debs\nCame don from\nfrom Hong kong\nthis morning.\nstopping off at\nShum shun a litte town just\noutsine the Hongkong liand\ntraitory o mas concts\n• Kowloon as the leand area\nof 12 miles squas is caled)\nhad writte\nme.\nwhat\nhe thought or mught t\nake to sir. Nong kong from\nShumchun but my enoratiya-\nton grons that suek a\nplan world not work\nat all. the run at that",
      "point to very\nmaroo and\nfull of junks.\nof the\nglax to quention. but on\nhan gone.\naran landl\nwile tree him\nthat it is\nnot quite safe - the way\nto vin respret for you\nspinose to gur\nrory considnation to the\notte felows and wong\nлии\nThat a feDend to tender\nup at 5:30\nQ.m. to incratigats what\nshe hid recommended.\nI dont remembe hous\nmuch o tole you abnet\nCanton.\nsettlement\n~a small island called\nShamen forman a fare\nstrickin\nsand bars cubick\nlike the barren rock now",
      "24442\nTHE VICTORIA HOTEL.\n—::—\nTEL. ADDRESS:\n\"VICTORIA\"\nCODES:\nBENTLEY'S\nCanton,.\n193\nA.B.C. 5TH EDITION\nTELEPHONE-13501\nHong kong\ni Googned by the\nChinm\nworth\nchuckles\n- many \"\nto the .\nforciga\ndevilo.\nCoura\nthe t. Do.\nbret\nna\nwale\naroma el\nthe\nsand bar\ndreged the rin\nto make it\nnaig attle\nat the same time dump\nthe procedes of tan\ndredging witti the toak\nwith the net reault that\ntoday the for ridden sa\nbar\ni centre and\nmot valuable propraty in\nCanton.\nThe quathst part\nof the\nChen poquestion\ndo you undoubted henar hir",
      "in the neghbockond of ore\nmillion prople lin that way.\nthe ars born, brought up\n- and die on the wate\nwath around the\ndusty jacket toget junks\nis the one, water suppe\nthey kao it float theis\n\"home\", warn the clatter\nquenches their thiret and\ncuries off - oh ure.\n• I've be darned\n, horo they\navoid epidemies but ques\nliter made Kniguts keit\nthen just grow up and\nas assas\nMae\nnext,\nHar to\nto the\nOut office now -\nmoro - more latra\nLor Bir 1"
    ],
    "millsfield:images_texts_ids": [
      1913801441,
      1913801449,
      1913801451,
      1913801453
    ],
    "millsfield:primary_image": 1913801441,
    "millsfield:subcategory_id": 1511213489,
    "mz:is_approximate": 1,
    "mz:is_current": 1,
    "sfomuseum:accession_number": "2019.121.0786 a b",
    "sfomuseum:airline": "Pan American Airways",
    "sfomuseum:airline_id": [
      685,
      1131
    ],
    "sfomuseum:category": "Employee Career History",
    "sfomuseum:classification_id": 195,
    "sfomuseum:collection": "Aviation Archive",
    "sfomuseum:creditline": "Collection of SFO Museum",
    "sfomuseum:date": "11/17/1933",
    "sfomuseum:date_acquired": "2019-11-22",
    "sfomuseum:daterange_end": "1933-11-17",
    "sfomuseum:daterange_start": "1933-11-17",
    "sfomuseum:description": "Handwritten letter from Harold M. Bixby to his wife, Debby Bixby, dated Friday, November 17, [1933], on stationery from the Victoria Hotel, Hong Kong; survey visit to Shumshun [Sham Chun, Shenzhen] for Pan American Airways; includes description of Canton [Guangzhou]; mentions P.Y. Wong.",
    "sfomuseum:dimensions": "8 1/2 x 5 1/2 inches (21.6 x 14 cm)",
    "sfomuseum:medium": "paper, ink",
    "sfomuseum:object_id": 211134,
    "sfomuseum:placetype": "object",
    "sfomuseum:publication": ": , 11/17/1933.",
    "sfomuseum:subcategory": "Correspondence, Personal",
    "src:geom": "sfomuseum#undetermined",
    "wof:belongsto": [
      102527513,
      1159162825,
      102191575,
      85633793,
      102087579,
      85922583,
      85688637,
      1159160869
    ],
    "wof:country": "XY",
    "wof:created": 1714549084,
    "wof:depicts": [
      1159285931,
      1159286721,
      1159284991
    ],
    "wof:geomhash": "c281b9d9eefc83b5710e64b9d646067d",
    "wof:hierarchy": [
      {
        "building_id": -1,
        "campus_id": 102527513,
        "collection_id": 1159162825,
        "concourse_id": 1159162825,
        "continent_id": 102191575,
        "country_id": 85633793,
        "county_id": 102087579,
        "custom_id": 1913796407,
        "locality_id": 85922583,
        "neighbourhood_id": -1,
        "object_id": 1913796407,
        "region_id": 85688637,
        "wing_id": 1159160869
      }
    ],
    "wof:id": 1913796407,
    "wof:lastmodified": 1787988220,
    "wof:name": "correspondence: Harold M. Bixby to Debby Bixby",
    "wof:parent_id": 1159162825,
    "wof:placetype": "custom",
    "wof:placetype_alt": [
      "object"
    ],
    "wof:repo": "sfomuseum-data-collection",
    "wof:superseded_by": [],
    "wof:supersedes": []
  },
  "bbox": [
    -122.38647222518921,
    37.6161053594541,
    -122.38583385944366,
    37.61661101879963
  ],
  "geometry": {"type":"Polygon","coordinates":[[[-122.38647222518921,37.61631782178288],[-122.386434674263,37.61623283692423],[-122.38637566566466,37.61617759671399],[-122.38630056381224,37.6161308549656],[-122.38616108894348,37.6161053594541],[-122.38602161407469,37.6161308549656],[-122.38591432571411,37.61618609521055],[-122.38585531711577,37.61626683087935],[-122.38583385944366,37.61636881265146],[-122.38587141036987,37.61646654505181],[-122.38594114780425,37.61654303118856],[-122.38605380058287,37.61660252035167],[-122.38618254661559,37.61661101879963],[-122.3863059282303,37.61657277577607],[-122.3864185810089,37.61650903735973],[-122.3864668607712,37.61641130501523],[-122.38647222518921,37.61631782178288]]]}
}
