{
  "id": 1511910121,
  "type": "Feature",
  "properties": {
    "date:cessation_lower": "1925-01-01",
    "date:cessation_upper": "1925-12-31",
    "date:inception_lower": "1925-01-01",
    "date:inception_upper": "1925-12-31",
    "edtf:cessation": "1925",
    "edtf:date": "1925",
    "edtf:inception": "1925",
    "geom:area": 0,
    "geom:bbox": "-122.391953,37.624731,-122.391953,37.624731",
    "geom:latitude": 37.624731,
    "geom:longitude": -122.391953,
    "iso:country": "US",
    "millsfield:airport_id": [
      1360695653
    ],
    "millsfield:category_id": 1511214239,
    "millsfield:collection_id": 1511214207,
    "millsfield:images": [
      1527856969
    ],
    "millsfield:images_colors_refs": {
      "crayola": [
        {
          "hex": "#e7c697"
        },
        {
          "hex": "#414a4c"
        },
        {
          "hex": "#bab86c"
        }
      ],
      "css4": [
        {
          "hex": "#bdb76b"
        },
        {
          "hex": "#556b2f"
        },
        {
          "hex": "#deb887"
        }
      ],
      "marekm4": [
        {
          "hex": "#ddc695"
        },
        {
          "hex": "#bfa773"
        },
        {
          "hex": "#554f41"
        }
      ]
    },
    "millsfield:images_texts": [
      "urport\nWAR DEPARDMEYE\nHEADQUART RS NINTH CORPS AREA\nOFFICE OF THE AIR OFFICER\nPresidio of San Francisco, Calit.\nOctober 6th, 1925.\nExcerpt from lst Lieut.\nH. A. Moore's letter.\n\"In reply to your letter of September 15th to Colonel F. P. Lahm, who is\nat present away from the City on a short leave of absence, I am enclosing herewith\nthe sketch which you requested, together with some additional information on\nlanding field requirements and an estimate of costs.\nAs the field stands to-day, the runways - as I have placed them - are\nentirely too short to accommodate all types of planes. If you want to go into\nthis matter in the right way, the thing to do is to extend the runways on out\ninto the marshy ground - making them appriximately fifty yaras wide and as far\nNortheast and Southeast as possible, bearing in mind the high power lines and\nthe fact\nthat an obstacle at the edge of a field cuts off seven feet of runway\nfor each obstacle of its own height. Perhaps three or four hundred feet could\nbe added in this way. According to the chart, the prevailing winds will pernit\nof landing into the Northwest and Southwest.\nAs the field is too smell for a\nrunway from East to West, I have placed the hangars, shops, etcetera, along the\nWest edge of the field next to the highway.\nThe entire portion of hard ground\nmust be dragged and smoothed before being used.\nI vould like to suggest that if you care to look into the future, when you\nneed a much larger airport, you might consider the proposition of having the\nP. G. \u0026 E. power lines removed and filling in the marshland to the Bast, thereby\nproviding a field with a one-half mile runway Best and West.\nIn such eyent the\nhangars could be located on the North and South side of the field. You would\nthen have a sufficient area for every type of plane, together with a high\nfactor of safety.\nAny telephone, telegraph, or power line around a field is a\npotential menaceto landing and taking off.\"\nPO\n210\n.000 g"
    ],
    "millsfield:images_texts_ids": [
      1527856969
    ],
    "millsfield:primary_image": 1527856969,
    "millsfield:subcategory_id": 1511213147,
    "mz:hierarchy_label": 1,
    "mz:is_approximate": 1,
    "mz:is_current": 1,
    "sfomuseum:accession_number": "2000.018.041.001",
    "sfomuseum:airport": "Mills Field Municipal Airport of San Francisco",
    "sfomuseum:airport_id": [
      162
    ],
    "sfomuseum:category": "Company Record / Document",
    "sfomuseum:classification_id": 5,
    "sfomuseum:collection": "Aviation Archive",
    "sfomuseum:creditline": "Collection of SFO Museum",
    "sfomuseum:date": "1925",
    "sfomuseum:date_acquired": "1999-06-30",
    "sfomuseum:daterange_end": "1925-12-31",
    "sfomuseum:daterange_start": "1925-01-01",
    "sfomuseum:description": "Excerpt of correspondence from War Department, Headquarters Ninth Corps Area, Office of the Air Officer, Presidio of San Francisco, titled “Excerpt from 1st Lieut. H. A. Moore’s letter,” October 6, 1925, concerning existing conditions of potential airport site; typewritten page.",
    "sfomuseum:dimensions": "11 x 8 1/2 inches (27.9 x 21.6 cm)",
    "sfomuseum:media_ids": [
      1527856969
    ],
    "sfomuseum:medium": "paper, ink",
    "sfomuseum:object_id": 50648,
    "sfomuseum:placetype": "object",
    "sfomuseum:primary_media_id": 1527856969,
    "sfomuseum:publication": ": , 1925.",
    "sfomuseum:subcategory": "Administrative Record",
    "src:geom": "sfomuseum#derived",
    "src:geom_derived_from": [
      1360695653
    ],
    "wof:belongsto": [
      102527513,
      102191575,
      85633793,
      85922583,
      102087579,
      85688637,
      1159162825,
      1159160869,
      1360695653,
      554784711,
      102085387
    ],
    "wof:breaches": [],
    "wof:country": "US",
    "wof:created": 1579906671,
    "wof:depicts": [
      85688637,
      85633793,
      1360695653,
      85865991,
      85922583
    ],
    "wof:geomhash": "3abf1c04b00c12d6593e9cd3c35f0056",
    "wof:hierarchy": [
      {
        "campus_id": 1360695653,
        "continent_id": 102191575,
        "country_id": 85633793,
        "county_id": 102087579,
        "custom_id": 1511910121,
        "locality_id": 85922583,
        "object_id": 1511910121,
        "postalcode_id": 554784711,
        "region_id": 85688637
      },
      {
        "campus_id": 1360695653,
        "continent_id": 102191575,
        "country_id": 85633793,
        "county_id": 102085387,
        "custom_id": 1511910121,
        "object_id": 1511910121,
        "region_id": 85688637
      },
      {
        "building_id": -1,
        "campus_id": 102527513,
        "collection_id": 1159162825,
        "concourse_id": 1159162825,
        "continent_id": 102191575,
        "country_id": 85633793,
        "county_id": 102087579,
        "custom_id": 1511910121,
        "locality_id": 85922583,
        "neighbourhood_id": -1,
        "object_id": 1511910121,
        "region_id": 85688637,
        "wing_id": 1159160869
      }
    ],
    "wof:id": 1511910121,
    "wof:lastmodified": 1787988176,
    "wof:name": "correspondence: Presidio of San Francisco, proposed airport site",
    "wof:parent_id": 1159162825,
    "wof:placetype": "custom",
    "wof:placetype_alt": [
      "object"
    ],
    "wof:repo": "sfomuseum-data-collection",
    "wof:superseded_by": [],
    "wof:supersedes": [],
    "wof:tags": []
  },
  "bbox": [
    -122.391953,
    37.624731,
    -122.391953,
    37.624731
  ],
  "geometry": {"type":"MultiPoint","coordinates":[[-122.391953,37.624731]]}
}
