{
  "id": 1913796093,
  "type": "Feature",
  "properties": {
    "date:cessation_lower": "1949-10-28",
    "date:cessation_upper": "1949-10-28",
    "date:inception_lower": "1949-10-28",
    "date:inception_upper": "1949-10-28",
    "edtf:cessation": "1949-10-28",
    "edtf:inception": "1949-10-28",
    "geom:area": 2.475047457570636e-7,
    "geom:bbox": "-122.386472,37.616105,-122.385834,37.616611",
    "geom:latitude": 37.61635747477365,
    "geom:longitude": -122.38615540108617,
    "millsfield:airline_id": [
      1159284991
    ],
    "millsfield:category_id": 1511214251,
    "millsfield:collection_id": 1511214207,
    "millsfield:company_id": [
      1159286839
    ],
    "millsfield:images": [
      1913799565,
      1913799567,
      1913799569
    ],
    "millsfield:images_colors_refs": {
      "crayola": [
        {
          "hex": "#95918c"
        },
        {
          "hex": "#414a4c"
        },
        {
          "hex": "#efdecd"
        }
      ],
      "css4": [
        {
          "hex": "#2f4f4f"
        },
        {
          "hex": "#dcdcdc"
        },
        {
          "hex": "#808080"
        },
        {
          "hex": "#faebd7"
        }
      ],
      "marekm4": [
        {
          "hex": "#e8e4cf"
        },
        {
          "hex": "#45493b"
        },
        {
          "hex": "#e7e2cd"
        },
        {
          "hex": "#888979"
        },
        {
          "hex": "#878879"
        },
        {
          "hex": "#f0ead1"
        },
        {
          "hex": "#474a3c"
        }
      ]
    },
    "millsfield:images_texts": [
      "1\nFriday, Detober 28, 1949\nDear Girls,\nThis is being written en route to Bangkok from Caleutta where I\narrived at 1:00 s.m. this morning.\nAt the airport I leamed thet some\ntwenty people hed been killed in a riot neer the Great Testern Hotel a\nfew hours earlier, but tast I need have no concern because \"the riot is\nnow well in hend\". It took an hour to get through Publie Heelth, Imal-\ngration, Security Officer and Customs. I filled out forma end more forse\nnotwithstanding the faot that the very same dey I was going on to Hongkong.\nFinelly, at about 2:30 e.m. I got away and st 3:00 e.m. arrived at the\nGreat Eastern Hotel (only the second name of which is deserved).\nThere\nI tilled out four more forns, signed the hotel register twice and the ears,\nthe only possible purpose of which was to keep sone buresuerata in gein/l\noccups.tion.\nMy bed was a concrete-like slab with pillow to satch, and I\ncouldn't get to sleep.\nHowever, at about 5:00 s.m. I did full off only\nto be awakened at 7:30 by my room bay who let himeelf in with a pess key\nto ask if I wanted breekfest. I told him to come back at 10:00 a.n. but\nwithin another half hour there was a kooking et my door.\nThere I found\na siter who asked the some question. So, I gave up and seid \"yes\" hoping\na he sold not sing 5 or a our separate in te a a\nsleep in he cane. After breakfest four sneepers eome in to elen up the\nroom (esch subsequently wanted \u0026 tip), ao I retreated to the beth where\nan uncurtained shower mansged to get some water on me but more on the\nfloor which 11ke my bed wes really conerete - so it didn't matter.\nTent around to the PA new office which is very up-to-date with\nA friend\ntook the PAA f1 and me to lunch at the Bengel Club. This is a stuffy old\nbullding also on the Midan but probably one of the world's nost exelusive.\nTo join you must be a pure blooded British citizen who has resided con-\nSinuously in India for ten or more yeers. Also, you must be favorably\nknown by esch of the twelve directors or members of the Board.\nIt usa Friday and my host explained thet before the days of the\nairplene the nellboat left on Thursday. Men sorked to get off their neil,\nthat done relexed on Friday.\nThe Club put on a special meme and\nmembers tarried long in the ber before lunch and longer afterrards.\ndespite the change in the times the custom continues and the Club was pecked,\nor should I say the bar. We couldn't get a table or even stending room\nso my hoat said, \"You know thie sort of thing fan't done - reilly not ever -\nbut I see no reason why me shouldn't have our cocktalls at the luncheon\nteble\". That we did, but we were the only ones (at 1:20 p.m.) in the\nA 3.\nSIP/OS",
      "dining room.\nThe British there in the Bengal Club are nore British than\nthe Tower of London.\nNo Indien ia permitted - no utter who he 1s.\nNo\none can smoke in the dining room until after 2:00 p.m. though no ledles\nhave ever been permitted in the club; it's just \u0026 euston which our host\nsaid \"re've elways hed\".\nI doubt if any of the membere reclly belleve that\nSingapore ever fell er Hongkong either. That sort of thing can't happen in\nthe British Tapire.\nOur host ordered a sherry especially nade in Portugel\nTor the Club, snd later a bottle of Medeire explaining that no bottle mas\never pernitted to be opened except in the presenes of the member beceuse it\nlost its beet quality 1f uncorked for a few bours. It wes the best I've\never tested.\nThe Luneh was good for British food - meaning thet it compared\nwith Thompsons on 42nd Street.\nrate end Bengslese, (I mention then in the order of\nmy personal\npreference) all searching for some choiee bit.\nYou ney surmise that I an not over fond of Caloutta in general or\nthe Bengels in partieular. However, not all Indian cities are as bed nor\n811 Indians as low ss the Bengels - the lowest order of humen beings.\nAs me boarded our bus for the sirport one of the pessengers - an\nAmerteen - said he had been having fun for the last helf hour trading with\na news dealer for a copy of the latest Seturdey Evening Post. The daler\nwanted one and one-half rupees, but the Anerlean stood pat on one rupee\n(about 204). Just as the bus started the dealer said oksy sester\", held\nup the Post rolled up and got his rupes. A moment later the Ameriesn said,\n\"Look at thia.\" The date was Tebmary 2, 1946 l\nI'm glad thet effeetive November 1 me sre going to heve the meeting\nplace between the Atlentle and the Paeifie Diviaions at Hongkong for then\nthere will be no layover in Caleutte. In this wey our trinsit pessengers\nwon't have to put up with all thet nonsense at Caleutte or leave the hotel\nthree hours before plane departures as I had to do tonight in order to\nolear the formelities st the airport.\nLater\nSny tober 30, 1949 - Hongiong\nHeve just come beck from \u0026 Chinese dinner given by lex Polin in ay\nhonor.\nPresent were Allison, Bond, K1 Chun ell of whom sent their very\nbest to you all.\nIne sitution et Hongkong is much better than I exeected it would\nInere seems to be e general eir of confidence everywhere with l1ttle\nI hope they are right.\nI an leaving tomorrow afternoon for Menila to participate in the",
      "3\ncelebration marking the arrival of the firat Boeing Stretocrulaer on November\n3rd.\nExpect to come beck here on the 6th and go on to Toiyo.\nLota of love to you all.\n(signed) H.M.B.\n• BEIS) POS"
    ],
    "millsfield:images_texts_ids": [
      1913799565,
      1913799567,
      1913799569
    ],
    "millsfield:primary_image": 1913799565,
    "millsfield:subcategory_id": 1511213489,
    "mz:is_approximate": 1,
    "mz:is_current": 1,
    "sfomuseum:accession_number": "2019.121.1138 a c",
    "sfomuseum:airline": "Pan American Airways",
    "sfomuseum:airline_id": [
      685
    ],
    "sfomuseum:category": "Employee Career History",
    "sfomuseum:classification_id": 195,
    "sfomuseum:collection": "Aviation Archive",
    "sfomuseum:creditline": "Collection of SFO Museum",
    "sfomuseum:date": "10/28/1949",
    "sfomuseum:date_acquired": "2019-11-22",
    "sfomuseum:daterange_end": "1949-10-28",
    "sfomuseum:daterange_start": "1949-10-28",
    "sfomuseum:description": "Typewritten letter from Harold M. Bixby to his “Girls”, dated October 28, 1949, en route from Bangkok to Calcutta [Kolkata]; includes description of his arrival and hotel in Calcutta, a visit to the Bengal Club; additional note from Hong Kong with notation of dinner with Max Polin, [Ernest] Allison, Ki Chun, and [William L.] Bond.",
    "sfomuseum:dimensions": "11 x 8 1/2 inches (27.9 x 21.6 cm)",
    "sfomuseum:medium": "paper, ink",
    "sfomuseum:object_id": 211501,
    "sfomuseum:placetype": "object",
    "sfomuseum:publication": ": , 10/28/1949.",
    "sfomuseum:subcategory": "Correspondence, Personal",
    "src:geom": "sfomuseum#undetermined",
    "wof:belongsto": [
      102527513,
      1159162825,
      102191575,
      85633793,
      102087579,
      85922583,
      85688637,
      1159160869
    ],
    "wof:country": "XY",
    "wof:created": 1714548982,
    "wof:depicts": [
      1159284991,
      1159286839
    ],
    "wof:geomhash": "c281b9d9eefc83b5710e64b9d646067d",
    "wof:hierarchy": [
      {
        "building_id": -1,
        "campus_id": 102527513,
        "collection_id": 1159162825,
        "concourse_id": 1159162825,
        "continent_id": 102191575,
        "country_id": 85633793,
        "county_id": 102087579,
        "custom_id": 1913796093,
        "locality_id": 85922583,
        "neighbourhood_id": -1,
        "object_id": 1913796093,
        "region_id": 85688637,
        "wing_id": 1159160869
      }
    ],
    "wof:id": 1913796093,
    "wof:lastmodified": 1787988219,
    "wof:name": "correspondence: Harold M. Bixby to his daughters",
    "wof:parent_id": 1159162825,
    "wof:placetype": "custom",
    "wof:placetype_alt": [
      "object"
    ],
    "wof:repo": "sfomuseum-data-collection",
    "wof:superseded_by": [],
    "wof:supersedes": []
  },
  "bbox": [
    -122.38647222518921,
    37.6161053594541,
    -122.38583385944366,
    37.61661101879963
  ],
  "geometry": {"type":"Polygon","coordinates":[[[-122.38647222518921,37.61631782178288],[-122.386434674263,37.61623283692423],[-122.38637566566466,37.61617759671399],[-122.38630056381224,37.6161308549656],[-122.38616108894348,37.6161053594541],[-122.38602161407469,37.6161308549656],[-122.38591432571411,37.61618609521055],[-122.38585531711577,37.61626683087935],[-122.38583385944366,37.61636881265146],[-122.38587141036987,37.61646654505181],[-122.38594114780425,37.61654303118856],[-122.38605380058287,37.61660252035167],[-122.38618254661559,37.61661101879963],[-122.3863059282303,37.61657277577607],[-122.3864185810089,37.61650903735973],[-122.3864668607712,37.61641130501523],[-122.38647222518921,37.61631782178288]]]}
}
