{
  "id": 1762690143,
  "type": "Feature",
  "properties": {
    "date:cessation_lower": "1969-01-01",
    "date:cessation_upper": "1969-12-31",
    "date:inception_lower": "1969-01-01",
    "date:inception_upper": "1969-12-31",
    "edtf:cessation": "1969",
    "edtf:inception": "1969",
    "geom:area": 2.475047457570636e-7,
    "geom:bbox": "-122.386472,37.616105,-122.385834,37.616611",
    "geom:latitude": 37.61635747477365,
    "geom:longitude": -122.38615540108617,
    "millsfield:airline_id": [
      1159283649
    ],
    "millsfield:category_id": 1511214223,
    "millsfield:collection_id": 1511214207,
    "millsfield:company_id": [
      1159287863
    ],
    "millsfield:images": [
      1762697465,
      1762698043
    ],
    "millsfield:images_colors_refs": {
      "crayola": [
        {
          "hex": "#414a4c"
        },
        {
          "hex": "#bab86c"
        },
        {
          "hex": "#85754e"
        },
        {
          "hex": "#87a96b"
        },
        {
          "hex": "#eceabe"
        },
        {
          "hex": "#efcdb8"
        },
        {
          "hex": "#714b23"
        }
      ],
      "css4": [
        {
          "hex": "#6b8e23"
        },
        {
          "hex": "#fffacd"
        },
        {
          "hex": "#f5deb3"
        },
        {
          "hex": "#556b2f"
        },
        {
          "hex": "#bdb76b"
        }
      ],
      "marekm4": [
        {
          "hex": "#545b1c"
        },
        {
          "hex": "#404323"
        },
        {
          "hex": "#9f9b57"
        },
        {
          "hex": "#adab6e"
        },
        {
          "hex": "#e3d6b3"
        },
        {
          "hex": "#798539"
        },
        {
          "hex": "#fbf3c7"
        },
        {
          "hex": "#76832b"
        }
      ]
    },
    "millsfield:images_texts": [
      "AIR-INDIA\nTIMETABLE\nValid from July 1 to October 25, 1969",
      "Al\n703\nF/ Y\nTue\n1315\nL\n1730\nAI\n205\nF/Y\nWed\n1200\nL\n1320L\n1405\n1530\n1615\n1805\nAI\n207\nF/Y\nThu\n1200\nL\n1505\n1615\n1715\nINDIA-MAURITIUS - EAST AFRICA\nAl\n215\nF/Y\nSun\n0730\nCB\nL\n1035\ndep\narr\narr\ndep\narr\ndep\narr\ndep\narr\nBOEING 707\nBOMBAY\nMAURITIUS\nADEN\nADDIS ABABA\nNAIRO BI\nENTEBBE\narr\ndep\ndep\narr\ndep\narr\ndep\narr\ndep\nAl\n702\nF/ Y\nWed\n0355\nD\n2030\nTue\nAl\n204\nF/Y\nThu\n0425\nAl\n206\nF/ Y\nFri\n0510\nTue\n2015\nWed\nAI\n212\nF/ Y\nSun\n2300\nD\n1630\n1555\n1430\n1345\nL\n1200\nSun\nMOSCOW\nOTTAWA •\nAMSTERDAM\nLONDON\nPARIS\nGENE\nBRUSSELS\nFRANKFURT\nPRAGUE\nNEW YORK\nBEIRUI\nTEHERAN\nKUWAIT\nTOKYO\nDELHI\nCAIRO\nBAHRAIN. DUBAI\nADEN\n* BOMBAY\nCALCUTTA\nMADRAS\nADDIS ABABA\nLIMA •\nENTEBBE\nNAIROBI\nHONG KONG\nBANGKOK\n• KUALA LUMPUR\nSINGAPORE\n• JAKARTA\nNANDI,\n• RIO DE JANEIRO\nMAURITIUS\nSANTIAGO •\nPERTH\n• BUENOS AIRES\nAIR-INDIA\nRant Mip\nSYDNEY\nCALENDAR 1969\nJULY\nAUGUST\nSEPTEMBER\nOCTOBER\nNOVEMBER\nSM TW T F\nS\n....\n1 2 3 4 5\n6 7 8 9 10 11 12\n13 14 15 16 17 18 19\n20 21 22 23 24 25 26\n27 28 29 30 31 ..\nSM TW T F\nS\n31\n1 2\n3 4\n5\n6 7 8 9\n10 | 12 13 14 15 16\n17 18 19 20 21 22 23\n24 25 26 27 28 29 30\nSM TW T F\nS\n..12 3 4 5\n6\n7 8 9 10 | 12 13\n14 15 16 17 18 19 20\n21 22 23 24 25 26 27\n28 29 30 ....\nSM TW T F S\n••\n12\n3\n4\n5\n6\n7 8 9 10 11\n12 13 14 15 16 17 18\n19 20 21 22 23 24 25\n26 27 28 29 30 31 ..\nSM TW TFS\n30\n2\n3\n4\n5 6\n7\n9\n10\n11 12 13 14\n15\n16 17 18 19 20 21\n22\n23 24 25 26 27 28\n29"
    ],
    "millsfield:images_texts_ids": [
      1762697465,
      1762698043
    ],
    "millsfield:primary_image": 1762697465,
    "millsfield:subcategory_id": 1511213425,
    "mz:is_current": 1,
    "sfomuseum:accession_number": "2012.173.038",
    "sfomuseum:airline": "Air India",
    "sfomuseum:airline_id": [
      80
    ],
    "sfomuseum:category": "Scheduling / Ticketing",
    "sfomuseum:classification_id": 158,
    "sfomuseum:collection": "Aviation Archive",
    "sfomuseum:creditline": "Gift of Willard F. Keeney",
    "sfomuseum:date": "1969",
    "sfomuseum:date_acquired": "2013-03-28",
    "sfomuseum:daterange_end": "1969-12-31",
    "sfomuseum:daterange_start": "1969-01-01",
    "sfomuseum:description": "Timetable issued by Air India, effective July 1 through October 25, 1969; fold-out format; white and green cover with illustration of woman painting the Maharaja figure’s portrait; includes route map. ",
    "sfomuseum:dimensions": "9 1/2 x 3 3/4 inches (24.1 x 9.5 cm)",
    "sfomuseum:medium": "paper, ink",
    "sfomuseum:object_id": 140446,
    "sfomuseum:placetype": "object",
    "sfomuseum:publication": ": , 1969.",
    "sfomuseum:subcategory": "Timetable",
    "sfomuseum:subject": "Airlines -- Commercial -- Air India.",
    "src:geom": "sfomuseum#undetermined",
    "wof:belongsto": [
      102527513,
      1159162825,
      102191575,
      85633793,
      102087579,
      85922583,
      85688637,
      1159160869
    ],
    "wof:country": "XY",
    "wof:created": 1641342908,
    "wof:depicts": [
      1159287863,
      1159283649
    ],
    "wof:geomhash": "c281b9d9eefc83b5710e64b9d646067d",
    "wof:hierarchy": [
      {
        "building_id": -1,
        "campus_id": 102527513,
        "collection_id": 1159162825,
        "concourse_id": 1159162825,
        "continent_id": 102191575,
        "country_id": 85633793,
        "county_id": 102087579,
        "custom_id": 1762690143,
        "locality_id": 85922583,
        "neighbourhood_id": -1,
        "object_id": 1762690143,
        "region_id": 85688637,
        "wing_id": 1159160869
      }
    ],
    "wof:id": 1762690143,
    "wof:lastmodified": 1787988196,
    "wof:name": "timetable: Air India",
    "wof:parent_id": 1159162825,
    "wof:placetype": "custom",
    "wof:placetype_alt": [
      "object"
    ],
    "wof:repo": "sfomuseum-data-collection",
    "wof:superseded_by": [],
    "wof:supersedes": []
  },
  "bbox": [
    -122.38647222518921,
    37.6161053594541,
    -122.38583385944366,
    37.61661101879963
  ],
  "geometry": {"type":"Polygon","coordinates":[[[-122.38647222518921,37.61631782178288],[-122.386434674263,37.61623283692423],[-122.38637566566466,37.61617759671399],[-122.38630056381224,37.6161308549656],[-122.38616108894348,37.6161053594541],[-122.38602161407469,37.6161308549656],[-122.38591432571411,37.61618609521055],[-122.38585531711577,37.61626683087935],[-122.38583385944366,37.61636881265146],[-122.38587141036987,37.61646654505181],[-122.38594114780425,37.61654303118856],[-122.38605380058287,37.61660252035167],[-122.38618254661559,37.61661101879963],[-122.3863059282303,37.61657277577607],[-122.3864185810089,37.61650903735973],[-122.3864668607712,37.61641130501523],[-122.38647222518921,37.61631782178288]]]}
}
