{
  "id": 1930466067,
  "type": "Feature",
  "properties": {
    "date:cessation_lower": "1997-01-01",
    "date:cessation_upper": "1997-12-31",
    "date:inception_lower": "1997-01-01",
    "date:inception_upper": "1997-12-31",
    "edtf:cessation": "1997",
    "edtf:inception": "1997",
    "geom:area": 2.475047457570636e-7,
    "geom:bbox": "-122.386472,37.616105,-122.385834,37.616611",
    "geom:latitude": 37.61635747477365,
    "geom:longitude": -122.38615540108617,
    "millsfield:aircraft_id": [
      1159292537
    ],
    "millsfield:airline_id": [
      1159285551
    ],
    "millsfield:category_id": 1762671311,
    "millsfield:collection_id": 1511214207,
    "millsfield:company_id": [
      1159293561,
      1159291259
    ],
    "millsfield:images": [
      1930466265,
      1930466267,
      1930466269
    ],
    "millsfield:images_colors_refs": {
      "crayola": [
        {
          "hex": "#6699cc"
        },
        {
          "hex": "#414a4c"
        },
        {
          "hex": "#dbd7d2"
        },
        {
          "hex": "#9c2542"
        },
        {
          "hex": "#c46210"
        },
        {
          "hex": "#ffcf48"
        },
        {
          "hex": "#757575"
        }
      ],
      "css4": [
        {
          "hex": "#4682b4"
        },
        {
          "hex": "#d3d3d3"
        },
        {
          "hex": "#dcdcdc"
        },
        {
          "hex": "#b22222"
        },
        {
          "hex": "#2f4f4f"
        },
        {
          "hex": "#daa520"
        },
        {
          "hex": "#696969"
        },
        {
          "hex": "#191970"
        },
        {
          "hex": "#a52a2a"
        }
      ],
      "marekm4": [
        {
          "hex": "#e0cc40"
        },
        {
          "hex": "#383531"
        },
        {
          "hex": "#d9d4c4"
        },
        {
          "hex": "#b62e2f"
        },
        {
          "hex": "#3a3638"
        },
        {
          "hex": "#d02e09"
        },
        {
          "hex": "#e4e3da"
        },
        {
          "hex": "#6093c2"
        },
        {
          "hex": "#b3353a"
        },
        {
          "hex": "#588862"
        },
        {
          "hex": "#171d48"
        },
        {
          "hex": "#d9d4c9"
        },
        {
          "hex": "#dac539"
        }
      ]
    },
    "millsfield:images_texts": [
      "For your safety\nPour votre sécurité\nPara su seguridad\nFür ihre sicherheit\nPara sua segurança\nSeries 30\nDC-10\nNo person may sit in an exit row seat who \"lacks the ability to read and\nunderstand instructions related to emergency evacuation provided by the\ncertificate holder in printed, handwritten, or graphic form or the ability to\nunderstand oral crew commands in the English language.\"\nSi vous êtes assis sur une rangée située près d'une sortie veuillez vous\nidentifier à un membre de l'equipage afin que l'on vous attribue un autre\nsiege si: vous ne pouvez pas lire, parler ou comprendre les illustrations\ngraphiques, ou bien si vous ne pouvez comprendre les instructions orales\nde l'equipage.\nPor favor identifíquese con un tripulante para ser camiado de asiento si\nusted está sentado en una de las hilera de la salida, y si tiene problemas\npara: leer, escribir, entender inglés, instrucciones gráficas o la dificultad\npara entender ordenes verbales de la tripulación.\nWenn Sie in einer Reihe von Sitzen neben einem Notausgang sitzen,\nmüssen Sie die Flugzeugbesatzung verständigen, damit diese Ihnen einen\nneuen Platz zuteilen kann, sollten Sie: Englisch nicht sprechen, lesen oder\nverstehen können, oder die grafischen Darstellungen nicht verstehen,\noder sollten Sie die mündlichen Anordnungen der Flugzeugbesatzung\nnicht verstehen.\nNão é permitido sentar-se nos assentos de fileira de saída qualquer\npessoa que \"não tenha a capacidade de ler e compreender instruções\nde evacuação de emergência preparadas pela companhia aérea em\nforma impressa, escrita a mão ou gráfica ou que não possa compreender\nordens verbáis em inglês da tripulação.\"\nFederal law requires that you review this information.\nFollow these instructions, the directions of the crew, and posted signs\nPlease do not remove this card from the aircraft.\nW\nRLD\nWASHINGTON-DULLES INTERNATIONAL AIRPORT-WASHINGTON, DC\nWOA Rev.11/97",
      "No smoking\nDéfense de fumer\nNo fumar\nNicht rauchen\nNão fume\nFederal law prohibits tampering with the smoke alarms.\nLa loi fédérale défend de toucher à l'avertisseur de fumée.\nLa Ley Federal prohibe el entremeterse con las alarmas de humo.\nDas Bundesgesetz untersagt die Manipulation des Rauchalarms.\nÉ proíbido por lei federal mexer nos detectores de fumaça.\nLife Rafts\nCanot pneumatique\nBalsas salvavidas\nSchlauchboot\nBarcos salva-vidas\nTo separate raft from aircraft, read instructions printed on raft.\nPour detacher le canot de sauvetage de l'avion, lisez les instructions\nimprimées surle radeau.\nAlejar la balsa del aeronave, lea las instrucciones imprimidas en el bote.\nSchlauchboot von flugzeug frei machen, aufgedruckte Anweisungen lesen.\nPara separar o barco da aeronave, leia as instruções impressas no barco.\n2\n3\nOr\nOu\nOder\nOu\nCopyright © Aero Safety Graphics Inc. 1997. All rights reserved. Printed in USA. Tel: (800) 376-4622 Fax: (425) 957-0932\n2002.\n27. 724.",
      "Take-off \u0026 Landing\nDécollage et l'atterissage\nAl salir y aterrizar\nStart und Landung\nDurante decolagem e aterrissagem\nEmergency exits\nSorties de secours\nSalidas de emergencia\nNotausgang\nSaídas de emergênçia\nKnow the location and operation of\nall emergency equipment and exits.\nBefore opening an exit, quickly look\nthrough a window to check outside\nfor the following:\nSmoke\nIf smoke is so thick you cannot see\nout, redirect passengers to other exits.\nFire\nIf there is fire outside the aircraft,\nredirect passengers to other exits.\nDebris/\nObstructions\nFollow lights to exits.\nSuivez les lampes vers la sortie.\nSiga las luces hasta la salida.\nFolgen Sie den Bodenlichtern zum\nAusgang.\nSiga as luzes para as saídas.\nIf there are obstructions or metal debris\noutside, redirect passengers to other exits.\nB\nš30Ỗở\nOxygen\nOxygène\nOxigeno\nSauerstoff\nOxigenio\nOder\nA\nCheck that the slide has properly inflated and is in good condition.\nUse handles to stabilize slide.\n3"
    ],
    "millsfield:images_texts_ids": [
      1930466265,
      1930466267,
      1930466269
    ],
    "millsfield:primary_image": 1930466265,
    "millsfield:subcategory_id": 1511213703,
    "mz:is_approximate": 1,
    "mz:is_current": 1,
    "sfomuseum:accession_number": "2002.127.724",
    "sfomuseum:aircraft": "McDonnell Douglas DC-10 Series 30",
    "sfomuseum:aircraft_id": [
      1449
    ],
    "sfomuseum:airline": "World Airways",
    "sfomuseum:airline_id": [
      944
    ],
    "sfomuseum:category": "Passenger Amenity, Archive",
    "sfomuseum:classification_id": 581,
    "sfomuseum:collection": "Aviation Archive",
    "sfomuseum:creditline": "Gift of Thomas G. Dragges",
    "sfomuseum:date": "1997",
    "sfomuseum:date_acquired": "2003-12-22",
    "sfomuseum:daterange_end": "1997-12-31",
    "sfomuseum:daterange_start": "1997-01-01",
    "sfomuseum:description": "Safety information card issued by World Airways for the McDonnell Douglas DC-10-30 fleet; gray and blue double-sided bi-fold card with illustrations depicting inflight safety and emergency procedures; identification code: WOA; revision date: 11/97.",
    "sfomuseum:dimensions": "9 1/2 x 5 1/2 inches (24.1 x 14 cm)",
    "sfomuseum:maker": "Aero Safety Graphics Inc.",
    "sfomuseum:medium": "paper, ink",
    "sfomuseum:object_id": 70626,
    "sfomuseum:placetype": "object",
    "sfomuseum:publication": ": , 1997.",
    "sfomuseum:subcategory": "Safety Information Card",
    "src:geom": "sfomuseum#undetermined",
    "wof:belongsto": [
      102527513,
      1159162825,
      102191575,
      85633793,
      102087579,
      85922583,
      85688637,
      1159160869
    ],
    "wof:country": "XY",
    "wof:created": 1722065613,
    "wof:depicts": [
      1159291259,
      1159285551,
      1159292537,
      1159293561
    ],
    "wof:geomhash": "c281b9d9eefc83b5710e64b9d646067d",
    "wof:hierarchy": [
      {
        "building_id": -1,
        "campus_id": 102527513,
        "collection_id": 1159162825,
        "concourse_id": 1159162825,
        "continent_id": 102191575,
        "country_id": 85633793,
        "county_id": 102087579,
        "custom_id": 1930466067,
        "locality_id": 85922583,
        "neighbourhood_id": -1,
        "object_id": 1930466067,
        "region_id": 85688637,
        "wing_id": 1159160869
      }
    ],
    "wof:id": 1930466067,
    "wof:lastmodified": 1787988221,
    "wof:name": "safety information card: World Airways, McDonnell Douglas DC-10-30",
    "wof:parent_id": 1159162825,
    "wof:placetype": "custom",
    "wof:placetype_alt": [
      "object"
    ],
    "wof:repo": "sfomuseum-data-collection",
    "wof:superseded_by": [],
    "wof:supersedes": []
  },
  "bbox": [
    -122.38647222518921,
    37.6161053594541,
    -122.38583385944366,
    37.61661101879963
  ],
  "geometry": {"type":"Polygon","coordinates":[[[-122.38647222518921,37.61631782178288],[-122.386434674263,37.61623283692423],[-122.38637566566466,37.61617759671399],[-122.38630056381224,37.6161308549656],[-122.38616108894348,37.6161053594541],[-122.38602161407469,37.6161308549656],[-122.38591432571411,37.61618609521055],[-122.38585531711577,37.61626683087935],[-122.38583385944366,37.61636881265146],[-122.38587141036987,37.61646654505181],[-122.38594114780425,37.61654303118856],[-122.38605380058287,37.61660252035167],[-122.38618254661559,37.61661101879963],[-122.3863059282303,37.61657277577607],[-122.3864185810089,37.61650903735973],[-122.3864668607712,37.61641130501523],[-122.38647222518921,37.61631782178288]]]}
}
