{
  "id": 1914579725,
  "type": "Feature",
  "properties": {
    "date:cessation_lower": "1990-01-01",
    "date:cessation_upper": "1990-12-31",
    "date:inception_lower": "1990-01-01",
    "date:inception_upper": "1990-12-31",
    "edtf:cessation": "1990",
    "edtf:inception": "1990",
    "geom:area": 2.475047457570636e-7,
    "geom:bbox": "-122.386472,37.616105,-122.385834,37.616611",
    "geom:latitude": 37.61635747477365,
    "geom:longitude": -122.38615540108617,
    "millsfield:aircraft_id": [
      1159289759
    ],
    "millsfield:airline_id": [
      1159284989
    ],
    "millsfield:category_id": 1762671311,
    "millsfield:collection_id": 1511214207,
    "millsfield:company_id": [
      1159293593
    ],
    "millsfield:images": [
      1914580087,
      1914580091,
      1914580093
    ],
    "millsfield:images_colors_refs": {
      "crayola": [
        {
          "hex": "#6699cc"
        },
        {
          "hex": "#cdc5c2"
        },
        {
          "hex": "#ffae42"
        },
        {
          "hex": "#1164b4"
        },
        {
          "hex": "#1974d2"
        },
        {
          "hex": "#dbd7d2"
        },
        {
          "hex": "#ff2b2b"
        },
        {
          "hex": "#414a4c"
        }
      ],
      "css4": [
        {
          "hex": "#2f4f4f"
        },
        {
          "hex": "#ffd700"
        },
        {
          "hex": "#4169e1"
        },
        {
          "hex": "#dc143c"
        },
        {
          "hex": "#5f9ea0"
        },
        {
          "hex": "#d3d3d3"
        },
        {
          "hex": "#4682b4"
        },
        {
          "hex": "#c0c0c0"
        }
      ],
      "marekm4": [
        {
          "hex": "#e1241b"
        },
        {
          "hex": "#222825"
        },
        {
          "hex": "#d6d9d4"
        },
        {
          "hex": "#dc2a21"
        },
        {
          "hex": "#ecc70f"
        },
        {
          "hex": "#d0cecc"
        },
        {
          "hex": "#1472c1"
        },
        {
          "hex": "#e81717"
        },
        {
          "hex": "#055bc4"
        },
        {
          "hex": "#2d1e29"
        },
        {
          "hex": "#638eb0"
        },
        {
          "hex": "#c1c6c6"
        },
        {
          "hex": "#3e3537"
        }
      ]
    },
    "millsfield:images_texts": [
      "Safety\nInformation\nCONSIGNES DE SÉCURITÉ\nSICHERHEITSANWEISUNGEN\nISTRUZIONI DE EMERGENZA\nINSTRUCOES DE SEGURANÇA\nINFORMACION DE SEGURIDAD\n727\nPAN AM\nPLEASE DO NOT REMOVE CARD FROM AIRPLANE.\nPRIERE DE LAISSER CETTE CARTE A BORD.\nBITTE DIESE KARTE AN BORD LASSEN.\nSI PREGA DI LASCIARE QUESTO CARTONCINO A BORDO.\nFAVOR DEIXAR ESTE CARTÃO A BORDO.\nROGAMOS DEJAR ESTA CARTILLA A BORDO.\nTAKE-OFF AND LANDING\nDECOLLAGE ET ATTERRISSAGE\nSTART UND LANDUNG\nDECOLLO E ATTERRAGIO\nDESCOLAGEM E ATERRISSAGEM\nDESPEGUE Y ATERRIZAJE\nTHE SMOKING OF PIPES AND\nCIGARS IS PROHIBITED\nIL EST RECOMMANDE DE S'ABSENTIR\nDE FUMER LA PIPE ET LE CIGARE\nDAS RAUCHEN VON PFEIFFEN UND\nZIGARREN IST VERBOTEN\nVIETATO FUMARE PIPA O SIGARI\nE PROIBIDO FUMAR CACHIMBO E CHARUTO\nPROHIBIDO FUMAR PIPAS Y PUROS\nNO SMOKING\nNE PAS FUMER\nNICHT RAUCHEN\nNON FUMARE\nNÃO FUMAR\nNO FUMAR\nOXYGEN\nOXYGENE\nSAUERSTOFF\nOSSIGENO\nOXIGENIO\nOXIGENO\nFASTEN SEAT BELT\nNO SMOKING\nPLEASE\nCOMPLY WITH ALL\nSAFETY SIGNS AND PLACARDS\nVEUILLEZ RESPECTER TOUS LES\nAVIS ET TOUS LES PANNEAUX DE\nSECURITE.\nBITTE ACTEN SIE AUF ALLE\nSICHERHEITSHINWEISE.\nVI PREGHIAMO DI OSSERVARE\nTUTTI I SENALI DI SIGUREZZA.\nOBSERVE TUDO OS SINAIS DE\nSEGURANÇA.\nOBSERVE TODAS LAS SEÑALES Y\nTODOS LOS AVISOS DE SEGURIDAD.\n3\n©1990 Pan American World Airways\n922-318329",
      "SUPREENCY TANDING\nATTERRISSAGE FORCÉ\nNOTLANDIING\nSARACEN SORTO\nATPRRICCAGEM FORCANA\nATERRIZAJE FORZOSO\nLANDING ON WATER\nEXIT\nAMERRICCAGEM\nACUATIZAJE\nEUFROENCY SYN\nSORTIE DE SECOURS\nNOTAIICCANG\nCATA USRASN7\nCAINA DE SMEROENOT\nSALIDA DE EMERGENCIA\nFLOOR EMERGENCY LIGHTS\nILUMINAÇAO DE EMERGENCIA DO ASSOALHO\nLUCES DE EMERGENCIA DE PASILLO\nTAKE OFF YOUR HIGH-HEELED SHOES\nTOGLERE SCARPE CON TACCHI ALTI\nTIRAR NC CAPOTNC NAM CAI TOC AITÁC\nQUITENSE LOS ZAPATOS DE TACOS ALTOS\nFEDERAL LAW PROHIBITS TAMPERING WITH, DISABLING OR DESTROYING ANY SMOKE DETECTORS\nIL EST LEGALEMENT INTERDIT DE DETERIORER TOUT DÉTECTEUR DE FUMÉE\nBUNDESGESETZE VERBIETEN DEN MISSBRAUCH ODER DIE BESCHÄDIGUNG DER RAUCHDETEKTOREN\nLE LEGGI FEDERALI PROIBISCONO LA MANOMISSIONE, LA DISATTIVAZIONE O LA DISTRUZIONE DI QUALSIASI RIVELATORE DI FUMO\nAS LEIS FEDERAIS PROIBEM TOCAR, DANIFICAR OU DESTRUIR QUALOUER DETETOR DE FUMACA\nLA LEY FEDERAL PROHIBE TOCAR, DESMANTELAR O DESTRUIR CUALQUIER DETECTOR DE HUMO\nOR\nROTATE HANDIE IN DIRFCTION OF ARROM\nTOURNSZ TA DOIGHSS DANSES DIRSCTON DANA SISCHS\nRE LA MANIGLIA NEL SENSO INDICATO DALLA FRECCIA\nGIRE LA MANUA EN DIRECCON DE LA FLECHA\nEXIT ROW SEATING\nFederal Aviation Regulations require that\nCONSe CeN SHa ee eSen-TeC eXiTTOW\nbe able to assist crewmembers in the event\nof an emergency.\nBecause emergency exits may be heavy and\ndifficult to\nanipulate, persons\nseated in\nexit rows\nIus ave\nsuficient mobility,\nSTenoTA\nФехтепту\nDOTA\narms\nane\nhands, and both legs to open the exits.\nIf you are seated in an exit row, anther seat\nassignment is required if you do not want\no or are not able to help in the event of an\nemergency tor any or tne torowing reasons.\n• You do not read English well enough to\nunderstand the instructions on this card\nHOL\nunacistane\nolal\nCrew\nColinanos nr\n• You physically cannot open an exit and\nYou have difficulty hearing verbal crew\ncommands or lack visual capacity to nelp\nin an emereeney\ncannot shout information to other\npassenders\nYou have a condition that mav cause you\nharm if you perform these functions.\nthe reponsibility of caring for\nsmall children or another\nOASSHN0 i\nYou have a condition that is not annarent\nthat may prevent you from understanding\nperformina the functions shown on\nhis card.\n• You are younger than 15 years of age.\nPlease identify the exit nearest you and\nreview this Passenger Safety Information\nCard for exit operation and procedures.\nNotify your Flight Attendant if you have any\nquestons or reouire resentino.\nIn the event of an emergency\nfollow the\n•rections ane nand cianals ot vollr crew\nIf a crewmember is not available to assist\nyou, follow the instructions on this card and\nposted signs.\nBefore opening the exit look through the\nwindow to be sure there is no fire or heavy\nsmoke. If it is sate. open the exit. If the exit\nhas a slide.\ninflate the slide.\nLeave the\nairplane,\nnd then hold the slide down. held\npeonle off and awav from the airnlane\nFRANCAIS\nSi vous êtes assis dans une rangée a côté\nd'une sortie de l'avion, et si vous ne pouvez\nnac comnrendre ni narlor ni liro l'analaic\nveuillez contacter un membre de l'équipage.\nFalls Sie bei einem Notausgang sitzen und\nnicht Englisch verstehen. melden Sie sich\nbitte bei einem der Flugbegleiter.\nITALIANO\nSo cioto coduti in uno filo visino od uno\nuscita e\nnon capite o parlate o leggete\ninglese,\npreghiamo\ninformare\nassistente di volo.\nPORTÛGUES\nSi você estiver sentado em uma fileira perto\nde uma saída do avião e não puder\nantondor falar o ler em inalic nor favor\ncomuníaue se com um comissário.\nESPAÑOL\nCi coto contado on lne fille naras do lina\nhablar,\ningles,\ncontifinioco s lin acictonto do violo\nfavor",
      "3\nLANDING ON WATER\nAMERRISSAGE\nWASSERLANDUNG\nAMMARAGGIO\nAMERRISSAGEM\nACUATIZAJE\nTAKE OFF YOUR SHOES\nENLEVEZ CHAUSSURES\nSCHUME AUSZIEHEN\nTOGLIERE SCARPE\nTIRAR OS SAPATOS\nQUITENSE LOS ZAPATOS\nPASSENGERS SHOULD COMPLY WITH SAFETY INSTRUCTIONS OF CREW MEMBERS\nLES PASSAGERS DOIVENT APPLIQUER LES MESURES DE SÉCURITÉ DONNÉES PAR L'ÉQUIPAGE\nPASSAGIERE MÜSSEN DEN SICHERHEITSANWEISUNGEN DER BESATZUNG FOLGE LEISTEN\nI PASSEGGERI SONO PREGATI DI ATTENERSI ALLE ISTRUZIONI DI SICUREZZA DATE DALL'EQUIPAGGIO\nOS PASSAGEIROS DEBEM SEGUIR AS INSTRUÇÕES DE SEGURANÇA DADAS PELA TRIPULAÇÃO\nLOS PASAJEROS DEBEN CUMPLIR LAS INSTRUCCIONES DE SEGURIDAD DADAS POR LA TRIPULACIÓN\n5\nEMERGENCY PORTABLE TRANSMITTER\nEMETTEURS DE DETRESSE PORTATIFS\nTRAGBARE NOTSENDER\nTRANSMETTITORI PORTALILI DI EMERGENZA\nTRANSMISSORES PORTATEIS DE EMERGÊNCIA\nTRANSMISORES PORTATILES DE EMERGENCIA\nOR\nWITH LIFERAFTS\nAVEC RADEAUX\nMIT SCHLAUCHBOOTEN\nCON ZATTERE DI SALVATAGGIO\nCOM BARCOS SALVA-VIDAS\nCON BOTES SALVAVIDAS\nOR\nWITHOUT LIFERAFTS\nSANS RADEAUX\nOHNE SCHLAUCHBOOTE\nSENZA ZATTERE DI SALVATAGGIO\nSIM BARCOS SALVA-VIDAS\nSIN BOTES SALVAVIDAS"
    ],
    "millsfield:images_texts_ids": [
      1914580087,
      1914580091,
      1914580093
    ],
    "millsfield:primary_image": 1914580087,
    "millsfield:subcategory_id": 1511213703,
    "mz:is_approximate": 1,
    "mz:is_current": 1,
    "sfomuseum:accession_number": "2002.127.476",
    "sfomuseum:aircraft": "Boeing 727",
    "sfomuseum:aircraft_id": [
      180
    ],
    "sfomuseum:airline": "Pan American World Airways",
    "sfomuseum:airline_id": [
      684
    ],
    "sfomuseum:category": "Passenger Amenity, Archive",
    "sfomuseum:classification_id": 581,
    "sfomuseum:collection": "Aviation Archive",
    "sfomuseum:creditline": "Gift of Thomas G. Dragges",
    "sfomuseum:date": "1990",
    "sfomuseum:date_acquired": "2003-12-22",
    "sfomuseum:daterange_end": "1990-12-31",
    "sfomuseum:daterange_start": "1990-01-01",
    "sfomuseum:description": "Safety information card issued by Pan American World Airways for its Boeing 727 fleet; gray and red double-sided bi-fold card with illustrations demonstrating inflight safety and emergency procedures; identification code: 922-318329; revision date: 1990.",
    "sfomuseum:dimensions": "11 x 8 1/2 inches (27.9 x 21.6 cm)",
    "sfomuseum:medium": "paper, ink",
    "sfomuseum:object_id": 69185,
    "sfomuseum:placetype": "object",
    "sfomuseum:publication": ": , 1990.",
    "sfomuseum:subcategory": "Safety Information Card",
    "src:geom": "sfomuseum#undetermined",
    "wof:belongsto": [
      102527513,
      1159162825,
      102191575,
      85633793,
      102087579,
      85922583,
      85688637,
      1159160869
    ],
    "wof:country": "XY",
    "wof:created": 1720683221,
    "wof:depicts": [
      1159289759,
      1159293593,
      1159284989
    ],
    "wof:geomhash": "c281b9d9eefc83b5710e64b9d646067d",
    "wof:hierarchy": [
      {
        "building_id": -1,
        "campus_id": 102527513,
        "collection_id": 1159162825,
        "concourse_id": 1159162825,
        "continent_id": 102191575,
        "country_id": 85633793,
        "county_id": 102087579,
        "custom_id": 1914579725,
        "locality_id": 85922583,
        "neighbourhood_id": -1,
        "object_id": 1914579725,
        "region_id": 85688637,
        "wing_id": 1159160869
      }
    ],
    "wof:id": 1914579725,
    "wof:lastmodified": 1787988221,
    "wof:name": "safety information card: Pan American World Airways, Boeing 727",
    "wof:parent_id": 1159162825,
    "wof:placetype": "custom",
    "wof:placetype_alt": [
      "object"
    ],
    "wof:repo": "sfomuseum-data-collection",
    "wof:superseded_by": [],
    "wof:supersedes": []
  },
  "bbox": [
    -122.38647222518921,
    37.6161053594541,
    -122.38583385944366,
    37.61661101879963
  ],
  "geometry": {"type":"Polygon","coordinates":[[[-122.38647222518921,37.61631782178288],[-122.386434674263,37.61623283692423],[-122.38637566566466,37.61617759671399],[-122.38630056381224,37.6161308549656],[-122.38616108894348,37.6161053594541],[-122.38602161407469,37.6161308549656],[-122.38591432571411,37.61618609521055],[-122.38585531711577,37.61626683087935],[-122.38583385944366,37.61636881265146],[-122.38587141036987,37.61646654505181],[-122.38594114780425,37.61654303118856],[-122.38605380058287,37.61660252035167],[-122.38618254661559,37.61661101879963],[-122.3863059282303,37.61657277577607],[-122.3864185810089,37.61650903735973],[-122.3864668607712,37.61641130501523],[-122.38647222518921,37.61631782178288]]]}
}
