{
  "id": 1511956079,
  "type": "Feature",
  "properties": {
    "date:cessation_lower": "2012-01-01",
    "date:cessation_upper": "2012-12-31",
    "date:inception_lower": "2012-01-01",
    "date:inception_upper": "2012-12-31",
    "edtf:cessation": "2012~",
    "edtf:date": "2012~",
    "edtf:inception": "2012~",
    "geom:area": 0,
    "geom:bbox": "-122.386155,37.616357,-122.386155,37.616357",
    "geom:latitude": 37.616357,
    "geom:longitude": -122.386155,
    "iso:country": "XX",
    "millsfield:aircraft_id": [
      1159289409
    ],
    "millsfield:airline_id": [
      1159285159
    ],
    "millsfield:category_id": 1762671311,
    "millsfield:collection_id": 1511214207,
    "millsfield:company_id": [
      1159293829
    ],
    "millsfield:images": [
      1527853213,
      1527853215
    ],
    "millsfield:images_colors_refs": {
      "crayola": [
        {
          "hex": "#1a4876"
        },
        {
          "hex": "#c46210"
        },
        {
          "hex": "#ff7538"
        },
        {
          "hex": "#6dae81"
        },
        {
          "hex": "#fddde6"
        },
        {
          "hex": "#dbd7d2"
        }
      ],
      "css4": [
        {
          "hex": "#e6e6fa"
        },
        {
          "hex": "#dcdcdc"
        },
        {
          "hex": "#d2691e"
        },
        {
          "hex": "#191970"
        },
        {
          "hex": "#ff8c00"
        },
        {
          "hex": "#5f9ea0"
        }
      ],
      "marekm4": [
        {
          "hex": "#d85315"
        },
        {
          "hex": "#e4e6e5"
        },
        {
          "hex": "#5b9c9f"
        },
        {
          "hex": "#f58508"
        },
        {
          "hex": "#e25814"
        },
        {
          "hex": "#e9e9e9"
        },
        {
          "hex": "#ed880e"
        },
        {
          "hex": "#1d2852"
        },
        {
          "hex": "#192651"
        }
      ]
    },
    "millsfield:images_texts": [
      "AIRBUS A320\nSAFETY INFORMATION\n9V-SLF ONWARDS\nSILKAIR\nRegional wing of\nSingapore Airlines\nDO NOT REMOVE FROM AIRCRAFT\nEXPLANATIONS OF SYMBOLS\n• Takeoff\nand landing\nEmergency\nlanding\nLanding\non water\nEXIT\nEmergency\nexit\nOxygen\nNo\nsmoking\nDo not take\nbaggage\nTAKE OFF AND LANDING\nRemove\nhigh heel\nshoes\nDo not use\ntransmitting devices\nTurn off all Electronic devices\nDo not use\nportable electronic\ndevices\nFasten\nSeat belt\nFASTEN\nTIGHTEN\nUNFASTEN\n(infant seat belt is available)\nEMERGENCY LANDING POSITION\nBRACE BRACE",
      "LOCATION OF DOORS/OVERWING EXITS AND EVACUATION ROUTES\nLAND EVACUATION\nDOOR OPERATION EXIT A\nOVERWING EXITS B\n, EXITS A\ni side deployment\nPASSENGER EMERGENCY ESCAPE\nPATH LIGHTING SYSTEM\nEXIT\nEXIT A\n00000000Đ\n0000000C\nEXITS A\nDITCHING EVACUATION\nEXITS A\nOVERWING EXITS B\nEXITS\nEXITS A\nEXIT\nEMERGENCY EXIT SEATS\nExit Row Seating Criteria\nA passenger seated on an\nemergency exit seat\nmay be required to\nassist in\nthe performance of\nemergency evacuation functions listed or depicted\non this Safety Information Card.\nEmergency doors\nare often heavy,\nawkward to lift,\npush,\npull and\nmanoeuvre when opening. In addition, for Safety\nconsiderations,\npassengers seated\nat the\nrows\nshould\nnot\nexit\ncause\nan\nimpediment to\nthe\nevacuation of the aircraft in an emergency. Hence,\nfor the above reasons and for the safety of all our\npassengers,\nthe criteria for passengers seated in\nan exit row are:\n1. Not having pre-existent conditions that cause\ninsufficient mobility,\nstrength or dexterity in\nboth arms, hands and legs to expeditiously locate\nthe exit door to operate the emergency exit-slide\noperating mechanisms and provide assistance\nto others in getting off the escape slide.\n2. Should have sufficient visual, aural and speech\ncapabilities to read, hear and convey orally, or\nunderstand instructions related to\nemergency\nevacuation provided in printed or graphic form or\ninstruction by the cabin crew.\n3. Not less than 15 years of age.\n4. Should not be responsible for caring of\naccompanying\nsmall children,\nelderly\nor\nincapacitated passengers), which would hinder\nthe person from performing any of the applicable\nemergency evacuation functions.\nEmergency Evacuation Functions\nIn the event of an emergency the persons seated at\na row leading to an exit not manned by cabin\ncrew may be called upon to perform the following:\n1. Recognize, locate and operate the emergency\nexit opening mechanism.\n2. Assess whether opening the emergency exit will\nincrease the hazards to which\nmay be exposed.\npassengers\n3. Throw the EXIT door out.\n4. Activate and assess the\nstability\nof the\nemergency slide and the prevalent outside and\nsurrounding\nconditions\nprior to helping\npassengers getting on the slide.\nIf slide deployment\nEXITS\nEXIT B\n00/\n800000000\nDISCONNECTING EMERGENCY SLIDE RAFT\nIF YOU ARE ALLOCATED SEATING IN AN\nEXIT ROW AND CANNOT MEET THE CRITERIA\nLISTED ABOVE, OR LACK THE ABILITY TO\nREAD AND UNDERSTAND THE EMERGENCY\nEVACUATION INSTRUCTIONS PRINTED ON\nTHIS CARD OR DO NOT WISH TO PERFORM\nANY OF THE FUNCTIONS, PLEASE IDENTIFY\nYOURSELF TO A CREW MEMBER FOR RE-SEATING.\n00000\nSMITA165"
    ],
    "millsfield:images_texts_ids": [
      1527853213,
      1527853215
    ],
    "millsfield:primary_image": 1527853213,
    "millsfield:subcategory_id": 1511213703,
    "mz:hierarchy_label": 1,
    "mz:is_current": 1,
    "sfomuseum:accession_number": "2013.072.028",
    "sfomuseum:aircraft": "Airbus A320",
    "sfomuseum:aircraft_id": [
      25
    ],
    "sfomuseum:airline": "SilkAir",
    "sfomuseum:airline_id": [
      762
    ],
    "sfomuseum:category": "Passenger Amenity, Archive",
    "sfomuseum:classification_id": 581,
    "sfomuseum:collection": "Aviation Archive",
    "sfomuseum:creditline": "Anonymous gift",
    "sfomuseum:date": "c. 2012",
    "sfomuseum:date_acquired": "2013-07-16",
    "sfomuseum:daterange_end": "2017-12-31",
    "sfomuseum:daterange_start": "2007-01-01",
    "sfomuseum:description": "Safety information card issued by Silk Air for its Airbus A320 fleet; double-sided bi-fold laminated white card with illustrations and text demonstrating safety instructions and emergency procedures; identification code SMITA165.",
    "sfomuseum:dimensions": "11 1/2 x 7 3/4 inches (29.2 x 19.7 cm)",
    "sfomuseum:media_ids": [
      1527853213,
      1527853215
    ],
    "sfomuseum:medium": "paper, plastic, ink",
    "sfomuseum:object_id": 143929,
    "sfomuseum:placetype": "object",
    "sfomuseum:primary_media_id": 1527853213,
    "sfomuseum:publication": ": , c. 2012.",
    "sfomuseum:subcategory": "Safety Information Card",
    "src:geom": "sfomuseum#undetermined",
    "wof:belongsto": [
      1511214243,
      102527513,
      102191575,
      85633793,
      1511213703,
      85922583,
      102087579,
      1511214277,
      1511214203,
      85688637
    ],
    "wof:breaches": [],
    "wof:country": "XX",
    "wof:created": 1579906658,
    "wof:depicts": [
      1159285159,
      1159288053,
      1159289409,
      1159293829
    ],
    "wof:geomhash": "30c8a918561c84bb2daa2b97fc7c5353",
    "wof:hierarchy": [
      {
        "arcade_id": 1511213703,
        "building_id": 1511214277,
        "campus_id": 102527513,
        "concourse_id": 1511214243,
        "continent_id": 102191575,
        "country_id": 85633793,
        "county_id": 102087579,
        "custom_id": 1511956079,
        "locality_id": 85922583,
        "neighbourhood_id": -1,
        "object_id": 1511956079,
        "region_id": 85688637,
        "venue_id": 1511956079,
        "wing_id": 1511214203
      }
    ],
    "wof:id": 1511956079,
    "wof:lastmodified": 1787988190,
    "wof:name": "safety information card: Silk Air, Airbus A320",
    "wof:parent_id": 1159162825,
    "wof:placetype": "custom",
    "wof:placetype_alt": [
      "object"
    ],
    "wof:repo": "sfomuseum-data-collection",
    "wof:superseded_by": [],
    "wof:supersedes": [],
    "wof:tags": []
  },
  "bbox": [
    -122.386155,
    37.616357,
    -122.386155,
    37.616357
  ],
  "geometry": {"type":"Point","coordinates":[-122.386155,37.616357]}
}
