{
  "id": 2015065451,
  "type": "Feature",
  "properties": {
    "date:cessation_lower": "2000-01-01",
    "date:cessation_upper": "2000-12-31",
    "date:inception_lower": "2000-01-01",
    "date:inception_upper": "2000-12-31",
    "edtf:cessation": "2000",
    "edtf:inception": "2000",
    "geom:area": 2.475047457570636e-7,
    "geom:bbox": "-122.386472,37.616105,-122.385834,37.616611",
    "geom:latitude": 37.61635747477365,
    "geom:longitude": -122.38615540108617,
    "millsfield:aircraft_id": [
      1159289819
    ],
    "millsfield:airline_id": [
      1159285591
    ],
    "millsfield:category_id": 1762671311,
    "millsfield:collection_id": 1511214207,
    "millsfield:company_id": [
      1159293593
    ],
    "millsfield:images": [
      2015065613
    ],
    "millsfield:images_texts": [
      "SOUTHWEST AIRLINES\nSafety Information\nBoeing 737 Aircraft\nPassengers must comply with safety\ninstructions including signs, placards,\nand instructions of crew members.\nSMOKING IS NOT PERMITTED\nON ANY SCHEDULED FLIGHT.\nEMERGENCY\nEXIT SEATING\nIf you are seated in an overwing window row,\nyou are in an exit row and may be called upon\nto open the exit window and help other pas-\nsengers leave the aircraft if a crew member is\nunavailable to do so. If you think you may not\nbe able to assist in these ways, you cannot\nunderstand crew commands or the informa-\ntion on this card, or if you are under 15 years\nof age, please ask to be reseated.\nFederal regulations require that you ask for a non-exit\nrow seat if you cannot or do not wish to perform the fol-\nlowing activities: reach and manipulate the emergency\nexit and exit operating mechanisms, open and remove\nthe exit window, exit efficiently, remove obstructions\neffectively and assist others in sliding off the wing.\nPlease ask for a non-exit row seat if you:\n1. Have a physical condition that may not be visible\nbut may prevent you from assisting in the above\nactivities;\n2. Have a responsibility, such as caring for a small\nchild, that will prevent you from assisting in the\nabove activities;\n3.\nLack sufficient mobility, strength, or dexterity in\nboth your arms and hands and both your legs;\n4.\nRequire the assistance of an adult compan-\nion, parent, or other relative in order to perform\nthe above activities;\n5.\nAre younger than 15 years of age;\n6. Are not able to read and understand written and\nspoken directions in English;\n7. Are visually impaired and need more than contact\nlenses or eyeglasses to perform the above activities;\n8. Are hearing impaired and need more than a\nhearing aid to hear and understand instructions\nshouted by crewmembers;\n9.\nAre not able to give verbal commands to others;\n10.\nThink you may suffer bodily harm as a result of\nperforming the above activities; or\n11. Require a seatbelt extension.\nIn the event of an emergency, follow the directions and\nhand signals of your crew. If a crewmember is not avail-\nable to assist you, follow the instructions on this card\nand posted signs.\nInformación de Seguridad\nAviones Boeing Serie 737\nLos pasajeros deberán de cumplir con\nlas instrucciones de seguridad, incluyendo\nanuncios, señales, tarjetas de asiento e\ninstrucciones de los miembros de la tripulación.\nNO ESTA PERMITIDO FUMAR\nEN NINGUN VUELO.\nASIENTOS DE SALIDA\nDE EMERGENCIA\nSi su asiento está designado en la salida de\nemergencia, se le podría pedir que abra la\nventana de salida y ayude a otros pasajeros\na salir del avión si no está disponible un\nmiembro de la tripulación. Si usted considera\nque no tiene la capacidad para asistir o para\nentender las órdenes de la tripulación, ni la\ninformación en esta tarjeta, o si es menor de\n15 años de edad, por favor solicite que le\nreasignen su asiento.\nLos reglamentos federales requieren que usted\nsolicite un asiento que no sea de salida si no puede\no no desea llevar a cabo las siguientes actividades:\nalcanzar y manipular la salida de emergencia y operar\nlos mecanismos de escape, abrir y quitar la ventana\nde salida, evacuar el avión eficientemente, remover\nobstáculos efectivamente, estabilizar la rampa de salida\ny ayudar a otros a deslizarse sobre el ala del avión.\nPor favor solicite un asiento que no esté en una fila\nde salida si usted:\n1. Tiene una condición física que no es visible,\npero que no le permite ayudar en lo mencionado:\n2. Tiene una responsabilidad, como la de el cuidado\nde un niño pequeño, que no le permite ayudar en\nlo mencionado;\n3.\nNo tiene la suficiente movilidad, fuerza o\ndestreza en ambos brazos y en ambas manos\ny piernas;\n4.\nRequiere la asistencia de un acompañante adulto\n• de sus padres u otro pariente para llevar a\ncabo las actividades mencionadas;\n5.\n6.\nEs menor de 15 años de edad;\nNo es capaz de leer o entender instrucciones\nimpresas o verbales en inglés;\n7. Carece de capacidad visual y necesita más\nque lentes de contacto o anteojos para realizar\nlas actividades mencionadas;\nCarece de capacidad auditiva y necesita más\nque audifonos para escuchar y entender las\n9.\ninstrucciones verbales de la tripulación;\nCarece de capacidad para impartir informa-\nción verbal a otros;\n10.\nConsidera que podría sufrir daño fisico al\nrealizar las actividades mencionadas; o\n11.\nRequiere\nun extensor para su cinturón de\nseguridad.\nEn caso de una emergencia, siga las instrucciones\ny las señales manuales de su tripulación. Si un\nmiembro de la tripulación no está disponible para\nasistirle, siga las instrucciones en esta tarjeta y en\nlos carteles expuestos."
    ],
    "millsfield:images_texts_ids": [
      2015065613
    ],
    "millsfield:primary_image": 2015065613,
    "millsfield:subcategory_id": 1511213703,
    "mz:is_approximate": 1,
    "mz:is_current": 1,
    "sfomuseum:accession_number": "2020.052.251",
    "sfomuseum:aircraft": "Boeing 737",
    "sfomuseum:aircraft_id": [
      207
    ],
    "sfomuseum:airline": "Southwest Airlines",
    "sfomuseum:airline_id": [
      964
    ],
    "sfomuseum:category": "Passenger Amenity, Archive",
    "sfomuseum:classification_id": 581,
    "sfomuseum:collection": "Aviation Archive",
    "sfomuseum:creditline": "Gift of The David Kliman Collection",
    "sfomuseum:date": "2000",
    "sfomuseum:date_acquired": "2020-10-26",
    "sfomuseum:daterange_end": "2000-12-31",
    "sfomuseum:daterange_start": "2000-01-01",
    "sfomuseum:description": "Safety information card issued by Southwest Airlines for its Boeing 737 fleet; double-sided tri-fold card with illustrations demonstrating inflight safety and emergency procedures; identification code: IF-552; revision date: 11/00.",
    "sfomuseum:dimensions": "11 x 6 1/2 inches (27.9 x 16.5 cm)",
    "sfomuseum:medium": "paper, ink",
    "sfomuseum:object_id": 218063,
    "sfomuseum:placetype": "object",
    "sfomuseum:publication": ": , 2000.",
    "sfomuseum:subcategory": "Safety Information Card",
    "src:geom": "sfomuseum#undetermined",
    "wof:belongsto": [
      102527513,
      1159162825,
      102191575,
      85633793,
      102087579,
      85922583,
      85688637,
      1159160869
    ],
    "wof:country": "XY",
    "wof:created": 1773991984,
    "wof:depicts": [
      1159289819,
      1159293593,
      1159285591
    ],
    "wof:geomhash": "c281b9d9eefc83b5710e64b9d646067d",
    "wof:hierarchy": [
      {
        "building_id": -1,
        "campus_id": 102527513,
        "collection_id": 1159162825,
        "concourse_id": 1159162825,
        "continent_id": 102191575,
        "country_id": 85633793,
        "county_id": 102087579,
        "custom_id": 2015065451,
        "locality_id": 85922583,
        "neighbourhood_id": -1,
        "object_id": 2015065451,
        "region_id": 85688637,
        "wing_id": 1159160869
      }
    ],
    "wof:id": 2015065451,
    "wof:lastmodified": 1774083318,
    "wof:name": "safety information card: Southwest Airlines, Boeing 737",
    "wof:parent_id": 1159162825,
    "wof:placetype": "custom",
    "wof:placetype_alt": [
      "object"
    ],
    "wof:repo": "sfomuseum-data-collection",
    "wof:superseded_by": [],
    "wof:supersedes": []
  },
  "bbox": [
    -122.38647222518921,
    37.6161053594541,
    -122.38583385944366,
    37.61661101879963
  ],
  "geometry": {"type":"Polygon","coordinates":[[[-122.38647222518921,37.61631782178288],[-122.386434674263,37.61623283692423],[-122.38637566566466,37.61617759671399],[-122.38630056381224,37.6161308549656],[-122.38616108894348,37.6161053594541],[-122.38602161407469,37.6161308549656],[-122.38591432571411,37.61618609521055],[-122.38585531711577,37.61626683087935],[-122.38583385944366,37.61636881265146],[-122.38587141036987,37.61646654505181],[-122.38594114780425,37.61654303118856],[-122.38605380058287,37.61660252035167],[-122.38618254661559,37.61661101879963],[-122.3863059282303,37.61657277577607],[-122.3864185810089,37.61650903735973],[-122.3864668607712,37.61641130501523],[-122.38647222518921,37.61631782178288]]]}
}
