{
  "id": 1913795437,
  "type": "Feature",
  "properties": {
    "date:cessation_lower": "1935-07-01",
    "date:cessation_upper": "1935-07-01",
    "date:inception_lower": "1935-07-01",
    "date:inception_upper": "1935-07-01",
    "edtf:cessation": "1935-07-01",
    "edtf:inception": "1935-07-01",
    "geom:area": 2.475047457570636e-7,
    "geom:bbox": "-122.386472,37.616105,-122.385834,37.616611",
    "geom:latitude": 37.61635747477365,
    "geom:longitude": -122.38615540108617,
    "millsfield:airline_id": [
      1159284991
    ],
    "millsfield:category_id": 1511214251,
    "millsfield:collection_id": 1511214207,
    "millsfield:company_id": [
      1159286839
    ],
    "millsfield:images": [
      1913802187,
      1913802189
    ],
    "millsfield:images_colors_refs": {
      "crayola": [
        {
          "hex": "#edd19c"
        },
        {
          "hex": "#bab86c"
        },
        {
          "hex": "#414a4c"
        },
        {
          "hex": "#6dae81"
        }
      ],
      "css4": [
        {
          "hex": "#eee8aa"
        },
        {
          "hex": "#3cb371"
        },
        {
          "hex": "#bdb76b"
        },
        {
          "hex": "#f0e68c"
        },
        {
          "hex": "#556b2f"
        }
      ],
      "marekm4": [
        {
          "hex": "#eadc98"
        },
        {
          "hex": "#a9af71"
        },
        {
          "hex": "#68a76b"
        },
        {
          "hex": "#484725"
        },
        {
          "hex": "#eadc9c"
        },
        {
          "hex": "#68a765"
        },
        {
          "hex": "#bfbb73"
        },
        {
          "hex": "#4a4927"
        }
      ]
    },
    "millsfield:images_texts": [
      "monda, fee,'\nDearest Orbs-\nReturning to the kote for lunch\nist and you too eates of the\n. asked min Job.\nto sino me a lot of blank check\nand should had them lay the met\nmait a will 2ts a porter\nsad to you as\nDras dear\n• do gat the fur coat\nfor the girls -\nthats a good buy\nIt you an ours the fur is oK\ni saving lots of more, now\neat stone spare see so samee\nhair none at ale because\nI'm on an expense account. I'm\ncrage, about the pieties of you\nand all the gut and wise have a\nsat something If 9 hair tita\nI kare sin a great\ndeal hers of a Mur and ines mappit -\nhe was former, vice-Our of the Str-dand\nal of N.f.\nnow head of the new\nOrals\nHome and Housing Goon on\nvecation tryi for his kenett. They\nans both virg\nmer - the uzaro a\n20 c. diamond that looks like it\ncame of a chandeler but otherate",
      "seems very nier and sunsible. They\nack har so much more, that they\ndont know uhat to do with it I\nim gong on a pact, with them\ntomorrow.\nShe\nRas proment to ju\na det whick the movie stars\nur .\nIt is granteed to take off\nter pounds in four days\nand\naccording to her\nLas ner falls.\n3 are for it! Ta you a i the\njanne, and\none star boarder!\ngend\nyou saw bitch \u0026 Kidder\nThe dinar at\nAr tangs must bao\nsong on than tyn cho gh\nhair been humilatro by the\ncocky lette rough neck japs.\nStee waiting to\nsee Quezen\nHe is busy with politics all the\ntine\nand too has been away-\nHe only arrird Saturda, - let\nSunday au\nSunday and gits back tonight.\nau my con to Fun dearest\none ma all the\nwould-\nyouri - Bix"
    ],
    "millsfield:images_texts_ids": [
      1913802187,
      1913802189
    ],
    "millsfield:primary_image": 1913802187,
    "millsfield:subcategory_id": 1511213489,
    "mz:is_approximate": 1,
    "mz:is_current": 1,
    "sfomuseum:accession_number": "2019.121.0905 a b",
    "sfomuseum:airline": "Pan American Airways",
    "sfomuseum:airline_id": [
      685
    ],
    "sfomuseum:category": "Employee Career History",
    "sfomuseum:classification_id": 195,
    "sfomuseum:collection": "Aviation Archive",
    "sfomuseum:creditline": "Collection of SFO Museum",
    "sfomuseum:date": "07/01/1935",
    "sfomuseum:date_acquired": "2019-11-22",
    "sfomuseum:daterange_end": "1935-07-01",
    "sfomuseum:daterange_start": "1935-07-01",
    "sfomuseum:description": "Handwritten letter from Harold M. Bixby to his wife, Debby Bixby, dated July 1, [1935]; includes family matters; mentions Miss Forbes, Mr. and Mrs. Moffett.",
    "sfomuseum:dimensions": "13 x 8 1/2 inches (33 x 21.6 cm)",
    "sfomuseum:medium": "paper, ink",
    "sfomuseum:object_id": 211268,
    "sfomuseum:placetype": "object",
    "sfomuseum:publication": ": , 07/01/1935.",
    "sfomuseum:subcategory": "Correspondence, Personal",
    "src:geom": "sfomuseum#undetermined",
    "wof:belongsto": [
      102527513,
      1159162825,
      102191575,
      85633793,
      102087579,
      85922583,
      85688637,
      1159160869
    ],
    "wof:country": "XY",
    "wof:created": 1714548792,
    "wof:depicts": [
      1159284991,
      1159286839
    ],
    "wof:geomhash": "c281b9d9eefc83b5710e64b9d646067d",
    "wof:hierarchy": [
      {
        "building_id": -1,
        "campus_id": 102527513,
        "collection_id": 1159162825,
        "concourse_id": 1159162825,
        "continent_id": 102191575,
        "country_id": 85633793,
        "county_id": 102087579,
        "custom_id": 1913795437,
        "locality_id": 85922583,
        "neighbourhood_id": -1,
        "object_id": 1913795437,
        "region_id": 85688637,
        "wing_id": 1159160869
      }
    ],
    "wof:id": 1913795437,
    "wof:lastmodified": 1787988219,
    "wof:name": "correspondence: Harold M. Bixby to Debby Bixby",
    "wof:parent_id": 1159162825,
    "wof:placetype": "custom",
    "wof:placetype_alt": [
      "object"
    ],
    "wof:repo": "sfomuseum-data-collection",
    "wof:superseded_by": [],
    "wof:supersedes": []
  },
  "bbox": [
    -122.38647222518921,
    37.6161053594541,
    -122.38583385944366,
    37.61661101879963
  ],
  "geometry": {"type":"Polygon","coordinates":[[[-122.38647222518921,37.61631782178288],[-122.386434674263,37.61623283692423],[-122.38637566566466,37.61617759671399],[-122.38630056381224,37.6161308549656],[-122.38616108894348,37.6161053594541],[-122.38602161407469,37.6161308549656],[-122.38591432571411,37.61618609521055],[-122.38585531711577,37.61626683087935],[-122.38583385944366,37.61636881265146],[-122.38587141036987,37.61646654505181],[-122.38594114780425,37.61654303118856],[-122.38605380058287,37.61660252035167],[-122.38618254661559,37.61661101879963],[-122.3863059282303,37.61657277577607],[-122.3864185810089,37.61650903735973],[-122.3864668607712,37.61641130501523],[-122.38647222518921,37.61631782178288]]]}
}
