{
  "id": 1913796403,
  "type": "Feature",
  "properties": {
    "date:cessation_lower": "1937-02-01",
    "date:cessation_upper": "1937-02-01",
    "date:inception_lower": "1937-02-01",
    "date:inception_upper": "1937-02-01",
    "edtf:cessation": "1937-02-01",
    "edtf:inception": "1937-02-01",
    "geom:area": 2.475047457570636e-7,
    "geom:bbox": "-122.386472,37.616105,-122.385834,37.616611",
    "geom:latitude": 37.61635747477365,
    "geom:longitude": -122.38615540108617,
    "millsfield:airline_id": [
      1159284991
    ],
    "millsfield:category_id": 1511214251,
    "millsfield:collection_id": 1511214207,
    "millsfield:company_id": [
      1159286839
    ],
    "millsfield:images": [
      1913799817,
      1913799819,
      1913799821,
      1913799823,
      1913799827
    ],
    "millsfield:images_colors_refs": {
      "crayola": [
        {
          "hex": "#efcdb8"
        },
        {
          "hex": "#edd19c"
        },
        {
          "hex": "#9f8170"
        },
        {
          "hex": "#714b23"
        }
      ],
      "css4": [
        {
          "hex": "#bdb76b"
        },
        {
          "hex": "#f5deb3"
        },
        {
          "hex": "#556b2f"
        },
        {
          "hex": "#bc8f8f"
        }
      ],
      "marekm4": [
        {
          "hex": "#5c5335"
        },
        {
          "hex": "#e3d1a7"
        },
        {
          "hex": "#5d5130"
        },
        {
          "hex": "#e4d2a8"
        },
        {
          "hex": "#e2d2aa"
        },
        {
          "hex": "#a3966e"
        },
        {
          "hex": "#665d3d"
        },
        {
          "hex": "#ad9c71"
        },
        {
          "hex": "#a5976e"
        },
        {
          "hex": "#a9986d"
        },
        {
          "hex": "#e2d2a9"
        },
        {
          "hex": "#5e563a"
        },
        {
          "hex": "#ab9a6f"
        },
        {
          "hex": "#4f4528"
        },
        {
          "hex": "#e7d7ad"
        }
      ]
    },
    "millsfield:images_texts": [
      "METROPOLITAN HOTEL\nNRING\nFeb. I st\nDearest Dels\nJust eeft ranking and\nfortunate, for me breause of\na delayed schedule was\nAble to ply down to Shanghai\ninstrad of taking the train.\nAn now in the ford with\nEddie Smirk at the controls\nriding abour the Urnia - likr\nSoochow. Purple mountain\nwas love, - all corned with\nsnow for us had a stead\nand heary face all during the\nwhole of Sunday.\nIt melted\non the low ground but staid\non the mountaind.\nI had a tiffin gurn for",
      "me la day long to chu. 1tu\nhad all the big Post Offic\ngrope this inchu ding Ritchie\nthe Britin #pe foreiga Advesn\nIns Loh who is Considering our\ndeal and many others.\nthink they use much sur.\nto learn that 2 am\nreturning to Shanghai and\nthey wars clearly want when\nI blande, informed them that\nI was aho got to Hongleorg\non Thursday.\nI said \"If\nyou need me\nI'm one a\nday\n\"away\" but of courn that\nup Ends their syden of keying\nthe foreign devie\" on the ankcous\nseat and nervously waiting for\naction which is promised fron\nday to day but which the\nknow will not actuall, come\nente they git the foeya de.\ndown So Dor got em worried.",
      "Lati. at office when I hope then.\nmight br\nyon\nluck.\nMIKTROPOLITAN HOTEL\nbut mo\nANKING\ngot dark before ur reaches\nShanghei\nbrautifue night but\nConed nt\nwrite anymore. you\nextr inclosing the one from Raph\nreached me this Q.m. at Ranking\nI'm awfuel, glad Ralph worked\nout a sellement with Ed Lour for\nthat was worrying me a lot-\nin fact it was,\nthe only debt\nwhich I franed might cauk\nImbarrasment by suit ete. The\nindebtednen to the Lafayeer Bk\nis a\nand the Cent, States hif is a\ncontingent one and dont blier\nule Ever cant trouble. So\nnow the is one pureroper to\nworks about and that may work\ncont\naccorden lo my recint letter\nУ вори s0.\nWore mough of that.\ngood night angie- an goi\nto the metropole 20992in0o76get a",
      "they war all very nice rapecial\nMas I Who laters avont you and the\ngures a elagan times ne\ninsisted\nthat on my next try that\nbring you along and stay at their\nhonor -\nto let her knour and the world\nmast us at the field te.\nLate in the afturnoon\nI called\nded fund bye of in Rockfulle\nJor Nation and want around to hi\nhous for tea. There I learned that\nhe has got married! It was anfule,\nfunny\nhe has had a Russies\nsurtie for Aweal Years. abont a\nmonth ago\nsome forrgn doctors decided\nto operate on her Dyer thought the\noration wored be fatal and in am\ncase inadoicable but he cones nt stop\nthe does as he had no rigato in\nthe mattre so he marred the gue\nand then forbade them from grating.\nLatu an Examination shourd that\nhe was right and now she is\npupce, wree and an adoung wif\ni o Quit that something! ?\nyur io vern\nstayed for.\ncaner and came back\nhere carly.\nDyer told me lots\nabont 2r. Heiser - nothing Complimentary",
      "FÃ****\nMETROPOLITAN HOTEL\nNANKING\nSaid ke was fired\nlan\n\"the Foundation\netc. Etc.\nDee tree you the whole\npou\nyou - veny frane.\nmust turn\nnows\nend\ngrt .\nsome\nsep - busy.\nday tomorrow\n. are my lor ti\nyor, deant\nand ant foyit ou Canton sagin\nExprdition\n-\nan laskin, foures to\nthat.\nYous -Had\npanto nat d estrag netl sno\ntatt esat tommas no Ntol\n- ut tuan L\njius fiaso so sno sero pepizo\nvo au so\ntend ano ans umist of sporta\nses um wat noll\nrenos\npatri negro justan- veitt sli\nsado\n20191211007 c"
    ],
    "millsfield:images_texts_ids": [
      1913799817,
      1913799819,
      1913799821,
      1913799823,
      1913799827
    ],
    "millsfield:primary_image": 1913799817,
    "millsfield:subcategory_id": 1511213489,
    "mz:is_approximate": 1,
    "mz:is_current": 1,
    "sfomuseum:accession_number": "2019.121.1007 a c",
    "sfomuseum:airline": "Pan American Airways",
    "sfomuseum:airline_id": [
      685
    ],
    "sfomuseum:category": "Employee Career History",
    "sfomuseum:classification_id": 195,
    "sfomuseum:collection": "Aviation Archive",
    "sfomuseum:creditline": "Collection of SFO Museum",
    "sfomuseum:date": "02/01/1937",
    "sfomuseum:date_acquired": "2019-11-22",
    "sfomuseum:daterange_end": "1937-02-01",
    "sfomuseum:daterange_start": "1937-02-01",
    "sfomuseum:description": "Handwritten letter from Harold M. Bixby to his wife, Debby Bixby, dated February 1, [1937] on stationery from the Metropolitan Hotel in Nanking [Nanjing]; includes brief description of flying from Nanking to Shanghai with Eddie Smith, status of the mail contract; mentions Mr. Chu, Mr. Loh.",
    "sfomuseum:dimensions": "9 1/4 x 5 3/4 inches (23.5 x 14.6 cm)",
    "sfomuseum:medium": "paper, ink",
    "sfomuseum:object_id": 211370,
    "sfomuseum:placetype": "object",
    "sfomuseum:publication": ": , 02/01/1937.",
    "sfomuseum:subcategory": "Correspondence, Personal",
    "src:geom": "sfomuseum#undetermined",
    "wof:belongsto": [
      102527513,
      1159162825,
      102191575,
      85633793,
      102087579,
      85922583,
      85688637,
      1159160869
    ],
    "wof:country": "XY",
    "wof:created": 1714549083,
    "wof:depicts": [
      1159284991,
      1159286839
    ],
    "wof:geomhash": "c281b9d9eefc83b5710e64b9d646067d",
    "wof:hierarchy": [
      {
        "building_id": -1,
        "campus_id": 102527513,
        "collection_id": 1159162825,
        "concourse_id": 1159162825,
        "continent_id": 102191575,
        "country_id": 85633793,
        "county_id": 102087579,
        "custom_id": 1913796403,
        "locality_id": 85922583,
        "neighbourhood_id": -1,
        "object_id": 1913796403,
        "region_id": 85688637,
        "wing_id": 1159160869
      }
    ],
    "wof:id": 1913796403,
    "wof:lastmodified": 1787988220,
    "wof:name": "correspondence: Harold M. Bixby to Debby Bixby",
    "wof:parent_id": 1159162825,
    "wof:placetype": "custom",
    "wof:placetype_alt": [
      "object"
    ],
    "wof:repo": "sfomuseum-data-collection",
    "wof:superseded_by": [],
    "wof:supersedes": []
  },
  "bbox": [
    -122.38647222518921,
    37.6161053594541,
    -122.38583385944366,
    37.61661101879963
  ],
  "geometry": {"type":"Polygon","coordinates":[[[-122.38647222518921,37.61631782178288],[-122.386434674263,37.61623283692423],[-122.38637566566466,37.61617759671399],[-122.38630056381224,37.6161308549656],[-122.38616108894348,37.6161053594541],[-122.38602161407469,37.6161308549656],[-122.38591432571411,37.61618609521055],[-122.38585531711577,37.61626683087935],[-122.38583385944366,37.61636881265146],[-122.38587141036987,37.61646654505181],[-122.38594114780425,37.61654303118856],[-122.38605380058287,37.61660252035167],[-122.38618254661559,37.61661101879963],[-122.3863059282303,37.61657277577607],[-122.3864185810089,37.61650903735973],[-122.3864668607712,37.61641130501523],[-122.38647222518921,37.61631782178288]]]}
}
