{
  "id": 1914622251,
  "type": "Feature",
  "properties": {
    "date:cessation_lower": "2001-01-01",
    "date:cessation_upper": "2001-12-31",
    "date:inception_lower": "2001-01-01",
    "date:inception_upper": "2001-12-31",
    "edtf:cessation": "2001",
    "edtf:inception": "2001",
    "geom:area": 2.475047457570636e-7,
    "geom:bbox": "-122.386472,37.616105,-122.385834,37.616611",
    "geom:latitude": 37.61635747477365,
    "geom:longitude": -122.38615540108617,
    "millsfield:airline_id": [
      1159283855
    ],
    "millsfield:category_id": 1762671311,
    "millsfield:collection_id": 1511214207,
    "millsfield:company_id": [
      1159294163
    ],
    "millsfield:images": [
      1914622559,
      1914622561,
      1914622563
    ],
    "millsfield:images_colors_refs": {
      "crayola": [
        {
          "hex": "#efdecd"
        },
        {
          "hex": "#bab86c"
        },
        {
          "hex": "#9c2542"
        },
        {
          "hex": "#dbd7d2"
        },
        {
          "hex": "#2e5894"
        },
        {
          "hex": "#414a4c"
        },
        {
          "hex": "#000000"
        },
        {
          "hex": "#2b6cc4"
        }
      ],
      "css4": [
        {
          "hex": "#dcdcdc"
        },
        {
          "hex": "#000000"
        },
        {
          "hex": "#bdb76b"
        },
        {
          "hex": "#191970"
        },
        {
          "hex": "#4682b4"
        },
        {
          "hex": "#006400"
        },
        {
          "hex": "#b22222"
        }
      ],
      "marekm4": [
        {
          "hex": "#b40f0c"
        },
        {
          "hex": "#375ea8"
        },
        {
          "hex": "#e3ded6"
        },
        {
          "hex": "#111537"
        },
        {
          "hex": "#b71310"
        },
        {
          "hex": "#e7e3de"
        },
        {
          "hex": "#081d24"
        },
        {
          "hex": "#b1221b"
        },
        {
          "hex": "#e2dacf"
        },
        {
          "hex": "#c1b053"
        },
        {
          "hex": "#15490e"
        },
        {
          "hex": "#3e63a6"
        },
        {
          "hex": "#368cc8"
        }
      ]
    },
    "millsfield:images_texts": [
      "REV.11/2001\nAmericangagle\nSAAB\nIMPORTANT SAFETY INFORMATION\nATTENTION: IF YOU ARE SEATED IN AN EXIT ROW AND CANNOT UNDERSTAND CREW COMMANDS OR THE INFORMATION ON THIS CARD,\nPLEASE CONTACT A FLIGHT ATTENDANT.\nATTENTION! SI VOUS ETES ASSIS PRES D'UNE ISSUE DE SECOURS ET NE COMPRENEZ PAS LES INSTRUCTIONS DE\nL'EQUIPAGE OU LES INFORMATIONS QUI SE TROUVENT SUR CE FORMULAIRE, VOUS ÊTES PRIÉS DE BIEN VOULOIR VOUS\nMETTRE EN CONTACT AVEC LE PERSONNEL DU BORD.\nACHTUNG: FALLS SICH IHR SITZ IN EINER REIHE AN EINEM DER AUSGÄNGE BEFINDET UND SIE SCHWIERIGKEITEN HABEN, DIE\nANWEISUNGEN DER BESATZUNG ODER DIE INFORMATIONEN AUF DIESER KARTE ZU VERSTEHEN, SETZEN SIE SICH BITTE MIT EINEM\nFLUGBEGLEITER IN VERBINDUNG.\nATENCION, SI USTED ESTÁ SENTADO EN UNA FILA DE SALIDA Y NO ENTIENDE LAS INDICACIONES DE LA TRIPULACIÓN O LA INFORMA-\nCIÓN EN ESTA TARJETA, POR FAVOR PÓNGASE EN CONTACTO CON ALGUIEN DE LA TRIPULACIÓN DE SERVICIO.\nIn the event of an emergency, if you are seated in an exit row you may be called upon to open the exit and\nassist fellow passengers in exiting the aircraft if a crew member is not available to do so. Please review the\nfollowing information carefully.\nExit Row Criteria:\n3.\nYou lack the ability to read and understand\nExit Row Responsibilities:\ninstructions related to emergency evacua-\nFor the benefit of all passengers, Federal\nPlease read the following information care-\ntions provided on this card in printed or\nLaw requires that passengers seated in exit\nfully. In the event of an emergency, you may\ngraphic form or you lack the ability to\nrows meet the following criteria:\nbe called upon to open the exit and assist\nunderstand oral crew member commands.\nIF YOU ARE SEATED IN AN EXIT ROW\n4.\nfellow passengers in exiting the aircraft if a\nYou lack sufficient visual capacity to per-\ncrew member is not available to do so.\nPLEASE ASK TO BE RESEATED IF:\nform one or more of the applicable func-\n• Follow oral directions and hand sig-\n1. You lack sufficient mobility, strength, or\ntions without the assistance of visual aids\ndexterity in both arms and hands, and\nnals given by crew members.\nother than contact lenses or eye glasses.\nboth legs...\n5.\n• Locate the emergency exit.\nYou lack sufficient hearing capacity to hear\n• To reach upward, sideways, and\nand understand instructions shouted by\nASSESS OUTSIDE CONDITIONS -\ndownward to the location of emergen-\ncrew members without assistance other\nIF OPENING EXIT INCREASES THE\ncy exit\nthan a hearing aid\nHAZARD TO PASSENGERS, DO\nNOT OPEN.\nTo grasp and push, pull, turn or other-\n6.\nYou lack the ability to adequately commu-\nwise operate those mechanisms.\nnicate information orally to other passen-\nRecognize the emergency exit open-\n• To push, shove, pull, or otherwise\ngers, or\ning handle.\nopen emergency exits.\n7. You have a condition or responsibilities,\n• Follow the instructions provided on the\n• To lift out, hold, manuever over seat-\nsuch as caring for small children, that\nexit for proper operation.\nbacks to the next row, and/or store in\nmight prevent you from performing one or\n• Operate the emergency exit.\nthe proper location objects the size\nmore of these functions, or\n• Stow or secure the emergency exit\nand weight of over-wing window exit\n8.\nYou have a condition that might cause you\ndoor so that it will not impede use of\ndoors.\nharm if you perform one or more of these\nthe exit.\n• To remove obstructions similar in size\nfunctions.\nand weight to over-wing exit doors.\n9.\n• Pass quickly through the emergency\nYou have a condition that is unrecogniz-\n• To reach the emergency exit quickly.\nable to others that will prevent you from\nexit.\n• Assess, select, and follow a safe path\nperforming the functions listed above or\n• To maintain balance while removing\naway from the emergency exit.\nwhich might result in harm to you if you\nobstructions.\nperform one of these functions, or\n• To exit quickly.\nYou do not wish to perform these func-\nYou are less than 15 years of age or lack\nthe ability to perform one or more of these\ntions.\nfunctions without the assistance of an\nadult companion, parent, or other relative.\nEXIT OPERATION: ASSESS OUTSIDE CONDITIONS-IF OPENING EXIT INCREASES\nTHE HAZARD TO PASSENGERS, DO NOT OPEN.\nPlease Do Not Remove This Card From Airplane",
      "THIS IS A NON-SMOKING FLIGHT\nIT IS A FEDERAL REQWREMENT TO, COMPLY WITH ALL INSTRUCTIONAL\nSIGNS, PLACARDS AND CREW MEMBER INSTRUCTIONS\nDURING TAKE OFF,\nLANDING, AND\nSURFACE TRAVEL\n02\nOXYGEN\nOXYGEN\nMASK\nOXYGEN\nMASK\nFOR YOUR\nSAFETY\nUSE CAUTION\nWHEN OPENING\nOVERHEAD BIN\nstay SEATED\nstay BUCKLED\nstay SAFE!\nSF3 CPN 2373762 REV. 11/2001\n© P.S. Services 2001",
      "FIRE\nSMOKE\nDEBRIS\nEXIT OPERATION\nASSESS OUTSIDE CONDITIONS. IF OPENING EXIT INCREASES THE\nHAZARD TO PASSENGERS, DO NOT OPEN.\nLAND\nEVACUATION\nFIRE\nSMOKE\nDEBRIS\nEXIT OPERATION\nASSESS OUTSIDE CONDITIONS\nIF OPENING EXIT INCREASES THE\nHAZARD TO PASSENGERS, DO NOT OPEN\nLAND\nEVACUATION\nEXIT\n4EXITЬ\nEMERGENCY BRACE POSITIONS\n\u0026\nEMERGENCY FLOOR LIGHTING SYSTEMS\nWATER EVACUATION\nADULT\nCHILD"
    ],
    "millsfield:images_texts_ids": [
      1914622559,
      1914622561,
      1914622563
    ],
    "millsfield:primary_image": 1914622559,
    "millsfield:subcategory_id": 1511213703,
    "mz:is_approximate": 1,
    "mz:is_current": 1,
    "sfomuseum:accession_number": "2002.127.695",
    "sfomuseum:aircraft": "Saab",
    "sfomuseum:airline": "American Eagle",
    "sfomuseum:airline_id": [
      172
    ],
    "sfomuseum:category": "Passenger Amenity, Archive",
    "sfomuseum:classification_id": 581,
    "sfomuseum:collection": "Aviation Archive",
    "sfomuseum:creditline": "Gift of Thomas G. Dragges",
    "sfomuseum:date": "2001",
    "sfomuseum:date_acquired": "2003-12-22",
    "sfomuseum:daterange_end": "2001-12-31",
    "sfomuseum:daterange_start": "2001-01-01",
    "sfomuseum:description": "Safety information card issued by American Eagle for the  Saabfleet; white and green double-sided bi-fold card with illustrations depicting inflight safety and emergency procedures; identification code: SF3 CPN 2373762; revision date: 11/2001.",
    "sfomuseum:dimensions": "11 x 8 inches (27.9 x 20.3 cm)",
    "sfomuseum:maker": "PS Services",
    "sfomuseum:medium": "paper, ink",
    "sfomuseum:object_id": 70587,
    "sfomuseum:placetype": "object",
    "sfomuseum:publication": ": , 2001.",
    "sfomuseum:subcategory": "Safety Information Card",
    "src:geom": "sfomuseum#undetermined",
    "wof:belongsto": [
      102527513,
      1159162825,
      102191575,
      85633793,
      102087579,
      85922583,
      85688637,
      1159160869
    ],
    "wof:country": "XY",
    "wof:created": 1721028730,
    "wof:depicts": [
      1159283855,
      1159294163
    ],
    "wof:geomhash": "c281b9d9eefc83b5710e64b9d646067d",
    "wof:hierarchy": [
      {
        "building_id": -1,
        "campus_id": 102527513,
        "collection_id": 1159162825,
        "concourse_id": 1159162825,
        "continent_id": 102191575,
        "country_id": 85633793,
        "county_id": 102087579,
        "custom_id": 1914622251,
        "locality_id": 85922583,
        "neighbourhood_id": -1,
        "object_id": 1914622251,
        "region_id": 85688637,
        "wing_id": 1159160869
      }
    ],
    "wof:id": 1914622251,
    "wof:lastmodified": 1787988221,
    "wof:name": "safety information card: American Eagle, Saab",
    "wof:parent_id": 1159162825,
    "wof:placetype": "custom",
    "wof:placetype_alt": [
      "object"
    ],
    "wof:repo": "sfomuseum-data-collection",
    "wof:superseded_by": [],
    "wof:supersedes": []
  },
  "bbox": [
    -122.38647222518921,
    37.6161053594541,
    -122.38583385944366,
    37.61661101879963
  ],
  "geometry": {"type":"Polygon","coordinates":[[[-122.38647222518921,37.61631782178288],[-122.386434674263,37.61623283692423],[-122.38637566566466,37.61617759671399],[-122.38630056381224,37.6161308549656],[-122.38616108894348,37.6161053594541],[-122.38602161407469,37.6161308549656],[-122.38591432571411,37.61618609521055],[-122.38585531711577,37.61626683087935],[-122.38583385944366,37.61636881265146],[-122.38587141036987,37.61646654505181],[-122.38594114780425,37.61654303118856],[-122.38605380058287,37.61660252035167],[-122.38618254661559,37.61661101879963],[-122.3863059282303,37.61657277577607],[-122.3864185810089,37.61650903735973],[-122.3864668607712,37.61641130501523],[-122.38647222518921,37.61631782178288]]]}
}
