{
  "id": 1511938417,
  "type": "Feature",
  "properties": {
    "date:cessation_lower": "1984-01-01",
    "date:cessation_upper": "1984-12-31",
    "date:inception_lower": "1984-01-01",
    "date:inception_upper": "1984-12-31",
    "edtf:cessation": "1984",
    "edtf:date": "1984",
    "edtf:inception": "1984",
    "geom:area": 0,
    "geom:bbox": "-122.386155,37.616357,-122.386155,37.616357",
    "geom:latitude": 37.616357,
    "geom:longitude": -122.386155,
    "iso:country": "XX",
    "millsfield:airline_id": [
      1159285243
    ],
    "millsfield:category_id": 1511214223,
    "millsfield:collection_id": 1511214207,
    "millsfield:company_id": [
      1159288233
    ],
    "millsfield:images": [
      1527842503,
      1527850465
    ],
    "millsfield:images_colors_refs": {
      "crayola": [
        {
          "hex": "#fefe22"
        },
        {
          "hex": "#000000"
        },
        {
          "hex": "#414a4c"
        },
        {
          "hex": "#fddde6"
        },
        {
          "hex": "#ffffff"
        },
        {
          "hex": "#ff2b2b"
        }
      ],
      "css4": [
        {
          "hex": "#faebd7"
        },
        {
          "hex": "#f5f5f5"
        },
        {
          "hex": "#2f4f4f"
        },
        {
          "hex": "#ff4500"
        },
        {
          "hex": "#ffd700"
        },
        {
          "hex": "#000000"
        }
      ],
      "marekm4": [
        {
          "hex": "#fbe00a"
        },
        {
          "hex": "#fa490a"
        },
        {
          "hex": "#393533"
        },
        {
          "hex": "#ede5e1"
        },
        {
          "hex": "#0d0e26"
        },
        {
          "hex": "#edf0f4"
        }
      ]
    },
    "millsfield:images_texts": [
      "SUNWORLD\nINTERNATIONAL AIRWAYS\nFLIGHT\nSCHEDULE\nEFFECTIVE OCTOBER 28, 1984\nstopovers in\nVegas\nFree",
      "Frequency Abbreviations\n1-Mon 2-Tue 3-Wed 4-Thu 5-Fri 6-Sat 7-Sun\nFREQ\nLEAVE\nFROM LAS VEGAS\nTO OAKLAND\nARRIVE\n(PST)\n8:50a\n3:50p\nTO OKLAHOMA CITY\n12:00p\n7:20p\n10:10a\n5:20p\n4:25p\n11:45p\nTO ONTARIO\n9:00a\n1:00p\n5:40p\n9:50a\n1:50p\n6:30p\nTO RENO\nX 7\nX 6\nTO SAN JOSE\n8:00a\n4:30p\n9:10a\n5:40p\n57 ONLY\n8:45a\n11:45a\n3:30p\n10:05a\n1:05p\n4:50p\nTO TUCSON\nX 6\n12:10p\n7:50 p\nFROM OAKLAND\nTO LAS VEGAS\n2:20p\n10:00p\n(PST)\n10:35a\n5:45p\nTO OKLAHOMA CITY\n10:35a\n5:45p\n11:50a\n7:05p\n4:25p\n11:45p\nTO ONTARIO\n10:35a\n1:50p\nTO RENO\nX 6\nTO TUCSON\n10:35a\n5:40p\n10:35a\nX 6\n5:45p\nFROM OKLAHOMA CITY\nTO LAS VEGAS\n2:20p\n10:00p\n(CST)\n8:00a\n4:50p\nTO OAKLAND\n8:00a\nTO ONTARIO\n8:00a\n4:50p\nTO RENO\nX 6\nTO SAN JOSE\n8:00a\n8:00a\nTO TUCSON\nX 6\nFROM ONTARIO\nTO LAS VEGAS\n8:00a\n4:50p\n2:20p\n10:00p\n(PST)\n10:30a\n2:20p\n6:50p\n11:20a\n3:10p\n7:40p\nTO OAKLAND\n2:20p\nTO OKLAHOMA CITY\n10:30a\n5:20p\n4:25p\nTO RENO\nX 6\n\"2:20p\n5:40p\nFLIGHT\n151\n153\n332\n344\n331\n133\n343\n913\n963\n441\n447\n443\n442\n354\n152\n354\n152/332\n354/344\n152/133\n152/963\n152/442\n354\n331\n343\n331\n343\n331/963\n331/441\n331/442\n343/354\n332\n132\n134\n132/153\n332\n132/963\nALL FLIGHTS DAILY EXCEPT AS NOTED\nSTOPS\n0\n0\n0\n0\n0\n0\n0\n0\n0\n0\n0\n0\n0\nLAS\nLAS\nLAS\nLAS\nLAS\nLAS\n0\n0\nLAS\nLAS\nLAS\nLAS\nLAS\nLAS\nLAS\n0\n0\nLAS\nLAS\nLAS\nMEAL\n702-736-4111\n$75.00\nBV\nBV\n$120.00\nS\nS\n$60.00\nBV\nBV\nBV\n$75.00\nS\nBV\n$75.00\nBV\nBV\nBV\n$70.00\nBV\nBV\n800-722-4111\n$75.00\nBV\nBV\n$135.00\nS\nS\n$80.00\nBV\n$85.00\nBV\n$85.00\nBV\nBV\n800-722-4222\n$120.00\nS\nS\n$135.00\nS\n$125.00\nS\nS\n$135.00\nBV\n$135.00\nS\n$125.00\nS\nS\n800-722-4111\n$60.00\nBV\nBV\nBV\n$80.00\nBV\n$125.00\nS\n$80.00\nBV\nSymbols:\nBV =Beverage S =Snack X =Except\nFREQ\nLEAVE\nARRIVE\nFLIGHT STOPS\nMEAL\nFROM ONTARIO (Cont'd)\n(PST)\n800-722-4111\nTO SAN JOSE\n5 7 ONLY\n10:30a\n2:20p\n1:05p\n332/447\n4:50p\nLAS\n$80.00\nBV\n132/443\nLAS\nBV\nTO TUCSON\n10:30a\n2:20p\n332/442\nLAS\n$75.00\nX 6\n6:50p\nBV\n10:00p\n134/354\nLAS\nBV\nFROM RENO\n(PST)\n800-345-8845\nTO LAS VEGAS\nX 7\n$75.00\n9:30a\n10:40a\n912\nX 6\n6:00p\n7:10p\n964\n0\nBV\nTO OAKLAND\n$85.00\nX 7\n9:30a\n5:20p\n912/153\nLAS\nBV\nTO OKLAHOMA CITY\n$135.00\nX 7\n9:30a\nX 6\n6:00p\n4:25p\n912/332\nLAS\nS\n11:45p\n964/344\nLAS\nS\nTO ONTARIO\n$80.00\nX 7\n9:30a\n1:50p\n912/133\nLAS\nBV\nTO SAN JOSE\n$85.00\n5 ONLY\n9:30a\n1:05p\n912/447\nLAS\nX 7\n9:30a\n4:50p\n912/443\nLAS\nBV\nBV\nTO TUCSON\nX 7\n9:30a\n2:20p\n$85.00\n912/442\nX 6\n6:00p\n10:00p\nLAS\nBV\n964/354\nLAS\nBV\nFROM SAN JOSE\n(PST)\n800-722-4111\nTO LAS VEGAS\n$75.00\n10:30a\n11:45a\n57 ONLY\n1:30p\n442\nBV\n2:50p\n448\nBV\n5:30p\n6:45p\n344\n0\nBV\nTO OKLAHOMA CITY\n$135.00\n10:30a\n4:25p\n442/332\n5:30p\n11:45p\n344\nLAS\nS\nLAS\nS\nTO ONTARIO\n$80.00\n10:30a\n1:50p\n442/133\nLAS\nBV\nTO RENO\n$85.00\n57 ONLY\n1:30p\n5:40p\n448/963\nLAS\nBV\nTO TUCSON\n10:30a\n$85.00\n2:20p\n442\nLAS\nBV\nX 6\n5:30p\n10:00p\n344/354\nLAS\nBV\nFROM TUCSON\n(MST)\n800-722-4111\nTO LAS VEGAS\nX 7\n7:35a\n3:00p\n7:45a\n3:10p\n441\n963\n0\n$70.00\n0\nBV\nBV\nTO OAKLAND\n$85.00\nX 7\n7:35a\n10:10a\n441/151\nLAS\nBV\n3:00 p\n5:20p\n963/153\nLAS\nBV\nTO OKLAHOMA CITY\nX 7\n7:35a\n4:25p\n441/332\n3:00p\n11:45p\nLAS\n$125.00\nS\n963/344\nLAS\nS\nTO ONTARIO\n$75.00\nX 7\n7:35a\n9:50a\n441/331\nLAS\nBV\n3:00p\n6:30p\n963/343\nLAS\nBV\nTO RENO\n$85.00\nX 7\n7:35a\n9:10a\n441/913\nX 6\n3:00p\n5:40p\nLAS\nBV\n963\nLAS\nBV\nTO SAN JOSE\n$85.00\nX 7\n7:35a\n10:05a\n441\n3:00p\n4:50p\nLAS\n963/443\nLAS\nBV\nBV\nSUNWORLD requests its passengers to check in at the boarding gate at\nleast 30 minutes prior to scheduled departure time. Passengers must be at the\nboarding gate 10 minutes prior to scheduled departure or the reservation will be\nsubject to cancellation.\nAll listed times shown are local.\nSchedules and fares are subject to change without notice.\nSUNWORLD is not responsible for lost tickets or for baggage that does not\ncarry identification both outside and inside."
    ],
    "millsfield:images_texts_ids": [
      1527842503,
      1527850465
    ],
    "millsfield:primary_image": 1527842503,
    "millsfield:subcategory_id": 1511213425,
    "mz:hierarchy_label": 1,
    "mz:is_current": 1,
    "sfomuseum:accession_number": "2002.135.032.006",
    "sfomuseum:airline": "Sunworld International Airways",
    "sfomuseum:airline_id": [
      800
    ],
    "sfomuseum:category": "Scheduling / Ticketing",
    "sfomuseum:classification_id": 158,
    "sfomuseum:collection": "Aviation Archive",
    "sfomuseum:creditline": "Gift of Thomas G. Dragges",
    "sfomuseum:date": "1984",
    "sfomuseum:date_acquired": "2022-04-18",
    "sfomuseum:daterange_end": "1984-12-31",
    "sfomuseum:daterange_start": "1984-01-01",
    "sfomuseum:description": "Timetable issued by Sunworld International Airways, effective October 28, 1984; two page double-sided fold-out; black cover with sun logo and text announcing free stopovers in Las Vegas.",
    "sfomuseum:dimensions": "9 x 4 inches (22.9 x 10.2 cm)",
    "sfomuseum:media_ids": [
      1527842503,
      1527850465
    ],
    "sfomuseum:medium": "paper, ink",
    "sfomuseum:object_id": 99725,
    "sfomuseum:placetype": "object",
    "sfomuseum:primary_media_id": 1527842503,
    "sfomuseum:publication": ": , 1984.",
    "sfomuseum:subcategory": "Timetable",
    "src:geom": "sfomuseum#undetermined",
    "wof:belongsto": [
      1511214223,
      102527513,
      102191575,
      85633793,
      1511213425,
      85922583,
      102087579,
      1511214277,
      1511214207,
      85688637
    ],
    "wof:breaches": [],
    "wof:country": "XX",
    "wof:created": 1579906655,
    "wof:depicts": [
      1159288233,
      1159285243
    ],
    "wof:geomhash": "30c8a918561c84bb2daa2b97fc7c5353",
    "wof:hierarchy": [
      {
        "arcade_id": 1511213425,
        "building_id": 1511214277,
        "campus_id": 102527513,
        "concourse_id": 1511214223,
        "continent_id": 102191575,
        "country_id": 85633793,
        "county_id": 102087579,
        "custom_id": 1511938417,
        "locality_id": 85922583,
        "neighbourhood_id": -1,
        "object_id": 1511938417,
        "region_id": 85688637,
        "venue_id": 1511938417,
        "wing_id": 1511214207
      }
    ],
    "wof:id": 1511938417,
    "wof:lastmodified": 1787988184,
    "wof:name": "timetable: Sunworld International Airways",
    "wof:parent_id": 1159162825,
    "wof:placetype": "custom",
    "wof:placetype_alt": [
      "object"
    ],
    "wof:repo": "sfomuseum-data-collection",
    "wof:superseded_by": [],
    "wof:supersedes": [],
    "wof:tags": []
  },
  "bbox": [
    -122.386155,
    37.616357,
    -122.386155,
    37.616357
  ],
  "geometry": {"type":"Point","coordinates":[-122.386155,37.616357]}
}
