{
  "id": 1762832053,
  "type": "Feature",
  "properties": {
    "date:cessation_lower": "1926-01-01",
    "date:cessation_upper": "1926-12-31",
    "date:inception_lower": "1926-01-01",
    "date:inception_upper": "1926-12-31",
    "edtf:cessation": "1926",
    "edtf:inception": "1926",
    "geom:area": 0,
    "geom:bbox": "-122.391953,37.624731,-122.391953,37.624731",
    "geom:latitude": 37.624731,
    "geom:longitude": -122.391953,
    "iso:country": "US",
    "millsfield:airport_id": [
      1360695653
    ],
    "millsfield:category_id": 1511214239,
    "millsfield:collection_id": 1511214207,
    "millsfield:images": [
      1762892207
    ],
    "millsfield:images_colors_refs": {
      "crayola": [
        {
          "hex": "#85754e"
        },
        {
          "hex": "#714b23"
        },
        {
          "hex": "#edd19c"
        },
        {
          "hex": "#deaa88"
        }
      ],
      "css4": [
        {
          "hex": "#deb887"
        },
        {
          "hex": "#a0522d"
        },
        {
          "hex": "#556b2f"
        },
        {
          "hex": "#f0e68c"
        }
      ],
      "marekm4": [
        {
          "hex": "#553c23"
        },
        {
          "hex": "#f5cd96"
        },
        {
          "hex": "#936f50"
        },
        {
          "hex": "#e9b877"
        }
      ]
    },
    "millsfield:images_texts": [
      "Form 1204\nCLASS OF SERVICE\nSYMBOL\nTELEGRAM\nDAY LETTER\nBLUE\nNIGHT MESSAGE\nNITE\nNIGHT LETTER\nNL\nIf none of these three\nsymbols\nappears after the check (number of\nWESTERN UNION\nWESTERN UNION\nTELEGRAM\nCLASS OF SERVICE\nSYMBOL\nTELEGRAM\nDAY LETTER\nBLUE\nNIGHT MESSAGE\nNITE\nNIGHT LETTER\nN L\nIf none of these three\nsymbols\nappears after the check (number of\nwords) this is a telegram.\nOther-\nwords) this is a telegram.\nOther-\nwise its characteris indicated by the\nwise its character is indicated by the\nsymbol appearing after the check.\nNEWCOMB CARLTON, PRESIDENT\nGEORGE W. E. ATKINS, FIRST VICE-PRESIDENT\nsymbol appearing after the check.\nThe filing time as shown in the date line on full-rate telegrams and day letters, and the time of receipt at destination as shown on all messages, is STANDARD TIME.\nReceived at\nGOLDEN GAIL AVE\n9 F CS\nSUTT\nReceived at Mayor's Office\nCLEVELAND OHIO. 955A OCT 16 1926\nReferred to\nJAMES BOLPH JR\n1.80\nMAYOR SANFRANCISCO CALIF\nCLEVELAND OWNS THOUSAND ACRE AIR PORT AND LAND, ONE MILLION\nONE HUNDRED TWENTY-FIVE THOUSAND DOLLARS TOTALYS\nSMALL AREAS\nLEASED TO AIR MAIL AND FORD TOTAL THIRTY™SIX HUNDRED\nYEAR CONTROLLED BY DEPARTMENT PUBLIC PROPERTY, FORWARDING DETAILS\nBY AIR MAILX\nJAY MORTON\nCOMMISSIONER DIVISION OF INFORMATION CITY OF CLEVELAND\n811A"
    ],
    "millsfield:images_texts_ids": [
      1762892207
    ],
    "millsfield:primary_image": 1762892207,
    "millsfield:subcategory_id": 1511213147,
    "mz:is_approximate": 1,
    "mz:is_current": 1,
    "sfomuseum:accession_number": "2000.018.072.008",
    "sfomuseum:airport": "Mills Field Municipal Airport of San Francisco",
    "sfomuseum:airport_id": [
      162
    ],
    "sfomuseum:category": "Company Record / Document",
    "sfomuseum:classification_id": 5,
    "sfomuseum:collection": "Aviation Archive",
    "sfomuseum:creditline": "Collection of SFO Museum",
    "sfomuseum:date": "1926",
    "sfomuseum:date_acquired": "2009-12-11",
    "sfomuseum:daterange_end": "1926-12-31",
    "sfomuseum:daterange_start": "1926-01-01",
    "sfomuseum:description": "Original telegram dispatched by Western Union containing typed message from Cleveland City Commissioner Jay Morton responding to San Francisco Mayor James Rolfe, Jr.’s airport inquiry; telegram dated October 16, 1926, 9:55 AM.",
    "sfomuseum:dimensions": "6 1/2 x 8 1/2 inches (16.5 x 21.6 cm)",
    "sfomuseum:medium": "paper, ink",
    "sfomuseum:object_id": 130411,
    "sfomuseum:placetype": "object",
    "sfomuseum:publication": ": , 1926.",
    "sfomuseum:subcategory": "Administrative Record",
    "src:geom": "sfomuseum#derived",
    "src:geom_derived_from": [
      1360695653
    ],
    "wof:belongsto": [
      102527513,
      1159162825,
      102191575,
      85633793,
      102087579,
      85922583,
      85688637,
      1159160869,
      1360695653,
      554784711,
      102085387
    ],
    "wof:country": "US",
    "wof:created": 1642730370,
    "wof:depicts": [
      1360695653
    ],
    "wof:geomhash": "3abf1c04b00c12d6593e9cd3c35f0056",
    "wof:hierarchy": [
      {
        "building_id": -1,
        "campus_id": 102527513,
        "collection_id": 1159162825,
        "concourse_id": 1159162825,
        "continent_id": 102191575,
        "country_id": 85633793,
        "county_id": 102087579,
        "custom_id": 1762832053,
        "locality_id": 85922583,
        "neighbourhood_id": -1,
        "object_id": 1762832053,
        "region_id": 85688637,
        "wing_id": 1159160869
      },
      {
        "campus_id": 1360695653,
        "continent_id": 102191575,
        "country_id": 85633793,
        "county_id": 102087579,
        "custom_id": 1762832053,
        "locality_id": 85922583,
        "object_id": 1762832053,
        "postalcode_id": 554784711,
        "region_id": 85688637
      },
      {
        "campus_id": 1360695653,
        "continent_id": 102191575,
        "country_id": 85633793,
        "county_id": 102085387,
        "custom_id": 1762832053,
        "object_id": 1762832053,
        "region_id": 85688637
      }
    ],
    "wof:id": 1762832053,
    "wof:lastmodified": 1787988202,
    "wof:name": "telegram: Western Union, airport inquiry from San Francisco Mayor James Rolfe, Jr.",
    "wof:parent_id": 1159162825,
    "wof:placetype": "custom",
    "wof:placetype_alt": [
      "object"
    ],
    "wof:repo": "sfomuseum-data-collection",
    "wof:superseded_by": [],
    "wof:supersedes": []
  },
  "bbox": [
    -122.391953,
    37.624731,
    -122.391953,
    37.624731
  ],
  "geometry": {"type":"MultiPoint","coordinates":[[-122.391953,37.624731]]}
}
