{
  "id": 1511949997,
  "type": "Feature",
  "properties": {
    "date:cessation_lower": "1933-01-01",
    "date:cessation_upper": "1933-12-31",
    "date:inception_lower": "1933-01-01",
    "date:inception_upper": "1933-12-31",
    "edtf:cessation": "1933",
    "edtf:date": "1933",
    "edtf:deprecated": "2026-04-02",
    "edtf:inception": "1933",
    "geom:area": 0,
    "geom:bbox": "-122.391953,37.617990,-122.370943,37.624731",
    "geom:latitude": 37.621360499999994,
    "geom:longitude": -122.381448,
    "iso:country": "US",
    "mz:hierarchy_label": 1,
    "mz:is_approximate": 1,
    "mz:is_current": 0,
    "sfomuseum:placetype": "object",
    "src:geom": "sfomuseum#derived",
    "src:geom_derived_from": [
      102527513,
      1360695655
    ],
    "wof:belongsto": [],
    "wof:breaches": [],
    "wof:country": "US",
    "wof:created": 1579906683,
    "wof:depicts": [
      1159293593,
      102527513,
      1360695655,
      1159285415,
      1159289611
    ],
    "wof:geomhash": "fda2c2562cae0b6b99a07b8f9ebb436d",
    "wof:hierarchy": [
      {
        "custom_id": 1511949997,
        "object_id": 1511949997
      }
    ],
    "wof:id": 1511949997,
    "wof:lastmodified": 1775155789,
    "wof:name": "This record has been deprecated.",
    "wof:parent_id": -1,
    "wof:placetype": "custom",
    "wof:placetype_alt": [
      "object"
    ],
    "wof:repo": "sfomuseum-data-collection",
    "wof:superseded_by": [],
    "wof:supersedes": [],
    "wof:tags": []
  },
  "bbox": [
    -122.391953,
    37.61799,
    -122.370943,
    37.624731
  ],
  "geometry": {"type":"MultiPoint","coordinates":[[-122.370943,37.61799],[-122.391953,37.624731]]}
}
