{
  "id": 1762691641,
  "type": "Feature",
  "properties": {
    "date:cessation_lower": "1934-07-20",
    "date:cessation_upper": "1934-07-20",
    "date:inception_lower": "1934-07-20",
    "date:inception_upper": "1934-07-20",
    "edtf:cessation": "1934-07-20",
    "edtf:inception": "1934-07-20",
    "geom:area": 2.475047457570636e-7,
    "geom:bbox": "-122.386472,37.616105,-122.385834,37.616611",
    "geom:latitude": 37.61635747477365,
    "geom:longitude": -122.38615540108617,
    "millsfield:airline_id": [
      1159284309
    ],
    "millsfield:category_id": 1511214223,
    "millsfield:collection_id": 1511214207,
    "millsfield:company_id": [
      1159287349
    ],
    "millsfield:images": [
      1762713987,
      1762713989
    ],
    "millsfield:images_colors_refs": {
      "crayola": [
        {
          "hex": "#efcdb8"
        },
        {
          "hex": "#58427c"
        },
        {
          "hex": "#1a4876"
        }
      ],
      "css4": [
        {
          "hex": "#483d8b"
        },
        {
          "hex": "#f5deb3"
        },
        {
          "hex": "#191970"
        }
      ],
      "marekm4": [
        {
          "hex": "#daceae"
        },
        {
          "hex": "#4a4f84"
        },
        {
          "hex": "#4e5387"
        },
        {
          "hex": "#dcd0ae"
        },
        {
          "hex": "#363d73"
        },
        {
          "hex": "#253178"
        }
      ]
    },
    "millsfield:images_texts": [
      "EASTERN AIR\nLINESINC.\nMAP OF\nEASTERN AIR\nLINESNC.\nTO COAST\nChicago\nTO BoSToN Now York\n•PHILADELPHIA\nBALTIMORE\nWashington\n•RICHMOND\nTO\nWA\nCOAST\nLOUISVILLE\nNASHVILLE\nCHATTANOOGA\nINDIANAPOLIS\nTO CHICAGO\nAND WEST\nSALEM\nWINSTON\nHIGH POINT\nGREENSBORO\nCHARLOTTE\nSPARTANBURG\nGREENVILLE\nAtlanta\nBIRMINGHAM \u0026 MACON\nMONTGOMERY\nNen\nOrleans\nMOBILE\n• RALEIGH\nFLORENCE\nCHARLESTON\nSAVANNAH\n8 JACKSONVILLE\n• DAYTONA BEACH\nVERO BEACH\noMiami\nTO CUBA AND\nLATIN AMERICA\nAssociated with the\nPENNSYLVANIA RAILROAD\nBetween New York and Washington\nRESERVATIONS AND INFORMATION\nat all Hotels, Travel Bureaus, Telegraph Offices\nor local Eastern Air Lines Ticket and Field Offices\nU.S. AIR MAIL • PASSENGERS • EXPRESS",
      "C\nNo. 15\nAM\n7:00\n7:40\n18:20\nk9:10\n9:40\nAM\nPASSENGER, MAIL, AND EXPRESS SCHEDULE\nEFFECTIVE JULY 20, 1934\nSUBJECT TO CHANGE WITHOUT NOTICE\nNEW YORK-WASHINGTON\nNEW YORK-JACKSONVILLE-MIAMI\nREAD DOWN\nSOUTHBOUND-READ DOWN\nNORTHBOUND-READ UP\nA\nEASTERN STANDARD\nA\nNo. 17\nAM\n8:00\n8:40\nj9:20\nk10:10\n10:40\nAM\nEASTERN STANDARD\nTIME\nNo. 25\nAM\n11:00\n11:40\n112:20\nk 1:10\n1:40\nPM\nNo. 19\nNo. 21\nPM\nPM\n1:00\n4:00\n1:40\n4:40\nj2:20\nk3:10\n15:20\nk6:10\n3:40\nPM\n6:40\nPM\nA\nNo. 3\nPM\n5:00\n+5:40\n6:24\n7:16\nNo. 1\nPM\n9:00\n$ 9:40\n10:30\n11:30\nLv..\nLv.\nLv.\nLv.\n*New York City\nNewark Airport.\nPhiladelphia\nBaltimore\nWashington\nAr.\nAr.\nLv.\nLv.\nLv.\nA\nNo. 2\nAM\n6:25\n5:02\n7:39\nPM\n11:57\nPM\nAr..\n$3:40\nAM\nA\nNo. 4\nAM\n7:45\n7:05\n6:25\n5:33\nt5:05\nAM\nB\nNo. 16\nPM\n1:40\n1:00\n112:10\n• 11•20\n11:00\nAM\nNo. 20\nPM\n5:40\n5:00\ni4:10\nk3:20\n3:00\nPM\nA\nNo.\n22\nPM\n6:40\n6:00\n15:10\nk4:20\n4:00\nPM\nA\nC\nNo. 18\nNo. 32\nPM\nPM\n7:40\n8:40\n7:00\n8:00\ni6:10\nk5:20\n17:10\nk6:20\n5:00\nPM\n6:00\nPM\nNo. 3\nNo. 5\nTIME\nPM\n5:00\nPM\nLv.\n*New York City\n+5:40\nLv..\n. Ar.\n$10:50\nNewark Airport.\nAr.\n6:24\n7:16\nOnly\n11:40\nLv.\nLv.\nPhiladelphia.\nBaltimore.\nREAD UP\nNo. 6\nPM\n8:30\n7:46\nAM\n7:45\n7:05\n6:25\n7:54\n1:17\nLv.\nWashington\nLv.\nLv.\n. Lv.\n8:45\n. Richmond\n9:15\nAr.\n11:38\n12:35\nNEW YORK-ATLANTA-NEW ORLEANS\nCHICAGO-ATLANTA-JACKSONVILLE\n235\nand Express\n2:27\nLv..\nLv.\nRichmond\n6:12\nFlorence.\nLv.\n. Charleston.\n7:12\nLv.\nAr.\nSavannah.\nJacksonville.\n8:34\nRead Down\nRead Up\nRead Down\nRead Up\nF4:25\nMail\n9:41\nLv.\nLv\nJacksonville.\nDaytona Beach\nLv.\ntVero Beach.\nMail and Express Only\n5:33\n6:24\n4:59\n5:05\n3:54\n3:44\n1.26\n12:34\n11:37\n10:34\n9:40\n10:24\nF8:40\n5:30\n11:55\nAr.\n. Miami..\n17:15\n7:30\nNồ. 1\nEASTERN STANDARD\nA\nA\nCENTRAL STANDARD\nA\nTIME\nNo. 2\nNo. 7\nTIME\nNo. 8\nAM\nAM\nAM\nPM\nPM\nAM\n9:00\n. *New York City.\nAr.\n6:25\n+ 9:40\nNewark Airport.\n10:30\nLv\n11:30\nLv.\nLv.\n. Philadelphia.\nAr.\nLv.\n5:45\n5:02\nBaltimore\nLv.\nF\n12:12\nWashington.\nLv.\n3•40\nRichmond.\nLv.\n2:20\n3\n§Greensboro\nLv.\nLv.\n12:29\n11:28\nMail and Express\nPM\nAM\n9:00\nMOANNEE\n:41\n:55\n:21\n:20\nLv..\nLv.\nLv.\nLv.\nLv.\nL.y.\nLv.\nAr.\nChicaro.\nIndianapolis.\n. Louisville\nNashville.\n• Chattanooga\n. Atlanta.\nMacon (ET)\nJacksonville (ET)\nMail and Express\n7:45\n5:10\nEXPLANATION OF SYMBOLS\nAir Express on all trips.\nGovernor Clinton Hotel, 156 West 31st\n4:08\nCharlotte.\n5:06\n5:31\nGreenville.\nLv.\n10:30\nAr.\nAtlanta (CT\nNo. 5\n6:00\nLv.\nAtlanta (CT\nLv.\nAr.\n8:00\n7:28\n7.28\n8:30\nLv.\nBirmingham (CT\nLv.\n6:10\n8.34\nLv.\nMontgomery (CT)\nL.v.\n5:08\n9.41\n10:15\nLv.\nMobile (CT\n11\n:30\nLv.\nLv.\n3:23\n+2:00\n11:55\nAM\nLv.:\nLv.\nAr.\nAr..\nNew Orleans (CT)\nJacksonville (ET)\nDaytona Beach (ET)\nMiami (ET)\nMAIL AND EXPRESS ONLY\n(No Passengers)\nAr.\nLv.\nLv.\n12:50\n12:40\n+10:35\nNo. 4\n10:24\n7:30\nPM\nAM\nPM\n-Except Saturdays, Sundays and Holidays.\n-Central Standard Time.\nEastern\n-Daily.\nStandard\nTime.\n-Flag Stop\n—Stops to receive or discharge passengers to or from Washington.\nVero Beach and Palm Beach is available on request.\nPlease ask for details.\nServes High Point and Winston-Salem.\n_U.S. Air Mail.\nGREATLY REDUCED SUMMER EXCURSION FARES NOW EFFECTIVE ON NEW YORK - WASHINGTON - ATLANTA - NEW ORLEANS ROUTE. ASK FOR RATES."
    ],
    "millsfield:images_texts_ids": [
      1762713987,
      1762713989
    ],
    "millsfield:primary_image": 1762713987,
    "millsfield:subcategory_id": 1511213425,
    "mz:is_current": 1,
    "sfomuseum:accession_number": "2016.038.004",
    "sfomuseum:airline": "Eastern Air Lines",
    "sfomuseum:airline_id": [
      376
    ],
    "sfomuseum:category": "Scheduling / Ticketing",
    "sfomuseum:classification_id": 158,
    "sfomuseum:collection": "Aviation Archive",
    "sfomuseum:creditline": "Gift of Captain Jon Simmonds",
    "sfomuseum:date": "07/20/1934",
    "sfomuseum:date_acquired": "2016-12-05",
    "sfomuseum:daterange_end": "1934-07-20",
    "sfomuseum:daterange_start": "1934-07-20",
    "sfomuseum:description": "Timetable issued by Eastern Air Lines, effective July 20, 1934; double-sided card; blue and white cover with route map; passenger, mail, and express schedule on reverse.",
    "sfomuseum:dimensions": "8 1/2 x 3 3/4 inches (21.6 x 9.5 cm)",
    "sfomuseum:medium": "paper, ink",
    "sfomuseum:object_id": 178369,
    "sfomuseum:placetype": "object",
    "sfomuseum:publication": ": , 1934.",
    "sfomuseum:subcategory": "Timetable",
    "src:geom": "sfomuseum#undetermined",
    "wof:belongsto": [
      102527513,
      1159162825,
      102191575,
      85633793,
      102087579,
      85922583,
      85688637,
      1159160869
    ],
    "wof:country": "XY",
    "wof:created": 1641343426,
    "wof:depicts": [
      1159284309,
      1159287349
    ],
    "wof:geomhash": "c281b9d9eefc83b5710e64b9d646067d",
    "wof:hierarchy": [
      {
        "building_id": -1,
        "campus_id": 102527513,
        "collection_id": 1159162825,
        "concourse_id": 1159162825,
        "continent_id": 102191575,
        "country_id": 85633793,
        "county_id": 102087579,
        "custom_id": 1762691641,
        "locality_id": 85922583,
        "neighbourhood_id": -1,
        "object_id": 1762691641,
        "region_id": 85688637,
        "wing_id": 1159160869
      }
    ],
    "wof:id": 1762691641,
    "wof:lastmodified": 1787988197,
    "wof:name": "timetable: Eastern Air Lines",
    "wof:parent_id": 1159162825,
    "wof:placetype": "custom",
    "wof:placetype_alt": [
      "object"
    ],
    "wof:repo": "sfomuseum-data-collection",
    "wof:superseded_by": [],
    "wof:supersedes": []
  },
  "bbox": [
    -122.38647222518921,
    37.6161053594541,
    -122.38583385944366,
    37.61661101879963
  ],
  "geometry": {"type":"Polygon","coordinates":[[[-122.38647222518921,37.61631782178288],[-122.386434674263,37.61623283692423],[-122.38637566566466,37.61617759671399],[-122.38630056381224,37.6161308549656],[-122.38616108894348,37.6161053594541],[-122.38602161407469,37.6161308549656],[-122.38591432571411,37.61618609521055],[-122.38585531711577,37.61626683087935],[-122.38583385944366,37.61636881265146],[-122.38587141036987,37.61646654505181],[-122.38594114780425,37.61654303118856],[-122.38605380058287,37.61660252035167],[-122.38618254661559,37.61661101879963],[-122.3863059282303,37.61657277577607],[-122.3864185810089,37.61650903735973],[-122.3864668607712,37.61641130501523],[-122.38647222518921,37.61631782178288]]]}
}
