{
  "id": 1913796137,
  "type": "Feature",
  "properties": {
    "date:cessation_lower": "1949-06-07",
    "date:cessation_upper": "1949-06-07",
    "date:inception_lower": "1949-06-07",
    "date:inception_upper": "1949-06-07",
    "edtf:cessation": "1949-06-07",
    "edtf:inception": "1949-06-07",
    "geom:area": 2.475047457570636e-7,
    "geom:bbox": "-122.386472,37.616105,-122.385834,37.616611",
    "geom:latitude": 37.61635747477365,
    "geom:longitude": -122.38615540108617,
    "millsfield:airline_id": [
      1159284991
    ],
    "millsfield:category_id": 1511214251,
    "millsfield:collection_id": 1511214207,
    "millsfield:company_id": [
      1159286839
    ],
    "millsfield:images": [
      1913799469,
      1913799471,
      1913799473
    ],
    "millsfield:images_colors_refs": {
      "crayola": [
        {
          "hex": "#2e5894"
        },
        {
          "hex": "#a2add0"
        },
        {
          "hex": "#1a4876"
        },
        {
          "hex": "#6699cc"
        }
      ],
      "css4": [
        {
          "hex": "#191970"
        },
        {
          "hex": "#778899"
        },
        {
          "hex": "#a9a9a9"
        },
        {
          "hex": "#483d8b"
        }
      ],
      "marekm4": [
        {
          "hex": "#97aac8"
        },
        {
          "hex": "#99abc9"
        },
        {
          "hex": "#21326c"
        },
        {
          "hex": "#4e628f"
        },
        {
          "hex": "#9daec9"
        },
        {
          "hex": "#778cb1"
        },
        {
          "hex": "#19296d"
        },
        {
          "hex": "#4a6193"
        },
        {
          "hex": "#778cb2"
        }
      ]
    },
    "millsfield:images_texts": [
      "I tongking fume 75\nPAN AMERICAN WORLD AIRWAYS\nThe System of the Flying Clippers\n1949\nDrancst Dibs.\nen route by \"Clipper\"\nWas delighted\nJustinday to recies your frat\nlette to me out her forms of Sunday may 2gt\nI feet very bach abmt\nthe coy links because I\nknow it was awful hard for you. Sie ht\nMr. Summugle evas\nLad a Chana to Air Kiss he Kat - she'd lorr\nthat and you too.\nglad you decided to wait and\nper Soth Pacifie\nwrth me- Zh'ee kair to come\ndorn from Balton\nto mast\nme when I get\nhome\nand try to git tickets. It looks as\nthough my tryp will be prolonged by this\nMarxpretro durain. Cor an stre waiting for\nthe Chance to reinaugueats snorce to swanghai\nand of course talk to the\n\"libratin\" auttoitri..\nI real think Da that 9 can do a lot\nfor our country, for China end for Daa.\ntur mint to\nthe races yested at\nHappy Vally\nand sat in the bax of a his\nStanton. Very nice and lots of fun. I lost\non most Eiry race until I out a big hit\non a tip from her stanton. That hors won br",
      "an ich and a fear frain for the dist\nIt was\nand very Exciting.\nPAN AMERICAN WORLD AIRWAYS\nThe System of the Hlying Clippers\nLast night ki chur\nChinss resturant an\ngaur us an out by Caper\nat a\nlittle pig like ur kad that time at mr.\nTyes hour.\nPery. wong was there and seat hi\nvy\nto you.\nI bonget a neck te\ncoith\nhorses on it for him and See fur\nhim one of theo bags for his long.\nIm very pront of the getting A\nin Dr Shapiros cours. That must hair plend\nher tremendous,\nand thor other court. too.\nIm anx cos to know whitth or not Ike\ngar ont ike diplomas.\n9 dio mat get\nyour tarkin message about tiki marks\nHongkog no why hat. Tonight Bunch,\nand I want out to dinars and saw tor\nRock sitting alone to ur made hum\njoin us.\nHe luro coa, ont in cortun\nJunan and is\nOmin\nWe wils very were and worked\nwith him. Dr Rock sint home east your\n115 different varistion of Rhododendrons. cor\nkan an invitation to visit him. tomedit\nthat i tin! after things quiet down a bit.",
      "So sorry that\nPA\nDu tr away for mu\nGrada.\nthe unal thing! I want\nPAN AMERICAN WORLD AIRWAYS\nto\nmake good The System of the Hlying Clippers on this trip\nso as to h turs that the Comp\nen route by Clipper\nwant me\nto\nwork in Emope next\nwith .\nI too think it is important to hair Het\naway for a whee\n• found ont a lat alent Elma?\narano in hania and Expect to learn\nmors when tit go back. Mr. A said he\nExpecte to sell\nthe hous at bague \"te\na Chinaman\" for 100.00o Pesos. That he\nsaid wored take care of the mortgage\nand lear\nEnough on to pay the bank\nWhere for had borrors Entugh money to\nly a lot of stock in Treasure Island\nand Pan Philipino. Bott of thon profurti.\nLar prospects - the latt Earlier that the\nIn At said that gimme S. is\nDoremine to salinge somethin for cema.\nLato an lots of lour -\nNad\nP.S. Hop the wile he coathat to stay at\nTopside long tough to get a complete rest plent,\nop steep ano put an a fro pounda-"
    ],
    "millsfield:images_texts_ids": [
      1913799469,
      1913799471,
      1913799473
    ],
    "millsfield:primary_image": 1913799469,
    "millsfield:subcategory_id": 1511213489,
    "mz:is_approximate": 1,
    "mz:is_current": 1,
    "sfomuseum:accession_number": "2019.121.1122 a c",
    "sfomuseum:airline": "Pan American Airways",
    "sfomuseum:airline_id": [
      685
    ],
    "sfomuseum:category": "Employee Career History",
    "sfomuseum:classification_id": 195,
    "sfomuseum:collection": "Aviation Archive",
    "sfomuseum:creditline": "Collection of SFO Museum",
    "sfomuseum:date": "06/07/1949",
    "sfomuseum:date_acquired": "2019-11-22",
    "sfomuseum:daterange_end": "1949-06-07",
    "sfomuseum:daterange_start": "1949-06-07",
    "sfomuseum:description": "Handwritten letter from Harold M. Bixby to his wife, Debby Bixby, dated June 7, [1949], in Hong Kong, on Pan American World Airways stationery; includes brief description of attempts to start service to Shanghai; mentions Ki Chun, P.Y. Wong, [William L.] Bond.",
    "sfomuseum:dimensions": "10 x 8 inches (25.4 x 20.3 cm)",
    "sfomuseum:medium": "paper, ink",
    "sfomuseum:object_id": 211485,
    "sfomuseum:placetype": "object",
    "sfomuseum:publication": ": , 06/07/1949.",
    "sfomuseum:subcategory": "Correspondence, Personal",
    "src:geom": "sfomuseum#undetermined",
    "wof:belongsto": [
      102527513,
      1159162825,
      102191575,
      85633793,
      102087579,
      85922583,
      85688637,
      1159160869
    ],
    "wof:country": "XY",
    "wof:created": 1714548995,
    "wof:depicts": [
      1159284991,
      1159286839
    ],
    "wof:geomhash": "c281b9d9eefc83b5710e64b9d646067d",
    "wof:hierarchy": [
      {
        "building_id": -1,
        "campus_id": 102527513,
        "collection_id": 1159162825,
        "concourse_id": 1159162825,
        "continent_id": 102191575,
        "country_id": 85633793,
        "county_id": 102087579,
        "custom_id": 1913796137,
        "locality_id": 85922583,
        "neighbourhood_id": -1,
        "object_id": 1913796137,
        "region_id": 85688637,
        "wing_id": 1159160869
      }
    ],
    "wof:id": 1913796137,
    "wof:lastmodified": 1787988219,
    "wof:name": "correspondence: Harold M. Bixby to Debby Bixby",
    "wof:parent_id": 1159162825,
    "wof:placetype": "custom",
    "wof:placetype_alt": [
      "object"
    ],
    "wof:repo": "sfomuseum-data-collection",
    "wof:superseded_by": [],
    "wof:supersedes": []
  },
  "bbox": [
    -122.38647222518921,
    37.6161053594541,
    -122.38583385944366,
    37.61661101879963
  ],
  "geometry": {"type":"Polygon","coordinates":[[[-122.38647222518921,37.61631782178288],[-122.386434674263,37.61623283692423],[-122.38637566566466,37.61617759671399],[-122.38630056381224,37.6161308549656],[-122.38616108894348,37.6161053594541],[-122.38602161407469,37.6161308549656],[-122.38591432571411,37.61618609521055],[-122.38585531711577,37.61626683087935],[-122.38583385944366,37.61636881265146],[-122.38587141036987,37.61646654505181],[-122.38594114780425,37.61654303118856],[-122.38605380058287,37.61660252035167],[-122.38618254661559,37.61661101879963],[-122.3863059282303,37.61657277577607],[-122.3864185810089,37.61650903735973],[-122.3864668607712,37.61641130501523],[-122.38647222518921,37.61631782178288]]]}
}
