{
  "id": 1511930357,
  "type": "Feature",
  "properties": {
    "date:cessation_lower": "1986-01-01",
    "date:cessation_upper": "1986-12-31",
    "date:inception_lower": "1986-01-01",
    "date:inception_upper": "1986-12-31",
    "edtf:cessation": "1986",
    "edtf:date": "1986",
    "edtf:inception": "1986",
    "geom:area": 0,
    "geom:bbox": "-87.894364,41.983038,-87.894364,41.983038",
    "geom:latitude": 41.983038,
    "geom:longitude": -87.894364,
    "iso:country": "US",
    "millsfield:airline_id": [
      1159283791
    ],
    "millsfield:airport_id": [
      102533631
    ],
    "millsfield:category_id": 1511214223,
    "millsfield:collection_id": 1511214207,
    "millsfield:company_id": [
      1159286809
    ],
    "millsfield:images": [
      1527854795,
      1527854797,
      1527854799
    ],
    "millsfield:images_colors_refs": {
      "crayola": [
        {
          "hex": "#d68a59"
        },
        {
          "hex": "#9c2542"
        },
        {
          "hex": "#6699cc"
        },
        {
          "hex": "#cdc5c2"
        },
        {
          "hex": "#efdecd"
        },
        {
          "hex": "#414a4c"
        },
        {
          "hex": "#5d76cb"
        },
        {
          "hex": "#2e5894"
        },
        {
          "hex": "#c5d0e6"
        }
      ],
      "css4": [
        {
          "hex": "#d3d3d3"
        },
        {
          "hex": "#2f4f4f"
        },
        {
          "hex": "#b0c4de"
        },
        {
          "hex": "#4682b4"
        },
        {
          "hex": "#dcdcdc"
        },
        {
          "hex": "#a52a2a"
        },
        {
          "hex": "#a0522d"
        },
        {
          "hex": "#6495ed"
        },
        {
          "hex": "#bdb76b"
        }
      ],
      "marekm4": [
        {
          "hex": "#342e31"
        },
        {
          "hex": "#a43349"
        },
        {
          "hex": "#bc9e57"
        },
        {
          "hex": "#382c3f"
        },
        {
          "hex": "#292f32"
        },
        {
          "hex": "#e4e6db"
        },
        {
          "hex": "#6397cb"
        },
        {
          "hex": "#5278b4"
        },
        {
          "hex": "#bbc7d3"
        },
        {
          "hex": "#c4ccd2"
        },
        {
          "hex": "#3a69a4"
        },
        {
          "hex": "#5794cd"
        },
        {
          "hex": "#9f4151"
        },
        {
          "hex": "#6094c9"
        }
      ]
    },
    "millsfield:images_texts": [
      "AIRCAL\nEffective March 2, 1987\nIncludes American Airlines\nChicago O'Hare\nConnection Supplement",
      "AIRCAL\n• ANCHORAGE\n• VANCOUVER, B.C.\n• SEATTLE/TACOMA\n• PORTLAND\n• RENC\n• LAKE TAHOE\n• SACRAMENTO\nOAKLAND\nSAN FRANCISCO\n• SAN JOSE\n• BURBANK\n• ONTARIO\n• LOS ANGELES\nSAN DIEGO AR\nCHICAGO •\nAIRCAL\n• AIRCAL",
      "Aircal now operates\n170 nonstop Tlignts\neach business day\nbetween the Bay Area\nand Southern California,\nincluding departures\nevery hour between\nLos Angeles and\nSan Francisco Inter-\nnational airports.\nAnd, with AirCal,\nyou get more than fre-\nquent flights. You also\nget superior service. It starts with single-call reser-\nvations service and pre-reserved seating, and con-\ntinues with convenient one-stop check-in at the airport.\nOn board, there's our famous Executive Class Service\nwith extra legroom for each passenger.\nSo, when looking for an airline to fly between\nthe Bay Area and\nSouthern California,\nremember the air-\nline that offers you\nfrequent flights\nHOLLYWOOD\nand superior service.\nAIRCAL\nWe Make Flying Easy\nVia\nLeave\nArrive Flight No.\nFreq.\nStops Meals\nANCHORAGE (ANC)\nReservations: (800) 424-7225\nAir Freight: (907) 243-8849\nTo BURBANK\n110a 1109a\n720/754\nDaily\nSEA\n344\nSJC\nBS\nABOVE FLIGHT EFFECTIVE 3/22\n1 10a\n1109a\n720/754\n344\nExSa\nSEA\nBS\nSJC\nABOVE FLIGHT DISCONTINUED 3/21\n10 15a\n8 35p\n926/724\n350\nExSa\nSEA\nSFO\nLS\nTo LAKE TAHOE\n110a 10 10a\n720/754\n71\nDaily\nSEA\nSJC\n700a\n340p\n728/752 ExTuWeSu SEA\n59\nSJC\nBS\nBS\nTo LOS ANGELES\n110a\n10 09a\n720\n110a\n11 08a\n720/152\nDaily\n2\n700a\n4 10p\n728/322\nDaily\nExSu\nSFO\nSJC\n10 15a\n6 10p\n400p\n926/718\n11.580\n706\nDaily\nSEA\nDaily\nABOVE FLIGHT DISCONTINUED\n3/21\n2\n400p\n1158p\nExSu\nSB\nBS\nLS\nDS\nDS\nBOVE FLIGHT EFFECTIVE 3/22\nTo OAKLAND\n10 15a\n755p\n926/586\n4 00p 1025p 706/714\nDaily\nPDX\nSa\nSEA\nLD\nDS\nLeave\nArrive Flight No.\nFreg.\nVia\nStops Meals\nANCHORAGE (Cont'd)\nTo SAN JOSE\n110a\n832a\n720/754\n700a\n130p\n700a\n200p\n728\n10 15a\n520p\n728/752\n926/722\nDaily\nExSu\nExSu\nDaily\nTo SEATTLE\n110a\n511a\n700a\n11 04a\n720\n728\nDaily\nExSu\n10 15a\n224p\n926\nDaily\n4 00p\n759p\n706\nDaily\nABOVE FLIGHT DISCONTINUED\n3/21\n400p\n759p\n706\nExSu\nABOVE FLIGHT EFFECTIVE 3/22\nSEA\nSEA\nSEA\nBS\nS\nBURBANK (BUR)\nReservations: (818) 843-4321\nAir Freight: (818) 846-6591\nTo ANCHORAGE\n655a\n230p\n105/759\n735\nExSu\nSFO\nSEA\n11 50a\n805p\n177/183\n927\nDaily\nSFO\nABOVE FLIGHT EFFECTIVE 3/22\nSEA\n1150a\n805p\n177/739\nExSa\n927\nSFO\n250p\n4 00p\nABOVE FLIGHT DISCONTINUED 3/21\nSEA\n11 19p\n179/761\nExSa\n11 19p\n253/731\nSu\nSFO\nOAK\n761\nABOVE FLIGHT EFFECTIVE\n3/22\nSEA\nBLS\nDS\nDS\nDS\nDS\nTo ONTARIO\n110a\n9 50a\n700a\n315p\n720/754\n728/752\n10 15a\n815p\n926/738\nDaily\nExSu\nDaily\nSEA\nSJC\nSEA\nBS\nBL\nLD\nTo LAKE TAHOE\n815a 10 10a\n71\nDaily\nTo ORANGE COUNTY\n110a\n949a\n700a\n3 00p\n720/716\nDaily\n728\n900p\n926/106\nExSu\n10 15a\nExSa\n10 15a\n10 09p\n926/753\nSa\nSEA\nPDX\nPDX\nBS\nBL\nLD\nLS\nTo PALM\nI SPRINGS\n110a\n110p\n720/404\nDaily\n110a 1105a\n720/754\nDaily\n900\nLAX\nSEA\nSJC\nBS\nBS\nTo PORTLAND\nTo OAKLAND\n1000a\n11 12a\n267\nDaily\n100p\n212p\n239\nVall\nBOVE FLIGHT EFFECTIVE\n3/22\n100p\nExSa\n2480VE RIGHT DISCONTINUED 3/21\n400p\n5 12BOVE RIGHT EFFECTIVE\n253\nVE 3/22\nExSa\n5A60VE RIGHT DISCONTNUED 3/21\n8 2ABOVE FLIGHT EFFECTIVE\n1V 3/22\nExSa\n8 ABOVE FLIGHT DISCONTINUED 3/21\n10070\n279\nSa\nABOVE FLIGHT DISCONTINUED 3/21\n0\n0\n10 15a\n3 35p\n926\nDaily\n1\nL\nTo RENO\n110a\n1120a\n700a\n100p\n720/607\n728/752\n10 15a\n4 03p\n926/722\nDaily\nExSu\nDaily\nSFO\nSEA\nSEA\nLS\nTo SAN DIEGO\n110a\n700a\n10 35a\n720/716\n312p\n728/88\n10 15a\n747p\n926/722\nDaily\nExSu\nDaily\n354\nSEA\nSJC\nSEA\nSJC\nS\nBL\nTo PORTLAND\n6 55a\n815a\n10 02a\n105/1\nExSaSu\nSFO\n12 20p\n815a\n11 35a\n71/533\n71/351\nExSa\nSa\nSJC\n100p\n5 59p\n239/515\nABOVE FLIGHT EFFECTIVE\nNE 3/22\nSJC\nOAK\n100p\n559p\n239/515\nExSa\nOAK\nABOVE FLIGHT DISCONTINUED 3/21\n4 00p\n253/517\n829BOVE RIGHT EFECT VE\nN0 3/22\nOAK\n4 00p\n8 29p\n253/517\nExSa\nOAK\nABOVE FLIGHT DISCONTINUED 3/21\n5500\n9 02p\n341/96\nExSa\nSFO\nTo SAN FRANCISCO\n1 10a\n840a\n720\nDaily\nSB\nTo RENO\n700a\n3 15p\n728/752\nBS\n655a\n11 20a\nExSu\n10 15a\n440p\n526\nExSu\nSEA\nRNO\n815a\n1217p\n105/607\n71/709\nDaily\n11 50a\nDaily\nSFO\n177/183\n400p\n10 45p\n926/718\n706\nDaily\nSEA\n1\nLS\nDS\n22 BOVE FLIGHT EFFECTIVE\n1150a\n225p\nN0 3/22\nSJC\nSFO\nABOVE FLIGHT DISCONTINUED 3/21\nExSa\nSFO\n400p\n706\nExSu\n177/183\n1045POVE RIGHT EFFECTIVE 3/22\n1\nDS\nABOVE FLIGHT DISCONTINUED 3/21\n655p\n917p\n103/631\nExSa\nSJC\nEx-Except\nTu-Tuesday\nTh-Thursday\nSa-Saturday\nMo-Monday\nWe-Wednesday\nFr-Friday\nSu-Sunday\nCertain Flight Schedules And Equipment Types Subject To Change"
    ],
    "millsfield:images_texts_ids": [
      1527854795,
      1527854797,
      1527854799
    ],
    "millsfield:primary_image": 1527854795,
    "millsfield:subcategory_id": 1511213425,
    "mz:hierarchy_label": 1,
    "mz:is_approximate": 1,
    "mz:is_current": 1,
    "sfomuseum:accession_number": "2007.039.018",
    "sfomuseum:airline": "AirCal",
    "sfomuseum:airline_id": [
      143
    ],
    "sfomuseum:airport": "Chicago O'Hare International Airport",
    "sfomuseum:airport_id": [
      26
    ],
    "sfomuseum:category": "Scheduling / Ticketing",
    "sfomuseum:classification_id": 158,
    "sfomuseum:collection": "Aviation Archive",
    "sfomuseum:creditline": "Gift of Tryg McCoy",
    "sfomuseum:date": "1986",
    "sfomuseum:date_acquired": "2007-05-31",
    "sfomuseum:daterange_end": "1986-12-31",
    "sfomuseum:daterange_start": "1986-01-01",
    "sfomuseum:description": "Timetable issued by AirCal, effective March 2, 1986; blue cover with four color photographic images of San Francisco and Los Angeles and text: “Includes American Airlines Chicago O'Hare connection supplement”.",
    "sfomuseum:dimensions": "9 x 4 inches (22.9 x 10.2 cm)",
    "sfomuseum:issues_held": "                                                                                                                                                                                                                  ",
    "sfomuseum:media_ids": [
      1527854795,
      1527854797,
      1527854799
    ],
    "sfomuseum:medium": "paper, ink",
    "sfomuseum:object_id": 87104,
    "sfomuseum:placetype": "object",
    "sfomuseum:primary_media_id": 1527854795,
    "sfomuseum:publication": ": , 1986.",
    "sfomuseum:subcategory": "Timetable",
    "sfomuseum:subject": "Airlines -- Commercial -- AirCal                                             ",
    "src:geom": "sfomuseum#derived",
    "src:geom_derived_from": [
      102533631
    ],
    "wof:belongsto": [
      102527513,
      102191575,
      85633793,
      85922583,
      102087579,
      85688637,
      1159162825,
      1159160869,
      958020405,
      102533631,
      102084317,
      404496273,
      85940195,
      1024608977,
      85688697
    ],
    "wof:breaches": [],
    "wof:country": "US",
    "wof:created": 1579906663,
    "wof:depicts": [
      102533631,
      1159283791,
      1159286809
    ],
    "wof:geomhash": "7b3bbc54c892c856b4b1b7eb583f40c7",
    "wof:hierarchy": [
      {
        "building_id": -1,
        "campus_id": 102527513,
        "collection_id": 1159162825,
        "concourse_id": 1159162825,
        "continent_id": 102191575,
        "country_id": 85633793,
        "county_id": 102087579,
        "custom_id": 1511930357,
        "locality_id": 85922583,
        "neighbourhood_id": -1,
        "object_id": 1511930357,
        "region_id": 85688637,
        "wing_id": 1159160869
      },
      {
        "borough_id": 958020405,
        "campus_id": 102533631,
        "continent_id": 102191575,
        "country_id": 85633793,
        "county_id": 102084317,
        "custom_id": 1511930357,
        "localadmin_id": 404496273,
        "locality_id": 85940195,
        "neighbourhood_id": 1024608977,
        "object_id": 1511930357,
        "region_id": 85688697
      }
    ],
    "wof:id": 1511930357,
    "wof:lastmodified": 1787988180,
    "wof:name": "timetable: AirCal",
    "wof:parent_id": 1159162825,
    "wof:placetype": "custom",
    "wof:placetype_alt": [
      "object"
    ],
    "wof:repo": "sfomuseum-data-collection",
    "wof:superseded_by": [],
    "wof:supersedes": [],
    "wof:tags": []
  },
  "bbox": [
    -87.894364,
    41.983038,
    -87.894364,
    41.983038
  ],
  "geometry": {"type":"MultiPoint","coordinates":[[-87.894364,41.983038]]}
}
