{
  "id": 1913796209,
  "type": "Feature",
  "properties": {
    "date:cessation_lower": "1935-07-01",
    "date:cessation_upper": "1935-07-31",
    "date:inception_lower": "1935-07-01",
    "date:inception_upper": "1935-07-31",
    "edtf:cessation": "1935-07-26~",
    "edtf:inception": "1935-07-26~",
    "geom:area": 2.475047457570636e-7,
    "geom:bbox": "-122.386472,37.616105,-122.385834,37.616611",
    "geom:latitude": 37.61635747477365,
    "geom:longitude": -122.38615540108617,
    "millsfield:airline_id": [
      1159284991
    ],
    "millsfield:category_id": 1511214251,
    "millsfield:collection_id": 1511214207,
    "millsfield:company_id": [
      1159286839
    ],
    "millsfield:images": [
      1913802251,
      1913802253
    ],
    "millsfield:images_colors_refs": {
      "crayola": [
        {
          "hex": "#efcdb8"
        },
        {
          "hex": "#eceabe"
        },
        {
          "hex": "#9f8170"
        },
        {
          "hex": "#414a4c"
        }
      ],
      "css4": [
        {
          "hex": "#f5deb3"
        },
        {
          "hex": "#2f4f4f"
        },
        {
          "hex": "#808080"
        },
        {
          "hex": "#556b2f"
        }
      ],
      "marekm4": [
        {
          "hex": "#3e3939"
        },
        {
          "hex": "#e6d9bb"
        },
        {
          "hex": "#9e9270"
        },
        {
          "hex": "#4f462c"
        },
        {
          "hex": "#e7dbbe"
        }
      ]
    },
    "millsfield:images_texts": [
      "Management\nHubert C. Anderson\nCable Address\nManhoco - Manila\nManila, Philippines\nDros dear\nLast night us - meanny Pussie and\nI went to see \"A Dog of Flanders\" It\nwas with out any doubt the worst\nmovie 9 Eur saw - a big thratre and\nreach thee was nt on turnt, prople\nthen when the move ended and not\nwhen it started. The trao\nhad announced last wick \"Do not br\nashamed of honest tard\" and I toed\nRussee that line\nmust hair refried\nto the casher in the box offict.\nAm going to tack with g.T.T. ton git\nagain abont the Qi mail contract which\nis going\nalong ory use practical, au\ntrou\nI tune agreed upon. Saw\nthe goo gone tho\nQ.m\nand had guita\na satisfactor, talk",
      "with him. its has writin assuranes\nfrom Queen that our franchin well\ngaos in Septimber.\nThe ratte continues fair and\nwarmers the fau gart bring a\nreal\nnef relig after one\nafter one sold wick of\nram which\nall but had me doin.\nam having a dinan tonight\nfor the commanding Offer at gram\nand his wife the bar just anis\nin manila for a\nshort stop and\nthen they go\nto Pei ping. Of they are\nnich and not too much navy\nDel gur them.\na chit to you\nThey was ery kind and hospitable\nto the Nort Hair crowd during\nthin sta, at\nt quam\nIm stee\nplanning to said on\nthe geffeson gue, 312.\nNope you and\nthe\nall wore and happy.\na willies ait.\nte happy too when 2 ean rejorn\nмок -\nMous Bix 2019.121.0917"
    ],
    "millsfield:images_texts_ids": [
      1913802251,
      1913802253
    ],
    "millsfield:primary_image": 1913802251,
    "millsfield:subcategory_id": 1511213489,
    "mz:is_approximate": 1,
    "mz:is_current": 1,
    "sfomuseum:accession_number": "2019.121.0917",
    "sfomuseum:airline": "Pan American Airways",
    "sfomuseum:airline_id": [
      685
    ],
    "sfomuseum:category": "Employee Career History",
    "sfomuseum:classification_id": 195,
    "sfomuseum:collection": "Aviation Archive",
    "sfomuseum:creditline": "Collection of SFO Museum",
    "sfomuseum:date": "c. 07/26/1935",
    "sfomuseum:date_acquired": "2019-11-22",
    "sfomuseum:daterange_end": "1935-07-26",
    "sfomuseum:daterange_start": "1935-07-26",
    "sfomuseum:description": "Handwritten letter from Harold M. Bixby to his wife, Debby Bixby, undated [likely July 26, 1935] on stationery from the Manila Hotel; includes description of status of PAA franchise in the Filipino legislature, upcoming call with J.T.T. [Juan Trippe]; mentions [C.S.] Russell, [Senator Manuel] Quezon, Governor General [Frank] Murphy.",
    "sfomuseum:dimensions": "11 x 8 1/2 inches (27.9 x 21.6 cm)",
    "sfomuseum:medium": "paper, ink",
    "sfomuseum:object_id": 211280,
    "sfomuseum:placetype": "object",
    "sfomuseum:publication": ": , c. 07/26/1935.",
    "sfomuseum:subcategory": "Correspondence, Personal",
    "src:geom": "sfomuseum#undetermined",
    "wof:belongsto": [
      102527513,
      1159162825,
      102191575,
      85633793,
      102087579,
      85922583,
      85688637,
      1159160869
    ],
    "wof:country": "XY",
    "wof:created": 1714549017,
    "wof:depicts": [
      1159284991,
      1159286839
    ],
    "wof:geomhash": "c281b9d9eefc83b5710e64b9d646067d",
    "wof:hierarchy": [
      {
        "building_id": -1,
        "campus_id": 102527513,
        "collection_id": 1159162825,
        "concourse_id": 1159162825,
        "continent_id": 102191575,
        "country_id": 85633793,
        "county_id": 102087579,
        "custom_id": 1913796209,
        "locality_id": 85922583,
        "neighbourhood_id": -1,
        "object_id": 1913796209,
        "region_id": 85688637,
        "wing_id": 1159160869
      }
    ],
    "wof:id": 1913796209,
    "wof:lastmodified": 1787988219,
    "wof:name": "correspondence: Harold M. Bixby to Debby Bixby",
    "wof:parent_id": 1159162825,
    "wof:placetype": "custom",
    "wof:placetype_alt": [
      "object"
    ],
    "wof:repo": "sfomuseum-data-collection",
    "wof:superseded_by": [],
    "wof:supersedes": []
  },
  "bbox": [
    -122.38647222518921,
    37.6161053594541,
    -122.38583385944366,
    37.61661101879963
  ],
  "geometry": {"type":"Polygon","coordinates":[[[-122.38647222518921,37.61631782178288],[-122.386434674263,37.61623283692423],[-122.38637566566466,37.61617759671399],[-122.38630056381224,37.6161308549656],[-122.38616108894348,37.6161053594541],[-122.38602161407469,37.6161308549656],[-122.38591432571411,37.61618609521055],[-122.38585531711577,37.61626683087935],[-122.38583385944366,37.61636881265146],[-122.38587141036987,37.61646654505181],[-122.38594114780425,37.61654303118856],[-122.38605380058287,37.61660252035167],[-122.38618254661559,37.61661101879963],[-122.3863059282303,37.61657277577607],[-122.3864185810089,37.61650903735973],[-122.3864668607712,37.61641130501523],[-122.38647222518921,37.61631782178288]]]}
}
