{
  "id": 1913795893,
  "type": "Feature",
  "properties": {
    "date:cessation_lower": "1961-07-12",
    "date:cessation_upper": "1961-07-12",
    "date:inception_lower": "1961-07-12",
    "date:inception_upper": "1961-07-12",
    "edtf:cessation": "1961-07-12",
    "edtf:inception": "1961-07-12",
    "geom:area": 2.475047457570636e-7,
    "geom:bbox": "-122.386472,37.616105,-122.385834,37.616611",
    "geom:latitude": 37.61635747477365,
    "geom:longitude": -122.38615540108617,
    "millsfield:airline_id": [
      1159284989
    ],
    "millsfield:category_id": 1511214251,
    "millsfield:collection_id": 1511214207,
    "millsfield:company_id": [
      1159286839
    ],
    "millsfield:images": [
      1913796921
    ],
    "millsfield:images_colors_refs": {
      "crayola": [
        {
          "hex": "#fddde6"
        },
        {
          "hex": "#414a4c"
        }
      ],
      "css4": [
        {
          "hex": "#2f4f4f"
        },
        {
          "hex": "#f5f5f5"
        }
      ],
      "marekm4": [
        {
          "hex": "#f0eef0"
        },
        {
          "hex": "#44453e"
        }
      ]
    },
    "millsfield:images_texts": [
      "0627178\nFLORIDA AUDUBON SOCIETY\nFOUNDED\n1900\nINCORPORATED\n1902\nPUBLISHERS OF\nThe Florida Naturalist\nEXCCTVEDIRECTOR\nC. RUSSELL MASON\nPOST OFFICE\nBox 825\nMAITLAND, FLORIDA\nPHONE\nMIDWAY 7-2615\nSheffield, Mass.\nJuly I2, I96I\nMr. Herold M. Bixby\nBolton Landing, New York\nDear Mr. Bixby:\nMr. Willis Combs of Sanibel, Florida has written of your\ninterest of a piece of land on Sanibel (234\nacres) that is surrounded by\nState and Federal land and would be a desirable addition to the wildlife\nAs you may know there have been two very favorable developments\nin the land preservation picture in Plorida in recent months.\nA committee\ncomposed of the heads of several of the State's\nresource management agencies,-\nBoard of Parks, Game and Fish Commission, Conservation Dept. 80. is working on\na land classification program with the object of classifying the remaining\nundeveloped land according to its best potential uses, with land for wildlife and\nthe important objectives.\nAs urance has been given that no\nthat might be of value for these purposes will be sold until\nclassification has been agreed on, and that efforts will also ibe made to preserve\nprivately owned land that has special value.\nIn May a law was passed which would enable the U.S. Fish \u0026 Wildlife\nService to purchase land for use as wildlife refuges in Floride.\nThis has been\nprevented by Florida law for several years. There is money available for such\npurchases now, and the Fish and Wildlife Service has under consideration some\nareas which it has been studying. I know that both the State authorities and\nMr. Walter Gresh, head of the U.S.F..W.L. ofride in Atlanta are interested in\nstrengthening and developing the refuge area on Sanibel.\nI am sure that any\nlocal interest or help that might be shown toward that end would be very helpful.\nI know that the State program which which was to be started on a trial basis\nin a few loaalities this past pring was planned to depend heavily on local\nhelp, since goverrment purchases of all the needed land would be impossible.\nI understand that there might be an active interest on Sanibel and\nCaptiva for a project of this kind. Mr. William Kida,administrative assistant\nin the Governor's\noffice in Tallahassee, is in charge of this program for the\nGovernor, and Mr. Walter A. Gresh, regional head of the U.S.F.EW.L. Service ,\nPeachtree-seventh Bldg. Atlanta,Go. has charge of the Federal progrem. I believe\nyou would find them both interested and cooperative.\nMIss MA SO VON BOROWSKY\nJOHNN STORER\nPRESIDENT\nCHARLES W.\nATWOOD\nHOWARD R.\nMRS. HERBERT A. BRADDOCK\nMRS.\nTHOMAS W. BRAMHALL\nBENJAMIN A.\nCARPENTER\nTHOMAS T.\nMRS.\nWOODSON DICKERSON\nJ. C. DICKINSON,\nVICE PRESLOENT\nSECRETARY\nCONRAD H.\nEKDAHL\nMRS ROBERTS PARING\nCLEMENT\nFORD\nCHARLES\nGERHAROT\nMRS.\nWILLIAM\nGRAY\nSAMUEL A\nGRiMES\nMRS.\nW. W. HENDRICKSON\nHOLHLES\nEDWIN L. LONG, JR.\nMRS. WINFIELD LOTT\nMISS\nMRS.\nMICHEL\nJAMES NISBET\nMRS.\nJOSEPH\nNISWONGER\nCHARLES P. PRESTON\nMRS.\nVICTOR RAHNER,\nJR.\nMRS.\nHENRY E, ROBINSON, JR.\nIRWIN W. FRITZ\nTREASURER\nHERBERT L. STODDARD, SR.\nMRS.\nDONALD SWANSON\nDADE W.\nFREDERICK K.\nTRUSLOW\nA. WELLMAN TUCKER\nPAUL A.\nVESTAL\nK.\nWALLACE\nWILLIAM P. WHARTON\nCONSERVATION IN ACTION"
    ],
    "millsfield:images_texts_ids": [
      1913796921
    ],
    "millsfield:primary_image": 1913796921,
    "millsfield:subcategory_id": 1511213489,
    "mz:is_approximate": 1,
    "mz:is_current": 1,
    "sfomuseum:accession_number": "2019.121.1206",
    "sfomuseum:airline": "Pan American World Airways",
    "sfomuseum:airline_id": [
      684
    ],
    "sfomuseum:category": "Employee Career History",
    "sfomuseum:classification_id": 195,
    "sfomuseum:collection": "Aviation Archive",
    "sfomuseum:creditline": "Collection of SFO Museum",
    "sfomuseum:date": "07/12/1961",
    "sfomuseum:date_acquired": "2019-11-22",
    "sfomuseum:daterange_end": "1961-07-12",
    "sfomuseum:daterange_start": "1961-07-12",
    "sfomuseum:description": "Typewritten letter from John H. Storer to Harold M. Bixby, dated July 12, 1961, on Florida Audubon Society stationery; includes description of parcel of land for sale and its relationship to a wildlife preserve on Sanibel Island.",
    "sfomuseum:dimensions": "11 x 8 1/2 inches (27.9 x 21.6 cm)",
    "sfomuseum:medium": "paper, ink",
    "sfomuseum:object_id": 211837,
    "sfomuseum:placetype": "object",
    "sfomuseum:publication": ": , 07/12/1961.",
    "sfomuseum:subcategory": "Correspondence, Personal",
    "src:geom": "sfomuseum#undetermined",
    "wof:belongsto": [
      102527513,
      1159162825,
      102191575,
      85633793,
      102087579,
      85922583,
      85688637,
      1159160869
    ],
    "wof:country": "XY",
    "wof:created": 1714548924,
    "wof:depicts": [
      1159284989,
      1159286839
    ],
    "wof:geomhash": "c281b9d9eefc83b5710e64b9d646067d",
    "wof:hierarchy": [
      {
        "building_id": -1,
        "campus_id": 102527513,
        "collection_id": 1159162825,
        "concourse_id": 1159162825,
        "continent_id": 102191575,
        "country_id": 85633793,
        "county_id": 102087579,
        "custom_id": 1913795893,
        "locality_id": 85922583,
        "neighbourhood_id": -1,
        "object_id": 1913795893,
        "region_id": 85688637,
        "wing_id": 1159160869
      }
    ],
    "wof:id": 1913795893,
    "wof:lastmodified": 1787988219,
    "wof:name": "correspondence: John H. Storer to Harold M. Bixby",
    "wof:parent_id": 1159162825,
    "wof:placetype": "custom",
    "wof:placetype_alt": [
      "object"
    ],
    "wof:repo": "sfomuseum-data-collection",
    "wof:superseded_by": [],
    "wof:supersedes": []
  },
  "bbox": [
    -122.38647222518921,
    37.6161053594541,
    -122.38583385944366,
    37.61661101879963
  ],
  "geometry": {"type":"Polygon","coordinates":[[[-122.38647222518921,37.61631782178288],[-122.386434674263,37.61623283692423],[-122.38637566566466,37.61617759671399],[-122.38630056381224,37.6161308549656],[-122.38616108894348,37.6161053594541],[-122.38602161407469,37.6161308549656],[-122.38591432571411,37.61618609521055],[-122.38585531711577,37.61626683087935],[-122.38583385944366,37.61636881265146],[-122.38587141036987,37.61646654505181],[-122.38594114780425,37.61654303118856],[-122.38605380058287,37.61660252035167],[-122.38618254661559,37.61661101879963],[-122.3863059282303,37.61657277577607],[-122.3864185810089,37.61650903735973],[-122.3864668607712,37.61641130501523],[-122.38647222518921,37.61631782178288]]]}
}
