{
  "id": 1914430769,
  "type": "Feature",
  "properties": {
    "date:cessation_lower": "1970-01-01",
    "date:cessation_upper": "1979-12-31",
    "date:inception_lower": "1970-01-01",
    "date:inception_upper": "1979-12-31",
    "edtf:cessation": "197X",
    "edtf:inception": "197X",
    "geom:area": 2.475047457570636e-7,
    "geom:bbox": "-122.386472,37.616105,-122.385834,37.616611",
    "geom:latitude": 37.61635747477365,
    "geom:longitude": -122.38615540108617,
    "millsfield:airline_id": [
      1159286455
    ],
    "millsfield:category_id": 1762671311,
    "millsfield:collection_id": 1511214207,
    "millsfield:company_id": [
      1159286951
    ],
    "millsfield:images": [
      1914430877,
      1914430879
    ],
    "millsfield:images_colors_refs": {
      "crayola": [
        {
          "hex": "#fddde6"
        },
        {
          "hex": "#000000"
        },
        {
          "hex": "#714b23"
        },
        {
          "hex": "#c46210"
        },
        {
          "hex": "#9c7c38"
        }
      ],
      "css4": [
        {
          "hex": "#faf0e6"
        },
        {
          "hex": "#b8860b"
        },
        {
          "hex": "#cd853f"
        },
        {
          "hex": "#000000"
        },
        {
          "hex": "#f5f5f5"
        }
      ],
      "marekm4": [
        {
          "hex": "#ba7403"
        },
        {
          "hex": "#322d0d"
        },
        {
          "hex": "#b27a04"
        },
        {
          "hex": "#f3f1ef"
        },
        {
          "hex": "#f1f0ec"
        },
        {
          "hex": "#b68f22"
        },
        {
          "hex": "#b6973a"
        },
        {
          "hex": "#382c07"
        }
      ]
    },
    "millsfield:images_texts": [
      "Your flight is under the command of an experienced Captain and crew.\nThey have been thoroughly trained in every emergency procedure.\nPlease follow their instructions should an emergency arise. For. your\nadded safety and comfort we urge you to note the locations of the\nexits and safety equipment indicated on this chart.\nEmergency Information\nQUICK EXIT LOCATIONS CONVAIR\nFORE\nCABIN DOOR\nAUXILIARY EXIT\nWINDOW EXITS\nWINDOW EXITS\nWINDOW EXIT\nCABIN DOOR\nSLIDE\nAFT\nSEE OTHER SIDE FOR ADDITIONAL INFORMATION\nBRANIFF INTERNATIONAL",
      "SMOKING AND SEAT BELTS\nSeat belts must be fastened when\nthe seat belt sign is on. You may\nwalk about the cabin freely when\nthe sign is off; however, you will\nnotice most experienced air trav-\nelers keep their belts loosely fas-\ntened whenever they are seated\nWe recommend this practice.\nYou may smoke cigarettes any-\nwhere within the cabin except\nwhen the Captain turns on the\n\"No Smoking\" sign.\nWINDOW EXIT OPERATION\n(EXIT?\n(EXIT.)\nREMOVE PLASTIC COVER\nPULL INWARD ON WINDOW\nLIFT WINDOW INTO CABIN\nDOOR OPERATION\nEVACUATION\nSLIDES\nROTATE HANDLE TO\n\"OPEN\" POSITION.\nPUSH DOOR.\nSLIDES ARE PROVIDED NEAR DOOR EXITS\nPLEASE SEE OTHER SIDE\nBRACING POSITIONS\nFORWARD-FACING SEAT\nAFT-FACING SEAT\nPLEASE DO NOT REMOVE CARD FROM PLANE\n0A2AA072\n177"
    ],
    "millsfield:images_texts_ids": [
      1914430877,
      1914430879
    ],
    "millsfield:primary_image": 1914430877,
    "millsfield:subcategory_id": 1511213703,
    "mz:is_approximate": 1,
    "mz:is_current": 1,
    "sfomuseum:accession_number": "2002.127.177",
    "sfomuseum:aircraft": "Convair",
    "sfomuseum:airline": "Braniff International",
    "sfomuseum:airline_id": [
      1378
    ],
    "sfomuseum:category": "Passenger Amenity, Archive",
    "sfomuseum:classification_id": 581,
    "sfomuseum:collection": "Aviation Archive",
    "sfomuseum:creditline": "Gift of Thomas G. Dragges",
    "sfomuseum:date": "1970s",
    "sfomuseum:date_acquired": "2003-12-22",
    "sfomuseum:daterange_end": "1979-12-31",
    "sfomuseum:daterange_start": "1970-01-01",
    "sfomuseum:description": "Safety information card issued by Braniff International for the Convair fleet; orange double-sided card with illustrations depicting inflight safety and emergency procedures; identification code: 963-663072; no revision date.",
    "sfomuseum:dimensions": "10 1/2 x 4 1/2 inches (26.7 x 11.4 cm)",
    "sfomuseum:medium": "paper, ink",
    "sfomuseum:object_id": 68679,
    "sfomuseum:placetype": "object",
    "sfomuseum:publication": ": , 1970s.",
    "sfomuseum:subcategory": "Safety Information Card",
    "src:geom": "sfomuseum#undetermined",
    "wof:belongsto": [
      102527513,
      1159162825,
      102191575,
      85633793,
      102087579,
      85922583,
      85688637,
      1159160869
    ],
    "wof:country": "XY",
    "wof:created": 1719300725,
    "wof:depicts": [
      1159286455,
      1159286951
    ],
    "wof:geomhash": "c281b9d9eefc83b5710e64b9d646067d",
    "wof:hierarchy": [
      {
        "building_id": -1,
        "campus_id": 102527513,
        "collection_id": 1159162825,
        "concourse_id": 1159162825,
        "continent_id": 102191575,
        "country_id": 85633793,
        "county_id": 102087579,
        "custom_id": 1914430769,
        "locality_id": 85922583,
        "neighbourhood_id": -1,
        "object_id": 1914430769,
        "region_id": 85688637,
        "wing_id": 1159160869
      }
    ],
    "wof:id": 1914430769,
    "wof:lastmodified": 1787988220,
    "wof:name": "safety information card: Braniff International, Convair",
    "wof:parent_id": 1159162825,
    "wof:placetype": "custom",
    "wof:placetype_alt": [
      "object"
    ],
    "wof:repo": "sfomuseum-data-collection",
    "wof:superseded_by": [],
    "wof:supersedes": []
  },
  "bbox": [
    -122.38647222518921,
    37.6161053594541,
    -122.38583385944366,
    37.61661101879963
  ],
  "geometry": {"type":"Polygon","coordinates":[[[-122.38647222518921,37.61631782178288],[-122.386434674263,37.61623283692423],[-122.38637566566466,37.61617759671399],[-122.38630056381224,37.6161308549656],[-122.38616108894348,37.6161053594541],[-122.38602161407469,37.6161308549656],[-122.38591432571411,37.61618609521055],[-122.38585531711577,37.61626683087935],[-122.38583385944366,37.61636881265146],[-122.38587141036987,37.61646654505181],[-122.38594114780425,37.61654303118856],[-122.38605380058287,37.61660252035167],[-122.38618254661559,37.61661101879963],[-122.3863059282303,37.61657277577607],[-122.3864185810089,37.61650903735973],[-122.3864668607712,37.61641130501523],[-122.38647222518921,37.61631782178288]]]}
}
