{
  "id": 1762680433,
  "type": "Feature",
  "properties": {
    "date:cessation_lower": "1967-01-01",
    "date:cessation_upper": "1967-12-31",
    "date:inception_lower": "1967-01-01",
    "date:inception_upper": "1967-12-31",
    "edtf:cessation": "1967",
    "edtf:inception": "1967",
    "geom:area": 2.475047457570636e-7,
    "geom:bbox": "-122.386472,37.616105,-122.385834,37.616611",
    "geom:latitude": 37.61635747477365,
    "geom:longitude": -122.38615540108617,
    "millsfield:airline_id": [
      1159283649
    ],
    "millsfield:category_id": 1511214223,
    "millsfield:collection_id": 1511214207,
    "millsfield:company_id": [
      1159287863
    ],
    "millsfield:images": [
      1762697463,
      1762698041
    ],
    "millsfield:images_colors_refs": {
      "crayola": [
        {
          "hex": "#000000"
        },
        {
          "hex": "#eceabe"
        },
        {
          "hex": "#de5d83"
        },
        {
          "hex": "#e3256b"
        },
        {
          "hex": "#f75394"
        },
        {
          "hex": "#efcdb8"
        },
        {
          "hex": "#ca3767"
        }
      ],
      "css4": [
        {
          "hex": "#f5deb3"
        },
        {
          "hex": "#ffebcd"
        },
        {
          "hex": "#c71585"
        },
        {
          "hex": "#db7093"
        },
        {
          "hex": "#000000"
        }
      ],
      "marekm4": [
        {
          "hex": "#b91b67"
        },
        {
          "hex": "#2d2216"
        },
        {
          "hex": "#d82967"
        },
        {
          "hex": "#1f2119"
        },
        {
          "hex": "#ef608b"
        },
        {
          "hex": "#faedc8"
        },
        {
          "hex": "#e9daba"
        },
        {
          "hex": "#ce6989"
        }
      ]
    },
    "millsfield:images_texts": [
      "AIR-INDIA\nWINTER SCHEDULES\nEFFECTIVE OCTOBER 29, 1967\nAIR-INDIA\nAIR-INDIA AIR-INDIA\nAIR-INDIA A/R-INDIA\nAIR-INDIA AIR-INDIA\nAIR-INDIA AIR-INDIA\nAIR-INDIA\nAIR-INDIA\nAIR-INDIA AIR-INDIA\nAIR-INDIA AIR-INDIA",
      "AI\n215\nB7\nF/Y\nSun\n0900\n1210\nEC\n733\nSV10\nF/Y\nSun\n1100\n1215\n1315\n1510\n1610\n1845\n1945\n2045\nEC\n731\nSV10\nF/Y\nTue\n0150\n0305\n0405\n0755\nAl\n205\nB7\nF/Y\nWed\n0700\n0835\n0925\n.\n1155\nAl\n207\nB7\nF/Y\nThu\n1500\n1810\nINDIA - EAST AFRICA\nEC\n735\nSV10\nB7 = Boeing 707\nSV10 =\nSuper VC10\nAl\n212\nB7\nF/Y\nSat\n0150\n0305\n0405\n0700\n0800\n0950\n1050\n1200\nF/Y\ndep\nBOMBAY\narr\nSun\n2320\narr\ndep\nKARACHI\ndep\narr\narr\ndep\nADEN\ndep\narr\n1705\n1615\narr\ndep\nADDIS ABABA\ndep\narr\narr\ndep\nNAIROBI\ndep\narr\n1345\nSun\narr\nDAR ES SALAAM\ndep\narr\nENTEBBE\ndep\nLONDO\nBRUSSEL\nBARY\nGEN\nEC\n732\nSV10\nF/Y\nMon\n2220\n2015\n1915\n1400\n1300\n1030\n0930\n0830\nMon\nAl\n204\nB7\nF/Y\nWed\n2140\nAl\n206\nB7\nF/Y\nFri\n0410\nFri\n1345\nWed\n2015\nThu\nEC\n734\nSV10\nF/Y\nFri\n2240\n*\n2035\n- 1935\n4\n1320\n1220\n1030\nFri\nEC\n736\nSV10\nF/Y\nSun\n0825\n0620\n0520\nSun\n2200\n2100\n1950\nSat\nANKFURT\nPRAGUE\nMOSCOW\nNEW YORK\nTEHERAN\nDELHI\nCAIRO\nALCUTTA\nBAHRAIN\nADEN\nHONG KONG\n«BOMBAY\nBANGKOK\nKOALA CUMPUR\nNAIROBI•\nŞINGAPORI\n•JAKABTA\nAIR INDIA\nPote\nPERI\nCALENDAR\n1967-68\n•NANE\nSYONEY\nOCTOBER\nSM TW T FS\nNOVEMBER\nSM TW TF S\nDECEMBER\nSM TW TFS\nJANUARY\nSM TW TFS\n1 2 3 4 5 6 7\n8\n9 10 11 12 13 14\n15\n16\n17 18 19 20 21\n22\n23\n24\n25\n26 27 28'\n29\n30\n31\n1 2 3\n4\n8\n9 10 11\n12 13 14 15 16 17 18\n19 20 21\n22\n23 24 25\n26 27 28 29\n30\n31\n1 2\n3\n5\n8\n9\n10 11 12 13 14 15 16\n17 18 19\n20 21\n22 23\n24 25 26 27 28 29 30\n1\n2\n3 4 5\n6\n7\n8\n9 10 11 12 13\n14\n15\n16\n17 18 19 20\n21 22\n23\n24 25 26 27\n28 29\n30\n31\nDates in red\nindicate\ndepartures ex Bombay of the Mauritius Service operating every alternate Tuesday"
    ],
    "millsfield:images_texts_ids": [
      1762697463,
      1762698041
    ],
    "millsfield:primary_image": 1762697463,
    "millsfield:subcategory_id": 1511213425,
    "mz:is_current": 1,
    "sfomuseum:accession_number": "2012.173.035",
    "sfomuseum:airline": "Air India",
    "sfomuseum:airline_id": [
      80
    ],
    "sfomuseum:category": "Scheduling / Ticketing",
    "sfomuseum:classification_id": 158,
    "sfomuseum:collection": "Aviation Archive",
    "sfomuseum:creditline": "Gift of Willard F. Keeney",
    "sfomuseum:date": "1967",
    "sfomuseum:date_acquired": "2013-03-28",
    "sfomuseum:daterange_end": "1967-12-31",
    "sfomuseum:daterange_start": "1967-01-01",
    "sfomuseum:description": "Timetable issued by Air India, effective October 29, 1967, winter service; fold-out format; white and pink cover with pattern of servicemarks; route map included.",
    "sfomuseum:dimensions": "9 1/4 x 3 3/4 inches (23.5 x 9.5 cm)",
    "sfomuseum:medium": "paper, ink",
    "sfomuseum:object_id": 140439,
    "sfomuseum:placetype": "object",
    "sfomuseum:publication": ": , 1967.",
    "sfomuseum:subcategory": "Timetable",
    "sfomuseum:subject": "Airlines -- Commercial -- Aer Lingus.",
    "src:geom": "sfomuseum#undetermined",
    "wof:belongsto": [
      102527513,
      1159162825,
      102191575,
      85633793,
      102087579,
      85922583,
      85688637,
      1159160869
    ],
    "wof:country": "XY",
    "wof:created": 1641339680,
    "wof:depicts": [
      1159283649,
      1159287863
    ],
    "wof:geomhash": "c281b9d9eefc83b5710e64b9d646067d",
    "wof:hierarchy": [
      {
        "building_id": -1,
        "campus_id": 102527513,
        "collection_id": 1159162825,
        "concourse_id": 1159162825,
        "continent_id": 102191575,
        "country_id": 85633793,
        "county_id": 102087579,
        "custom_id": 1762680433,
        "locality_id": 85922583,
        "neighbourhood_id": -1,
        "object_id": 1762680433,
        "region_id": 85688637,
        "wing_id": 1159160869
      }
    ],
    "wof:id": 1762680433,
    "wof:lastmodified": 1787988192,
    "wof:name": "timetable: Air India, winter edition",
    "wof:parent_id": 1159162825,
    "wof:placetype": "custom",
    "wof:placetype_alt": [
      "object"
    ],
    "wof:repo": "sfomuseum-data-collection",
    "wof:superseded_by": [],
    "wof:supersedes": []
  },
  "bbox": [
    -122.38647222518921,
    37.6161053594541,
    -122.38583385944366,
    37.61661101879963
  ],
  "geometry": {"type":"Polygon","coordinates":[[[-122.38647222518921,37.61631782178288],[-122.386434674263,37.61623283692423],[-122.38637566566466,37.61617759671399],[-122.38630056381224,37.6161308549656],[-122.38616108894348,37.6161053594541],[-122.38602161407469,37.6161308549656],[-122.38591432571411,37.61618609521055],[-122.38585531711577,37.61626683087935],[-122.38583385944366,37.61636881265146],[-122.38587141036987,37.61646654505181],[-122.38594114780425,37.61654303118856],[-122.38605380058287,37.61660252035167],[-122.38618254661559,37.61661101879963],[-122.3863059282303,37.61657277577607],[-122.3864185810089,37.61650903735973],[-122.3864668607712,37.61641130501523],[-122.38647222518921,37.61631782178288]]]}
}
