{
  "id": 1914555673,
  "type": "Feature",
  "properties": {
    "date:cessation_lower": "1994-01-01",
    "date:cessation_upper": "1994-12-31",
    "date:inception_lower": "1994-01-01",
    "date:inception_upper": "1994-12-31",
    "edtf:cessation": "1994",
    "edtf:inception": "1994",
    "geom:area": 2.475047457570636e-7,
    "geom:bbox": "-122.386472,37.616105,-122.385834,37.616611",
    "geom:latitude": 37.61635747477365,
    "geom:longitude": -122.38615540108617,
    "millsfield:aircraft_id": [
      1159289827
    ],
    "millsfield:airline_id": [
      1159284401
    ],
    "millsfield:category_id": 1762671311,
    "millsfield:collection_id": 1511214207,
    "millsfield:company_id": [
      1159293593,
      1159289819
    ],
    "millsfield:images": [
      1914556349,
      1914556351,
      1914556353,
      1914556355
    ],
    "millsfield:images_colors_refs": {
      "crayola": [
        {
          "hex": "#414a4c"
        },
        {
          "hex": "#dbd7d2"
        },
        {
          "hex": "#319177"
        },
        {
          "hex": "#9c2542"
        },
        {
          "hex": "#6699cc"
        },
        {
          "hex": "#1974d2"
        },
        {
          "hex": "#bab86c"
        },
        {
          "hex": "#000000"
        },
        {
          "hex": "#fddde6"
        },
        {
          "hex": "#efdecd"
        },
        {
          "hex": "#2e5894"
        }
      ],
      "css4": [
        {
          "hex": "#dcdcdc"
        },
        {
          "hex": "#708090"
        },
        {
          "hex": "#2f4f4f"
        },
        {
          "hex": "#006400"
        },
        {
          "hex": "#4682b4"
        },
        {
          "hex": "#faf0e6"
        },
        {
          "hex": "#b22222"
        },
        {
          "hex": "#1e90ff"
        },
        {
          "hex": "#5f9ea0"
        },
        {
          "hex": "#faebd7"
        },
        {
          "hex": "#f5f5dc"
        },
        {
          "hex": "#bdb76b"
        },
        {
          "hex": "#a0522d"
        }
      ],
      "marekm4": [
        {
          "hex": "#2b3228"
        },
        {
          "hex": "#ece8df"
        },
        {
          "hex": "#0070ce"
        },
        {
          "hex": "#efebe3"
        },
        {
          "hex": "#273327"
        },
        {
          "hex": "#033203"
        },
        {
          "hex": "#b5ac52"
        },
        {
          "hex": "#9e3d3b"
        },
        {
          "hex": "#c6bb61"
        },
        {
          "hex": "#e0ded9"
        },
        {
          "hex": "#4e7094"
        },
        {
          "hex": "#afa44b"
        },
        {
          "hex": "#6790a5"
        },
        {
          "hex": "#eae7dc"
        },
        {
          "hex": "#373a3a"
        },
        {
          "hex": "#b6161e"
        },
        {
          "hex": "#53888d"
        }
      ]
    },
    "millsfield:images_texts": [
      "SAFETY CARD\nB737-200RS\nFrontier\nI RLINE S\nThe Spirit of the West\nPlease obey the \"No Smoking\" and \"Fasten Seatbelt\" signs\nand all instructions given by your crew members.\nFOR THE SAFETY OF OTHERS PLEASE DO NOT REMOVE\nTHIS CARD FROM THE AIRCRAFT",
      ":01\n2\n3\n:03\n4\n:05\n:07\n:10\nFlotation Cushions\n••••••••••••..П...\nTS 0110\nCopyright\nCode 94100\n1994 SAFEAIR, INC.Olympia, WA., (206)754-5837. All Rights Reserved.\n2002.127.312",
      "Exit Seating Criteria\nIf you are seated in an emergency\nexit seat, please review the following.\nFederal Aviation Regulations require\nthat passengers seated in these seats\nmeet the selection criteria and are\nwilling and able to operate the exit\nand assist others in the event of an\nemergency in which a crewmember\nis not available to do so.\nPlease identify the exit nearest to you\nand review the corresponding\nfunctions found on this Safety Card.\nPlease contact your Flight Attendant\nfor reseating if you have a condition,\nwhich is not apparent, that would\nprevent you from performing the\nfunctions shown on this Safety Card;\nwould be harmed from doing so; do\nnot wish to do so; or if any of the\nfollowing apply:\n• Mobility, strength or dexterity in\nboth arm and legs is not sufficient\nto perform the functions and assist\nothers, including:\n-Reaching the exit quickly\n- Reaching in every direction for\nmechanisms used\n- Operating the exit\n- Securing the exit open\n-Removing obstructions (maintaining\nbalance while doing so\n-Quickly pass through the exit\n• You are less than 15 years old,\nrequire assistance from someone\nelse to perform one or more of these\nfunctions, or would be prevented\nfrom doing so because of a\ncondition or responsibility, such as\ncaring for a small child.\n• You cannot sufficiently impart\ninformation orally to others or\nunderstand oral crew commands.\n• You cannot read or understand the\nwritten or graphic instructions\nprovided or require assistance\n(other than a hearing aid to hear\nor understand the instructions\nshouted by a crewmember.\n• You do not have the visual capacity\nto assess conditions outside of the\nexit or perform any function described\nwithout the assistance of visual aids\nother than contact lenses or eyeglasses.\nIn the event of an emergency, follow the\ndirections and hand signals of your crew.\nIf a crewmember is not available to assist\nyou, follow the instructions on the\nSafety Card and posted signs. Wait\nuntil the airplane has stopped before\nopening the exit and look through the\nwindow, assessing conditions (looking\nfor smoke, fire or obstructions) to\ndetermine whether it is safe to proceed.\nIf it is safe to do so, operate the exit and\nassist others according to the instructions.\nAssess, select and follow a safe path\naway from the airplane.\nYour Flight Attendants will be glad to\nanswer any questions you might have.\nRESTRICTED AT ALL TIMES\nCelluar\nPhones\nButane\nLighters\nD Tampering\nwith lavatory smoke\nSmoking\nOnboard Aircraft\nRESTRICTED AT TIMES\nYour flight crew will advise when permitted\nComputers\nRadios\nR/C Toys\nVideo Games\nEXIT",
      "B\nB\nB\n000000\n100000\nC) 1994 SAFEAIR, INC.\n94100"
    ],
    "millsfield:images_texts_ids": [
      1914556349,
      1914556351,
      1914556353,
      1914556355
    ],
    "millsfield:primary_image": 1914556349,
    "millsfield:subcategory_id": 1511213703,
    "mz:is_approximate": 1,
    "mz:is_current": 1,
    "sfomuseum:accession_number": "2002.127.312",
    "sfomuseum:aircraft": "Boeing 737-200",
    "sfomuseum:aircraft_id": [
      211
    ],
    "sfomuseum:airline": "Frontier Airlines",
    "sfomuseum:airline_id": [
      417
    ],
    "sfomuseum:category": "Passenger Amenity, Archive",
    "sfomuseum:classification_id": 581,
    "sfomuseum:collection": "Aviation Archive",
    "sfomuseum:creditline": "Gift of Thomas G. Dragges",
    "sfomuseum:date": "1994",
    "sfomuseum:date_acquired": "2003-12-22",
    "sfomuseum:daterange_end": "1994-12-31",
    "sfomuseum:daterange_start": "1994-01-01",
    "sfomuseum:description": "Safety information card issued by Frontier Airlines for the Boeing 737-200 fleet; white double-sided tri-fold card with illustrations depicting inflight safety and emergency procedures; identification code: TS 0110 94100; revision date: 1994.",
    "sfomuseum:dimensions": "10 1/2 x 6 inches (26.7 x 15.2 cm)",
    "sfomuseum:maker": "Safeair, Inc.",
    "sfomuseum:medium": "paper, ink",
    "sfomuseum:object_id": 68881,
    "sfomuseum:placetype": "object",
    "sfomuseum:publication": ": , 1994.",
    "sfomuseum:subcategory": "Safety Information Card",
    "src:geom": "sfomuseum#undetermined",
    "wof:belongsto": [
      102527513,
      1159162825,
      102191575,
      85633793,
      102087579,
      85922583,
      85688637,
      1159160869
    ],
    "wof:country": "XY",
    "wof:created": 1720459776,
    "wof:depicts": [
      1159289819,
      1159284401,
      1159289827,
      1159293593
    ],
    "wof:geomhash": "c281b9d9eefc83b5710e64b9d646067d",
    "wof:hierarchy": [
      {
        "building_id": -1,
        "campus_id": 102527513,
        "collection_id": 1159162825,
        "concourse_id": 1159162825,
        "continent_id": 102191575,
        "country_id": 85633793,
        "county_id": 102087579,
        "custom_id": 1914555673,
        "locality_id": 85922583,
        "neighbourhood_id": -1,
        "object_id": 1914555673,
        "region_id": 85688637,
        "wing_id": 1159160869
      }
    ],
    "wof:id": 1914555673,
    "wof:lastmodified": 1787988221,
    "wof:name": "safety information card: Frontier Airlines, Boeing 737-200",
    "wof:parent_id": 1159162825,
    "wof:placetype": "custom",
    "wof:placetype_alt": [
      "object"
    ],
    "wof:repo": "sfomuseum-data-collection",
    "wof:superseded_by": [],
    "wof:supersedes": []
  },
  "bbox": [
    -122.38647222518921,
    37.6161053594541,
    -122.38583385944366,
    37.61661101879963
  ],
  "geometry": {"type":"Polygon","coordinates":[[[-122.38647222518921,37.61631782178288],[-122.386434674263,37.61623283692423],[-122.38637566566466,37.61617759671399],[-122.38630056381224,37.6161308549656],[-122.38616108894348,37.6161053594541],[-122.38602161407469,37.6161308549656],[-122.38591432571411,37.61618609521055],[-122.38585531711577,37.61626683087935],[-122.38583385944366,37.61636881265146],[-122.38587141036987,37.61646654505181],[-122.38594114780425,37.61654303118856],[-122.38605380058287,37.61660252035167],[-122.38618254661559,37.61661101879963],[-122.3863059282303,37.61657277577607],[-122.3864185810089,37.61650903735973],[-122.3864668607712,37.61641130501523],[-122.38647222518921,37.61631782178288]]]}
}
