{
  "id": 1913795269,
  "type": "Feature",
  "properties": {
    "date:cessation_lower": "1933-01-27",
    "date:cessation_upper": "1933-01-27",
    "date:inception_lower": "1933-01-27",
    "date:inception_upper": "1933-01-27",
    "edtf:cessation": "1933-01-27",
    "edtf:inception": "1933-01-27",
    "geom:area": 2.475047457570636e-7,
    "geom:bbox": "-122.386472,37.616105,-122.385834,37.616611",
    "geom:latitude": 37.61635747477365,
    "geom:longitude": -122.38615540108617,
    "millsfield:airline_id": [
      1159284991,
      1159285931
    ],
    "millsfield:category_id": 1511214251,
    "millsfield:collection_id": 1511214207,
    "millsfield:company_id": [
      1159286721
    ],
    "millsfield:images": [
      1913800029,
      1913800031
    ],
    "millsfield:images_colors_refs": {
      "crayola": [
        {
          "hex": "#414a4c"
        },
        {
          "hex": "#dbd7d2"
        },
        {
          "hex": "#9f8170"
        },
        {
          "hex": "#6e5160"
        }
      ],
      "css4": [
        {
          "hex": "#808080"
        },
        {
          "hex": "#d3d3d3"
        },
        {
          "hex": "#696969"
        },
        {
          "hex": "#556b2f"
        }
      ],
      "marekm4": [
        {
          "hex": "#5e5d4f"
        },
        {
          "hex": "#8b8978"
        },
        {
          "hex": "#d8d3c4"
        },
        {
          "hex": "#595749"
        },
        {
          "hex": "#dcd6c6"
        }
      ]
    },
    "millsfield:images_texts": [
      "127/33?\nIN FLIGHT WITH\nUNITED\nAIRLINES\nFreday\nDeariot Dele-\nTor an on the boat which\ntaker up to Vancoron and I hair\na fris minutes in which to with,\nworried abont your finance\nAnd want you to remember not\nto let anyone crised you to a\nPent where you can not sit up\na smale reotrir. I stee hair\nhops that the monsants- merce\nmerger wil\ngo through and that\nwell get some money out a\nthat which will help a lot. When\nI was home Ed Queery said \"Bix in\nsimply\nhair to bug minch to round\nregardlen of the\nsit on list Ed in that mose and\ngrong in claiming that he wants to",
      "maker a merger weth monsanto\nsomething shon guer work out.\nUNITED\n1) AIR LINES\nThus is some chance that\nHe finese motors and glenn martin\nloser o may get something\nout of that but the chand is mot\nso good breaun\nmind\". I mention it only in Cas\nsomething dies derlop that you coll\nknow the why and wherfors,\nAm incorry, an armie\nstamp which I wee mot or able\nto us but may come in handy for\nJon. must hurry now and fet\nas the boat will ir\navery an fur minutro-\nQue my lor darlin\nHad"
    ],
    "millsfield:images_texts_ids": [
      1913800029,
      1913800031
    ],
    "millsfield:primary_image": 1913800029,
    "millsfield:subcategory_id": 1511213489,
    "mz:is_approximate": 1,
    "mz:is_current": 1,
    "sfomuseum:accession_number": "2019.121.0571 a b",
    "sfomuseum:airline": "Pan American Airways",
    "sfomuseum:airline_id": [
      685,
      1131
    ],
    "sfomuseum:category": "Employee Career History",
    "sfomuseum:classification_id": 195,
    "sfomuseum:collection": "Aviation Archive",
    "sfomuseum:creditline": "Collection of SFO Museum",
    "sfomuseum:date": "01/27/1933",
    "sfomuseum:date_acquired": "2019-11-22",
    "sfomuseum:daterange_end": "1933-01-27",
    "sfomuseum:daterange_start": "1933-01-27",
    "sfomuseum:description": "Handwritten letter from Harold M. Bixby to his wife, Debby Bixby, dated Friday [likely January 27, 1933], on stationery from United Air Lines; includes personal and family matters.",
    "sfomuseum:dimensions": "10 1/2 x 7 1/4 inches (26.7 x 18.4 cm)",
    "sfomuseum:medium": "paper, ink",
    "sfomuseum:object_id": 210846,
    "sfomuseum:placetype": "object",
    "sfomuseum:publication": ": , 01/27/1933.",
    "sfomuseum:subcategory": "Correspondence, Personal",
    "src:geom": "sfomuseum#undetermined",
    "wof:belongsto": [
      102527513,
      1159162825,
      102191575,
      85633793,
      102087579,
      85922583,
      85688637,
      1159160869
    ],
    "wof:country": "XY",
    "wof:created": 1714548744,
    "wof:depicts": [
      1159284991,
      1159285931,
      1159286721
    ],
    "wof:geomhash": "c281b9d9eefc83b5710e64b9d646067d",
    "wof:hierarchy": [
      {
        "building_id": -1,
        "campus_id": 102527513,
        "collection_id": 1159162825,
        "concourse_id": 1159162825,
        "continent_id": 102191575,
        "country_id": 85633793,
        "county_id": 102087579,
        "custom_id": 1913795269,
        "locality_id": 85922583,
        "neighbourhood_id": -1,
        "object_id": 1913795269,
        "region_id": 85688637,
        "wing_id": 1159160869
      }
    ],
    "wof:id": 1913795269,
    "wof:lastmodified": 1787988219,
    "wof:name": "correspondence: Harold M. Bixby to Debby Bixby",
    "wof:parent_id": 1159162825,
    "wof:placetype": "custom",
    "wof:placetype_alt": [
      "object"
    ],
    "wof:repo": "sfomuseum-data-collection",
    "wof:superseded_by": [],
    "wof:supersedes": []
  },
  "bbox": [
    -122.38647222518921,
    37.6161053594541,
    -122.38583385944366,
    37.61661101879963
  ],
  "geometry": {"type":"Polygon","coordinates":[[[-122.38647222518921,37.61631782178288],[-122.386434674263,37.61623283692423],[-122.38637566566466,37.61617759671399],[-122.38630056381224,37.6161308549656],[-122.38616108894348,37.6161053594541],[-122.38602161407469,37.6161308549656],[-122.38591432571411,37.61618609521055],[-122.38585531711577,37.61626683087935],[-122.38583385944366,37.61636881265146],[-122.38587141036987,37.61646654505181],[-122.38594114780425,37.61654303118856],[-122.38605380058287,37.61660252035167],[-122.38618254661559,37.61661101879963],[-122.3863059282303,37.61657277577607],[-122.3864185810089,37.61650903735973],[-122.3864668607712,37.61641130501523],[-122.38647222518921,37.61631782178288]]]}
}
