{
  "id": 1511937791,
  "type": "Feature",
  "properties": {
    "date:cessation_lower": "1950-01-01",
    "date:cessation_upper": "1950-12-31",
    "date:inception_lower": "1950-01-01",
    "date:inception_upper": "1950-12-31",
    "edtf:cessation": "1950~",
    "edtf:date": "1950~",
    "edtf:inception": "1950~",
    "geom:area": 0,
    "geom:bbox": "-122.386155,37.616357,-122.386155,37.616357",
    "geom:latitude": 37.616357,
    "geom:longitude": -122.386155,
    "iso:country": "XX",
    "millsfield:airline_id": [
      1159284025
    ],
    "millsfield:category_id": 1511214223,
    "millsfield:collection_id": 1511214207,
    "millsfield:company_id": [
      1159286739
    ],
    "millsfield:images": [
      1527844377,
      1527848385
    ],
    "millsfield:images_colors_refs": {
      "crayola": [
        {
          "hex": "#95918c"
        },
        {
          "hex": "#9f8170"
        },
        {
          "hex": "#efcdb8"
        },
        {
          "hex": "#2e5894"
        },
        {
          "hex": "#cdc5c2"
        },
        {
          "hex": "#414a4c"
        },
        {
          "hex": "#1a4876"
        }
      ],
      "css4": [
        {
          "hex": "#778899"
        },
        {
          "hex": "#008080"
        },
        {
          "hex": "#483d8b"
        },
        {
          "hex": "#c0c0c0"
        },
        {
          "hex": "#f5deb3"
        },
        {
          "hex": "#191970"
        },
        {
          "hex": "#808080"
        },
        {
          "hex": "#2f4f4f"
        }
      ],
      "marekm4": [
        {
          "hex": "#c2bdad"
        },
        {
          "hex": "#8f8879"
        },
        {
          "hex": "#e5d7bc"
        },
        {
          "hex": "#333f4a"
        },
        {
          "hex": "#103154"
        },
        {
          "hex": "#3f668b"
        },
        {
          "hex": "#6f8a9e"
        },
        {
          "hex": "#0a4e85"
        }
      ]
    },
    "millsfield:images_texts": [
      "BCPA\nTrans-Pacific Time Table\nPASSENGER\nFARES AND\nAIR CARGO RATES\nAustralia will\nwelcome you••\nNew Zealand\nthrill you",
      "Regular Services between Canada, United States, Hawaii, Fiji, New Zealand, Australia\nSCHEDULE-SOUTHBOUND\nAirport\nLocal\nStandard\nime\nEvery\nSun.\nAustralian\nAlter-\nnate\nThurs.\nVANCOUVER\nSAN FRANCISCO\nHONOLULU\nCANTON IS.\nVancouver\nOakland\nLv. 12.30 p.m.\nAr.\n4.30 p.m.\n8.00 p.m.\nJohn Rodgers\nAr.\n6.00 a.m.\nLv.\n9.00 p.m.\nTopham\nAr.\n5.30 a.m.\nLv.\n6.30 a.m.\nINTERNATIONAL DATE LINE\nNandi*\nMon.\nFri.\nTues.\nSat.\nWed\nSun.\nAUCKLAND, N.Z.\nWhenuapai!\nSYDNEY, Australia... Mascot\nLv. 12.00 m'dn.\nAr.\n6.30 a.m.\nAr.\n8.30 a.m.\nThurs.\nMon.\n*Nandi Airport is 17 miles from Lautoka and 130 miles from\nSuva (the capital of Fiji).\nOne day is lost crossing the international Date Line Southbound.\nSCHEDULE-NORTHBOUND\nAirport\nLocal\nSYDNEY, Australia.\nAmate Rar\nService\nAlter-\nnate\nWed\nAUCKLAND, N.Z.\nFIJI\nCANTON IS.\nHONOLULU\nSAN FRANCISCO.\nVANCOUVER\nMascot\nLv. 8.00 p.m.\nEvery\nSun.\nWhenuapai\nLv. 11.45 p.m.\nNandi*\nAr. 8.00 a.m.*\nMon.\nLy.\n9.00 p.m.\nINTERNATIONAL DATE LINE\n| Topham\nMon.\nLv.\nJohn Roders\nAr.\nLv.\nOakland\nAr.\n5.30 a.m.\n4.30 p.m.\n7.30 p.m.\n9.30 a.m.\nTues.\nWed.\nLy.\nVancouver\nAr.\n3.00 p.m.\n*N.Z. flights arrive Fili, 6.15 a.m.\nOne day is gained crossing the International Date Line\nThurs.\nThurs.\nFri.\nSat.\nN.Z.\nSero.\nAlter-\nпотЕ\nFri.\nSat.\nSun.\nMon.\nTues.\nSerr\nAlter.\nWad.\nThurs.\nThurs.\nFri.\nSat.\nPASSENGER FARES-Subject to change without notice\nTO\nSydney\nAuckland\nNandi, Fiji\nCanton Island\nHonolulu\nSan Francisco\nVancouver\nVANCOUVER\nSingle\nReturn\n685.00\n634.00\n509.00\n397.00\n170.00\n1,139.00\n915.00\n714.00\n306.00\n45.00\nSAN FRANCISCO\nSingle\nReturn\n640.00\n1,152.00\n589.00\n1,059.00\n464.00\n835.00\n352.00\n634.00\n125.00\n224.00\nFrom\nHONOLULU\nSingle\nReturn\n534.00\n962.00\n483.00\n870.00\n358.00\n646.00\n246.00\n445.00\n125.00\n224.00\n45.00\n80.00\nNOTE\n(a) Transportation and Head Tax to be added where applicable.\n(b) Fares quoted in U.S. and/or Canadian currency.\nAIR CARGO AND EXCESS BAGGAGE RATES\n(SUBTECT TO CHANGE WITHOUT NOTICE)\nTO\nPeon\nVANCOUVER\nSydney\nAuckland\nNandi, Fili\nCanton Island\nHonolulu\nSan Francisco\nVancouver\n00 cu. in\n2.80\n2.80\n2.16\n1.72\n1.04\n0.24\nCharre\n5.60\n5.60\n432\n3.44\n2.08\n0.48\nProm\nSAN FRANCISCO\nMin.\nharas\n2.52\n2.52\n1.88\n1.44\n0,89\n5.04\n5.04\n3.76\n2.88\n1.60\n0.24\n0.48\nProm\nHONOLULU\nPer Ib. or\nMin.\nCharge\n1.72\n1.72\n3 44\n3.44\n2.08\n0.64\n-\n0.80\n1.04\n1.28\n-\n1.60\n2.08\nNOTE: 50 Cents valuation charge is applied to all consignment of cargo\nor luggage for each $200 value.\nAir Cargo charges based on weight or measurement-whichever\nis the greater.\nU.S.S.R.\nTRANS-PACIFIC\nAIR ROUTE\nCANADA\nVANCOUVER\nSAN FRANCISCO\nCHINA\nPa oi fio\n- NEW GUINEA\nAUSTRALIA\nSYDNEY\nFLI\nAUCKLAND\nNEW\nZEALAND\nHONOLULU\nCANTON ISLAND\nOcean\nAIR MAIL-Mail carried in accordance\nwith Post Office regulations.\nFLYING TIMES\nSudner-Nandi\nAuckland-Nandi\nNandi-Canton Island\nAnton Toland Tilla\nHonolulu-San Francisco\nSan Francisco-Vancouver\nDISTANCES\nAuckland-Nandi\nNandi-Canton Island\nHonolulu-San Francisco ..\nCon Pronmero Voncouver\nSydney-Vancouver\nhour\n6½\n6½\n1980 miles\n1272\n1011\n2428\n792\n0201\nBritish Commonwealth\nPacific Airlines\nHead Office: A.P.A. Building, 53 Martin Place\nSYDNEY, AUSTRALIA\nTelephone BW 2741"
    ],
    "millsfield:images_texts_ids": [
      1527844377,
      1527848385
    ],
    "millsfield:primary_image": 1527844377,
    "millsfield:subcategory_id": 1511213425,
    "mz:hierarchy_label": 1,
    "mz:is_current": 1,
    "sfomuseum:accession_number": "2005.132.064.003",
    "sfomuseum:airline": "British Commonwealth Pacific Airlines (BCPA)",
    "sfomuseum:airline_id": [
      248
    ],
    "sfomuseum:category": "Scheduling / Ticketing",
    "sfomuseum:classification_id": 158,
    "sfomuseum:collection": "Aviation Archive",
    "sfomuseum:creditline": "Gift of the William Hough Collection",
    "sfomuseum:date": "c. 1950",
    "sfomuseum:date_acquired": "2006-12-05",
    "sfomuseum:daterange_end": "1955-12-31",
    "sfomuseum:daterange_start": "1945-01-01",
    "sfomuseum:description": "Timetable issued by British Commonwealth Pacific Airlines (BCPA), effective c. 1950; two page double-sided fold-out; white and blue cover with black and white illustration depicting koala in tree; promotes Australia and New Zealand service.",
    "sfomuseum:dimensions": "9 x 4 inches (22.9 x 10.2 cm)",
    "sfomuseum:media_ids": [
      1527844377,
      1527848385
    ],
    "sfomuseum:medium": "paper, ink",
    "sfomuseum:object_id": 98437,
    "sfomuseum:placetype": "object",
    "sfomuseum:primary_media_id": 1527844377,
    "sfomuseum:publication": ": , c. 1950.",
    "sfomuseum:subcategory": "Timetable",
    "src:geom": "sfomuseum#undetermined",
    "wof:belongsto": [
      1511214223,
      102527513,
      102191575,
      85633793,
      1511213425,
      85922583,
      102087579,
      1511214277,
      1511214207,
      85688637
    ],
    "wof:breaches": [],
    "wof:country": "XX",
    "wof:created": 1579906660,
    "wof:depicts": [
      1159286739,
      1159284025
    ],
    "wof:geomhash": "30c8a918561c84bb2daa2b97fc7c5353",
    "wof:hierarchy": [
      {
        "arcade_id": 1511213425,
        "building_id": 1511214277,
        "campus_id": 102527513,
        "concourse_id": 1511214223,
        "continent_id": 102191575,
        "country_id": 85633793,
        "county_id": 102087579,
        "custom_id": 1511937791,
        "locality_id": 85922583,
        "neighbourhood_id": -1,
        "object_id": 1511937791,
        "region_id": 85688637,
        "venue_id": 1511937791,
        "wing_id": 1511214207
      }
    ],
    "wof:id": 1511937791,
    "wof:lastmodified": 1787988183,
    "wof:name": "timetable: British Commonwealth Pacific Airlines (BCPA), transpacific routes",
    "wof:parent_id": 1159162825,
    "wof:placetype": "custom",
    "wof:placetype_alt": [
      "object"
    ],
    "wof:repo": "sfomuseum-data-collection",
    "wof:superseded_by": [],
    "wof:supersedes": [],
    "wof:tags": []
  },
  "bbox": [
    -122.386155,
    37.616357,
    -122.386155,
    37.616357
  ],
  "geometry": {"type":"Point","coordinates":[-122.386155,37.616357]}
}
