{
  "id": 1763257607,
  "type": "Feature",
  "properties": {
    "date:cessation_lower": "1984-01-01",
    "date:cessation_upper": "1984-12-31",
    "date:inception_lower": "1984-01-01",
    "date:inception_upper": "1984-12-31",
    "edtf:cessation": "1984",
    "edtf:inception": "1984",
    "geom:area": 2.475047457570636e-7,
    "geom:bbox": "-122.386472,37.616105,-122.385834,37.616611",
    "geom:latitude": 37.61635747477365,
    "geom:longitude": -122.38615540108617,
    "millsfield:airline_id": [
      1159284377
    ],
    "millsfield:category_id": 1511214223,
    "millsfield:collection_id": 1511214207,
    "millsfield:company_id": [
      1159287677
    ],
    "millsfield:images": [
      1763257819
    ],
    "millsfield:images_colors_refs": {
      "crayola": [
        {
          "hex": "#ff2b2b"
        },
        {
          "hex": "#efdecd"
        }
      ],
      "css4": [
        {
          "hex": "#dc143c"
        },
        {
          "hex": "#dcdcdc"
        }
      ],
      "marekm4": [
        {
          "hex": "#d41c27"
        },
        {
          "hex": "#ead8d0"
        }
      ]
    },
    "millsfield:images_texts": [
      "Effective November 1, 1984\nSystem Timetable\nFAR WEST\nFlying your way!\nBurbank BUR\nDepart\nArrive\nFreq.\nFlight\nNumber\nCheck-in with Air Cal\nTo Fresno\n9:20a\n10:25a\n1:50p\n2:55p\nX7\n5:35p\nX6\n7:50p\nX6\nTo Oakland\n9:20a\n12:54p\nX67\n105\n107\n109\n105/220\n1:50p\n5:26p\nX6\nTo Ontario\n5:35p\n6:05p\nX6\n107/230\n109\nTo San Jose\n9:20a\n1:50p\n1:45p\n4:46p\nX67\nX6\n105/220\n107/230\nFresno FAT\nDepart\nArrive\nFreq.\nFlight\nNumber\nTo Burbank\n6:50a\n9:00a\n11:15a\n1:30p\nX7\nX6\n4:15p\n5:15p\nX6\n104\n106\n108\nTo Oakland\n7:00a\n8:20a\n12:00N\n4:00p\n12:54p\nX7\nX6\n5:26p\nDaily\n210\n220\n230\nTo Ontario\n6:50a\n8:10a\n11: 15a\n12:35p\nX7\n4:15p\n6:05p\nX6\nX6\n104\n106\n108\nTo San Jose\n7:00a\n7:45a\n12:00N\n1:45p\nX7\nX6\n4:00p\n4:46p\nDaily\n210\n220\n230\nStops/\nVIA\nFAT\nFAT/1\nFAT/1\nFAT\nStops/\nVIA\nFlight\nNumber\nDepart\nArrive\nFrea\nFrom Fresno\n6:50a\n11:15a\n9:00a\nX7\n4:15p\n1:30p\nX6\n5:15p\nX6\nFrom Oakland\n8:40a\n1:30p\nX67\n104\n106\n108\n211/106\n1: 15p\n5:15p\nX6\nFrom Ontario\n8:30a\n9:00a\nX7\n1:00p\n1:30p\nX6\nFrom San Jose\n7:55a\n1:30p\nX67\n2:05p\n5: 15p\nX6\n221/108\n105\n107\n211/106\n221/108\nFlight\nNumber\nDepart\nArrive\nFreq\nFrom Burbank\n9:20a\n10:25a\nX7\n1:50p\n5:35p\n2:55p\nX6\n7:50p\nX6\nFrom Oakland\n8:40a\n9:38a\nX7\n1:15p\n5:45D\n2:57p\nX6\n6:430\nDaily\nFrom Ontario\n8:30a\n10:25a\nX7\n1:00p\n2:55p\nX6\n6:30p\n7:500\nX6\nFrom San Jose\n7:55a\n9:38a\n2:05p\n2:57p\nX7\nX6\n5:05p\n6:43p\nDaily\n105\n107\n109\n211\n221\n231\n105\n107\n109\n211\n221\n231\nStops/\nVIA\n0\nFAT /1\n1/FAT\n1/FAT\nFAT\nStops/\nVIA\n0\n0\nFor reservations call your\ntravel agent or toll-free\n1-800-225-8300\nSCHEDULE IS SUBJECT TO CHANGE WITHOUT NOTICE.\nFREQUENCY: 1 = Monday, 2 = Tuesday, 3 = Wednesday, 4 = Thursday, 5 = Friday,\n6 = Saturday, 7 = Sunday"
    ],
    "millsfield:images_texts_ids": [
      1763257819
    ],
    "millsfield:primary_image": 1763257819,
    "millsfield:subcategory_id": 1511213425,
    "mz:is_approximate": 1,
    "mz:is_current": 1,
    "sfomuseum:accession_number": "2018.141.051",
    "sfomuseum:airline": "FarWest Airlines",
    "sfomuseum:airline_id": [
      406
    ],
    "sfomuseum:category": "Scheduling / Ticketing",
    "sfomuseum:classification_id": 158,
    "sfomuseum:collection": "Aviation Archive",
    "sfomuseum:creditline": "Gift of Helene and Rudy Stahl",
    "sfomuseum:date": "1984",
    "sfomuseum:date_acquired": "2019-04-17",
    "sfomuseum:daterange_end": "1984-12-31",
    "sfomuseum:daterange_start": "1984-01-01",
    "sfomuseum:description": "System timetable issued by Far West Airlines, effective November 1, 1984; double-sided format; red and white cover.",
    "sfomuseum:dimensions": "8 3/4 x 3 3/4 inches (22.2 x 9.5 cm)",
    "sfomuseum:medium": "paper, ink",
    "sfomuseum:object_id": 201241,
    "sfomuseum:placetype": "object",
    "sfomuseum:publication": ": , 1984.",
    "sfomuseum:subcategory": "Timetable",
    "src:geom": "sfomuseum#undetermined",
    "wof:belongsto": [
      102527513,
      1159162825,
      102191575,
      85633793,
      102087579,
      85922583,
      85688637,
      1159160869
    ],
    "wof:country": "XY",
    "wof:created": 1647074387,
    "wof:depicts": [
      1159284377,
      1159287677
    ],
    "wof:geomhash": "c281b9d9eefc83b5710e64b9d646067d",
    "wof:hierarchy": [
      {
        "building_id": -1,
        "campus_id": 102527513,
        "collection_id": 1159162825,
        "concourse_id": 1159162825,
        "continent_id": 102191575,
        "country_id": 85633793,
        "county_id": 102087579,
        "custom_id": 1763257607,
        "locality_id": 85922583,
        "neighbourhood_id": -1,
        "object_id": 1763257607,
        "region_id": 85688637,
        "wing_id": 1159160869
      }
    ],
    "wof:id": 1763257607,
    "wof:lastmodified": 1787988206,
    "wof:name": "timetable: Far West Airlines",
    "wof:parent_id": 1159162825,
    "wof:placetype": "custom",
    "wof:placetype_alt": [
      "object"
    ],
    "wof:repo": "sfomuseum-data-collection",
    "wof:superseded_by": [],
    "wof:supersedes": []
  },
  "bbox": [
    -122.38647222518921,
    37.6161053594541,
    -122.38583385944366,
    37.61661101879963
  ],
  "geometry": {"type":"Polygon","coordinates":[[[-122.38647222518921,37.61631782178288],[-122.386434674263,37.61623283692423],[-122.38637566566466,37.61617759671399],[-122.38630056381224,37.6161308549656],[-122.38616108894348,37.6161053594541],[-122.38602161407469,37.6161308549656],[-122.38591432571411,37.61618609521055],[-122.38585531711577,37.61626683087935],[-122.38583385944366,37.61636881265146],[-122.38587141036987,37.61646654505181],[-122.38594114780425,37.61654303118856],[-122.38605380058287,37.61660252035167],[-122.38618254661559,37.61661101879963],[-122.3863059282303,37.61657277577607],[-122.3864185810089,37.61650903735973],[-122.3864668607712,37.61641130501523],[-122.38647222518921,37.61631782178288]]]}
}
