{
  "id": 1763240903,
  "type": "Feature",
  "properties": {
    "date:cessation_lower": "1987-01-01",
    "date:cessation_upper": "1987-12-31",
    "date:inception_lower": "1987-01-01",
    "date:inception_upper": "1987-12-31",
    "edtf:cessation": "1987",
    "edtf:inception": "1987",
    "geom:area": 2.475047457570636e-7,
    "geom:bbox": "-122.386472,37.616105,-122.385834,37.616611",
    "geom:latitude": 37.61635747477365,
    "geom:longitude": -122.38615540108617,
    "millsfield:airline_id": [
      1159285303
    ],
    "millsfield:category_id": 1511214223,
    "millsfield:collection_id": 1511214207,
    "millsfield:company_id": [
      1159288737
    ],
    "millsfield:images": [
      1763241275
    ],
    "millsfield:images_colors_refs": {
      "crayola": [
        {
          "hex": "#2e5894"
        },
        {
          "hex": "#ffcf48"
        },
        {
          "hex": "#c46210"
        },
        {
          "hex": "#fddde6"
        },
        {
          "hex": "#414a4c"
        }
      ],
      "css4": [
        {
          "hex": "#b22222"
        },
        {
          "hex": "#faf0e6"
        },
        {
          "hex": "#556b2f"
        },
        {
          "hex": "#483d8b"
        },
        {
          "hex": "#bdb76b"
        }
      ],
      "marekm4": [
        {
          "hex": "#524b36"
        },
        {
          "hex": "#eeebe3"
        },
        {
          "hex": "#bd3b15"
        },
        {
          "hex": "#454c9c"
        },
        {
          "hex": "#d8c845"
        }
      ]
    },
    "millsfield:images_texts": [
      "TDA\nTimetable\n7/1~7/17\n1 JUL~17JUL\n1987\nFLT\n201\n207\n200\n208\n19 R\nFLT\nIOl\n103\n105\n107\n109\n100\n102\n104\n-\n06\n108\n30 l\n303\n305\n307\n309\n300\n302\n304\n306\n308\nTOKYO\n#R08\n18\n30\n30\n09\n30\n19\n35\nOSAKA\n09\n30\n19\n08\n30\n18\n30$AR\n35\nSAPPORO\nTOKYO\n09\n25÷08\n00FR\n55+10\n30\n20+13\n55\n254-17\n00\n30+19\n05\n00→\n• 10\n30#£\n15→\n45\n45→\n14\n15\n10→\n17\n40\n15→20\n45\n50\n10\n4\n7\n19\n50\n00\n25\n00\n2\n45-\n13\n15\n00+\n05+\n15+\n21\n30€\nFUKUOKA\n18\n3\n30\n30\n40\n05\n40\n10\n25\n30\n40\n55\nAIRCRAFT\nA300\nA300\nA300\nA300\nAIRCRAFT\nA 300\nA 3\n0 O\n3\nU U\nA 3\n0 0\nD C 9\nS\nD\nA\nC\nA\n3\n0\nAKKA\n1\n2\n3\n4\n5\n6\n7\n8\n9\n10\n11\n12 13 14 15 16 1718\n19 20 21 22 23 24 25\n26 27 28 29 30 31\n1\n2\n3\n4\n5\n6\n7\n9\n10\n11\n12 13 14\n15\n16\n17 18 19 20 21 22\n2⅓0 2⅓1 25 26 27 28 29"
    ],
    "millsfield:images_texts_ids": [
      1763241275
    ],
    "millsfield:primary_image": 1763241275,
    "millsfield:subcategory_id": 1511213425,
    "mz:is_approximate": 1,
    "mz:is_current": 1,
    "sfomuseum:accession_number": "2014.084.1178",
    "sfomuseum:airline": "Toa Domestic Airlines (TDA)",
    "sfomuseum:airline_id": [
      830
    ],
    "sfomuseum:category": "Scheduling / Ticketing",
    "sfomuseum:classification_id": 158,
    "sfomuseum:collection": "Aviation Archive",
    "sfomuseum:creditline": "Gift of Thomas G. Dragges",
    "sfomuseum:date": "1987",
    "sfomuseum:date_acquired": "2015-07-02",
    "sfomuseum:daterange_end": "1987-12-31",
    "sfomuseum:daterange_start": "1987-01-01",
    "sfomuseum:description": "Pocket timetable issued by Toa Domestic Airlines (TDA), effective July 1, 1987; multipage booklet; white cover with pink and blue schedule.",
    "sfomuseum:dimensions": "6 x 2 3/4 inches (15.2 x 7 cm)",
    "sfomuseum:medium": "paper, ink",
    "sfomuseum:object_id": 157740,
    "sfomuseum:placetype": "object",
    "sfomuseum:publication": ": , 1987.",
    "sfomuseum:subcategory": "Timetable",
    "src:geom": "sfomuseum#undetermined",
    "wof:belongsto": [
      102527513,
      1159162825,
      102191575,
      85633793,
      102087579,
      85922583,
      85688637,
      1159160869
    ],
    "wof:country": "XY",
    "wof:created": 1646901851,
    "wof:depicts": [
      1159285303,
      1159288737
    ],
    "wof:geomhash": "c281b9d9eefc83b5710e64b9d646067d",
    "wof:hierarchy": [
      {
        "building_id": -1,
        "campus_id": 102527513,
        "collection_id": 1159162825,
        "concourse_id": 1159162825,
        "continent_id": 102191575,
        "country_id": 85633793,
        "county_id": 102087579,
        "custom_id": 1763240903,
        "locality_id": 85922583,
        "neighbourhood_id": -1,
        "object_id": 1763240903,
        "region_id": 85688637,
        "wing_id": 1159160869
      }
    ],
    "wof:id": 1763240903,
    "wof:lastmodified": 1787988205,
    "wof:name": "timetable: Toa Domestic Airlines (TDA), pocket schedule",
    "wof:parent_id": 1159162825,
    "wof:placetype": "custom",
    "wof:placetype_alt": [
      "object"
    ],
    "wof:repo": "sfomuseum-data-collection",
    "wof:superseded_by": [],
    "wof:supersedes": []
  },
  "bbox": [
    -122.38647222518921,
    37.6161053594541,
    -122.38583385944366,
    37.61661101879963
  ],
  "geometry": {"type":"Polygon","coordinates":[[[-122.38647222518921,37.61631782178288],[-122.386434674263,37.61623283692423],[-122.38637566566466,37.61617759671399],[-122.38630056381224,37.6161308549656],[-122.38616108894348,37.6161053594541],[-122.38602161407469,37.6161308549656],[-122.38591432571411,37.61618609521055],[-122.38585531711577,37.61626683087935],[-122.38583385944366,37.61636881265146],[-122.38587141036987,37.61646654505181],[-122.38594114780425,37.61654303118856],[-122.38605380058287,37.61660252035167],[-122.38618254661559,37.61661101879963],[-122.3863059282303,37.61657277577607],[-122.3864185810089,37.61650903735973],[-122.3864668607712,37.61641130501523],[-122.38647222518921,37.61631782178288]]]}
}
