{
  "id": 1762831389,
  "type": "Feature",
  "properties": {
    "date:cessation_lower": "1927-01-01",
    "date:cessation_upper": "1927-12-31",
    "date:inception_lower": "1927-01-01",
    "date:inception_upper": "1927-12-31",
    "edtf:cessation": "1927",
    "edtf:inception": "1927",
    "geom:area": 0,
    "geom:bbox": "-122.391953,37.624731,-122.391953,37.624731",
    "geom:latitude": 37.624731,
    "geom:longitude": -122.391953,
    "iso:country": "US",
    "millsfield:airport_id": [
      1360695653
    ],
    "millsfield:category_id": 1511214239,
    "millsfield:collection_id": 1511214207,
    "millsfield:images": [
      1762897043,
      1762897045,
      1762897047,
      1762897049,
      1762897051,
      1762897053
    ],
    "millsfield:images_colors_refs": {
      "crayola": [
        {
          "hex": "#414a4c"
        },
        {
          "hex": "#bab86c"
        },
        {
          "hex": "#714b23"
        },
        {
          "hex": "#edd19c"
        }
      ],
      "css4": [
        {
          "hex": "#556b2f"
        },
        {
          "hex": "#bdb76b"
        },
        {
          "hex": "#f0e68c"
        }
      ],
      "marekm4": [
        {
          "hex": "#b6ab6f"
        },
        {
          "hex": "#aaa16c"
        },
        {
          "hex": "#e9db9a"
        },
        {
          "hex": "#eadb99"
        },
        {
          "hex": "#505231"
        },
        {
          "hex": "#b2a76f"
        },
        {
          "hex": "#e6d79b"
        },
        {
          "hex": "#e4d798"
        },
        {
          "hex": "#e9db99"
        },
        {
          "hex": "#5b572e"
        },
        {
          "hex": "#b1a66c"
        },
        {
          "hex": "#403f1f"
        },
        {
          "hex": "#eadb9a"
        },
        {
          "hex": "#484a2b"
        },
        {
          "hex": "#ada36b"
        }
      ]
    },
    "millsfield:images_texts": [
      "Copy\nCITY AND COUNTY OF SAN FRANCISCO\nMills Field Municipal Airport of\nSan Francisco\nBill8 - Millbrae Dairy Co.\nFile 531.9\nDecember 22, 1927.\nTo the Honorable\nBoard of Public Works of the\nCity and County of San Francisco.\nGentlemen:\nI transmit herewith bills of the Millbrae Dairy Company'\nagainst the City and County of San Francisco in connection with the\ncutting of grass and other incidental services at the Mills Field\nMunicipal Airport of San Francisco. These services were rendered\nat different times whenever demand was made upon them to level off\nthe field, as conditions warranted such work to be done.\nThese bills have been checked by this office, and have\nmy approval.\nI recommend that your Board request the\nFinance Committee\nof the Board of Supervisors to set aside in the budget for the year\n1928-1929 the sum of $1531 for this purpose.\nAn appropriation requested by this office for this work\nfor the fiscal year 1927-1928 was not included in the budget.\nRespectfully,\nM. M. O'SHAUGHNESSY\nCity Engineer\nWHO: K: H\nEncs.\nBy",
      "-- COPY --\nSan Francisco Municipal Airport\nc/o Mr.\nBurr, City Engineer's Office,\nCity Hall, San Francisco.\nTo Millbrae Dairy, Dr:\nLa bo rer\nARRIL\nTeams\n19\n20\n4\n30\n42\n4\n42\nLaborers\nte ams\n$5.00\n12.00\n$ 20.00\n504.00\n·524.00\nTotal",
      "COPY\nSan Francisco Munitipal Airport\no/o Mr. Burr, City Engineer's 0221ce\nCity Hall, Sen Francisco, Cali?.\nTo Millbrae Dairy, Dr.:\nLaborer\nMAY\nTeams\n$ 02 02\n1\n5\n1\n17\n18\n19\n20\n21\n22\n23\n24\n25\n26\n27\n28\n29\n30\n31\n16\n18\n16\nLaborers\n18\nTeams\n$5.00\n12.00\nTotal\n$ 80,00\n216.00\n$296.00",
      "331.9\nCOPY\nSan Francisco Municipal Airport\nc/o Mr. Burr, City\nEngineer's Office\nCity Hall, San Francisco, Calif.\nTo Millbrae Dairy, Dr.:\nJUNE\nLaborer\nTeams -\n1\n3\n1\n1\n16\n17\n18\n19\n20\n21\n22\n23\n24\n25\n26\n27\n28\n29\n30\n4\n9\n4\nLaborers\nTeams\nat\n5.00\n12.00\nTotal\n$20.00\n108.00\n$128.00",
      "581.9\nCOPY\nSan Francisco Municipal Airport\nc/o Mr.\nBurr, City Engineer's Office\nCity Hall, San Francisco, Calit.\nTo Millbrae Dairy, Dr.:\nJULY\nLaborer\nTeams\n21\n1 10 00\n1 H00-00\nHIHAAMO\n2\n- 02 00 c0\n4\n2\n27\n29\n31\n32\n32\n32\nLaborers\nTeams\n32\n5.00\n12.00\nTotal\n$160.00\n384.00\n$544.00",
      "-- COPY --\nSan Francisco Municipal Airport\nc/o Mr. Burr, City Engineer's Office,\nCity Hall, San Francisco.\nTo Millbrae Dairy, Dr:\nLaborer\n3\nAU GUST\nTeams\n2\n.7\n9\n24\n5\n6\n21\n7\n28\n2\n9\n30\n31\n2\n3\n2\nlaborers\nteams\n@ $5.00 =\n12.00\n=\n$15.00\n24.00\n$39.00"
    ],
    "millsfield:images_texts_ids": [
      1762897043,
      1762897045,
      1762897047,
      1762897049,
      1762897051,
      1762897053
    ],
    "millsfield:primary_image": 1762897043,
    "millsfield:subcategory_id": 1511213483,
    "mz:is_approximate": 1,
    "mz:is_current": 1,
    "sfomuseum:accession_number": "2000.018.021.004 a f",
    "sfomuseum:airport": "Mills Field Municipal Airport of San Francisco",
    "sfomuseum:airport_id": [
      162
    ],
    "sfomuseum:category": "Company Record / Document",
    "sfomuseum:classification_id": 190,
    "sfomuseum:collection": "Aviation Archive",
    "sfomuseum:creditline": "Collection of SFO Museum",
    "sfomuseum:date": "1927",
    "sfomuseum:date_acquired": "1999-06-30",
    "sfomuseum:daterange_end": "1927-12-31",
    "sfomuseum:daterange_start": "1927-01-01",
    "sfomuseum:description": "a. Facsimile of memorandum from M. M. O’Shaughnessy, City Engineer, San Francisco Department of Public Works, to Board of Public Works, dated December 22, 1927, concerning removal of grass and hay by Millbrae Dairy Company at Mills Field Municipal Airport and subsequent unauthorized charges to City and County of San Francisco in amount of $1,531.00; copy of File 531.9, not signed;\rb. spreadsheet calculating cost of labor for grass removal during month of April 1927 ($524.00);\rc. spreadsheet calculating cost of labor for grass removal during month of May 1927 ($296.00);\rd. spreadsheet calculating cost of labor for grass removal during month of June 1927 ($128.00);\re. spreadsheet calculating cost of labor for grass removal during month of July 1927 ($544.00);\rf. spreadsheet calculating cost of labor for grass removal during month of August 1927 ($39.00).",
    "sfomuseum:dimensions": "11 x 8 1/2 inches (27.9 x 21.6 cm)",
    "sfomuseum:medium": "paper, ink",
    "sfomuseum:object_id": 165141,
    "sfomuseum:placetype": "object",
    "sfomuseum:publication": ": , 1927.",
    "sfomuseum:subcategory": "Correspondence, Company",
    "src:geom": "sfomuseum#derived",
    "src:geom_derived_from": [
      1360695653
    ],
    "wof:belongsto": [
      102527513,
      1159162825,
      102191575,
      85633793,
      102087579,
      85922583,
      85688637,
      1159160869,
      1360695653,
      554784711,
      102085387
    ],
    "wof:country": "US",
    "wof:created": 1642730201,
    "wof:depicts": [
      1360695653
    ],
    "wof:geomhash": "3abf1c04b00c12d6593e9cd3c35f0056",
    "wof:hierarchy": [
      {
        "building_id": -1,
        "campus_id": 102527513,
        "collection_id": 1159162825,
        "concourse_id": 1159162825,
        "continent_id": 102191575,
        "country_id": 85633793,
        "county_id": 102087579,
        "custom_id": 1762831389,
        "locality_id": 85922583,
        "neighbourhood_id": -1,
        "object_id": 1762831389,
        "region_id": 85688637,
        "wing_id": 1159160869
      },
      {
        "campus_id": 1360695653,
        "continent_id": 102191575,
        "country_id": 85633793,
        "county_id": 102087579,
        "custom_id": 1762831389,
        "locality_id": 85922583,
        "object_id": 1762831389,
        "postalcode_id": 554784711,
        "region_id": 85688637
      },
      {
        "campus_id": 1360695653,
        "continent_id": 102191575,
        "country_id": 85633793,
        "county_id": 102085387,
        "custom_id": 1762831389,
        "object_id": 1762831389,
        "region_id": 85688637
      }
    ],
    "wof:id": 1762831389,
    "wof:lastmodified": 1787988201,
    "wof:name": "memorandum: City and County of San Francisco, Millbrae Dairy Company",
    "wof:parent_id": 1159162825,
    "wof:placetype": "custom",
    "wof:placetype_alt": [
      "object"
    ],
    "wof:repo": "sfomuseum-data-collection",
    "wof:superseded_by": [],
    "wof:supersedes": []
  },
  "bbox": [
    -122.391953,
    37.624731,
    -122.391953,
    37.624731
  ],
  "geometry": {"type":"MultiPoint","coordinates":[[-122.391953,37.624731]]}
}
