{
  "id": 1913928207,
  "type": "Feature",
  "properties": {
    "date:cessation_lower": "1993-01-01",
    "date:cessation_upper": "1993-12-31",
    "date:inception_lower": "1993-01-01",
    "date:inception_upper": "1993-12-31",
    "edtf:cessation": "1993",
    "edtf:inception": "1993",
    "geom:area": 2.475047457570636e-7,
    "geom:bbox": "-122.386472,37.616105,-122.385834,37.616611",
    "geom:latitude": 37.61635747477365,
    "geom:longitude": -122.38615540108617,
    "millsfield:aircraft_id": [
      1159291285
    ],
    "millsfield:airline_id": [
      1159283849
    ],
    "millsfield:category_id": 1762671311,
    "millsfield:collection_id": 1511214207,
    "millsfield:company_id": [
      1159293561
    ],
    "millsfield:images": [
      1913928653,
      1913928655,
      1913928657
    ],
    "millsfield:images_colors_refs": {
      "crayola": [
        {
          "hex": "#1a4876"
        },
        {
          "hex": "#dbd7d2"
        },
        {
          "hex": "#000000"
        },
        {
          "hex": "#2e5894"
        },
        {
          "hex": "#6699cc"
        },
        {
          "hex": "#cdc5c2"
        }
      ],
      "css4": [
        {
          "hex": "#dcdcdc"
        },
        {
          "hex": "#191970"
        },
        {
          "hex": "#d3d3d3"
        },
        {
          "hex": "#000000"
        },
        {
          "hex": "#5f9ea0"
        },
        {
          "hex": "#008080"
        },
        {
          "hex": "#87ceeb"
        }
      ],
      "marekm4": [
        {
          "hex": "#1d1d24"
        },
        {
          "hex": "#0b0f28"
        },
        {
          "hex": "#c8cdcc"
        },
        {
          "hex": "#1d5d96"
        },
        {
          "hex": "#e2ded2"
        },
        {
          "hex": "#093665"
        },
        {
          "hex": "#72b4db"
        },
        {
          "hex": "#e2ded3"
        },
        {
          "hex": "#688baf"
        }
      ]
    },
    "millsfield:images_texts": [
      "SUPER 80\nAmericanAirlines\nFor Your Safety\nPlease Do Not Remove This Card From Airplane",
      "ATTENTION: IF YOU ARE SEATED IN AN EXIT ROW AND CANNOT\nUNDERSTAND CREW COMMANDS OR THE INFORMATION ON THIS CARD,\nPLEASE CONTACT A FLIGHT ATTENDANT.\nATTENTION! SI VOUS ÊTES ASSIS PRÈS D'UNE ISSUE DE SECOURS ET\nNE COMPRENEZ PAS LES INSTRUCTIONS DE L'EQUIPAGE OU LES\nINFORMATIONS QUI SE TROUVENT SUR CE FORMULAIRE, VOUS ÊTES\nPRIÉS DE BIEN VOULOIR VOUS METTRE EN CONTACT AVEC LE\nPERSONNEL DU BORD.\nACHTUNG: FALLS SICH IHR SITZ IN EINER REIHE AN EINEM DER\nAUSGANGE BEFINDET UND SIE SCHWIERIGKEITEN HABEN, DIE\nANWEISUNGEN DER BESATZUNG ODER DIE INFORMATIONEN AUF\nDIESER KARTE ZU VERSTEHEN, SETZEN SIE SICH BITTE MIT EINEM\nFLUGBEGLEITER IN VERBINDUNG.\nATENCION, SI USTED ESTÁ SENTADO EN UNA FILA DE SALIDA Y NO\nENTIENDE LAS INDICACIONES DE LA TRIPULACIÓN O LA INFORMACIÓN\nEN ESTA TARJETA, POR FAVOR PÓNGASE EN CONTACTO CON ALGUIEN\nDE LA TRIPULACIÓN DE SERVICIO.\n• When you are seated in an exit row, you may be called upon to open the exit\nand assist fellow passengers in exiting the aircraft if a crew member is\nunavailable to do so. Because of this, and for the benefit of all passengers,\nFederal Law requires that passengers seated in exit rows must meet the\nfollowing criteria.\nIF YOU ARE SEATED IN AN EXIT ROW\nPLEASE ASK TO BE RESEATED IF:\n• You lack sufficient mobility, strength, or dexterity in both arms and hands,\nand both legs to expeditiously reach the emergency exit, remove\nobstructions, manipulate the emergency exit and exit slide operating\nmechanisms, open and store the exit door, exit expeditiously, stabilize the\nescape slide, and assist others in getting off the escape slide.\n• You do not understand these instructions, or lack sufficient visual capacity\n(require aids beyond contact lenses or glasses) or aural capacity (require\naids beyond a hearing aid to understand these and crewmember\ninstructions or to impart information orally to others.\n• You have a responsibility such as to a small child or a nondiscernible\ncondition that might prevent you from performing these functions or a\ncondition that might cause you to suffer bodily harm while performing these\nfunctions.\n• You do not wish to perform these functions.\n• You are less than 15 years of age.\nEXIT OPERATION: ASSESS OUTSIDE CONDITIONS-IF OPENING\nEXIT INCREASES THE HAZARD TO PASSENGERS, DO NOT OPEN.\nPlease Do Not Remove This Card From Airplane",
      "Take-off, Landing and during Surface Movement.\n1\nLand Evacuation\nEXIT\nA\nOxygen\n2\n3\n4\nEXIT OPERATION: ASSESS OUTSIDE CONDITIONS. IF OPENING\nEXIT INCREASES THE HAZARD TO PASSENGERS, DO NOT OPEN.\nEXIT\nEXIT\n0000\n0000\nFire\nIn Flight\nSmoke\nDebris/Obstruction"
    ],
    "millsfield:images_texts_ids": [
      1913928653,
      1913928655,
      1913928657
    ],
    "millsfield:primary_image": 1913928653,
    "millsfield:subcategory_id": 1511213703,
    "mz:is_approximate": 1,
    "mz:is_current": 1,
    "sfomuseum:accession_number": "2002.127.121",
    "sfomuseum:aircraft": "McDonnell Douglas MD-80",
    "sfomuseum:aircraft_id": [
      876
    ],
    "sfomuseum:airline": "American Airlines",
    "sfomuseum:airline_id": [
      169
    ],
    "sfomuseum:category": "Passenger Amenity, Archive",
    "sfomuseum:classification_id": 581,
    "sfomuseum:collection": "Aviation Archive",
    "sfomuseum:creditline": "Gift of Thomas G. Dragges",
    "sfomuseum:date": "1993",
    "sfomuseum:date_acquired": "2003-12-22",
    "sfomuseum:daterange_end": "1993-12-31",
    "sfomuseum:daterange_start": "1993-01-01",
    "sfomuseum:description": "Safety information card issued by American Airlines for its McDonnell Douglas MD-80 Super 80 fleet; double-sided tri-fold card with photographic images and illustrations demonstrating inflight safety and emergency procedures; identification code: EB400 CPN 5497981; revision date: 12/93.",
    "sfomuseum:dimensions": "11 x 5 1/4 inches (27.9 x 13.3 cm)",
    "sfomuseum:maker": "Rand McNally",
    "sfomuseum:medium": "paper, plastic, ink",
    "sfomuseum:object_id": 68515,
    "sfomuseum:placetype": "object",
    "sfomuseum:publication": ": , 1993.",
    "sfomuseum:subcategory": "Safety Information Card",
    "src:geom": "sfomuseum#undetermined",
    "wof:belongsto": [
      102527513,
      1159162825,
      102191575,
      85633793,
      102087579,
      85922583,
      85688637,
      1159160869
    ],
    "wof:country": "XY",
    "wof:created": 1715650027,
    "wof:depicts": [
      1159293561,
      1159283849,
      1159291285
    ],
    "wof:geomhash": "c281b9d9eefc83b5710e64b9d646067d",
    "wof:hierarchy": [
      {
        "building_id": -1,
        "campus_id": 102527513,
        "collection_id": 1159162825,
        "concourse_id": 1159162825,
        "continent_id": 102191575,
        "country_id": 85633793,
        "county_id": 102087579,
        "custom_id": 1913928207,
        "locality_id": 85922583,
        "neighbourhood_id": -1,
        "object_id": 1913928207,
        "region_id": 85688637,
        "wing_id": 1159160869
      }
    ],
    "wof:id": 1913928207,
    "wof:lastmodified": 1787988220,
    "wof:name": "safety information card: American Airlines, McDonnell Douglas MD-80",
    "wof:parent_id": 1159162825,
    "wof:placetype": "custom",
    "wof:placetype_alt": [
      "object"
    ],
    "wof:repo": "sfomuseum-data-collection",
    "wof:superseded_by": [],
    "wof:supersedes": []
  },
  "bbox": [
    -122.38647222518921,
    37.6161053594541,
    -122.38583385944366,
    37.61661101879963
  ],
  "geometry": {"type":"Polygon","coordinates":[[[-122.38647222518921,37.61631782178288],[-122.386434674263,37.61623283692423],[-122.38637566566466,37.61617759671399],[-122.38630056381224,37.6161308549656],[-122.38616108894348,37.6161053594541],[-122.38602161407469,37.6161308549656],[-122.38591432571411,37.61618609521055],[-122.38585531711577,37.61626683087935],[-122.38583385944366,37.61636881265146],[-122.38587141036987,37.61646654505181],[-122.38594114780425,37.61654303118856],[-122.38605380058287,37.61660252035167],[-122.38618254661559,37.61661101879963],[-122.3863059282303,37.61657277577607],[-122.3864185810089,37.61650903735973],[-122.3864668607712,37.61641130501523],[-122.38647222518921,37.61631782178288]]]}
}
