{
  "id": 1763240735,
  "type": "Feature",
  "properties": {
    "date:cessation_lower": "1951-01-01",
    "date:cessation_upper": "1951-12-31",
    "date:inception_lower": "1951-01-01",
    "date:inception_upper": "1951-12-31",
    "edtf:cessation": "1951",
    "edtf:inception": "1951",
    "geom:area": 2.475047457570636e-7,
    "geom:bbox": "-122.386472,37.616105,-122.385834,37.616611",
    "geom:latitude": 37.61635747477365,
    "geom:longitude": -122.38615540108617,
    "millsfield:airline_id": [
      1159285883
    ],
    "millsfield:category_id": 1511214223,
    "millsfield:collection_id": 1511214207,
    "millsfield:company_id": [
      1159288141
    ],
    "millsfield:images": [
      1763241491
    ],
    "millsfield:images_colors_refs": {
      "crayola": [
        {
          "hex": "#2e5894"
        },
        {
          "hex": "#85754e"
        },
        {
          "hex": "#1a4876"
        },
        {
          "hex": "#efcdb8"
        }
      ],
      "css4": [
        {
          "hex": "#6b8e23"
        },
        {
          "hex": "#483d8b"
        },
        {
          "hex": "#191970"
        },
        {
          "hex": "#f5deb3"
        }
      ],
      "marekm4": [
        {
          "hex": "#474b97"
        },
        {
          "hex": "#589829"
        },
        {
          "hex": "#0c1065"
        },
        {
          "hex": "#e1d8ba"
        }
      ]
    },
    "millsfield:images_texts": [
      "BER\nEFL\nTRANSPORTES RÉREOS\nHORARIOS E TARIFAS\nEm vigor à partir de Setembro de 1951\nDE SÃO\nPAULO\nROTA\nPARA SÃO PAULO\nPARA:\nPARTE\nANDRADINA\n3.a, 5.a e Domingo às 14:30\nS. Paulo - Biriguí - Andradina\n2.ª, 4.ª e 6.ª às 7:30\nARAÇATUBA\nDiário às 8:45\nS. Paulo - Lins - Araçatuba\nDiário às 14:15\nDIRETO\nARAPONGAS\n32, 4-5% % 19.00 20 10-303.\nPaulo - Londrina - Arapongas\n•e 6.ª às 13:30\nPaulo - Avaré - Jacarezinho - Bandeirantes 3.:\n• e Sab.\n9:05\n- Londrina - Arapongas - Curitiba\n5.a e Dom. às 12:45\nAVARÉ\n2.a, 4.ª e 6.a às 13:00\naulo\nnho - Bandeirantes 3 a 5\u0026 e Sab às 11:3\nondrina\nBANDCIRANTES\n2.a, 4.8 e 6.a às 13:00\n5. Paulo - Avaré - Jacarezinho - Bandeirantes 3.ª, 5.ª e Sab. às 10:20\n(TARA)\nLonarina - Arapongas - CurtiDe\nBELO HORIZONTE\n1a 5.4 d\nSab.\n0:30\nS. Paulo - Cump - Pelo Horizo Horizonte 23, 6,4 e 6.1. as 13:90\nBIRIGUi\n3.a, 5.ª e Dom. às 14:30\nS. Paulo - Biriguí - Andradina\n2.ª, 4.a e 6.ª às 8:15\nCAMPO GRANDE\n2.ª, 4.ª e 6.ª às 7:00\n2.a, 4.ª e 6.ª às 12:15\nCATANDUVA\n2.9, 4.8 e 6.ª às 12:30\nS. Paulo - Catanduva - Rio Preto - Votuporanga 2.9, 4.ª e 6.ª às 16:40\nCAXAMBÚ\n3.8, 5.a e Sab. às 10:30\nS. Paulo - Caxambú - Belo Horizonte\n3.9, 5.8 e Sab. às 14:50\nDiários menos domingo às\nCHEGA\nCURITIBA\n24, 2. 80 0 12:00\nDOURADOS\nDRACENA\nFLORIANOPOLIS\nFÓZ DO IGUAÇU\nGARÇA\nGUAIRA\nGUAXUPE\n2.9, 4.8 e 6.a às 7:15\n2.ª, 4.9 e 6.ª às 10:00\n2.9, 4.9 e 6.ª às 10:30\nDomis 7 3s 9:00\nDomingo\n2.8, 4.9 c 6.2 às 10:00\n3.a às 7:30\n2.ª, 4,0 e 6.9 às 7:30\nJACAREZINHO\nLINS\nar 0ae Sab. às 13:0\nDiário as 19:05\nLONDRINA\nDiário às 7:45\ne ol\nàs 10:30\n2.4, 42 0 6.15\n13:00\n32 10 50 2 15.00\nLUCELIA\nMANDAGUARI\nMARINGÁ\nMARTINOPOLIS\nPARANAVAI\nPASSOS\nPONTA GROSSA\nPONTA PORÃ\nPORTO ALEGRE\n2.ª, 4.a e 6.ª às 10:00\n3.a, 5,a e Sab. às 9:00\n2.a, 4.ª e 6.ª às 09:15\n3.a feira às 7:00\n2.3, 4,9 e 6.ª às 7:15\n2.a, 4.ª e 6.ª às 7:30\n10:30\nBaoà0105328:00\n2.a e 6.ª às 7:15\n33 54 0 6л 20 632:32\nDomingo às 9:00\nPRES. PRUDENTE\n2806a as 70\n4 a teira as\n7:00\n3. e ial ado is 7:00\nDiário às 14:15\n5.a e Sabado às 7:00\nTella aS\n3.8 feira às 7:00\nRANCHARIA\n3 em 2:780\n58 e Sab às 7.00\nRIBEIRÃO PRETO Diário às 7:30\n8:00\n1SU\n14.5U\nIO.UU\n16:40\nS: Porio - Londrina - Paranavai - Dourados -\n2.a, 4.9 e 6.ª às 13:25\nS. Paulo - Garça - Tupã - Lucélia - Dracena 2.9, 4,ª e 6.ª às 13:30\nConexão em Curitiba às 13:10\nS. Paulo - Garça - Tupã - Lucélia - Dracena 2.8, 4,ª e 6.ª às 15:05\nS. Paulo - Curitiba - Fóz do Iguaçu - Guaira 3.5 às 13:00\nS. Paulo - Guaxupé - Passos - Belo Horizonte 2.a, 4,5 e 6,4 às 13:15\nS. osa - Curicazinho - Londrina - Ponta\n- Londrina Araponesa Cuito - Bandeirante 25, 4. o 6. 3. 10:50\nDiário às 14:50\n- Jacarezinho - Londrina - Ponta\nGrossa - Curitiba\n3: Pelo - Londrina - Curava\nb. 1 9505\nS. Paulo - Garça - Tupã - Lucélia - Dracena 2.a, 4.ª e 6.ª às 14:00\nRio - S. Paulo - Curitiba - Mandaguari\n3.4, 5.ª e Sab. às 12:30\nS. Paulo - Maringá - Curitiba\n2.ª, 4.9 e 6.ª às 15:30\nS. Pente - Pres. encos Martinopolis - Pres. 5.9 feira às 14:50\nSoRta Pora Londrina - Paranavaí - Dourados - 20, 4.a e 6.4 às 14:45\nS. Paulo - Guaxupé - Passos - Belo Horizonte 2.a, 4.ª e 6.a às 12:40\na Vina Cia raio Graia - Uniso Bis e 123 do 16550\nSopta Por Londrina - Paranavaí - Dourados - 2.a e 6.9 as 12:45\nDiário às 13:30\nS. Paulo - Londrina - Pres, Prudente\nS. Paulo - Rancharia - Pres. Prudente - Pres\nWenceslau\nNenceslau - Campo Grand\nPrudente - Pres. Wenceslau\nS. Paulo - Rancharia - Pres. Prudente - Cam-\nVenceslau\nDiréto\nDiário às 9:10\n16:20\n14:30\n12.3U\n14:25\n12:30\n14:20\n15:55\n10:05\n16:50\n18:10\n15:55\n9:15\n13:45\n12:30\n17:35\n17:35\n16:25\n13:45\n17:55\n16:25\n14:20\n12:50\n16:20\n9:40\n16:25\n15:45\n17:35\n17:10\n17:35\n14:20\n17035\n17:15\n16:50\n17:10\n9.45\n50\n17:10\n-0:20\n6:55 :\nTARIFAS DE PASSAGENS\nIDA\nIDA E VOLTA\nMEIA\n548,20\n991,40 285,60\n407,20\n738,50\n217,40\n491,00\n888,40 257,00\nCOLO\n75,50\n65,60\n69,80\n242,60\n439,40\nIZO.ZU\n36,70\n356,40\n645,20\n187,40\n552,80\n1.000.60\n290,20\n407,20\n738,50 217,40\n85.00\n430.00\n413,60\n748,20 216,00\n310.20\n561,10 162,00\n52,20\n80,10\n123,00\n57,90\n43,40\n366,80\n663,90 192,60 53,20\nPREÇO DIRÉTO\nPARA CURITIBA\n873,40 1.580,40 457,40 124,60\n454,00\n822,70 240,80\n70,20\n667,20 1.206,50| 347,40\n91,60\n1.060,60 1.917,40\n|551,00\n| 143,30\n299,20\n542,20 158,80\n46,50\n1.236,20 2.235,30 643,40 169,20\n284,20\n514,30 149,00\n40,80\n346,00\n626,50 182,20\n51,20\n377.20\n682,60| 197,80\n54,30\n413,00\n748,00 218,00\n62,00\n397,40\n719,90 210,20\n560,30 1.014,10 293,90\n560,30 1.014,10 293,90\n480,60\n869,70 251,80\n60,40\n80,80\n80,80\n68,80\n641,20 1.159,70 334,40\n351,20\n635,80 184,80\n428.60\n776,10 225,80\n89,00\n51,70\n63,60\n987,20\n1.786,20\n516,60140,10\n1.158,802.095,00 602,40 157,30\n495,60 897,60 261,60 74,40\n568,40 1.028,60 298,00 81,70\n459,80 832,20 241,40 66,70\n294,60 533,00 154,20 41,90\n8:00-\n9:00\n12:00 - 14:00 -\n15:00\n16:30\n7:00\nRIO DE JANEIRO\n17:00 - 18:0 e 19:30\nDomingo às\n9:00 -\n12:00\n14:000 - 16:00\n17:00 - 18:00 e 19:30\nDIRÉTOS\n25\n9:55\n19:25\ne 22:25\n15:40\n16:25\n330,40 598,40 174,40 49,60\nTUPÃ\nNIAO\nVOTUPORANGA\n2.8, 4.ª e 6.3 às 10:00\n3.8, 5.ª e Sab. às 8:00\nB: Bel - Condie PRo Peso. Voupang 241 0 65 5 51 1230\nS. Paulo - Garça - Tupã - Lucélia - Dracena 2.9, 4,° e 6.a às 14:30\nSia Vitóri - Curitiba - Ponta Grossa - União 3.9, 5.4 e Sabado às 16:00\nS. Paulo - Catanduva - Rio Preto - Votuporanga 2.a, 4.8 e 6a às 15:30\n18:10\n439,00\n794,80 231,00\n366.20\n00380940\n599,601.084,80 313,60\n568,40 1.028,60 298,00\n64,60\n57,30\n84.80\n81,70"
    ],
    "millsfield:images_texts_ids": [
      1763241491
    ],
    "millsfield:primary_image": 1763241491,
    "millsfield:subcategory_id": 1511213425,
    "mz:is_approximate": 1,
    "mz:is_current": 1,
    "sfomuseum:accession_number": "2014.084.1423",
    "sfomuseum:airline": "Real Transportes Aereos",
    "sfomuseum:airline_id": [
      1109
    ],
    "sfomuseum:category": "Scheduling / Ticketing",
    "sfomuseum:classification_id": 158,
    "sfomuseum:collection": "Aviation Archive",
    "sfomuseum:creditline": "Gift of Thomas G. Dragges",
    "sfomuseum:date": "1951",
    "sfomuseum:date_acquired": "2015-07-02",
    "sfomuseum:daterange_end": "1951-12-31",
    "sfomuseum:daterange_start": "1951-01-01",
    "sfomuseum:description": "Timetable issued by Real S.A. Transportes Aereos, effective September 1, 1951; double-sided white sheet with schedule information; includes fare information.",
    "sfomuseum:dimensions": "4 x 9 inches (10.2 x 22.9 cm)",
    "sfomuseum:medium": "paper, ink",
    "sfomuseum:object_id": 159038,
    "sfomuseum:placetype": "object",
    "sfomuseum:publication": ": , 1951.",
    "sfomuseum:subcategory": "Timetable",
    "src:geom": "sfomuseum#undetermined",
    "wof:belongsto": [
      102527513,
      1159162825,
      102191575,
      85633793,
      102087579,
      85922583,
      85688637,
      1159160869
    ],
    "wof:country": "XY",
    "wof:created": 1646901803,
    "wof:depicts": [
      1159285883,
      1159288141
    ],
    "wof:geomhash": "c281b9d9eefc83b5710e64b9d646067d",
    "wof:hierarchy": [
      {
        "building_id": -1,
        "campus_id": 102527513,
        "collection_id": 1159162825,
        "concourse_id": 1159162825,
        "continent_id": 102191575,
        "country_id": 85633793,
        "county_id": 102087579,
        "custom_id": 1763240735,
        "locality_id": 85922583,
        "neighbourhood_id": -1,
        "object_id": 1763240735,
        "region_id": 85688637,
        "wing_id": 1159160869
      }
    ],
    "wof:id": 1763240735,
    "wof:lastmodified": 1787988205,
    "wof:name": "timetable: Real S.A. Transportes Aereos",
    "wof:parent_id": 1159162825,
    "wof:placetype": "custom",
    "wof:placetype_alt": [
      "object"
    ],
    "wof:repo": "sfomuseum-data-collection",
    "wof:superseded_by": [],
    "wof:supersedes": []
  },
  "bbox": [
    -122.38647222518921,
    37.6161053594541,
    -122.38583385944366,
    37.61661101879963
  ],
  "geometry": {"type":"Polygon","coordinates":[[[-122.38647222518921,37.61631782178288],[-122.386434674263,37.61623283692423],[-122.38637566566466,37.61617759671399],[-122.38630056381224,37.6161308549656],[-122.38616108894348,37.6161053594541],[-122.38602161407469,37.6161308549656],[-122.38591432571411,37.61618609521055],[-122.38585531711577,37.61626683087935],[-122.38583385944366,37.61636881265146],[-122.38587141036987,37.61646654505181],[-122.38594114780425,37.61654303118856],[-122.38605380058287,37.61660252035167],[-122.38618254661559,37.61661101879963],[-122.3863059282303,37.61657277577607],[-122.3864185810089,37.61650903735973],[-122.3864668607712,37.61641130501523],[-122.38647222518921,37.61631782178288]]]}
}
