{
  "id": 1763195467,
  "type": "Feature",
  "properties": {
    "date:cessation_lower": "1935-01-01",
    "date:cessation_upper": "1935-12-31",
    "date:inception_lower": "1935-01-01",
    "date:inception_upper": "1935-12-31",
    "edtf:cessation": "1935",
    "edtf:inception": "1935",
    "geom:area": 2.475047457570636e-7,
    "geom:bbox": "-122.386472,37.616105,-122.385834,37.616611",
    "geom:latitude": 37.61635747477365,
    "geom:longitude": -122.38615540108617,
    "millsfield:airline_id": [
      1159285605
    ],
    "millsfield:category_id": 1511214223,
    "millsfield:collection_id": 1511214207,
    "millsfield:company_id": [
      1159288449
    ],
    "millsfield:images": [
      1763196293,
      1763196295
    ],
    "millsfield:images_colors_refs": {
      "crayola": [
        {
          "hex": "#000000"
        },
        {
          "hex": "#414a4c"
        },
        {
          "hex": "#dbd7d2"
        },
        {
          "hex": "#c46210"
        }
      ],
      "css4": [
        {
          "hex": "#d2691e"
        },
        {
          "hex": "#d3d3d3"
        },
        {
          "hex": "#2f4f4f"
        },
        {
          "hex": "#000000"
        }
      ],
      "marekm4": [
        {
          "hex": "#dc471e"
        },
        {
          "hex": "#e1d6c8"
        },
        {
          "hex": "#ded7cb"
        },
        {
          "hex": "#1f1f1e"
        },
        {
          "hex": "#2c2b29"
        }
      ]
    },
    "millsfield:images_texts": [
      "CORRECTED TO OCTOBER 1, 1935\nFLI\nVarney\nAir\n\"THE TRAIL OF THE\nCONQUISTADORES\"\nEL PASO\nALBUQUERQUE\nSANTA FE\nLAS VEGAS\nTRINIDAD\nPUEBLO\nDIRECT CONNECTION AT PUEBLO VIA\nWYOMING AIR SERVICE TO AND FROM\nCOLORADO SPRINGS\nand\nENVER\nAIR TICKETS\n- AND -\nRESERVATIONS\nON ALL AIRLINES\nAIRLINES CONSOLIDATED TICKET OFFICE\n41 EAST 47th STREET\nELdorado 5-2301",
      "VARNEY AIR TRANSPORT, Inc.\nGeneral Offices - El Paso, Texas\nP. O. Box 886\nGENERAL INFORMATION\nConcerning the\nNEW AND FASTER AIR SERVICE\nBetween\nEl Paso, Albuquerque, Santa Fe, Las Vegas,\nTrinidad, Pueblo, Colorado Springs and Denver\nTARIFFS VIA\nVARNEY AIR TRANSPORT, INC., AND\nCONNECTING AIRLINES\nLight Face One Way -FARES- Dark Face Round Trip\nAlbu-\nCclo-\nquerque\nrado\nSprings\n40.32\n22.40\nDenver\nEl\nPaso\nLas\nVegas\nPueblc\nSanta\nFe\nTrini-\ndad\nAlbuquerque\nColorado\nSprings\nDenver\nEl Paso\nLas Vegas\nPueblo\nSanta Fe\nTrinidad\n40.32\n22.40\n45.72\n25.40\n25.56\n14.20\n11.88\n6.60\n33.12\n18.40\n7.20\n4.00\n25.06\n13.92\n45.72\n25.40\n25.56\n14.20\n65.88\n36.60\n71.28\n39.60\n11.88\n| 33.12\n7.20\n6.60\n18.40\n4.00\n25.06\n13.92\n28.53\n34.02\n15.30\n15.85\n18.90\n8.50\n33.93\n39.42\n18.85\n21.90\n20.70\n11.50\n65.88\n71.28\n37.26\n36.60\n39.60\n20.70\n58.68\n31.86\n32.60\n17.70\n50.44\n28.02\n28.53\n33.93\n37.26\n21.33\n15.85\n18.85\n20.70\n11.85\n7.20\n13.18\n4. 00\n7.32\n58.68\n21.33\n26.82\n8.10\n32.60\n11.85\n14.90\n4.50\n34.02\n39.42\n31.86\n7.20\n26.82\n20.38\n18.90\n21.90\n17.70\n100\n14.90\n11.32\n15.30\n20.70\n50.44\n13.18\n8.50\n11.50\n28.02\n7.32\n8.10\n4.50\n20.38\n11.32\nDAILY SCHEDULE\n(Mountain Time)\nSOUTHBOUND\nRead Down\nNORTHBOUND\nRead Up\nTRIP No. 1\nMiles\n8:10 a.m.\n0\n9:00 a.m.\n65\nLv. DENVER\n9:20 a.m.\n104\nLv. COLO. SPRGS.\nAr. PUEBLO\nVia Wyoming Air Service\nMiles\n104\n169\n301\n354\n409\n409\n645\nTRIP No. 2\nAr.\nLv.\n5:15 p.m.\nLv.\n4:35 p.m.\n4:05\np.m.\nDenver to Pueblo\n9:40 a.m.\nLv. PUEBLO\nAr.\n10:15 a.m.\nLv. TRINIDAD\nLv.\n3:50 p.m.\n3:20 p.m.\n11:20 a.m.\nLv. LAS VEGAS\nLv.\n2:20 p.m.\n11:50 a.m.\nLv. SANTA FE\n12:15 p.m.\nAr. ALBUQUERQUE\nLv.\n1:50 p.m.\n12:40 p.m.\nLv. ALBUQUERQUE\nLv.\nAr.\n1:20 p.m.\n1:00 p.m.\n2:15 p.m.\nAr. EL PASO\nLv. 11:25 a.m.\nConnections at ALBUQUERQUE for points EAST and WEST.\nWestbound flight via T.\nW. A. over south rim\nof Grand Canyon.\n9 hours and 26 minutes DENVER to LOS ANGELES\nMiles\n8:10 a.m.\n9:40 a.m.\n12:15 p.m.\n12:40 p.m.\n4:36 p.m.\nLv. DENVER\n104\nLv. PUEBLO\n409\n409\nAr. ALBUQUERQUE\nLv. ALBUQUERQUE\n1121/\nAr. LOS ANGELES\nVia W.\nVia\nV\nA.\nVia\nVia\nV\nA.\nA\nT.\nT\nW.\nA\nVia T. W. A\nS.\nConnections\nCheyenne for points EAST, WEST\nand NORTH.\nConnections at EL PASO for MEXICO and points EAST and WEST.\nAbove Schedules Subject to Change Without Notice.\n11 HRS. 02 MIN. DENVER TO FT. WORTH\n11 HRS. 30 MIN. DENVER TO DALLAS\nMiles\n8:10 a.m.\n2:15 p.m.\n4:12 p.m.\n8:12 p.m.\n8:40 D.m.\n645\n645\n1186\n1215\nLv. DENVER\nAr. EL PASO\nLv. EL PASO\nAr. FT. WORTH\nAr. DALLAS\nVia\nW.\nVia\nV.\nA.\nVia\nA.\nA.\nVia\nA.\nVia\nA.\nA.\nA.\nA\nS.\nT.\nAIRMAIL-Postage-Six cents (6c) first ounce and six\ncents each additional ounce to any point in the United\nStates.\nAIR EXPRESS-Lowest Air express rates are in effect.\nSend for General Air Express tariff, or inquire at any\nVarney Air Transport office or any Postal Telegraph\nOffice.\nBAGGAGE-35 pounds free of charge. Excess baggage\nshall be at the rate per pound of ½ of 1% of the pub-\nCHILDREN-Under two years of age when held in arms\ncarried free.\nGROUND TRANSPORTATION-To and from airport\navailable at all cities, at passengers' expense.\nPASSAGE-Cancellation by Company-Company\nre-\nserves the right to cancel bookings before passage or\nen route at any time such action is deemed advisable or\nnecessary.\nIn all events the passengers'\nsole recourse\nshall be the recovery of the unused air fare.\nPASSAGE-Cancellation by Passenger-To secure refund,\nticket must be surrendered at Company office or author-\nized AGENT at least TWO HOURS before scheduled\ndeparture.\nREFUNDS-Made at MAIN OFFICE of COMPANY at\nEl Paso, Texas.\nRESERVATIONS—Reservations made only upon pay-\nment of fare.\nROUND TRIPS-Sold at 10% Discount. Return limit 60\ndays.\nSTOP OVERS-Allowed for 10 days at any point on the\nsystem.\nTIME TABLES-All published schedules show the times\nat which planes may be expected to arrive or depart, but\ntheir arrival and departure at the time stated is not\nguaranteed. The Company is not responsible for missed\nconnections.\nTICKET OFFICES AND REPRESENTATIVES\nEl Paso, Texas-Hilton, Del Norte or Hussmann Hotels.\nGeneral Offices-Main 1237—American Air Lines Field.\nAlbuquerque, N. M.—Mrs. S. B. Hanson-Franciscan Hotel.\nT. W. A. Inc.-T. W. A. Airport.\nSanta Fe, N. M.-N. L. Wilson-Capitol Pharmacy.\nLas Vegas, N. M.—Alfred Rogers-801 Douglass.\nTrinidad, Colo.-Columbian Hotel-Floyd Beauchamp.\nPueblo, Colo.—Municipal Airport-Don Davis, Chief Dis-\npatcher in chg. of operations.\nVail. Congress or Whitman Hotels.\nColorado Springs, Colo.-Postal Telegraph Co.\nDenver, Colo.-United Air Lines-Cosmopolitan Hotel.\nAny Postal Telegraph or Western Union Office\n082.028"
    ],
    "millsfield:images_texts_ids": [
      1763196293,
      1763196295
    ],
    "millsfield:primary_image": 1763196293,
    "millsfield:subcategory_id": 1511213425,
    "mz:is_current": 1,
    "sfomuseum:accession_number": "2014.082.028",
    "sfomuseum:airline": "Varney Air Transport",
    "sfomuseum:airline_id": [
      971
    ],
    "sfomuseum:category": "Scheduling / Ticketing",
    "sfomuseum:classification_id": 158,
    "sfomuseum:collection": "Aviation Archive",
    "sfomuseum:creditline": "Gift of Thomas G. Dragges",
    "sfomuseum:date": "1935",
    "sfomuseum:date_acquired": "2015-01-06",
    "sfomuseum:daterange_end": "1935-12-31",
    "sfomuseum:daterange_start": "1935-01-01",
    "sfomuseum:description": "Timetable issued by Varney Air Transport, effective October 1, 1935; fold-out format; orange, black, and white cover with list of destinations and illustrations of airplane in flight and male figure dressed as conquistador.",
    "sfomuseum:dimensions": "9 x 4 inches (22.9 x 10.2 cm)",
    "sfomuseum:medium": "paper, ink",
    "sfomuseum:object_id": 156412,
    "sfomuseum:placetype": "object",
    "sfomuseum:publication": ": , 1935.",
    "sfomuseum:subcategory": "Timetable",
    "src:geom": "sfomuseum#undetermined",
    "wof:belongsto": [
      102527513,
      1159162825,
      102191575,
      85633793,
      102087579,
      85922583,
      85688637,
      1159160869
    ],
    "wof:country": "XY",
    "wof:created": 1646383378,
    "wof:depicts": [
      1159288449,
      1159285605
    ],
    "wof:geomhash": "c281b9d9eefc83b5710e64b9d646067d",
    "wof:hierarchy": [
      {
        "building_id": -1,
        "campus_id": 102527513,
        "collection_id": 1159162825,
        "concourse_id": 1159162825,
        "continent_id": 102191575,
        "country_id": 85633793,
        "county_id": 102087579,
        "custom_id": 1763195467,
        "locality_id": 85922583,
        "neighbourhood_id": -1,
        "object_id": 1763195467,
        "region_id": 85688637,
        "wing_id": 1159160869
      }
    ],
    "wof:id": 1763195467,
    "wof:lastmodified": 1787988205,
    "wof:name": "timetable: Varney Air Transport",
    "wof:parent_id": 1159162825,
    "wof:placetype": "custom",
    "wof:placetype_alt": [
      "object"
    ],
    "wof:repo": "sfomuseum-data-collection",
    "wof:superseded_by": [],
    "wof:supersedes": []
  },
  "bbox": [
    -122.38647222518921,
    37.6161053594541,
    -122.38583385944366,
    37.61661101879963
  ],
  "geometry": {"type":"Polygon","coordinates":[[[-122.38647222518921,37.61631782178288],[-122.386434674263,37.61623283692423],[-122.38637566566466,37.61617759671399],[-122.38630056381224,37.6161308549656],[-122.38616108894348,37.6161053594541],[-122.38602161407469,37.6161308549656],[-122.38591432571411,37.61618609521055],[-122.38585531711577,37.61626683087935],[-122.38583385944366,37.61636881265146],[-122.38587141036987,37.61646654505181],[-122.38594114780425,37.61654303118856],[-122.38605380058287,37.61660252035167],[-122.38618254661559,37.61661101879963],[-122.3863059282303,37.61657277577607],[-122.3864185810089,37.61650903735973],[-122.3864668607712,37.61641130501523],[-122.38647222518921,37.61631782178288]]]}
}
