{
  "id": 1913795167,
  "type": "Feature",
  "properties": {
    "date:cessation_lower": "1933-02-16",
    "date:cessation_upper": "1933-02-16",
    "date:inception_lower": "1933-02-16",
    "date:inception_upper": "1933-02-16",
    "edtf:cessation": "1933-02-16",
    "edtf:inception": "1933-02-16",
    "geom:area": 2.475047457570636e-7,
    "geom:bbox": "-122.386472,37.616105,-122.385834,37.616611",
    "geom:latitude": 37.61635747477365,
    "geom:longitude": -122.38615540108617,
    "millsfield:airline_id": [
      1159284991,
      1159285931
    ],
    "millsfield:category_id": 1511214251,
    "millsfield:collection_id": 1511214207,
    "millsfield:company_id": [
      1159286721
    ],
    "millsfield:images": [
      1913800153,
      1913800155,
      1913800157,
      1913800159,
      1913800161,
      1913800163
    ],
    "millsfield:images_colors_refs": {
      "crayola": [
        {
          "hex": "#414a4c"
        },
        {
          "hex": "#edd19c"
        },
        {
          "hex": "#fae7b5"
        },
        {
          "hex": "#efcdb8"
        },
        {
          "hex": "#9f8170"
        }
      ],
      "css4": [
        {
          "hex": "#bdb76b"
        },
        {
          "hex": "#808080"
        },
        {
          "hex": "#556b2f"
        },
        {
          "hex": "#000000"
        },
        {
          "hex": "#eee8aa"
        },
        {
          "hex": "#f5deb3"
        },
        {
          "hex": "#bc8f8f"
        },
        {
          "hex": "#2f4f4f"
        }
      ],
      "marekm4": [
        {
          "hex": "#a0956d"
        },
        {
          "hex": "#39311b"
        },
        {
          "hex": "#353321"
        },
        {
          "hex": "#ecdba7"
        },
        {
          "hex": "#9d946f"
        },
        {
          "hex": "#edddac"
        },
        {
          "hex": "#35321f"
        },
        {
          "hex": "#a1976e"
        },
        {
          "hex": "#ebdcae"
        },
        {
          "hex": "#3f3d28"
        },
        {
          "hex": "#a1966f"
        },
        {
          "hex": "#ecdcad"
        },
        {
          "hex": "#443f25"
        },
        {
          "hex": "#2d2a18"
        },
        {
          "hex": "#ebdbad"
        },
        {
          "hex": "#edddaa"
        }
      ]
    },
    "millsfield:images_texts": [
      "'33\nCATHAY\nHOTEL\nCABLE ADDRESS\nCATHOTEL\"\nSHANGHAI, CHINA\nThursday\nУсв 16\nDearist Debs\nAm aufuely buoy\nbut want to get off a\nshout not be cause a\nship is sailing tomorrow\nfor home and o want\nto mail this in time\nto make it.\nThe\ntoday has\nturn very\nbad - a cold drurng\nrain. I hair had\nto be out in it a\nlot, but right now",
      "am writing a caace to\nn.y. reporting on thing\nthey wanted to know.\nThe politicie situat-\nion hue wick the\nJapanen is\nof cour\nvery much strained.\nT.V. Soong ministr of\nIrmanes is the one\nbig pour in china-\nthey say that nothing\nCan hopr to tr done\nwithout his approve.\nHe is very bray wit\npreparation\nbock\ndiplomatic and multar-\nvatic for trouble wik\njapan.\no hops vire\n1 c",
      "CATHAY\nHOTEL\nCABLE ADDRESS\nCATHOTEL\"\nSHANGHAI, CHINA\nmuch what no\nactual\nmilitary spruation wil\nbegin but the\nsituation\nis undoubties mot\ngrrions.\nShanghai is\nпорона - та sign\nof depremon at ace.\nof depression at all.\nThe Intumationde\nsill ment, coherr ur\nass, is perface, safe\nprotectra by troops\nof the storal powers\nand battle ships, So\nthere is motking for you",
      "to worry abont 20\nfar as my rape in\ncontrard.\nThe\nChinin are ven free\nto American.\nur hair a fome chance\nwith P.a.a.\nto maker\na good contract but\nan working try slove,\ntrying to avoid takin,\nthe wrong strp any\ncohers,\nHare seen\nquat many prope\nbut so far than a\nno leak or no\npubercit abont our\nbung her. An working\n2019.121\n0571 b",
      "CATHAY\nHOTEL\nCABLE ADDRESS\nCATHOTEL*\nSHANGHAI, CHINA\nclone, with may. Howard\nU.S.\nHe in\nlay and wile or a big\nhelp especially as he\nwanto to trap harmony\nall around. The\ngumans an strong ont\nhur in cration and\nwiie do nearly anything\nto\nkrag us but. Also\nthe\nlocal\ncompany is\nhostile\nwie not 1r Easy.",
      "must git this away\nnow. Lots and\n- lots\nof lor to you dearest\nI hope you are com\nfortable at crang\nand that the lif\nthen is not too hectic.\nTer my win brat to\nAnd and aste hun\nif then and any\nsprcial stamps he world\nlikr to have cokch 2\nmight fut for him.\nYour wan own\nHad\n059) C"
    ],
    "millsfield:images_texts_ids": [
      1913800153,
      1913800155,
      1913800157,
      1913800159,
      1913800161,
      1913800163
    ],
    "millsfield:primary_image": 1913800153,
    "millsfield:subcategory_id": 1511213489,
    "mz:is_approximate": 1,
    "mz:is_current": 1,
    "sfomuseum:accession_number": "2019.121.0591 a c",
    "sfomuseum:airline": "Pan American Airways",
    "sfomuseum:airline_id": [
      685,
      1131
    ],
    "sfomuseum:category": "Employee Career History",
    "sfomuseum:classification_id": 195,
    "sfomuseum:collection": "Aviation Archive",
    "sfomuseum:creditline": "Collection of SFO Museum",
    "sfomuseum:date": "02/16/1933",
    "sfomuseum:date_acquired": "2019-11-22",
    "sfomuseum:daterange_end": "1933-02-16",
    "sfomuseum:daterange_start": "1933-02-16",
    "sfomuseum:description": "Handwritten letter from Harold M. Bixby to his wife, Debby Bixby, dated Thursday, February 16, [1933], on stationery from the Cathay Hotel in Shanghai; includes description of T.V. Soong and Major [Edward] Howard.",
    "sfomuseum:dimensions": "8 1/4 x 5 1/4 inches (21 x 13.3 cm)",
    "sfomuseum:medium": "paper, ink",
    "sfomuseum:object_id": 210866,
    "sfomuseum:placetype": "object",
    "sfomuseum:publication": ": , 02/16/1933.",
    "sfomuseum:subcategory": "Correspondence, Personal",
    "src:geom": "sfomuseum#undetermined",
    "wof:belongsto": [
      102527513,
      1159162825,
      102191575,
      85633793,
      102087579,
      85922583,
      85688637,
      1159160869
    ],
    "wof:country": "XY",
    "wof:created": 1714548712,
    "wof:depicts": [
      1159286721,
      1159284991,
      1159285931
    ],
    "wof:geomhash": "c281b9d9eefc83b5710e64b9d646067d",
    "wof:hierarchy": [
      {
        "building_id": -1,
        "campus_id": 102527513,
        "collection_id": 1159162825,
        "concourse_id": 1159162825,
        "continent_id": 102191575,
        "country_id": 85633793,
        "county_id": 102087579,
        "custom_id": 1913795167,
        "locality_id": 85922583,
        "neighbourhood_id": -1,
        "object_id": 1913795167,
        "region_id": 85688637,
        "wing_id": 1159160869
      }
    ],
    "wof:id": 1913795167,
    "wof:lastmodified": 1787988219,
    "wof:name": "correspondence: Harold M. Bixby to Debby Bixby",
    "wof:parent_id": 1159162825,
    "wof:placetype": "custom",
    "wof:placetype_alt": [
      "object"
    ],
    "wof:repo": "sfomuseum-data-collection",
    "wof:superseded_by": [],
    "wof:supersedes": []
  },
  "bbox": [
    -122.38647222518921,
    37.6161053594541,
    -122.38583385944366,
    37.61661101879963
  ],
  "geometry": {"type":"Polygon","coordinates":[[[-122.38647222518921,37.61631782178288],[-122.386434674263,37.61623283692423],[-122.38637566566466,37.61617759671399],[-122.38630056381224,37.6161308549656],[-122.38616108894348,37.6161053594541],[-122.38602161407469,37.6161308549656],[-122.38591432571411,37.61618609521055],[-122.38585531711577,37.61626683087935],[-122.38583385944366,37.61636881265146],[-122.38587141036987,37.61646654505181],[-122.38594114780425,37.61654303118856],[-122.38605380058287,37.61660252035167],[-122.38618254661559,37.61661101879963],[-122.3863059282303,37.61657277577607],[-122.3864185810089,37.61650903735973],[-122.3864668607712,37.61641130501523],[-122.38647222518921,37.61631782178288]]]}
}
