{
  "id": 1914555799,
  "type": "Feature",
  "properties": {
    "date:cessation_lower": "1970-01-01",
    "date:cessation_upper": "1979-12-31",
    "date:inception_lower": "1970-01-01",
    "date:inception_upper": "1979-12-31",
    "edtf:cessation": "197X",
    "edtf:inception": "197X",
    "geom:area": 2.475047457570636e-7,
    "geom:bbox": "-122.386472,37.616105,-122.385834,37.616611",
    "geom:latitude": 37.61635747477365,
    "geom:longitude": -122.38615540108617,
    "millsfield:aircraft_id": [
      1159290417
    ],
    "millsfield:airline_id": [
      1159284813
    ],
    "millsfield:category_id": 1762671311,
    "millsfield:collection_id": 1511214207,
    "millsfield:company_id": [],
    "millsfield:images": [
      1914556229,
      1914556231
    ],
    "millsfield:images_colors_refs": {
      "crayola": [
        {
          "hex": "#414a4c"
        },
        {
          "hex": "#9f8170"
        },
        {
          "hex": "#efdecd"
        }
      ],
      "css4": [
        {
          "hex": "#2f4f4f"
        },
        {
          "hex": "#f5deb3"
        },
        {
          "hex": "#bc8f8f"
        }
      ],
      "marekm4": [
        {
          "hex": "#2f2e2e"
        },
        {
          "hex": "#1e393d"
        },
        {
          "hex": "#ad9175"
        },
        {
          "hex": "#e8d9c3"
        },
        {
          "hex": "#e7dcc6"
        }
      ]
    },
    "millsfield:images_texts": [
      "EMERGENCY LANDING PROCEDURES\nIn the unlikely event that an emergency landing should become necessary,\nlisten carefully to all instructions given by the crew.\nBRACING POSITION\nIf the order is given to assume the bracing position,\nyou should do the following:\n• Loosen your necktie and collar\n• Remove your glasses and dentures\n• Remove all sharp objects from your pockets\n• Fasten your seat belt securely\n• Adopt the braced position as illustrated\nSPECIAL INFORMATION FOR OVERWATER FLIGHTS\nShould an overwater emergency landing (ditching) become necessary, you should\nbe aware of certain special procedures:\n• There will be two impacts, one when the tail section touches the\nwater, and another when the wings and main body of the\naircraft touch down\n• After the second impact, unfasten your seat belt and make an\norderly evacuation from the aircraft\n• You should inflate your life jacket only AFTER you are outside\nof the aircraft\nLIFE JACKETS AND FLOTATION SEAT CUSHIONS\nA placard on the seat in front of you will tell if this aircraft is equipped with LIFE\nJACKETS or FLOTATION SEAT CUSHIONS. You should become familiar with the\nuse of whichever is aboard this aircraft by reading the applicable instructions below:\nHOW TO USE A LIFE JACKET\n• Remove the Life Jacket from under your seat\n• Hold the Life Jacket with the lamp to the front\n• Push your head through the neck opening\n• Insert waist strap through buckle and pull tight\n• Inflate by pulling down sharply on the plastic knob only AFTER\nyou are outside the aircraft\n• If necessary, the Life Jacket may be inflated by blowing into\nthe mouthpiece provided\n• The light may be activated by pulling the plug from the bottom\nof the battery. When the sea water contacts the battery, the\nlight automatically comes on\nHOW TO USE A FLOTATION SEAT CUSHION\n• Remove the bottom seat cushion from your seat\n• Hold the seat cushion directly in front of you\n• Place your arms through the loops like putting on a coat backwards\n• Lock your hands in front of you to hold cushion to chest\n• Do not wear cushion on your back as this will cause you to float\nface down\nPLEASE DO NOT REMOVE THIS CARD FROM THE AIRCRAFT",
      "MISSIONARY FLIGHTS INTERNATIONAL\nIMPORTANT INFORMATION\nYour crew welcomes you aboard MISSIONARY FLIGHTS INTERNATIONAL. You\nare flying aboard a Douglas DC-3 Airliner, the world's finest and most respected\ntransport aircraft. Your Captain has met the skill and experience requirements\nestablished by the U.S. Government for all airline pilots, as well as specific profi-\nciency standards in the operation of a Douglas DC-3.\nEvery effort has been made to eliminate the chance of an emergency situation.\nWe do ask, however, that you take a moment to study this card to become\nfamiliar with this aircraft for your comfort and safety.\nSEAT BELTS\nDuring all takeoffs and landings, your\nseat belt should be securely fasten-\ned. The SEAT BELT signs will advise\nyou when you should fasten your\nseat belt. We do recommend that you\nleave your seat belt on at all times\nwhile seated. Seat backs are to be in\nthe upright position during takeoffs\nSMOKING IS PRO-\nHIBITED AT ALL TIMES ON MFI AIR.\nCRAFT.\nEMERGENCY EXITS\nThree emergency exits are available\nto the passengers on our DC-3 - two\nwindow exits on either side of the\ncabin at the rear of the wing and the\nmain\ncabin\nairstair door\nthrough\nwhich you entered. We ask that you\nnot tamper with them unless an\nemergency situation exists.\nLAVATORY\nThe restroom door is on the left as\nyou face the rear of the aircraft. USE\nONLY THIS DOOR! Remain clear of\nall other doors.\nAIRCRAFT GALLEY\nRefreshments are available from the\nMFI galley. DO NOT attempt to use\nthe galley yourself.\nPlease ask a\ncrew member to serve you.\nHELP KEEP IT CLEAN\nThe crew is responsible for cleaning\nthis aircraft after each flight.\nYou\ncan help by giving all trash to the\nflight attendant for disposal.\nNOT place gum in ash trays or under\nseats. DO NOT use airsickness bags\nfor trash disposal.\nThe diagram below shows the location of the emergency exits on this aircraft.\nFRONT\nWINDOW EXITS\nRemove the plastic cover from\nthe handle\nTwist the handle to the right\n(clockwise)\nPush out and up on the window\nuntil it locks open\nEmergency\nExit\nAIRSTAIR DOOR\nTurn the handle to the right\n(clockwise)\nPush outward on the door\nBuilt-in stairs on the door are\nnow\navailable\nfor\nuse\nin\ndescending from the aircraft\nWINDOW\nEXIT\nWINDOW\nEXITS\nPLEASE DO NOT REMOVE THIS CARD FROM THIS AIRCRAFT"
    ],
    "millsfield:images_texts_ids": [
      1914556229,
      1914556231
    ],
    "millsfield:primary_image": 1914556229,
    "millsfield:subcategory_id": 1511213703,
    "mz:is_approximate": 1,
    "mz:is_current": 1,
    "sfomuseum:accession_number": "2002.127.390",
    "sfomuseum:aircraft": "Douglas DC-3",
    "sfomuseum:aircraft_id": [
      487
    ],
    "sfomuseum:airline": "Missionary Flights International",
    "sfomuseum:airline_id": [
      605
    ],
    "sfomuseum:category": "Passenger Amenity, Archive",
    "sfomuseum:classification_id": 581,
    "sfomuseum:collection": "Aviation Archive",
    "sfomuseum:creditline": "Gift of Thomas G. Dragges",
    "sfomuseum:date": "1970s",
    "sfomuseum:date_acquired": "2003-12-22",
    "sfomuseum:daterange_end": "1979-12-31",
    "sfomuseum:daterange_start": "1970-01-01",
    "sfomuseum:description": "Safety information card issued by Missionary Flights International for the Douglas DC-3 fleet;  double-sided card with illustrations depicting inflight safety and emergency procedures; no identification code; no revision date.",
    "sfomuseum:dimensions": "11 x 6 inches (27.9 x 15.2 cm)",
    "sfomuseum:medium": "plastic, paper, ink",
    "sfomuseum:object_id": 69076,
    "sfomuseum:placetype": "object",
    "sfomuseum:publication": ": , 1970s.",
    "sfomuseum:subcategory": "Safety Information Card",
    "src:geom": "sfomuseum#undetermined",
    "wof:belongsto": [
      102527513,
      1159162825,
      102191575,
      85633793,
      102087579,
      85922583,
      85688637,
      1159160869
    ],
    "wof:country": "XY",
    "wof:created": 1720459814,
    "wof:depicts": [
      1159284813,
      1159290417
    ],
    "wof:geomhash": "c281b9d9eefc83b5710e64b9d646067d",
    "wof:hierarchy": [
      {
        "building_id": -1,
        "campus_id": 102527513,
        "collection_id": 1159162825,
        "concourse_id": 1159162825,
        "continent_id": 102191575,
        "country_id": 85633793,
        "county_id": 102087579,
        "custom_id": 1914555799,
        "locality_id": 85922583,
        "neighbourhood_id": -1,
        "object_id": 1914555799,
        "region_id": 85688637,
        "wing_id": 1159160869
      }
    ],
    "wof:id": 1914555799,
    "wof:lastmodified": 1787988221,
    "wof:name": "safety information card: Missionary Flights International, Douglas DC-3",
    "wof:parent_id": 1159162825,
    "wof:placetype": "custom",
    "wof:placetype_alt": [
      "object"
    ],
    "wof:repo": "sfomuseum-data-collection",
    "wof:superseded_by": [],
    "wof:supersedes": []
  },
  "bbox": [
    -122.38647222518921,
    37.6161053594541,
    -122.38583385944366,
    37.61661101879963
  ],
  "geometry": {"type":"Polygon","coordinates":[[[-122.38647222518921,37.61631782178288],[-122.386434674263,37.61623283692423],[-122.38637566566466,37.61617759671399],[-122.38630056381224,37.6161308549656],[-122.38616108894348,37.6161053594541],[-122.38602161407469,37.6161308549656],[-122.38591432571411,37.61618609521055],[-122.38585531711577,37.61626683087935],[-122.38583385944366,37.61636881265146],[-122.38587141036987,37.61646654505181],[-122.38594114780425,37.61654303118856],[-122.38605380058287,37.61660252035167],[-122.38618254661559,37.61661101879963],[-122.3863059282303,37.61657277577607],[-122.3864185810089,37.61650903735973],[-122.3864668607712,37.61641130501523],[-122.38647222518921,37.61631782178288]]]}
}
