{
  "id": 1913796147,
  "type": "Feature",
  "properties": {
    "date:cessation_lower": "1935-06-22",
    "date:cessation_upper": "1935-06-22",
    "date:inception_lower": "1935-06-22",
    "date:inception_upper": "1935-06-22",
    "edtf:cessation": "1935-06-22",
    "edtf:inception": "1935-06-22",
    "geom:area": 2.475047457570636e-7,
    "geom:bbox": "-122.386472,37.616105,-122.385834,37.616611",
    "geom:latitude": 37.61635747477365,
    "geom:longitude": -122.38615540108617,
    "millsfield:airline_id": [
      1159284991,
      1159285931
    ],
    "millsfield:category_id": 1511214251,
    "millsfield:collection_id": 1511214207,
    "millsfield:company_id": [
      1159286721
    ],
    "millsfield:images": [
      1913801833,
      1913801835
    ],
    "millsfield:images_colors_refs": {
      "crayola": [
        {
          "hex": "#6e5160"
        },
        {
          "hex": "#dbd7d2"
        }
      ],
      "css4": [
        {
          "hex": "#696969"
        },
        {
          "hex": "#d3d3d3"
        }
      ],
      "marekm4": [
        {
          "hex": "#dcd5bd"
        },
        {
          "hex": "#5b595c"
        },
        {
          "hex": "#585658"
        },
        {
          "hex": "#dcd6be"
        }
      ]
    },
    "millsfield:images_texts": [
      "En Route\nPERSONAL \u0026 CONFIDENTIAL\nManila\nJune 28, 1935.\n22\n(w. S. Grooch\n(George Rumi1l\n(Wm. Ehmer\n(P. G. Klauk\nOLD CHINA HANDS (Mrs. Dorothy Gast\nI have been very neglectful of all correspondence\nlately by force of much travel including two trips to Szechuan,\ntwo trips to Peiping, three to Canton, four to Nanking, one to\nKobe and one to Manila, all within the last three months.\nthat time my log shows\nin round figures 12,000 miles by air,\n4700 miles by boat, 1300 miles by train, fifty miles by bus,\nno record by automobile or ricksha, one mile by sedan chair\nand one hundred feet by wheelbarrow - that last was the hardest.\nHigh lights - a night with the missionaries at Kweiyang while\nCommunists were marching on the town from forty miles away -\nin my room a sign surrounded by forget-me-nots - colors slightly\noff center like the funny papers - \"Motto for the year - He\nSpaketh and there was a great Calm. \" Outside to the north\nfiring.\nI concluded there must have been some mix up on either\n- mottos or years.\nAnother highlight - a \"Foreign\" breakfast in\nmy honor by Chinese friends in Chungking held in the Board room\noT a bank,\ntime 7 a. m. - menu - tomato soup - tumbler full of\nbrandy followed by ten courses. Another highlight a trip to\nHongkong to catch boat to Manila leaving same afternoon - picked\nup Groeger at Foochow ran out of ceiling at Bias Bay and landed.\nYou remember how Groeger likes the \"Parrots\" but no pirates\nshowed up and the fog lifted in time to make the boat.\nNow I'm on the way to Manila again and hope to be there\nin time to meet the North Haven with Bill Grooch as C. 0. He will\nbe amused by a queer coincidence. You remember when we made the\nfirst flight to Canton leaving Shanghai on July 3, 1933 Mr. Bond\ngot a wire from his old friend Admiral Shen, Mayor of Tsingtao\nto the effect that three cruisers of the Northern Fleet had gone\nA.O.W.L. and would we keep an eye out for them.\nbecome embroiled in any Chinese politics we all decided that if\nwe chanced to see them we would just be unable to identify them.\nAnyway when we got to Hongkong they had already passed there and\nwere on their way to Canton where they have remained ever since -\nthat is until last Saturday.\nWhen I sailed Thursday afternoon\nJune 20th from Hongkong two of the cruisers were in the harbor.\nIt's hard to figure it all out but as near as I can learn the\nstatements and facts regarding their movements are about as\nfollows: Number One Statement the druisers Hai Shan and Hat Chi\nthe gunboat Chao Ho all under the command of Admiral Kiang\nShi-yuen revolted from the Northern Fleet in July 1933 and Joined\nCanton because of mistreatment on the part of Admiral Shen Hung-leh,\nMayor of Tsingtao (who incidentally got to be Mayor by virtue of\nhimself having lead a successful navy revolt a few years before\nNumber One Fact - the officers of the ships thought they could\nsell the boats to Canton.\nNumber Two Statement - The present\nwithdrawal of the Hai Shan and Hai Chi was because the officers\nwished to rejoin the Northern Fleet on account of the North China\nNumber Two Fact - Canton agreed to pay the officers for\nthe boats but had never done so and had recently cut wages and\ndemoted Admiral Kiang to the rank of Rear Admiral thus costing\nhim face and Canton two cruisers.\nStatement Number Three - when\nthe Hai Chi and the Hai Shan revolted the Chao Ho remained loyal.\nFact Number Three - Friends in Canton told me that the Chao Ho",
      "Page 2\ngot stuck in the mud when the cruisers left,\nand was unable to escape\nStatement Number Four - A wounded officer brought into\na Hongkong hospital when the Hai Chi arrived there said the two\ncruisers were subjected to a merciless fire from the forts at Bocca\nTigris and were attacked by 100 airplanes which dropped 1000 bombs.\nFact Number Four - One of our aviation friends in Canton told us that\nthe river at Bocca Tigris is only one half mile wide with the forts\non either side but neither of the ships were hit.\nThe air force was\nturned out but they could only find a few pilots and of the eight\nCurtiss Hawks and ten Boeings only four motors could be started and\none of then had \u0026 forced lending right after the take off - the other\nthree had machine guns but the wrong sized ammunition.\nThey did đr op\n52 bombs of which seven exploded but not near enough to the ships to\ndo any damage.\nStatement Number Five - Many dead and wounded on the\ntwo cruisers.\nFact Number Five - One coolie died of friggh - one\nsailor got hurt when he fired a grease filled rifle at the forts and\nthe rifle exploded, one officer was cut by broken glass (probably\nwhen he dove through his stateroom door).\nNow the cruisers are in Hongkong coaling presumably for a trip\nMaybe the Canton Air Force will attack them again when they\nleave Hongkong or maybe the Nanking Government will heed Canton's\nrequest and send the cruiser Haining in pursuit.\nThe Hai Chi and\nHai Shan were built in 1898 and wouldn't have much of a show against\nthe new Japanese built Haining acquired only a few years ago - the\npride and joy of the Chinese Navy - which for effectiveness is sur-\npassed only by the Swiss Navy.\nMaybe you will read some exciting\ncable dispatches long before this reaches you.\nAt any rate this\nletter is just within the family and I know that you will keep it\nconfidential.\nCNAC continues to prosper in spite of the growing depression\nWestern Division Ford is in service from\nChungking to Kweiyang and Yunnan-fu, a four hour flight which equals\n24 days by sedan chair. Chiang Kai-shek is in Chengtu beseiged by\noffice seekers who must use CNAC.\nA new Douglas Transport is flying\nbetween Shanghai and Peiping carrying full loads. Eddie Smith has\nbeen home on leave and is back again - also Eric\nJust - Allie is on\nhis way back now after six months away.\nHoward Norris is due for\nhome leave and will be the next pilot to pass Woosung by steamer.\nChili Vaughn and Pop Sellers - the latter now a grandfather - the\nformer still a bachelor - are pushing the Dolphins up and down the\nChina Coast with increasing loads and regularity. Bond got married\non May 15th in Peiping - the new addition to the CNAC family being\na Miss Katherine Dunlop late of Washington, D. C. She is very at-\ntractive and in a few months more will have Bondy *kanu thoroughly\nhouse broken.\nGroeger is still riding herd on the coolies who man\nthe barges on the Shanghai Canton line.\nSoldinsky is still cooing\nsoothing words to his Chinese mechanies and keeping the Dolphins in\nA No. l condition.\nMr. Mow, as Miss Forbes puts it, \"still l00ks\ndumb and comes out with the right answer.\" We have a new passenger\nstation at Lunghwa built by the City which is very attractive.\nI appreciate the replies which you all sent to my last\ncireular letter and take this form of thanking you.\nWill try to\nthe next China news letter a bit sooner than this one followed\nAll of the Shanghailanders would join in kindest regards\nto you all if they knew I was writing.\nsincerely,\nV.M. Buphy.\nde280 IS/Plos"
    ],
    "millsfield:images_texts_ids": [
      1913801833,
      1913801835
    ],
    "millsfield:primary_image": 1913801833,
    "millsfield:subcategory_id": 1511213489,
    "mz:is_approximate": 1,
    "mz:is_current": 1,
    "sfomuseum:accession_number": "2019.121.0853 a b",
    "sfomuseum:airline": "Pan American Airways",
    "sfomuseum:airline_id": [
      685,
      1131
    ],
    "sfomuseum:category": "Employee Career History",
    "sfomuseum:classification_id": 195,
    "sfomuseum:collection": "Aviation Archive",
    "sfomuseum:creditline": "Collection of SFO Museum",
    "sfomuseum:date": "06/22/1935",
    "sfomuseum:date_acquired": "2019-11-22",
    "sfomuseum:daterange_end": "1935-06-22",
    "sfomuseum:daterange_start": "1935-06-22",
    "sfomuseum:description": "Typewritten letter from Harold M. Bixby to W. [William] S. Grooch, George Rumill [Rumrill], Wm. [William] Ehmer, P.G. Klauk, and Mrs. Dorothy Gast (grouped as “Old China hands”), dated June 22, 1935, en route to Manila; marked “Personal \u0026 confidential”; includes description of events around three river cruisers / boats, originally referenced in 2019.121.0671; updates on CNAC activities; mentions [William L.] Bond, Admiral Shen Hung-leh, Chiang Kai-shek, Eddy Smith, [Paul] Groeger, Katherine Dunlop.",
    "sfomuseum:dimensions": "13 x 8 1/4 inches (33 x 21 cm)",
    "sfomuseum:medium": "paper, ink",
    "sfomuseum:object_id": 211205,
    "sfomuseum:placetype": "object",
    "sfomuseum:publication": ": , 06/22/1935.",
    "sfomuseum:subcategory": "Correspondence, Personal",
    "src:geom": "sfomuseum#undetermined",
    "wof:belongsto": [
      102527513,
      1159162825,
      102191575,
      85633793,
      102087579,
      85922583,
      85688637,
      1159160869
    ],
    "wof:country": "XY",
    "wof:created": 1714548999,
    "wof:depicts": [
      1159286721,
      1159284991,
      1159285931
    ],
    "wof:geomhash": "c281b9d9eefc83b5710e64b9d646067d",
    "wof:hierarchy": [
      {
        "building_id": -1,
        "campus_id": 102527513,
        "collection_id": 1159162825,
        "concourse_id": 1159162825,
        "continent_id": 102191575,
        "country_id": 85633793,
        "county_id": 102087579,
        "custom_id": 1913796147,
        "locality_id": 85922583,
        "neighbourhood_id": -1,
        "object_id": 1913796147,
        "region_id": 85688637,
        "wing_id": 1159160869
      }
    ],
    "wof:id": 1913796147,
    "wof:lastmodified": 1787988219,
    "wof:name": "correspondence: Harold M. Bixby to William S. Grooch, George Rumill, William Ehmer, P.G. Klauk, and Mrs. Dorothy Gast",
    "wof:parent_id": 1159162825,
    "wof:placetype": "custom",
    "wof:placetype_alt": [
      "object"
    ],
    "wof:repo": "sfomuseum-data-collection",
    "wof:superseded_by": [],
    "wof:supersedes": []
  },
  "bbox": [
    -122.38647222518921,
    37.6161053594541,
    -122.38583385944366,
    37.61661101879963
  ],
  "geometry": {"type":"Polygon","coordinates":[[[-122.38647222518921,37.61631782178288],[-122.386434674263,37.61623283692423],[-122.38637566566466,37.61617759671399],[-122.38630056381224,37.6161308549656],[-122.38616108894348,37.6161053594541],[-122.38602161407469,37.6161308549656],[-122.38591432571411,37.61618609521055],[-122.38585531711577,37.61626683087935],[-122.38583385944366,37.61636881265146],[-122.38587141036987,37.61646654505181],[-122.38594114780425,37.61654303118856],[-122.38605380058287,37.61660252035167],[-122.38618254661559,37.61661101879963],[-122.3863059282303,37.61657277577607],[-122.3864185810089,37.61650903735973],[-122.3864668607712,37.61641130501523],[-122.38647222518921,37.61631782178288]]]}
}
