{
  "id": 1763513033,
  "type": "Feature",
  "properties": {
    "date:cessation_lower": "1960-01-01",
    "date:cessation_upper": "1960-12-31",
    "date:inception_lower": "1960-01-01",
    "date:inception_upper": "1960-12-31",
    "edtf:cessation": "1960~",
    "edtf:inception": "1960~",
    "geom:area": 2.475047457570636e-7,
    "geom:bbox": "-122.386472,37.616105,-122.385834,37.616611",
    "geom:latitude": 37.61635747477365,
    "geom:longitude": -122.38615540108617,
    "millsfield:airline_id": [
      1159285393
    ],
    "millsfield:category_id": 1762671311,
    "millsfield:collection_id": 1511214207,
    "millsfield:company_id": [
      1159287531
    ],
    "millsfield:exhibition_ids": [
      1796996505
    ],
    "millsfield:images": [
      1763513071,
      1881093259
    ],
    "millsfield:images_colors_refs": {
      "crayola": [
        {
          "hex": "#414a4c"
        },
        {
          "hex": "#1164b4"
        },
        {
          "hex": "#714b23"
        },
        {
          "hex": "#9f8170"
        },
        {
          "hex": "#b0b7c6"
        },
        {
          "hex": "#cdc5c2"
        }
      ],
      "css4": [
        {
          "hex": "#a0522d"
        },
        {
          "hex": "#c0c0c0"
        },
        {
          "hex": "#008080"
        },
        {
          "hex": "#bdb76b"
        },
        {
          "hex": "#d3d3d3"
        },
        {
          "hex": "#2f4f4f"
        }
      ],
      "marekm4": [
        {
          "hex": "#d6d0bf"
        },
        {
          "hex": "#8c4e32"
        },
        {
          "hex": "#074b9b"
        },
        {
          "hex": "#bbb6ae"
        },
        {
          "hex": "#b19862"
        },
        {
          "hex": "#ab9a6a"
        },
        {
          "hex": "#40332f"
        }
      ]
    },
    "millsfield:images_texts": [
      "TWA\nRoyal Ambassador\nBeverage Seedions\nWHISKIES Bourbon, Canadian, Scotch\nCOCKTAILS Martini, Manhattan, Vodka Martini, Gin and Tonic, Vodka\nBeers\nSherry\nSoft Drinks\nJurces\nSELECTED AMERICAN WINES AND CHAMPAGNES\nMenu\nCOQUILLE ST. JACQUES\nTender Scallops and Mushrooms in a Delightful Mornay Sauce\nCHOICE OF ENTREES\nCHATEAUBRIAND\nRoast Filet of Beef Served from the Cart\nBROILED SIRLOIN STEAK\nSelected from the Finest Midweatern Steere\nGRILLED HAM STEAK\nServed with Tasty Cumberland Sauce\nDOUBLE CUT LAMB CHOPS\nSpring Lamb Grilled to Your Liking\nVEAL PICCATA\nTender Scallops of Veal in Piquante Sauce\nCHICKEN CACCIATORE\nTraditional Hunter Style\nLOBSTER THERMIDOR\nMaine Lobater in Mornay Sauce\nButtered Vegetables\nPotatoes\nGalliano\nDinner Rolls and Creamery Butter\nGarden Salad\nChoice of Italian, French or Roquefort Dressing\nSelection of Pastries\nTea\nFreshly Brewed Coffee\nFancy Fruit Banket\nMilk\nSuggested Low Calorie Combination\n(Approximately 750 calories)\nDOUBLE CUT LAMB CHOPS\nButtered Vegetables\nGarden Salad\nFresh Fruit\nqueurs\nCognac\nBenedictine and Brandy\nDrambule\nCrême de Menthe\nCointreau",
      "TWA\nRoyal Ambassador\nBarrage Selections\nWHISKIES Bourbon, Canadian, Scotch\nCOCKTAILS Martini, Manhattan, Vodka Martini, Gin and Tonic, Vodka\nBeers\nSherry\nSoft Drinks\nJuices\nSELECTED AMERICAN WINES AND CHAMPAGNES\nlenu\nCOQUILLE ST. JACQUES\nTender Scallops and Mushrooms in a Delightful Mornay Sauce\nCHOICE OF ENTREES\nCHATEAUBRIAND\nRoast Filet of Beef Served from the Cart\nBROILED SIRLOIN STEAK\nSelected from the Finest Midwestern Steers\nGRILLED HAM STEAK\nServed with Tasty Cumberland Sauce\nDOUBLE CUT LAMB CHOPS\nSpring Lamb Grilled to Your Liling\nCHICKEN CACCIATORE\nTraditional Hunter Style\nVEAL PICCATA\nTender Scallops of Veal in Piquante Sauce\nLOBSTER THERMIDOR\nMaine Lobster in Mornay Sauce\nButtered Vegetables\nPotatoes\nGalliano\nCornac\nDinner Rolls and Creamery Butter\nGarden Salad\nChoice of Italian, French or Roquefort Dressing\nSelection of Pastries\nTea\nFancy Fruit Basket\nFreshly Brewed Coffee\nMHT.\nSuggested Low Calorie Combination\n(Approximately 750 calories)\nDOUBLE CUT LAMB CHOPS\nButtered Vegetables\nCorden Salad\nFresh Fruit\nLiqueur's\nDrambuie\nCrême de Menthe\n2"
    ],
    "millsfield:images_texts_ids": [
      1763513071,
      1881093259
    ],
    "millsfield:on_view": 0,
    "millsfield:primary_image": 1881093259,
    "millsfield:subcategory_id": 1511213567,
    "mz:is_approximate": 1,
    "mz:is_current": 1,
    "sfomuseum:accession_number": "2001.136.056",
    "sfomuseum:airline": "TWA (Trans World Airlines)",
    "sfomuseum:airline_id": [
      874
    ],
    "sfomuseum:category": "Passenger Amenity, Archive",
    "sfomuseum:classification_id": 242,
    "sfomuseum:collection": "Aviation Archive",
    "sfomuseum:creditline": "Gift of Howard Knapp",
    "sfomuseum:date": "c. 1960",
    "sfomuseum:date_acquired": "2003-05-21",
    "sfomuseum:daterange_end": "1965-12-31",
    "sfomuseum:daterange_start": "1955-01-01",
    "sfomuseum:description": "Menu issued by TWA (Trans World Airlines) mounted on scroll; gold plastic rods with caps and raised “RA” (Royal Ambassador service) emblem on ends; food and beverage selections printed in red and black with diagonal red band and gold “RA” sunburst; gold cord tied on top rod with tassels.",
    "sfomuseum:dimensions": "3/4 x 12 1/2 x 15 inches (1.9 x 31.8 x 38.1 cm)",
    "sfomuseum:exhibition_ids": [
      2026
    ],
    "sfomuseum:medium": "paper, plastic, synthetic thread",
    "sfomuseum:object_id": 63193,
    "sfomuseum:on_view": 1,
    "sfomuseum:placetype": "object",
    "sfomuseum:publication": ": , c. 1960.",
    "sfomuseum:subcategory": "Menu",
    "src:geom": "sfomuseum#undetermined",
    "wof:belongsto": [
      102527513,
      1159162825,
      102191575,
      85633793,
      102087579,
      85922583,
      85688637,
      1159160869
    ],
    "wof:country": "XY",
    "wof:created": 1650095100,
    "wof:depicts": [
      1159285393,
      1159287531
    ],
    "wof:geomhash": "c281b9d9eefc83b5710e64b9d646067d",
    "wof:hierarchy": [
      {
        "building_id": -1,
        "campus_id": 102527513,
        "collection_id": 1159162825,
        "concourse_id": 1159162825,
        "continent_id": 102191575,
        "country_id": 85633793,
        "county_id": 102087579,
        "custom_id": 1763513033,
        "locality_id": 85922583,
        "neighbourhood_id": -1,
        "object_id": 1763513033,
        "region_id": 85688637,
        "wing_id": 1159160869
      }
    ],
    "wof:id": 1763513033,
    "wof:lastmodified": 1787988207,
    "wof:name": "menu: TWA (Trans World Airlines)",
    "wof:parent_id": 1159162825,
    "wof:placetype": "custom",
    "wof:placetype_alt": [
      "object"
    ],
    "wof:repo": "sfomuseum-data-collection",
    "wof:superseded_by": [],
    "wof:supersedes": []
  },
  "bbox": [
    -122.38647222518921,
    37.6161053594541,
    -122.38583385944366,
    37.61661101879963
  ],
  "geometry": {"type":"Polygon","coordinates":[[[-122.38647222518921,37.61631782178288],[-122.386434674263,37.61623283692423],[-122.38637566566466,37.61617759671399],[-122.38630056381224,37.6161308549656],[-122.38616108894348,37.6161053594541],[-122.38602161407469,37.6161308549656],[-122.38591432571411,37.61618609521055],[-122.38585531711577,37.61626683087935],[-122.38583385944366,37.61636881265146],[-122.38587141036987,37.61646654505181],[-122.38594114780425,37.61654303118856],[-122.38605380058287,37.61660252035167],[-122.38618254661559,37.61661101879963],[-122.3863059282303,37.61657277577607],[-122.3864185810089,37.61650903735973],[-122.3864668607712,37.61641130501523],[-122.38647222518921,37.61631782178288]]]}
}
