{
  "id": 2048162665,
  "type": "Feature",
  "properties": {
    "date:cessation_lower": "1988-01-01",
    "date:cessation_upper": "1988-12-31",
    "date:inception_lower": "1988-01-01",
    "date:inception_upper": "1988-12-31",
    "edtf:cessation": "1988",
    "edtf:inception": "1988",
    "geom:area": 2.475047457570636e-7,
    "geom:bbox": "-122.386472,37.616105,-122.385834,37.616611",
    "geom:latitude": 37.61635747477365,
    "geom:longitude": -122.38615540108617,
    "millsfield:airline_id": [
      1159285345
    ],
    "millsfield:category_id": 1762671311,
    "millsfield:collection_id": 1511214207,
    "millsfield:company_id": [
      1159288387
    ],
    "millsfield:images": [
      2048164423
    ],
    "millsfield:images_texts": [
      "CUSTOMER SERVICE (02) 449 7633\nORDER FORM\nFilm Size\n12 Exp.\n15 Exp.\n24 Exp.\n36 Exp.\nTwin Prints\nPrice\n$4.99\n$6.99\n$8.99\n$10.99\n$3.00\nper roll\nNo. of\nRolls\nTotal\nNeed a new\n24 exposure\n100 ASA film?\nCircle type\n• 35mm • 110\n• 126\n• Disc\nPackaging \u0026\nHandling\n$3.90\neach\n50¢ per\nroll (max\n$3.00)\nThis label used to mail back photos. Please use block letters.\nTotal $\nRelive those wonderful\nmemories\nWe process all brands of 110,\n126, 135 and disc C41 colour\nPractic Flu, king adak,\nSoulcolour.\nOur photos are up to 37%\nlarger than the standard\npostcard size.\nTwin prints will cost you only\n$3.00 per roll - all film sizes.\nSpecial prices for reprints,\nenlargements, half frame,\nblack and white and\nroll film.\nName:\nAddress:\nPostcode: -\nPhone: -\nCheques payable to Leisure Photos.\nPlease write name and address on back.\nYes, you can charge: Please debit my\nBankcard/Mastercard/Visa number:\nName:\nAddress:\nExpiry date:\nCardholder's Signature: -\nDELIVER AND PICK-UP\nYou may deliver and pick-up your photos from:\n1st Floor, 1390 Pacific Highway,\nTurramurra, NSW 2074, 9.00 am - 5.30 pm MON-FRI.\nFROM ONLY\n$4•99\nINCLUDING DEVELOPING \u0026 PRINTING\non 24 and 36\nfilm and 10 prints\nof 12 and 15 exposure\nprints developed on roil\nCredits given if less than 5\nexposure film.\nGUARANTEE\nIf you are not 100% delighted with your prints retur\nthem to us with negatives within\n14 days of\nreceipt.\nunde\nYour money will be refunded.\nWe take\nevery care of films,\nprints and negatives in\nour possession but our responsibility\nfor lost or damaged films is\nlimited only to the\ncost of\nthe unexposed film and\nprocessing charge."
    ],
    "millsfield:images_texts_ids": [
      2048164423
    ],
    "millsfield:primary_image": 2048164423,
    "millsfield:subcategory_id": 1511213185,
    "mz:is_approximate": 1,
    "mz:is_current": 1,
    "sfomuseum:accession_number": "2023.018.334",
    "sfomuseum:airline": "Trans Australia Airlines (TAA)",
    "sfomuseum:airline_id": [
      850
    ],
    "sfomuseum:category": "Passenger Amenity, Archive",
    "sfomuseum:classification_id": 22,
    "sfomuseum:collection": "Aviation Archive",
    "sfomuseum:creditline": "Gift of Michael D. Cooper",
    "sfomuseum:date": "1988",
    "sfomuseum:date_acquired": "2023-06-28",
    "sfomuseum:daterange_end": "1988-12-31",
    "sfomuseum:daterange_start": "1988-01-01",
    "sfomuseum:description": "Airsickness bag issued by Trans Australia Airlines (TAA); blue, red, and yellow film processing advertisement and order form by Leisure Photos; gusset wedge, no closure.",
    "sfomuseum:dimensions": "10 1/4 x 6 1/2 inches (26 x 16.5 cm)",
    "sfomuseum:medium": "paper, ink",
    "sfomuseum:object_id": 235438,
    "sfomuseum:placetype": "object",
    "sfomuseum:publication": ": , 1988.",
    "sfomuseum:subcategory": "Airsickness Bag",
    "src:geom": "sfomuseum#undetermined",
    "wof:belongsto": [
      102527513,
      1159162825,
      102191575,
      85633793,
      102087579,
      85922583,
      85688637,
      1159160869
    ],
    "wof:country": "XY",
    "wof:created": 1787792158,
    "wof:depicts": [
      1159285345,
      1159288387
    ],
    "wof:geomhash": "c281b9d9eefc83b5710e64b9d646067d",
    "wof:hierarchy": [
      {
        "building_id": -1,
        "campus_id": 102527513,
        "collection_id": 1159162825,
        "concourse_id": 1159162825,
        "continent_id": 102191575,
        "country_id": 85633793,
        "county_id": 102087579,
        "custom_id": 2048162665,
        "locality_id": 85922583,
        "neighbourhood_id": -1,
        "object_id": 2048162665,
        "region_id": 85688637,
        "wing_id": 1159160869
      }
    ],
    "wof:id": 2048162665,
    "wof:lastmodified": 1787815884,
    "wof:name": "airsickness bag: Trans Australia Airlines (TAA)",
    "wof:parent_id": 1159162825,
    "wof:placetype": "custom",
    "wof:placetype_alt": [
      "object"
    ],
    "wof:repo": "sfomuseum-data-collection",
    "wof:superseded_by": [],
    "wof:supersedes": []
  },
  "bbox": [
    -122.38647222518921,
    37.6161053594541,
    -122.38583385944366,
    37.61661101879963
  ],
  "geometry": {"type":"Polygon","coordinates":[[[-122.38647222518921,37.61631782178288],[-122.386434674263,37.61623283692423],[-122.38637566566466,37.61617759671399],[-122.38630056381224,37.6161308549656],[-122.38616108894348,37.6161053594541],[-122.38602161407469,37.6161308549656],[-122.38591432571411,37.61618609521055],[-122.38585531711577,37.61626683087935],[-122.38583385944366,37.61636881265146],[-122.38587141036987,37.61646654505181],[-122.38594114780425,37.61654303118856],[-122.38605380058287,37.61660252035167],[-122.38618254661559,37.61661101879963],[-122.3863059282303,37.61657277577607],[-122.3864185810089,37.61650903735973],[-122.3864668607712,37.61641130501523],[-122.38647222518921,37.61631782178288]]]}
}
