{
  "id": 1511955739,
  "type": "Feature",
  "properties": {
    "date:cessation_lower": "1939-01-01",
    "date:cessation_upper": "1939-12-31",
    "date:inception_lower": "1939-01-01",
    "date:inception_upper": "1939-12-31",
    "edtf:cessation": "1939",
    "edtf:date": "1939",
    "edtf:inception": "1939",
    "geom:area": 0,
    "geom:bbox": "-122.386155,37.616357,-122.386155,37.616357",
    "geom:latitude": 37.616357,
    "geom:longitude": -122.386155,
    "iso:country": "US",
    "millsfield:airline_id": [
      1159284957
    ],
    "millsfield:category_id": 1511214223,
    "millsfield:collection_id": 1511214207,
    "millsfield:company_id": [
      1159288169
    ],
    "millsfield:images": [
      1527842161,
      1527850717
    ],
    "millsfield:images_colors_refs": {
      "crayola": [
        {
          "hex": "#000000"
        },
        {
          "hex": "#dbd7d2"
        },
        {
          "hex": "#cdc5c2"
        },
        {
          "hex": "#414a4c"
        },
        {
          "hex": "#ff2b2b"
        }
      ],
      "css4": [
        {
          "hex": "#000000"
        },
        {
          "hex": "#d3d3d3"
        },
        {
          "hex": "#2f4f4f"
        },
        {
          "hex": "#b22222"
        }
      ],
      "marekm4": [
        {
          "hex": "#d21909"
        },
        {
          "hex": "#d5cec3"
        },
        {
          "hex": "#050507"
        },
        {
          "hex": "#323a43"
        },
        {
          "hex": "#d6d3c4"
        }
      ]
    },
    "millsfield:images_texts": [
      "Alaska Services\nPACIFIC\nALASKA\nAIRWAYS\nAIRWAYS\nOPAA\nTIME TABLES\nPASSENGER \u0026 EXPRESS\nINFORMATION\nNOV. 1939—MAY 1940\nISSUED SEMI-ANNUALLY\nSEE OTHER PAN AMERICAN TIME TABLES FOR ATLANTIC,\nTRANS-PACIFIC AND LATIN AMERICA SERVICE",
      "Baffin\nBetties\n•Alatna\nLivengood\nFAIRBANKS\nWHITE HORSE\nRoutes of the\nFLYING CLIPPER\nSHIPS\n§ Pan American Airways System \u0026 Associated\n(Carriers' Service Shown in this Time Table\n5 Pan American Airways System \u0026 Associated\n(Carriers' Service Shown in other Time Table:\nOther Airlines\nmoff Lior\u0026mith\nGoldfiold.\nStony Rapids\nIlfords\nPlacLaKonge\nCrosstak\nA\nGREENLAND\nATLANTIC\nOCEAN\nSAN FRANC\nHONOLULU\nTABLE\n8A\nREAD DOWN\nSat.\nTue.\n9:00\nMorning\n851\nIT PAYS TO FLY\n\"Ask your Travel Agent\nALASKA SERVICES\nSEATTLE-JUNEAU-FAIRBANKS-\nBETHEL-NOME\nWinter Schedule -Nov. 1, 1939, to April 30, 1940\nREAD UP\nILv Seattle, Wash., U.S.A. (A.S.S.Co.).PST\nAr Morning\nAR Juneau, Alaska (A.S.S.Co.)....... 135 MT Lv\n9:00\nMiles\nPacific Alaska Airways, Inc. (PAAK)\n850\nThu.\nMon.\nr Tue.\n10:00\n11:00\n11:20\n0\n200\n13:30\n700\nJuneau, Alaska*.\nAR\nWhitehorse, Y.T.O.\nWhitehorse,\nILv\nWurwas Landing, V.t.o\nLv\nTanacross, Alaska.\nAr Fairbanks, Alaska*\n. 135 MT AR\nLv\nAR\nLv\n150 MT Lv\nr Sat.\n14:30\n13:30\n13:00\nf\n#9:00\n853\nr Mon.\n8:00\n9:25\n9:30\n10:25\n10:30\n11:30\n12:00\n12:25\n12:30\n13:00\n853\nr Thu.\n8:00\n9:25\n9:30\n10:25\n10:30\n11:30\n12:00\n12:25\n12:30\n13:00\n0\n130\n240\n320\n470\n540\nLv Fairbanks, Alaska*.\nAR\nTanana, Alaska..\nLv\nTanana, Alaska..\nAR\nRuby, Alaska..\nRuby, Alaska.\nAR Nulato, Alaska.\nLy Nulato, Alaska.\nAR Golovin, Alaska.\nGolovin,\nAlaska\nAR\nNome, Alaska...\n150 MT AN\nAR\nLv\nAR\nLv\nAR\n165 MT Lv\nAR\nLv\n852\nr Fri.\n15:00\n13:30\n13:25\n12:30\n12:25\n11:30\n11:00\n8:30\n8:25\n8:00\n852\nr Tue.\n15:00\n13:30\n13:25\n12:30\n12:25\n11:30\n11:00\n8:30\n8:25\n8:00\n861\ng Wed.\n8:00\n11:15\n11:30\n12:45\n13:00\n14:00\n0\n272\n371\n571\nLv Fairbanks, Alaska*\nAR\nMcGrath, Alaska..\nLv\nMcGrath, Alaska.\nAR\nLv\nFlat, Alaska...\nFlat, Alaska.\nAR\nBethel, Alaska.\n150 MT AN\n:\nAR\nLv\n: 165 MT LN\n860\ng Thu.\n15:00\n12:00\n11:45\n10:30\n10:15\n7:00\nTIME TABLE REFERENCES\nThe 24-Hour Clock is Used in This Time Table. Times shown between 00:01 (1 minute after mid-\nnight) and 12:00 (noon) are A.M. Times shown from 12:01 to 24:00 are P.M. To convert P.M. times\nto 12-hour clock, subtract 12 hours.\n•No local passengers carried between adjacent stations marked with this symbol. However, stop-\novers allowed on through tickets.\nf-Flag stop.\n*Principal junction point.\nPST-Pacific Standard Time (120th Meridian).\nA.S.S.Co.-Alaska S. S. Co.\nAll other times are shown in degrees west of Greenwich (zero Meridian). 15 degrees difference in\nlongitude equals 1 hour change in time.\nr-Lockheed Electra Land Planes.\ng-Pilgrim Land Planes.\n#Departures from Fairbanks on Flight 850 may be advanced to 8:00 during shortest winter days\nduring Nov., Dec. and Jan.\nPASSENGER FARES IN U. S. CY.\n(Subject to Official Passenger Tariff)\nFares in light\nfaced type are\none-way fares.\nThose in bold\nfaced type are\nround-trip\nfares.\nJuneau,\nAlaska\n$\nWhitehorse.\nY. T\nBurwash Land-\ning, Y.T.\nTanacross.\nAlaska\n\u0026Fairbanks.\nAlaska\nTanana,\nAlaska\nRuby,\nAlaska\nNulato.\nAlaska\nGolovin.\nAlaska\nNome.\nAlaska\nMcGrath.\nAlaska\nFlat.\nAlaska\nBethel,\nAlaska\n45.00 91.80114.00 162.00 205.20 241.20 270.00 302.40 302.40 235.80 262.80 320.40\nJuneau, Alaska\nWhitehorse,\nY.T\n25.00\n90.00 135.00 178.20/214.20 243.00 275.40 275.40 208.80 235.80 293.40\nBurwash Land-\ning,\nY.T..\n51.00\n52.20\n97.20\n*\n*\nTanacross,\nAlaska\n*Fairbanks,\n80.00\n50.00\n29.00\n45.00\n*\n*\nAlaska\n90.00\n75.00\n54.00\n25.00\nTanana, Alaska 114.00\n99.00\n24.00\n43.20\n79.20 108.00/140.40 140.40\n73.80/100.80/158.40\n36.00\n64.80115.20129.60117.00 144.00/201.60\nRuby, Alaska.\n134.00 119.00\n44.00\n20.00\n28.80\n79.20\n97.20153.00/180.00 237.60\nNulato, Alaska 150.00135.00\n60.00'\n36.00\n16.00\n50.40\n72.00 181.80 208.80 266.40\nGolovin, Alaska 168.00 153.00\n78.00\n64.00\n44.00\n28.00\n25.20 214.20 241.20 298.80\nNome, Alaska\n168.00153.00\n78.00\n72.00\n54.00\n40.00\n14.00\n214.20 241.20 298.80\nMcGrath,\nAlaska\n131.00 116.00\n41.00\n65.00\n85.00/101.00/119.00119.00\n32.40\n97.20\nFlat, Alaska\n146.00131.00\n*\n56.00\n80.00 100.00 116.00 134.00 134.00\nDethel, Alaska |178.00/163.00\n88.00/112.00/132.00/148.00/166.00166.00\n18.00\n54.00\n64.80\n36.00\nNo local passage sold.\n*Add minimum through fares according to route flown.\n*Route Junction for combining fares."
    ],
    "millsfield:images_texts_ids": [
      1527842161,
      1527850717
    ],
    "millsfield:primary_image": 1527842161,
    "millsfield:subcategory_id": 1511213425,
    "mz:hierarchy_label": 1,
    "mz:is_current": 1,
    "sfomuseum:accession_number": "2013.046.082",
    "sfomuseum:airline": "Pacific Alaska Airways",
    "sfomuseum:airline_id": [
      669
    ],
    "sfomuseum:category": "Scheduling / Ticketing",
    "sfomuseum:classification_id": 158,
    "sfomuseum:collection": "Aviation Archive",
    "sfomuseum:continent": "North America",
    "sfomuseum:country": "United States",
    "sfomuseum:creditline": "Gift of the Family of Captain Roger J. Sherron, Jr.",
    "sfomuseum:date": "1939",
    "sfomuseum:date_acquired": "2013-09-27",
    "sfomuseum:daterange_end": "1939-12-31",
    "sfomuseum:daterange_start": "1939-01-01",
    "sfomuseum:description": "Timetable issued by Pacific Alaska Airways, titled “Time Tables / Passenger \u0026 Express / Information”, effective November 1939 - May 1940; blue, red, and white cover with illustration depicting propeller airplane in motion.",
    "sfomuseum:dimensions": "9 x 4 inches (22.9 x 10.2 cm)",
    "sfomuseum:issues_held": "c. 1970 (747 souvenir edition)",
    "sfomuseum:maker": "Pan American World Airways, Inc.",
    "sfomuseum:media_ids": [
      1527850717,
      1527842161
    ],
    "sfomuseum:medium": "paper, ink",
    "sfomuseum:object_id": 142573,
    "sfomuseum:placetype": "object",
    "sfomuseum:primary_media_id": 1527842161,
    "sfomuseum:publication": ": , 1939.",
    "sfomuseum:subcategory": "Timetable",
    "src:geom": "sfomuseum#undetermined",
    "wof:belongsto": [
      1511214223,
      102527513,
      102191575,
      85633793,
      1511213425,
      85922583,
      102087579,
      1511214277,
      1511214207,
      85688637,
      136253057
    ],
    "wof:breaches": [],
    "wof:country": "US",
    "wof:created": 1579906684,
    "wof:depicts": [
      1159284957,
      1159288169
    ],
    "wof:geomhash": "30c8a918561c84bb2daa2b97fc7c5353",
    "wof:hierarchy": [
      {
        "arcade_id": 1511213425,
        "building_id": 1511214277,
        "campus_id": 102527513,
        "concourse_id": 1511214223,
        "continent_id": 102191575,
        "country_id": 85633793,
        "county_id": 102087579,
        "custom_id": 1511955739,
        "locality_id": 85922583,
        "neighbourhood_id": -1,
        "object_id": 1511955739,
        "region_id": 85688637,
        "venue_id": 1511955739,
        "wing_id": 1511214207
      },
      {
        "continent_id": 102191575,
        "country_id": 85633793,
        "custom_id": 1511955739,
        "empire_id": 136253057,
        "object_id": 1511955739,
        "venue_id": 1511955739
      }
    ],
    "wof:id": 1511955739,
    "wof:lastmodified": 1787988189,
    "wof:name": "timetable: Pacific Alaska Airways",
    "wof:parent_id": 1159162825,
    "wof:placetype": "custom",
    "wof:placetype_alt": [
      "object"
    ],
    "wof:repo": "sfomuseum-data-collection",
    "wof:superseded_by": [],
    "wof:supersedes": [],
    "wof:tags": []
  },
  "bbox": [
    -122.386155,
    37.616357,
    -122.386155,
    37.616357
  ],
  "geometry": {"type":"Point","coordinates":[-122.386155,37.616357]}
}
