{
  "id": 1779696785,
  "type": "Feature",
  "properties": {
    "date:cessation_lower": "1980-01-01",
    "date:cessation_upper": "1980-12-31",
    "date:inception_lower": "1980-01-01",
    "date:inception_upper": "1980-12-31",
    "edtf:cessation": "1980",
    "edtf:inception": "1980",
    "geom:area": 2.475047457570636e-7,
    "geom:bbox": "-122.386472,37.616105,-122.385834,37.616611",
    "geom:latitude": 37.61635747477365,
    "geom:longitude": -122.38615540108617,
    "millsfield:airline_id": [
      1159284989
    ],
    "millsfield:category_id": 1762671311,
    "millsfield:collection_id": 1511214207,
    "millsfield:company_id": [
      1159286839
    ],
    "millsfield:images": [
      1863470155,
      1863470157,
      1863470159,
      1863470161
    ],
    "millsfield:images_colors_refs": {
      "crayola": [
        {
          "hex": "#85754e"
        },
        {
          "hex": "#414a4c"
        },
        {
          "hex": "#efdecd"
        },
        {
          "hex": "#9f8170"
        },
        {
          "hex": "#000000"
        },
        {
          "hex": "#dbd7d2"
        },
        {
          "hex": "#95918c"
        }
      ],
      "css4": [
        {
          "hex": "#2f4f4f"
        },
        {
          "hex": "#000000"
        },
        {
          "hex": "#bdb76b"
        },
        {
          "hex": "#778899"
        },
        {
          "hex": "#d3d3d3"
        },
        {
          "hex": "#ffebcd"
        },
        {
          "hex": "#a0522d"
        }
      ],
      "marekm4": [
        {
          "hex": "#f1e7cb"
        },
        {
          "hex": "#221e16"
        },
        {
          "hex": "#7a978c"
        },
        {
          "hex": "#1f1c14"
        },
        {
          "hex": "#8d7748"
        },
        {
          "hex": "#3d3c2f"
        },
        {
          "hex": "#45442d"
        },
        {
          "hex": "#f5eacd"
        },
        {
          "hex": "#a69462"
        },
        {
          "hex": "#dedbc5"
        },
        {
          "hex": "#f2e7c9"
        }
      ]
    },
    "millsfield:images_texts": [
      "DIMENSIONS\nLENGTH OF KEEL\none per\nTENETH ON BRAN\n225 FEET\nLENGTH OVERALL FROM NIGHT HEADS TO APPRAIS 230 Pm\nScared acciding to and of Congress in che yous 1858 y N. Tunin, in the Cland Offen of the Dutie buse fN Yout\nTo Messes Grinnell. Minturn g Co This Print of their Iplendid\nCLIPPER SHIP \"FLYING CLOÚD\".\nis Rospoctfully dadicated by the Publisher.\nLITHRY X CINDIED\nEXTREME BREADTH OF BEAM\nDEPTH OF HOLD\nTONNAGE DEN\nBUILT BY DONALD MAKAY AT EAST BOSTON MACE 10EL\n21½ FEET",
      "PAN AM MANAGEMENT CLUB\nGALA DINNER\nHonoring San Francisco Management\nEmployees\nRetiring September 1, 1980\nAirport Sheraton Hotel\n7 p.m.\nAugust 26, 1980\nCLASS OF 1980\nNAME\nSam Acuff\nPeggy Brown\nKen Chan\nHarry Chew\nRay Choklat\nWyatt Fisher\nGene Garrison\nJohn Glass\nJane Gottschall\nLarry Hines\nSpike Horiye\nCal Howell\nMary Isiac\nGeorge Jean\nBob Johnson\nHerb Johnson\nPhil Jones\nYEARS OF\nSERVICE\n32\n14\nNAME\nAl Jordan\nCal Kennard\nSam Kinoshita\nEarl Koepsell\nTiger Lillie\nShorty Lovell\nDave Maloney\nHoward Marcks\nBill Marsh\nTex Marshall\nJoe Maschewski\nLou Mazzucchelli\nDon McMorran\nRin Navarro\nHerb Nelson\nCec Newton\nJoe Newton\nYEARS OF\nSERVICE\nLO\nYEARS OF\nSERVICE\n33\n33\n33\nNAME\nMilt Nordstrom\nJohn Oakes\nHarlan Pick\nCliff Pierce\nFrank Quigley\nNelson Raymond\nJim Robinson\nBill Rook\nFrank Scott\nEddie Shiosaka\nTerry Shores\nVern Smith\nFreeman Tong\nJohn Wendt\nGene Whitlock\nDennis Woodrich\nChet Zinkel\n33\n39\n34",
      "→»»»\u003e\u003e\u003e•»\u003e￾\n•1. 1.1•1.16.16.116\nMENU\nTossed Green Garden Salad\nChef's Dressing\nRoast Prime Rib of Beef au jus-Royal Cut\nRoasted New Potatoes with Butter and Paprika\nStringbeans with Almonds\nRolls\nButter\nDessert\nCoffee\nTea\nAlmaden Cabernet Sauvignon\nAlmaden Pinot Chardonnay",
      "CLIPPER SHIP \"FLYING CLOUD\"\nThe front cover of this menu is a reproduction of an authentic Currier \u0026 Ives clipper ship print.\nCurrier \u0026 Ives, known as the \"Printmakers of America\", graphically preserved the glorious clipper\nship era in a magnificent series of clipper ship prints. This print, one of a series, is being reproduced\nthrough the courtesy of The Museum of the City of New York.\nLaunched in 1851, the \"Flying Cloud\" was the largest merchant ship afloat. In her brief career\nthe \"Flying Cloud\" was perhaps the greatest and the tallest of the China clippers. She set a half-\ndozen of the world's permanent sailing records, and reaped huge profits, once making nearly $200,000\non a single voyage. On her maiden run to California, the \"Flying Cloud\" sped to the Golden Gate\nin 89 days. Thereafter eighty-nine was the magic number for every other clipper captain.\nLike Pan Am's modern Clippers* of the air, the early clipper ships traveled the lanes of com-\nmerce to all the far places of the world ... to Japan ... to Australia... and, in the days of the great\ngold rush, from America's east coast, around Cape Horn, South America, to California. Our current\nequipment... the Clipper fleet of the Twentieth Century ... consists of the finest commercial\naircraft ever developed —aircraft that have helped us establish an unparalleled record for safety,\nspeed and service.\n*CUPPER TRADE MARK-REG US PAT OFFICE-COPYRIGHT 1966 PAN AMERICAN WORLD AIRWAYS IN\nUHO IN USA -879-039\n2000. 05%0564"
    ],
    "millsfield:images_texts_ids": [
      1863470155,
      1863470157,
      1863470159,
      1863470161
    ],
    "millsfield:primary_image": 1863470155,
    "millsfield:subcategory_id": 1511213567,
    "mz:is_approximate": 1,
    "mz:is_current": 1,
    "sfomuseum:accession_number": "2000.058.0564",
    "sfomuseum:airline": "Pan American World Airways",
    "sfomuseum:airline_id": [
      684
    ],
    "sfomuseum:category": "Passenger Amenity, Archive",
    "sfomuseum:classification_id": 242,
    "sfomuseum:collection": "Aviation Archive",
    "sfomuseum:creditline": "Gift of the Pan Am Association",
    "sfomuseum:date": "1980",
    "sfomuseum:date_acquired": "2000-12-14",
    "sfomuseum:daterange_end": "1980-12-31",
    "sfomuseum:daterange_start": "1980-01-01",
    "sfomuseum:description": "Menu issued by Pan American World Airways for Pan Am Management Club Gala Dinner on August 26, 1980; color reproduction of print titled “Clipper Ship ‘Flying Cloud’” on cover; includes list of employees in management retiring in September 1980.",
    "sfomuseum:dimensions": "10 x 12 1/2 inches (25.4 x 31.8 cm)",
    "sfomuseum:medium": "paper, ink",
    "sfomuseum:object_id": 51682,
    "sfomuseum:placetype": "object",
    "sfomuseum:publication": ": , 1980.",
    "sfomuseum:series": "Currier \u0026 Ives Clipper Ships",
    "sfomuseum:subcategory": "Menu",
    "src:geom": "sfomuseum#undetermined",
    "wof:belongsto": [
      102527513,
      1159162825,
      102191575,
      85633793,
      102087579,
      85922583,
      85688637,
      1159160869
    ],
    "wof:country": "XY",
    "wof:created": 1655539383,
    "wof:depicts": [
      1159284989,
      1159286839
    ],
    "wof:geomhash": "c281b9d9eefc83b5710e64b9d646067d",
    "wof:hierarchy": [
      {
        "building_id": -1,
        "campus_id": 102527513,
        "collection_id": 1159162825,
        "concourse_id": 1159162825,
        "continent_id": 102191575,
        "country_id": 85633793,
        "county_id": 102087579,
        "custom_id": 1779696785,
        "locality_id": 85922583,
        "neighbourhood_id": -1,
        "object_id": 1779696785,
        "region_id": 85688637,
        "wing_id": 1159160869
      }
    ],
    "wof:id": 1779696785,
    "wof:lastmodified": 1787988209,
    "wof:name": "menu: Pan American World Airways",
    "wof:parent_id": 1159162825,
    "wof:placetype": "custom",
    "wof:placetype_alt": [
      "object"
    ],
    "wof:repo": "sfomuseum-data-collection",
    "wof:superseded_by": [],
    "wof:supersedes": []
  },
  "bbox": [
    -122.38647222518921,
    37.6161053594541,
    -122.38583385944366,
    37.61661101879963
  ],
  "geometry": {"type":"Polygon","coordinates":[[[-122.38647222518921,37.61631782178288],[-122.386434674263,37.61623283692423],[-122.38637566566466,37.61617759671399],[-122.38630056381224,37.6161308549656],[-122.38616108894348,37.6161053594541],[-122.38602161407469,37.6161308549656],[-122.38591432571411,37.61618609521055],[-122.38585531711577,37.61626683087935],[-122.38583385944366,37.61636881265146],[-122.38587141036987,37.61646654505181],[-122.38594114780425,37.61654303118856],[-122.38605380058287,37.61660252035167],[-122.38618254661559,37.61661101879963],[-122.3863059282303,37.61657277577607],[-122.3864185810089,37.61650903735973],[-122.3864668607712,37.61641130501523],[-122.38647222518921,37.61631782178288]]]}
}
