{
  "id": 1913796539,
  "type": "Feature",
  "properties": {
    "date:cessation_lower": "1937-10-25",
    "date:cessation_upper": "1937-10-25",
    "date:inception_lower": "1937-10-25",
    "date:inception_upper": "1937-10-25",
    "edtf:cessation": "1937-10-25",
    "edtf:inception": "1937-10-25",
    "geom:area": 2.475047457570636e-7,
    "geom:bbox": "-122.386472,37.616105,-122.385834,37.616611",
    "geom:latitude": 37.61635747477365,
    "geom:longitude": -122.38615540108617,
    "millsfield:airline_id": [
      1159284991
    ],
    "millsfield:category_id": 1511214251,
    "millsfield:collection_id": 1511214207,
    "millsfield:company_id": [
      1159286839
    ],
    "millsfield:images": [
      1913800011,
      1913800013
    ],
    "millsfield:images_colors_refs": {
      "crayola": [
        {
          "hex": "#9f8170"
        },
        {
          "hex": "#85754e"
        },
        {
          "hex": "#efcdb8"
        },
        {
          "hex": "#6e5160"
        }
      ],
      "css4": [
        {
          "hex": "#808080"
        },
        {
          "hex": "#696969"
        },
        {
          "hex": "#f5deb3"
        }
      ],
      "marekm4": [
        {
          "hex": "#676656"
        },
        {
          "hex": "#e2dabc"
        },
        {
          "hex": "#706f59"
        },
        {
          "hex": "#dcd4b3"
        },
        {
          "hex": "#918e74"
        },
        {
          "hex": "#8c8a75"
        }
      ]
    },
    "millsfield:images_texts": [
      "painti-\ndanglin\nFlying from Hongkong to lenicou\nDoer Pendly:\nOot. 25,\n1937\nAm now on a trip which promises to be a very interesting one\nown moment and to contine my long negleobed family letters \"1'11 write ee\nand so for my\nplense.\nis Bond and I left longkong at 11:55 this morning.\nTe are flying in a tri-\nnotored Juners operated by the Sino-Gemen Surasia Compony.\nOn the 15 passenger\ntro foreign men end\nPood of eir expe on inninging 17 me entered one to the\ntwo women morienn An\nalso a full\nbesendor at lenicing.\nThe latter shipment come over from the U, S, by Pem /merican\nand is aarried free of charge by all eirlines concornod. It is sowhat gratifying\no one in the business-temporarily resident in Chine • to see airerait put to goo\nonstruetive une after viewing end. reeding about all the destruetive and arue\nuse to which airplenes heve lately been put in Chine.\nOur tece off ung bumpy as are most take ofts from the poolet-like Ilongkong\nairport surrounded by high mounteins. 015mbed through low ground haze and broken\nwhite flutty alouds et 3000 feet and now, having aroseed infenous Bing Bay (where\nthe Chinese pirates have given way to the nore legel but equally pirebionl Jeps)\nwe ere flying over Chinese territory. Down below are rugged brown mounteins com-\npletely deforested sides seered and torn by the rush of med streams born of the\ntorrential reins which come in the typhoon seasons\nIn the valleys smell Chinese\nvilleres furnish shelter for the coolie farmers who eultivate every inch of so13\nmeshed down from the mout sâns. The little valleys look vory pesooful end vien\ning them 1 con understend why many of our Chinese friends have sent their families\n\"beel to the country.\"\nThono little villeges are not northe Jnpeneso serial bomb\n- no any occupation of this country is even threatened and those little villeges\nere probebly safer then ever before booanse the wor lords are ell busy end will\n- not merch their hordes or Chinese soldiere through this seetion.\nTe tro well ewey from the coest now flying at 7000 foot - elouds have all\ndisappenred end an Arizone sky stretehes from one heze covered horizon to the\nTe heve not sighted any other eirplenes and I°11 be porfootly happy 12\nnone are encountered - of either aided Our pilot reports hovever thet the lenicom\nfeld - our objective -uns bombed night befoze Inst by Jppenese plenes - henger\ndestroyed - three Chinese bombers on the ground and our poor old\nof PAA Ford \"Jonned\" to the Chinese Army were all burned ape Unfortunetely the\nbombers wore a German mede leinile, en Itelien mede Sevosa-lechotti (apl) end\nan Amerionn mede lartin ell bedly needed by the Chinese and emong the lest of the\ngood planes they hed left, The pilot also says the field is full of shell holes\nbut ail holes are clearly maried with red flags and sevoral rummys are merked\nout for safe landing srees so there is nothing to norry about.\nBond reminds mo\nthet it is now 1:30 and that our Chinese lo. 1 at Honglong sent some lumeh boxes\nto us so nel1] hevo ehow and I'11 continue this letter later on.\nLetor - In feat after a good lunch of fried chiolen, sandwiches, hot coffee\nand one I 116 a eigarette, tilted my cheir beal enjoyed a anole and book e short\nsieste. (Ity box also contained some cold eeled but I pessod that up.\nThore is st111\nsome cholere in Hongcong.) It is now 2:30 Poll, end ve ere now about 575 miles\nnorth north west of Hongkong, sti11 flying over a rough country out by narrow\nvelleys following no well merked plen of nature lined on either side by six thou\nsand foot hich moubeins which soem to rise up also nooording to no plen - the\nrenges ero close together and run in every direetion thouch the trend geome to be\nProm forth to South.\nAs you no doubt imow the const of Chine ourves westerd from\nShanghni to Ilongong o while our course is 350°\n500 milos nirline vest from the const when we erive at Benkon.\n- almost north we will be some\nAt the letter\npoint the good people have plenty of food but are running out of neeesalties such\nes eigerettes, coffee, butter and whiakey.\nTherolbre the foreigners order these\nItems flown in and Burnsie ships have full londs of passengers or express overy\nThoy will have more no doubt when the depe finally succeed in bombing the\nre Irond bridge betreen longkong and Centon,\nmission.\nthus putting the reilroad out of com-\nSo far the Jepe have dropped tons of bombs without offeet.\nAlso the Japs\nhave so fer at leest beon unsuccesaful in their attempts to bomb out of order the\nreilroed from Centon to Healow over which satendy streen of var netoriels is pour-\ning into centrel Chine from longicong.\nWhile Dobby and the cirls were in Jepen, lebe stayed with me in Shenghed. One\ndev she vent to a fair end I gave her e me money to spend.\nshe enme beel with e\nbasicet for Debby and a necible for no - her only pureheses. So I em wenring Ilebe's\n•PEOLISIPOS",
      "-2-\ntie for good luel and in pleee of a prayer book I'm earrying one smell plece\nBuddhe in my poolet.\nAs Ilye written before - the Americen missionaries mey\nheve secured few real comerts in Chine but the Chinese pilots have certeinly\nconverted 100% of us Amerions to Buddhisme\nThey een eresh en adrplene unt11\nit looke 1lkce a doll carriage run over by a locomotive end yet walk emay unhurt.\nLater - le arrived at the lenion field at 4 o'elook, eireled the 15eid\nonee to\n\"look see\". All shell holes hed been filled up and only burned spots\nshowed where the plenes whieh the Jeps hit had stood.\ned strange for eirplenes - about 20 in all stages of repair - vere parked on and\naround the odges of the airporte\nvero spread around to seatter the risk of being hit when the neat Jap raid teles\nplace.\nnot us at the sport and we end one that done don ot\nour old Pord but one whieh belonged to Chiang Kai-shek.\nTre are staying at the T, l. Co As where one of the pilots had made rear-\nvatione for us. Also he hed been out shooting and hed two wild pheesents for\ndinner. lie did not heve eny eurrent jelly ond we got along with peanut butter\nrather then the customery veriety.\norderly end quiete\nAfter dinner we left some letters for the Amerieen\ni some letters for te reen Contal\nwhich his wife had given us in Baguio and then went to a movie \"Cherley Chen et\nthe Olymple Gemes:\"\nOat, 26th•\nThis morning, Harry Smith, the pilot who supplied the phensents,\nhad mother treat for use\nSmith used to fly for Chiang Kni-shole\nhe bumped into en sequeintanee etteched to the Genoralfesimo's endourage.\nparty in question hed just reburned from llemi, \u0026 city in fer wostern incleng\nProvinee where he had seoured for the Generalissimo - either es an ineident to,\nor the objeotive of, his ezeursion, some Hami melons.\nOne of these he gave\n(unbelownat to Col.S.) to larry Smith.\nIn the old days the Chinese emperors\nused to operete a pony expess from Hemi to Peking during the melon senson.\nhorsemen, descendants offenghis Khon's esvalrymen, rode night and day to rush\nthe melons to the Capitol, I can v0l1 understend.\nThe melon is 1ike a honey\ndew only much better. They are the size of a small waternelon. The most 1s\nfirm and orisp.\nThey ere perfeatly delfelous but apparently ennot be reisod\nanywhere else in the world oxeept around Hami.\nIte hed a busy time today. A morning long session with our CHAC partners\ngoing over the business of the lest to months \u0026 reo the Compeny moved here\nProm Shanghai, Then Imeh at the T.ll, C. A. and in the afternoon we Journeyed\necross the Yeneseze to Tuchang to visit the airplane feetory which was moved\nhere after the Jans attacked it at lengehow It was very interesting es we were\nshown around by one of our old men, long Su and he told us all about the bombing\nof lengehow - a heetie more by truck, train, river and coolfe power.\nTonight we dine at 8 with the Amorioen Consul, ir• Josselyn.\nmell this letter now by Bureais to longlong and from there by Clipper to my\nsecretary liss Forbes, who is staying with the fondly at Bagulo, who will make\na mamber of typewritten copies end mail from the Philippines.\nIment will follow some time soon.\nTe are leaving tomorrog- Oot. 28th - for\nMenicing - by British steamer.\nThere it w111 not be so guiet and penceful as\nhere but I think quite sele.\nConditions on the spot are never es bed as the\nnewspapers sould lend you to believe. The further removed from the seene the\nworse the reports.\nAs ever\nBo would bur t hour hu surater\nонт hun\n• PEOL ISI PIO"
    ],
    "millsfield:images_texts_ids": [
      1913800011,
      1913800013
    ],
    "millsfield:primary_image": 1913800011,
    "millsfield:subcategory_id": 1511213489,
    "mz:is_approximate": 1,
    "mz:is_current": 1,
    "sfomuseum:accession_number": "2019.121.1039 a b",
    "sfomuseum:airline": "Pan American Airways",
    "sfomuseum:airline_id": [
      685
    ],
    "sfomuseum:category": "Employee Career History",
    "sfomuseum:classification_id": 195,
    "sfomuseum:collection": "Aviation Archive",
    "sfomuseum:creditline": "Collection of SFO Museum",
    "sfomuseum:date": "10/25/1937",
    "sfomuseum:date_acquired": "2019-11-22",
    "sfomuseum:daterange_end": "1937-10-25",
    "sfomuseum:daterange_start": "1937-10-25",
    "sfomuseum:description": "Typewritten letter from Harold M. Bixby to his family, dated October 25, 1937, flying from Hong Kong to Hankow [Hankou]; duplicate of the first two pages of 2019.121.1038 a j with handwritten note at top, possibly from Debby.",
    "sfomuseum:dimensions": "13 x 8 1/4 inches (33 x 21 cm)",
    "sfomuseum:medium": "paper, ink",
    "sfomuseum:object_id": 211402,
    "sfomuseum:placetype": "object",
    "sfomuseum:publication": ": , 10/25/1937.",
    "sfomuseum:subcategory": "Correspondence, Personal",
    "src:geom": "sfomuseum#undetermined",
    "wof:belongsto": [
      102527513,
      1159162825,
      102191575,
      85633793,
      102087579,
      85922583,
      85688637,
      1159160869
    ],
    "wof:country": "XY",
    "wof:created": 1714549123,
    "wof:depicts": [
      1159284991,
      1159286839
    ],
    "wof:geomhash": "c281b9d9eefc83b5710e64b9d646067d",
    "wof:hierarchy": [
      {
        "building_id": -1,
        "campus_id": 102527513,
        "collection_id": 1159162825,
        "concourse_id": 1159162825,
        "continent_id": 102191575,
        "country_id": 85633793,
        "county_id": 102087579,
        "custom_id": 1913796539,
        "locality_id": 85922583,
        "neighbourhood_id": -1,
        "object_id": 1913796539,
        "region_id": 85688637,
        "wing_id": 1159160869
      }
    ],
    "wof:id": 1913796539,
    "wof:lastmodified": 1787988220,
    "wof:name": "correspondence: Harold M. Bixby, family circular letter",
    "wof:parent_id": 1159162825,
    "wof:placetype": "custom",
    "wof:placetype_alt": [
      "object"
    ],
    "wof:repo": "sfomuseum-data-collection",
    "wof:superseded_by": [],
    "wof:supersedes": []
  },
  "bbox": [
    -122.38647222518921,
    37.6161053594541,
    -122.38583385944366,
    37.61661101879963
  ],
  "geometry": {"type":"Polygon","coordinates":[[[-122.38647222518921,37.61631782178288],[-122.386434674263,37.61623283692423],[-122.38637566566466,37.61617759671399],[-122.38630056381224,37.6161308549656],[-122.38616108894348,37.6161053594541],[-122.38602161407469,37.6161308549656],[-122.38591432571411,37.61618609521055],[-122.38585531711577,37.61626683087935],[-122.38583385944366,37.61636881265146],[-122.38587141036987,37.61646654505181],[-122.38594114780425,37.61654303118856],[-122.38605380058287,37.61660252035167],[-122.38618254661559,37.61661101879963],[-122.3863059282303,37.61657277577607],[-122.3864185810089,37.61650903735973],[-122.3864668607712,37.61641130501523],[-122.38647222518921,37.61631782178288]]]}
}
