{
  "id": 1511938097,
  "type": "Feature",
  "properties": {
    "date:cessation_lower": "1963-01-01",
    "date:cessation_upper": "1963-12-31",
    "date:inception_lower": "1963-01-01",
    "date:inception_upper": "1963-12-31",
    "edtf:cessation": "1963",
    "edtf:date": "1963",
    "edtf:inception": "1963",
    "geom:area": 0,
    "geom:bbox": "-122.386155,37.616357,-122.386155,37.616357",
    "geom:latitude": 37.616357,
    "geom:longitude": -122.386155,
    "iso:country": "XX",
    "millsfield:airline_id": [
      1159285957
    ],
    "millsfield:category_id": 1511214223,
    "millsfield:collection_id": 1511214207,
    "millsfield:company_id": [
      1159286901
    ],
    "millsfield:images": [
      1527842761,
      1527850511
    ],
    "millsfield:images_colors_refs": {
      "crayola": [
        {
          "hex": "#1a4876"
        },
        {
          "hex": "#cdc5c2"
        },
        {
          "hex": "#757575"
        },
        {
          "hex": "#9c2542"
        },
        {
          "hex": "#414a4c"
        }
      ],
      "css4": [
        {
          "hex": "#778899"
        },
        {
          "hex": "#d3d3d3"
        },
        {
          "hex": "#2f4f4f"
        },
        {
          "hex": "#b22222"
        },
        {
          "hex": "#191970"
        },
        {
          "hex": "#708090"
        },
        {
          "hex": "#c0c0c0"
        }
      ],
      "marekm4": [
        {
          "hex": "#5e7386"
        },
        {
          "hex": "#d6cebb"
        },
        {
          "hex": "#c7c3af"
        },
        {
          "hex": "#304764"
        },
        {
          "hex": "#768790"
        },
        {
          "hex": "#be0702"
        },
        {
          "hex": "#222351"
        },
        {
          "hex": "#b52c29"
        }
      ]
    },
    "millsfield:images_texts": [
      "CANADA AND U.S.A.\nSERVICES\nDU CANADA ET DES É.-U.A.\nFEB. 1ER\nFÉV.\n1 9 6 3\nTRANS-CANADA\nAIR LINES\nTCA\nAIR CANADA",
      "GLASGOW\n• STOKHOLM\nTIME\n•CHURCHILL\nHEURE DES\nHAY RiVER\nУЗЛІН\nNDeY AMSTERDAM\nBERLING\nDUSSELDORK\nOZURICH PENNA\nLISBON C\nMADRID\nALGIERS\nCASABLANCA\nIRRE-NEUVE\nNOTION OOTE\nIENVILLE\nST IOHN'S\nBOND\nGOOSE BAY\nSYDNEY\nHALIFAX\nARMOUTH\nBOSTON\nHOSaNIM\nATLANTA\nCALGARY\nANCOUVER\nPORT\nSOON\nQLVH:\nVOl\nSAN FRANCISCO\nLOS ANGELES\nOLAS VEGAS\nDENVER SO\nTCA is General Sales Agent in Canada for:\nAIR INDIA\n•\nAER LINGUS\n•\nAERO 0/Y FINNAIR\nCENTRAL AFRICAN AIRWAYS CORPORATION\nTCA\nCESKOSLOVENSKE AEROLINIE\nIBERIA AIR LINES OF SPAIN\nJAPAN AIR LINES\nJUGOSLOVENSKI AERO TRANSPORT\nNASSAU\nHAVANA O\nFORT WORTH\nNEW ORLEANS.C\nHOUSTON\nTAMPAN\nNEW ZEALAND NATIONAL AIRWAYS CORPORATION\nPAKISTAN INTERNATIONAL AIRLINES CORPORATION\nPOLISH AIR LINES (LOT)\nTRANS-AUSTRALIA AIRLINES\nMALEV (HUNGARIAN AIR TRANSPORT)\nMONTEGO BAY O\nCANTIGUA\nTCA SERVICES\nLIGNES D'AIR CANADA\nOTHER AIR LINES\nTIME ZONES -\nLIGNES D'AUTRES CIES AÉRIENNES\n- - FUSEAUX\nHORAIRES\nPANAMA O\nPORT OF SPAIN\nAIR CANADA est l'agent général au Canada\ndes compagnies aériennes précitées.\nSYMBOLS AND ABBREVIATIONS\nTIME ZONES\nAST - Atlantic Standard Time\nNST - Newfoundland Standard Time\nEST - Eastern Standard Time\nCST - Central Standard Time\nMST - Mountain Standard Time\nPST - Pacific Standard Time\nFLIGHT EXCEPTIONS\nExc. - Except\nEff. - Effective\nDly. - Daily\nMEALS\nB - Breakfast\nD - Dinner\nAIRCRAFT\nD8 - DC-8 Jet\nV - Viscount\nL - Lunch\nVG - Vanguard\nD3 - DC-3\nCLASSES\nF - First Class\nY - Economy Class\nWhere two or more flights are shown, e.g. 651-807-55, a change of planes is\nmade at the city or cities indicated after the word \"via\", e.g. via Toronto-\nWinnipeg.\nSEE PAGE 20 FOR FLIGHT ROUTINGS\nAll times shown are local times.\n23\n24 13\nAll schedules\nare quoted in the\n24-hour clock.\n22\n21\n20\n19\n14\n18\n17\n0700 -\n7 AM\n1200\n12 Noon\n1900 —\n7 PM\n2230 → 10.30 PM\nInformation in this timetable subject to change without notice.\nSYMBOLES ET ABRÉVIATIONS\nFUSEAUX HORAIRES\nHSA\n- Heure solaire Atlantique\nHSTN - Heure solaire de Terre-Neuve\nHSE — Heure solaire de l'Est\nHSC - Heure solaire Centrale\nHSR - Heure solaire des Rocheuses\nHSP — Heure solaire du Pacifique\nEXCEPTIONS\nExc. — excepté\nEff. - en vigueur\nQuot. - Quotidien\nREPAS\nB - Petit déjeuner\nL - Déjeuner\nD - Diner\nTYPES D'AVIONS\nD8\n- DC-8 Jet\nVG - Vanguard\nV - Viscount\nD3 - DC-3\nCLASSES\nF - Première\nY - Economique\nLorsque le parcours comporte plusieurs vols (ex.: 651-807-55) des transborde-\nments ont lieu aux escales dont le nom est précédé du mot \"via\", ex.: Toronto-\nWinnipeg (deux transbordements).\nVOIR LES ITINÉRAIRES PAGE 20\nTous les horaires sont indiqués en heures locales\n23 24 13\n22\n14\nTous vols indiqués sur\ncadran de 24 heures.\n21-\n15\n20\n16\n19\n17\n18\n0700 - 7h matin\n1200 - midi\n1900—7h du soir\n2230-10h30 du soir\nLes horaires peuvent subir des changements sans préavis."
    ],
    "millsfield:images_texts_ids": [
      1527842761,
      1527850511
    ],
    "millsfield:primary_image": 1527842761,
    "millsfield:subcategory_id": 1511213425,
    "mz:hierarchy_label": 1,
    "mz:is_current": 1,
    "sfomuseum:accession_number": "2005.132.105.004",
    "sfomuseum:airline": "Trans-Canada Air Lines (TCA)",
    "sfomuseum:airline_id": [
      1143
    ],
    "sfomuseum:category": "Scheduling / Ticketing",
    "sfomuseum:classification_id": 158,
    "sfomuseum:collection": "Aviation Archive",
    "sfomuseum:creditline": "Gift of the William Hough Collection",
    "sfomuseum:date": "1963",
    "sfomuseum:date_acquired": "2006-12-05",
    "sfomuseum:daterange_end": "1963-12-31",
    "sfomuseum:daterange_start": "1963-01-01",
    "sfomuseum:description": "Timetable issued by Trans-Canada Air Lines (TCA), effective February 1, 1963, for Canada and U.S. service; 23-page fold-out; red cover with blue halftone photographic image of an airplane in flight.",
    "sfomuseum:dimensions": "9 x 4 inches (22.9 x 10.2 cm)",
    "sfomuseum:media_ids": [
      1527842761,
      1527850511
    ],
    "sfomuseum:medium": "paper, ink",
    "sfomuseum:object_id": 98581,
    "sfomuseum:placetype": "object",
    "sfomuseum:primary_media_id": 1527842761,
    "sfomuseum:publication": ": , 1963.",
    "sfomuseum:subcategory": "Timetable",
    "src:geom": "sfomuseum#undetermined",
    "wof:belongsto": [
      1511214223,
      102527513,
      102191575,
      85633793,
      1511213425,
      85922583,
      102087579,
      1511214277,
      1511214207,
      85688637
    ],
    "wof:breaches": [],
    "wof:country": "XX",
    "wof:created": 1579906655,
    "wof:depicts": [
      1159285957,
      1159286901
    ],
    "wof:geomhash": "30c8a918561c84bb2daa2b97fc7c5353",
    "wof:hierarchy": [
      {
        "arcade_id": 1511213425,
        "building_id": 1511214277,
        "campus_id": 102527513,
        "concourse_id": 1511214223,
        "continent_id": 102191575,
        "country_id": 85633793,
        "county_id": 102087579,
        "custom_id": 1511938097,
        "locality_id": 85922583,
        "neighbourhood_id": -1,
        "object_id": 1511938097,
        "region_id": 85688637,
        "venue_id": 1511938097,
        "wing_id": 1511214207
      }
    ],
    "wof:id": 1511938097,
    "wof:lastmodified": 1787988183,
    "wof:name": "timetable: Trans-Canada Air Lines (TCA), Canada and U.S.A. schedule",
    "wof:parent_id": 1159162825,
    "wof:placetype": "custom",
    "wof:placetype_alt": [
      "object"
    ],
    "wof:repo": "sfomuseum-data-collection",
    "wof:superseded_by": [],
    "wof:supersedes": [],
    "wof:tags": []
  },
  "bbox": [
    -122.386155,
    37.616357,
    -122.386155,
    37.616357
  ],
  "geometry": {"type":"Point","coordinates":[-122.386155,37.616357]}
}
