{
  "id": 1913796069,
  "type": "Feature",
  "properties": {
    "date:cessation_lower": "1934-02-21",
    "date:cessation_upper": "1934-02-21",
    "date:inception_lower": "1934-02-21",
    "date:inception_upper": "1934-02-21",
    "edtf:cessation": "1934-02-21",
    "edtf:inception": "1934-02-21",
    "geom:area": 2.475047457570636e-7,
    "geom:bbox": "-122.386472,37.616105,-122.385834,37.616611",
    "geom:latitude": 37.61635747477365,
    "geom:longitude": -122.38615540108617,
    "millsfield:airline_id": [
      1159284991
    ],
    "millsfield:category_id": 1511214251,
    "millsfield:collection_id": 1511214207,
    "millsfield:company_id": [
      1159286839
    ],
    "millsfield:images": [
      1913801691,
      1913801693,
      1913801695,
      1913801699
    ],
    "millsfield:images_colors_refs": {
      "crayola": [
        {
          "hex": "#efcdb8"
        },
        {
          "hex": "#714b23"
        },
        {
          "hex": "#bab86c"
        },
        {
          "hex": "#edd19c"
        },
        {
          "hex": "#9f8170"
        },
        {
          "hex": "#000000"
        },
        {
          "hex": "#414a4c"
        }
      ],
      "css4": [
        {
          "hex": "#000000"
        },
        {
          "hex": "#bdb76b"
        },
        {
          "hex": "#2f4f4f"
        },
        {
          "hex": "#f0e68c"
        },
        {
          "hex": "#556b2f"
        },
        {
          "hex": "#f5deb3"
        },
        {
          "hex": "#808080"
        }
      ],
      "marekm4": [
        {
          "hex": "#b9a86c"
        },
        {
          "hex": "#e1cfad"
        },
        {
          "hex": "#e9d794"
        },
        {
          "hex": "#b49e6f"
        },
        {
          "hex": "#3f3621"
        },
        {
          "hex": "#261c0d"
        },
        {
          "hex": "#9d9070"
        },
        {
          "hex": "#c2b16e"
        },
        {
          "hex": "#e8d697"
        },
        {
          "hex": "#6d6436"
        },
        {
          "hex": "#e1cfaa"
        }
      ]
    },
    "millsfield:images_texts": [
      "wed. Fle. 21 '34\nDearest Debo-\nUr a scheduled to leaur meane at\neight oclock this morning but had to wait unte\nnone for the good.\nall army to deler the mae.\nLeft then and arrord Havana 2:15 minutro late\nor at nis, after an uncintfue trip acrossi\nWrath was cloudy\nand cool. Is stayed et.\nHavana station one, abont turnt, minutes and\nlook off for Cirquegos on the soutt side of Cuba.\nYou knows how brautifue and colorfue Havana is\nod moro cast lookerd just the same and\nHavana too. The latte has quiete down now\nhote and open and all of the tours are sloping\nMes now. CaR. is carrying leau loads\noin ther - 35 this morning - and all efort\nare directra le the Cubans now at recoring\nthen lost tourist besiress which they hav\nlearned leg better Exprence is mor profitabee\ntheon and work while fortug than the orators\n+ coap box political agitators. Tir hair just\ntake off from Cerfuegos with our nest gort of\ncall Kingston whas in should arrur abont\n6:15 to 6:30 Eir ars flying in a Commodor\nto motive donga\nboat, Then shys were\noriginally built for the old NT. R.B.A (Newyak, Ro\nBuenos Quis) line. They are viry comfortable but\nJuite slows. abont 95 m.P.H. and will soon\nhair to be replaced.",
      "We hair Eight passenges aload. and most of\nthem are going back to the Caral Zome. Qu\n→ Ars men except one try Spanish looking woman\n• who is bound for citter Kingston or Baraanquilla.\nI had a food time at Palm Brack\nCleaton - Esprcially injoyed going through the\nsugar mill which is the largest one in the u.s.\nErything was intrust intresting. clean an\nwhistle and, as I wrati you prom miami, tam\nBut sure wise maks money tarif or no tarsif\nOf comes it wice maker mou with a tarif.\nNow us an leaving Cuba third us and\nrushing out for a there hour jump our the sha.\nIt is 3 P.m end teler it or not 9 am sleepy\nso will cork off and take a litte nap for\nmyse to compet this lata - probably\nKingaton.",
      "221\n'34\nMYRTLE BANK HOTEL\nKINGSTON, JAMAICA.B.W.I.\nOPEN ALL YEAR\nT.G. S.HOOKE\nResident Manager\nDearest 19\n-\nås you su in finiali,\nmy letter in Kingston. ter\ngot in a little aftre six\ndroor to the hatre washed\nup and has dinner. I am\nrooming with\nthe pilot\nbreaun the hatre is fuee -\na tour baat in toron.\ntur lear\nEase, in the\nmorning - I tilier the cale\nis for le a.m. Therfor Dee",
      "be turning in try thate.\no lord the trip\ntrip herr\nflying along the coast of\nCuba and then into this\nbeautifue port. as wr\nCame on lown taw the\ncie, ving plaines - cacheding\nmany games of cricket-\nAlso all the\nantos passing\non what is to us the\nwrong side.\n9 hops the\nErrible blizzard in N.4l.\ndid not extrad to Bocton\nand it makes me viry sad\nthat you cant be wit me\nhere in the flowies and\nsunthere.\ngood night\nyours\nthe sweetest\nque in the .\nworld - Had\n2019121.0829 c"
    ],
    "millsfield:images_texts_ids": [
      1913801691,
      1913801693,
      1913801695,
      1913801699
    ],
    "millsfield:primary_image": 1913801691,
    "millsfield:subcategory_id": 1511213489,
    "mz:is_approximate": 1,
    "mz:is_current": 1,
    "sfomuseum:accession_number": "2019.121.0829 a c",
    "sfomuseum:airline": "Pan American Airways",
    "sfomuseum:airline_id": [
      685
    ],
    "sfomuseum:category": "Employee Career History",
    "sfomuseum:classification_id": 195,
    "sfomuseum:collection": "Aviation Archive",
    "sfomuseum:creditline": "Collection of SFO Museum",
    "sfomuseum:date": "02/21/1934",
    "sfomuseum:date_acquired": "2019-11-22",
    "sfomuseum:daterange_end": "1934-02-21",
    "sfomuseum:daterange_start": "1934-02-21",
    "sfomuseum:description": "Handwritten letter from Harold M. Bixby to his wife, Debby Bixby, dated February 21, [1934]; includes description of Pan American Airways operations in Cuba and travel to Kingston [Jamaica].",
    "sfomuseum:dimensions": "12 1/2 x 8 inches (31.8 x 20.3 cm)",
    "sfomuseum:medium": "paper, ink",
    "sfomuseum:object_id": 211180,
    "sfomuseum:placetype": "object",
    "sfomuseum:publication": ": , 02/21/1934.",
    "sfomuseum:subcategory": "Correspondence, Personal",
    "src:geom": "sfomuseum#undetermined",
    "wof:belongsto": [
      102527513,
      1159162825,
      102191575,
      85633793,
      102087579,
      85922583,
      85688637,
      1159160869
    ],
    "wof:country": "XY",
    "wof:created": 1714548974,
    "wof:depicts": [
      1159286839,
      1159284991
    ],
    "wof:geomhash": "c281b9d9eefc83b5710e64b9d646067d",
    "wof:hierarchy": [
      {
        "building_id": -1,
        "campus_id": 102527513,
        "collection_id": 1159162825,
        "concourse_id": 1159162825,
        "continent_id": 102191575,
        "country_id": 85633793,
        "county_id": 102087579,
        "custom_id": 1913796069,
        "locality_id": 85922583,
        "neighbourhood_id": -1,
        "object_id": 1913796069,
        "region_id": 85688637,
        "wing_id": 1159160869
      }
    ],
    "wof:id": 1913796069,
    "wof:lastmodified": 1787988219,
    "wof:name": "correspondence: Harold M. Bixby to Debby Bixby",
    "wof:parent_id": 1159162825,
    "wof:placetype": "custom",
    "wof:placetype_alt": [
      "object"
    ],
    "wof:repo": "sfomuseum-data-collection",
    "wof:superseded_by": [],
    "wof:supersedes": []
  },
  "bbox": [
    -122.38647222518921,
    37.6161053594541,
    -122.38583385944366,
    37.61661101879963
  ],
  "geometry": {"type":"Polygon","coordinates":[[[-122.38647222518921,37.61631782178288],[-122.386434674263,37.61623283692423],[-122.38637566566466,37.61617759671399],[-122.38630056381224,37.6161308549656],[-122.38616108894348,37.6161053594541],[-122.38602161407469,37.6161308549656],[-122.38591432571411,37.61618609521055],[-122.38585531711577,37.61626683087935],[-122.38583385944366,37.61636881265146],[-122.38587141036987,37.61646654505181],[-122.38594114780425,37.61654303118856],[-122.38605380058287,37.61660252035167],[-122.38618254661559,37.61661101879963],[-122.3863059282303,37.61657277577607],[-122.3864185810089,37.61650903735973],[-122.3864668607712,37.61641130501523],[-122.38647222518921,37.61631782178288]]]}
}
