{
  "id": 1913795603,
  "type": "Feature",
  "properties": {
    "date:cessation_lower": "1933-03-27",
    "date:cessation_upper": "1933-03-27",
    "date:inception_lower": "1933-03-27",
    "date:inception_upper": "1933-03-27",
    "edtf:cessation": "1933-03-27",
    "edtf:inception": "1933-03-27",
    "geom:area": 2.475047457570636e-7,
    "geom:bbox": "-122.386472,37.616105,-122.385834,37.616611",
    "geom:latitude": 37.61635747477365,
    "geom:longitude": -122.38615540108617,
    "millsfield:airline_id": [
      1159284991,
      1159285931
    ],
    "millsfield:category_id": 1511214251,
    "millsfield:collection_id": 1511214207,
    "millsfield:company_id": [
      1159286721
    ],
    "millsfield:images": [
      1913800341,
      1913800343
    ],
    "millsfield:images_colors_refs": {
      "crayola": [
        {
          "hex": "#000000"
        },
        {
          "hex": "#9f8170"
        },
        {
          "hex": "#edd19c"
        },
        {
          "hex": "#efcdb8"
        }
      ],
      "css4": [
        {
          "hex": "#bc8f8f"
        },
        {
          "hex": "#000000"
        },
        {
          "hex": "#808080"
        },
        {
          "hex": "#f5deb3"
        }
      ],
      "marekm4": [
        {
          "hex": "#262116"
        },
        {
          "hex": "#a49873"
        },
        {
          "hex": "#dbcdaa"
        },
        {
          "hex": "#9f9473"
        },
        {
          "hex": "#dbceae"
        },
        {
          "hex": "#272319"
        }
      ]
    },
    "millsfield:images_texts": [
      "Monday Mch. 27th\nDearest Dibs-\nI have sent handkerchief to Ruth, Luey.\nMiss have, Frances and Bo and four to you which\nI hope all anied safe, - wrie get some mor\nfrom another place which Max Polin say is\nbretu and less expansir. Pawlen, bought a very\nbrantique rop of sit prals for his wife wak\nbracelet and Ear rings to match - think it looks\ntoo much like Quat min or the harass on\nAnkur Busch brewzzy horse - but the evorkman-\nship on it and the deagh is brantife. the\nEar rang and trim on the necklack are in\nthe shape of a bunch of grapes. its hard to\ndeseribe. you hai probabe, notied that - but\nI do wish you cones sir it. Iheritate to\ndescribe ale the thing you can buy.\nbe causs\nprobate, the beguak\nmost things arr junk. Fine imbrordeny i\nt. Faule, bought some night\ngowns of pink selk brautiful, made an\nAmbrodred. They cost abont 3º° our money\nThor I know you woned be crag abont but\nhair no way of getting any to you fees of duty\nShale I am some and sind along anywa?\nOr would Jon rather wait untie you come\nOut here?\nThe lette whits statues all come",
      "tom Carlon or NongKong so wee try to Be\nsome down there.\nDid nit anour your lette regarding taking\nyour mesay out of ete nate Git, resas quit\namund but you we just right an\nwas all right\nto notify 7a.a. Treas. the 10t\nNate at St houis is 6.K. but if you hair nt\non open another St\nkom account iohile.\nI our so much\nmoney at the his vase, Ir. Co... The latter\nwored su checks of mies Valky customers\ndeptid wick your name on them drawn\non the 1st nate\nand would wonder when us\nhad changed accounts. Poorite, theris a\ngood litte bank in Bronxie whee you\ncould carry your account..\nDibs pleas dont\npay the intrust at me. val unles it is\ncontiment to do so. Yor must san up\nfor thon suare police. and git a\nlette money ahead in some way.\n•Have been mading on again your\nlast lettus and.\nam hoping to get come\nmore tomorrou for a boat came in today\nTom Statte. On dese her is coming alorf\nOK to data bent thee air lot of metings\nmany cables to mind.\nLots and lot. of lor\n0619\nDix"
    ],
    "millsfield:images_texts_ids": [
      1913800341,
      1913800343
    ],
    "millsfield:primary_image": 1913800341,
    "millsfield:subcategory_id": 1511213489,
    "mz:is_approximate": 1,
    "mz:is_current": 1,
    "sfomuseum:accession_number": "2019.121.0619",
    "sfomuseum:airline": "Pan American Airways",
    "sfomuseum:airline_id": [
      685,
      1131
    ],
    "sfomuseum:category": "Employee Career History",
    "sfomuseum:classification_id": 195,
    "sfomuseum:collection": "Aviation Archive",
    "sfomuseum:creditline": "Collection of SFO Museum",
    "sfomuseum:date": "03/27/1933",
    "sfomuseum:date_acquired": "2019-11-22",
    "sfomuseum:daterange_end": "1933-03-27",
    "sfomuseum:daterange_start": "1933-03-27",
    "sfomuseum:description": "Handwritten letter from Harold M. Bixby to his wife, Debby Bixby, dated Monday, March 27, [1933]; includes personal and family matters, mentions Max Polin and [William] Pawley.",
    "sfomuseum:dimensions": "10 1/2 x 8 1/4 inches (26.7 x 21 cm)",
    "sfomuseum:medium": "paper, ink",
    "sfomuseum:object_id": 210894,
    "sfomuseum:placetype": "object",
    "sfomuseum:publication": ": , 03/27/1933.",
    "sfomuseum:subcategory": "Correspondence, Personal",
    "src:geom": "sfomuseum#undetermined",
    "wof:belongsto": [
      102527513,
      1159162825,
      102191575,
      85633793,
      102087579,
      85922583,
      85688637,
      1159160869
    ],
    "wof:country": "XY",
    "wof:created": 1714548841,
    "wof:depicts": [
      1159284991,
      1159285931,
      1159286721
    ],
    "wof:geomhash": "c281b9d9eefc83b5710e64b9d646067d",
    "wof:hierarchy": [
      {
        "building_id": -1,
        "campus_id": 102527513,
        "collection_id": 1159162825,
        "concourse_id": 1159162825,
        "continent_id": 102191575,
        "country_id": 85633793,
        "county_id": 102087579,
        "custom_id": 1913795603,
        "locality_id": 85922583,
        "neighbourhood_id": -1,
        "object_id": 1913795603,
        "region_id": 85688637,
        "wing_id": 1159160869
      }
    ],
    "wof:id": 1913795603,
    "wof:lastmodified": 1787988219,
    "wof:name": "correspondence: Harold M. Bixby to Debby Bixby",
    "wof:parent_id": 1159162825,
    "wof:placetype": "custom",
    "wof:placetype_alt": [
      "object"
    ],
    "wof:repo": "sfomuseum-data-collection",
    "wof:superseded_by": [],
    "wof:supersedes": []
  },
  "bbox": [
    -122.38647222518921,
    37.6161053594541,
    -122.38583385944366,
    37.61661101879963
  ],
  "geometry": {"type":"Polygon","coordinates":[[[-122.38647222518921,37.61631782178288],[-122.386434674263,37.61623283692423],[-122.38637566566466,37.61617759671399],[-122.38630056381224,37.6161308549656],[-122.38616108894348,37.6161053594541],[-122.38602161407469,37.6161308549656],[-122.38591432571411,37.61618609521055],[-122.38585531711577,37.61626683087935],[-122.38583385944366,37.61636881265146],[-122.38587141036987,37.61646654505181],[-122.38594114780425,37.61654303118856],[-122.38605380058287,37.61660252035167],[-122.38618254661559,37.61661101879963],[-122.3863059282303,37.61657277577607],[-122.3864185810089,37.61650903735973],[-122.3864668607712,37.61641130501523],[-122.38647222518921,37.61631782178288]]]}
}
