{
  "id": 1511930591,
  "type": "Feature",
  "properties": {
    "date:cessation_lower": "2003-01-01",
    "date:cessation_upper": "2003-12-31",
    "date:inception_lower": "2003-01-01",
    "date:inception_upper": "2003-12-31",
    "edtf:cessation": "2003",
    "edtf:date": "2003",
    "edtf:inception": "2003",
    "geom:area": 0,
    "geom:bbox": "-122.386155,37.616357,-122.386155,37.616357",
    "geom:latitude": 37.616357,
    "geom:longitude": -122.386155,
    "iso:country": "XX",
    "millsfield:airline_id": [
      1159284127
    ],
    "millsfield:category_id": 1762671311,
    "millsfield:collection_id": 1511214207,
    "millsfield:company_id": [
      1159286837
    ],
    "millsfield:images": [
      1527843679,
      1527843801
    ],
    "millsfield:images_colors_refs": {
      "crayola": [
        {
          "hex": "#324ab2"
        },
        {
          "hex": "#bab86c"
        },
        {
          "hex": "#414a4c"
        },
        {
          "hex": "#6699cc"
        },
        {
          "hex": "#fddde6"
        },
        {
          "hex": "#000000"
        },
        {
          "hex": "#dbd7d2"
        },
        {
          "hex": "#2e5894"
        },
        {
          "hex": "#9c2542"
        }
      ],
      "css4": [
        {
          "hex": "#5f9ea0"
        },
        {
          "hex": "#000000"
        },
        {
          "hex": "#e6e6fa"
        },
        {
          "hex": "#4682b4"
        },
        {
          "hex": "#2f4f4f"
        },
        {
          "hex": "#6495ed"
        },
        {
          "hex": "#bdb76b"
        },
        {
          "hex": "#dcdcdc"
        },
        {
          "hex": "#483d8b"
        },
        {
          "hex": "#8b0000"
        }
      ],
      "marekm4": [
        {
          "hex": "#3a659e"
        },
        {
          "hex": "#e8e9ec"
        },
        {
          "hex": "#dee3e2"
        },
        {
          "hex": "#0a1016"
        },
        {
          "hex": "#6b90cd"
        },
        {
          "hex": "#2e3432"
        },
        {
          "hex": "#2752b3"
        },
        {
          "hex": "#afaf48"
        },
        {
          "hex": "#bb0100"
        },
        {
          "hex": "#55a1b7"
        }
      ]
    },
    "millsfield:images_texts": [
      "b\nn\nwine list",
      "Wine List\nAperitifs \u0026 Cocktails\nGin • Rum • Vodka • Martini Rosso • Martini\nExtra Dry • Campari • Sweet and Dry\nSherry • Bloody Mary • Screwdriver\nWhiskies\nChivas Regal 12 Years Old\nJohnnie Walker Black Label\nJack Daniel's Bourbon\nCanadian Club\nCognac\nHine 'Rare and Delicate' Fine Champagne\nLiqueurs\nDrambuie • Contreau • Bailey's Irish Cream\nBeer\nInternational Selection\nChampagne\nChampagne\nDEUTZ\nBRUT CLASSIC\nChampagne Deutz, Brut Classic\nThis award winning champagne features\nlovely aromas and flavours of pear and citrus\nfruit. Layered with toasted hazelnut, honey\nand sweet vanilla notes, the wine is balanced\nby refreshing acidity with a long, lingering\nfinish. It is a perfect aperitif and goes well\nwith delicate dishes.\nWhite Wines\nFRAMINGHAM\nMARLBOROUGH\nSauvignon Blano\nFramingham Sauvignon Blanc 2002\nSituated on the north bank of the Wairau\nValley, this pale straw green white wine\nboasts pungent aromas of passionfruit and\ngrapefruit with tropical fruits and a hint of\ncrushed thyme on the palate. A well balanced\nwine that goes well with seafood, white\nmeats as well as blue cheeses.\nTACORY CREE\nChardonnay\nJacob's Creek Reserve Chardonnay 2001\nThis premium wine is an outstanding example\nof South Australian Chardonnay. Attractive\npeach and citrus aromas lead to rich, round\nfruit flavours on the palate, while fermentation\non French oak has imparted sweet vanilla\ncharacters and soft creamy yeast complexity.\nA superb wine that is perfect with white\nmeats and seafood dishes.\nRed Wines\nVacqueyras\nTean Paul et Cecile Selles\nLES ARMES DE FRANCE\nVacqueyras Les Armes De Frances 1999\nVacqueyras, a wine area in the South Rhone\nValley of France, was elevated from a leading\nCote du Rhone village to join Chateauneuf-\ndu-pape and Gigondas as a region in its own\nright in 1990.\nThis award winning wine is deep in colour\nCX Signature Drinks\nwith a youthful purple rim. The aroma is lifted\nby hints of blackcurrants from Grenache\ngrapes (50%) and crushed black pepper,\nwhich is typical of cool grown Shiraz (50%).\nThe palate has soft grainy textured tannins,\nwhich support supple, round fruit and spicy\nflavours.\nIt goes well with most of the meat dishes\nespecially those cooked with Asian spices.\nPacific Sunrise\nA refreshing combination of\nchampagne and Drambuie with\nthe zest of orange and lemon.\nCathay Delight\nA kiwifruit based non-alcoholic\ndrink with coconut juice and a\ntouch of fresh mint.\nHope Estate Merlot 2000\nA nice Merlot from the Hunter Valley, this\ndeep red wine is indicative of long warm days\nthat give it its complexity. This is a wine with\nrich earthy depth of character with under lying\ntobacco and cedar notes on the aroma while\nthe palate has plums and savoury herbs.\nGreat with red meats and hard cheeses.\nPort\nDOW'S\n1996\nDow's Late Bottled Vintage Port 1995/\n1996\nDow's is a family owned business that traces\nits! history back to 1798. This Dow's Port\ncomes from the same vineyards that produce\nVintage Port, when a vintage is declared. It is\na full rich Port with spicy ripe fruit flavours,\nwell rounded on the palate and with an\nelegant aromatic nose.\nCathay Pacific aims to offer a diverse selection of wines on\nboard - but apologies if on some flights a certain wine is\nnot available.\nOur crew will always be happy to\nrecommend an alternative.\nCX101, 105, 107, 111, 115, 117, 135\n1-11-2003"
    ],
    "millsfield:images_texts_ids": [
      1527843679,
      1527843801
    ],
    "millsfield:primary_image": 1527843679,
    "millsfield:subcategory_id": 1511213567,
    "mz:hierarchy_label": 1,
    "mz:is_current": 1,
    "sfomuseum:accession_number": "2007.086.028",
    "sfomuseum:airline": "Cathay Pacific Airways",
    "sfomuseum:airline_id": [
      295
    ],
    "sfomuseum:category": "Passenger Amenity, Archive",
    "sfomuseum:classification_id": 242,
    "sfomuseum:collection": "Aviation Archive",
    "sfomuseum:creditline": "Gift of Ian H. Dally of Auckland, New Zealand",
    "sfomuseum:date": "2003",
    "sfomuseum:date_acquired": "2009-08-08",
    "sfomuseum:daterange_end": "2003-12-31",
    "sfomuseum:daterange_start": "2003-01-01",
    "sfomuseum:description": "Wine list issued by Cathay Pacific Airways; full color photographic image of wine glass and bottle; menu number: CX101, 105, 107, 111, 115, 117, 135; class: business; date: 1-11-2003.",
    "sfomuseum:dimensions": "10 x 6 1/2 inches (25.4 x 16.5 cm)",
    "sfomuseum:media_ids": [
      1527843679,
      1527843801
    ],
    "sfomuseum:medium": "paper, ink",
    "sfomuseum:object_id": 87473,
    "sfomuseum:placetype": "object",
    "sfomuseum:primary_media_id": 1527843679,
    "sfomuseum:publication": ": , 2003.",
    "sfomuseum:subcategory": "Menu",
    "src:geom": "sfomuseum#undetermined",
    "wof:belongsto": [
      1159162825,
      102527513,
      102191575,
      85633793,
      85922583,
      102087579,
      1159160869,
      85688637
    ],
    "wof:breaches": [],
    "wof:country": "XX",
    "wof:created": 1579906658,
    "wof:depicts": [
      1159286837,
      1159284127
    ],
    "wof:geomhash": "30c8a918561c84bb2daa2b97fc7c5353",
    "wof:hierarchy": [
      {
        "building_id": -1,
        "campus_id": 102527513,
        "concourse_id": 1159162825,
        "continent_id": 102191575,
        "country_id": 85633793,
        "county_id": 102087579,
        "custom_id": 1511930591,
        "locality_id": 85922583,
        "neighbourhood_id": -1,
        "object_id": 1511930591,
        "region_id": 85688637,
        "venue_id": 1511930591,
        "wing_id": 1159160869
      }
    ],
    "wof:id": 1511930591,
    "wof:lastmodified": 1787988180,
    "wof:name": "menu: Cathay Pacific Airways, Business Class",
    "wof:parent_id": 1159162825,
    "wof:placetype": "custom",
    "wof:placetype_alt": [
      "object"
    ],
    "wof:repo": "sfomuseum-data-collection",
    "wof:superseded_by": [],
    "wof:supersedes": [],
    "wof:tags": []
  },
  "bbox": [
    -122.386155,
    37.616357,
    -122.386155,
    37.616357
  ],
  "geometry": {"type":"Point","coordinates":[-122.386155,37.616357]}
}
