{
  "id": 1511936215,
  "type": "Feature",
  "properties": {
    "date:cessation_lower": "1971-01-01",
    "date:cessation_upper": "1971-12-31",
    "date:inception_lower": "1971-01-01",
    "date:inception_upper": "1971-12-31",
    "edtf:cessation": "1971",
    "edtf:date": "1971",
    "edtf:inception": "1971",
    "geom:area": 0,
    "geom:bbox": "-122.386155,37.616357,-122.386155,37.616357",
    "geom:latitude": 37.616357,
    "geom:longitude": -122.386155,
    "iso:country": "XX",
    "millsfield:airline_id": [
      1159284119,
      1159284453
    ],
    "millsfield:category_id": 1511214223,
    "millsfield:collection_id": 1511214207,
    "millsfield:company_id": [
      1159288203
    ],
    "millsfield:images": [
      1527847309,
      1527847827
    ],
    "millsfield:images_colors_refs": {
      "crayola": [
        {
          "hex": "#ffae42"
        },
        {
          "hex": "#1a4876"
        },
        {
          "hex": "#1164b4"
        },
        {
          "hex": "#414a4c"
        },
        {
          "hex": "#efdecd"
        },
        {
          "hex": "#dbd7d2"
        },
        {
          "hex": "#6699cc"
        }
      ],
      "css4": [
        {
          "hex": "#faebd7"
        },
        {
          "hex": "#2f4f4f"
        },
        {
          "hex": "#f4a460"
        },
        {
          "hex": "#191970"
        },
        {
          "hex": "#d3d3d3"
        },
        {
          "hex": "#ffa500"
        },
        {
          "hex": "#6495ed"
        },
        {
          "hex": "#008080"
        }
      ],
      "marekm4": [
        {
          "hex": "#67aacf"
        },
        {
          "hex": "#e9e6d2"
        },
        {
          "hex": "#69a0ce"
        },
        {
          "hex": "#f1ad02"
        },
        {
          "hex": "#ebbf40"
        },
        {
          "hex": "#d3d7d5"
        },
        {
          "hex": "#01589e"
        },
        {
          "hex": "#09296a"
        },
        {
          "hex": "#25343f"
        },
        {
          "hex": "#014a9a"
        }
      ]
    },
    "millsfield:images_texts": [
      "Catalina\nBy Air\nFrom\nLos Angeles\nLong Beach\nand now\nOrange County\nAirport\n(Santa Ana)\natalin\nGolden West\nCatalina Airlines/ Golden West Airlines",
      "Golden West Airlines\nEffective April 25, 1971\nCON.\nLEAVE ARRIVE FLT. FREQ.\nVIA ST.\nLEAVE ARRIVE FLT. FREQ.\nCATALINA ISLAND\n(Sea Plane Service)\nAvalon Bay to LONG BEACH\n$8.64\n8:30A\n8:50A\n9:30A\n9:50A\n10:30A 10:50A\n11:30A 11:50A\n12:30P 12:50P\n1:30P\n1:50P\n2:50P\n3:30P\n4:30P\n5:30P\n6:30P\n3:50P\n4:50P\n5:50P\n6:50P\n8 Daily\n12 Daily\n16 Daily\n20 Daily\n24 Daily\n28 Daily\n32\nDaily\nDaily\nDaily\n44 Daily\n48 Daily\nKOUR\n9:00A\n10:00A 10:20A\n11:00A 11:20A\n12:00N 12:20P\n1:00P\n1:20P\n2:00P\n3:00P\n4:00P\n5:00P\n6:00P\n3:20P\n4:20P\n5:20P\n6:20P\nLONG BEACH to Avalon Bay\n7 Daily\n11 Daily\n15 Daily\n19 Daily\n23 Daily\n27 Daily\nDaily\n35\nDaily\nDaily\n43 Daily\n47 Daily\nTwo Harbors to LONG BEACH\n$8.64\nLONG BEACH to Two Harbors\n9:40A 10:00A\n4:40P\n5:00P\n54 Daily\n56 Daily\n9:10A\n4:10P\n9:30A\n53 Daily\n4:30P\n55 Daily\nCATALINA ISLAND\n(Twin Otter Service)\nAirport-in-the-Sky to LONG BEACH\n495000\n0• 7:10P\n7:30P\n00•7,560\n8:15P\n75\n93\nTu\nFr.Su\n$12.30*\nLONG BEACH to Airport-in-the-Sky\n•• 4:30P\n4:50P\n••• 7:30P\n7:50P\n•• 6:40P\n7.00P\nMn. We\nFr.Su\nAirport-in-the-Sky to LOS ANGELES\n$14.00\nLOS ANGELES to Airport-in-the-Sky\n••11:30A 11:50A\n••12:00N 12:20P\n9°5.00P\n•° 5:30P\n5:50P\n19 7.100\n7:55P\n• 7:55P\n8038P\n•• 7:55P\n8:15P\n71\nMo thru Sa\nSU\nMo,We\nTh.sa\n93\nFr.Su\n•* 8:30A\n8:50A\n0011:00A 11:20A\n**11:35A 11:55A\n00 4-05P\n.95P\n•• 4:05P\n4:50P\nФ• 6.15Р\n7:00P\n00 6:15P\n6:25P\n••• 7:05Р 7:50P\nMo\nMo thru Sa\nTh Ca\nMo We\nFr.Su\nAirport-in-the-Sky to SANTA ANA\n•• 8:55A\n•• 8:45A\n9:05A\n00 200 1\n4:50P\n•• 6:40P\n7:00P\nFr.Sa,Su\nTh,Sa\n$12.84*\nSANTA ANA to Airport-in-the-Sky\n0º 8.20A\n5:05P\n5:25P\n00 7.20P\n7.50P\n85\nTh,Sa\nFr,Su\nTood, Tisning and tun in the sun.\n• Catalina/Golden West welcomes your freight shipments - Daily\nALL flights - for special requirements, freight charters available.\n•INCLUDES $1.50 SCENIC TOUR\n••EFFECTIVE JUNE 15\n•••DISCONTINUE JUNE 15\nALL FARES INCLUDE 8% FEDERAL TRANSPORTATION TAX\n4.25.1971\nCatalina dsland\nVia...\nCATALINA\nAIR LINES\nCatalina\nBy Air\nFrom\nLos Angeles\nLong Beach\nand now\nOrange County\nAirport\n(Santa Ana)\n• SANTA ROSA\nSAN FRANCISCO\nPALO ALTO\nSAN JOSE\n• MONTEREY\nCANTA RARRARA\nOXNARD\nLONANSSNATONAR\nLONG BEACH\nCATALINA ISLAND\n• TWO HARBORS\nADA THIN THIS SK\n• AVALON\nMOJAVE\nPALMDALE/LANCASTER\nCI MANTE\nPASADENA\nONTARIO\n_ COLTON/SAN BERNARDINO\n- RIVERSIDE\nPALM SPRINGS\n- SHIT CRTON\n- SANTA ANA\nMOJAVE\nPALMDALE/LANCASTER\nPROPOSED\nCATALINA AIR LINES Division of Golden West Airlines, is the world's\nmost experienced commuter airline. We're proud of our fifteen years\nof service to Santa Catalina Island. More than 1,000,000 people have\nflown with us between Catalina and the Mainland!\nRESERVATIONS \u0026 INFORMATION\nLong Beach\n. (213) 421-8281\nLos Angeles\n(213) 636-2121\nOrange County\n(714) 827-7700\nCatalina Island\n.....Avalon 385\nFor Information on Charter Flights call ...\n35M/4-71\n(213) 873-7032 (714) 546-6570\n2005.132.016.003\n..0...\nCatalina Airlines Golden West Airlines"
    ],
    "millsfield:images_texts_ids": [
      1527847309,
      1527847827
    ],
    "millsfield:primary_image": 1527847309,
    "millsfield:subcategory_id": 1511213425,
    "mz:hierarchy_label": 1,
    "mz:is_current": 1,
    "sfomuseum:accession_number": "2005.132.016.003",
    "sfomuseum:airline": "Catalina Airlines",
    "sfomuseum:airline_id": [
      292,
      440
    ],
    "sfomuseum:category": "Scheduling / Ticketing",
    "sfomuseum:classification_id": 158,
    "sfomuseum:collection": "Aviation Archive",
    "sfomuseum:creditline": "Gift of the William Hough Collection",
    "sfomuseum:date": "1971",
    "sfomuseum:date_acquired": "2006-12-05",
    "sfomuseum:daterange_end": "1971-12-31",
    "sfomuseum:daterange_start": "1971-01-01",
    "sfomuseum:description": "Joint timetable issued by Catalina Air Lines and Golden West Airlines, effective April 25, 1971; three-page double-sided fold-out. ",
    "sfomuseum:dimensions": "9 x 4 inches (22.9 x 10.2 cm)",
    "sfomuseum:media_ids": [
      1527847309,
      1527847827
    ],
    "sfomuseum:medium": "paper, ink",
    "sfomuseum:object_id": 97720,
    "sfomuseum:placetype": "object",
    "sfomuseum:primary_media_id": 1527847309,
    "sfomuseum:publication": ": , 1971.",
    "sfomuseum:subcategory": "Timetable",
    "src:geom": "sfomuseum#undetermined",
    "wof:belongsto": [
      1511214223,
      102527513,
      102191575,
      85633793,
      1511213425,
      85922583,
      102087579,
      1511214277,
      1511214207,
      85688637
    ],
    "wof:breaches": [],
    "wof:country": "XX",
    "wof:created": 1579906669,
    "wof:depicts": [
      1159288203,
      1159284453,
      1159284119
    ],
    "wof:geomhash": "30c8a918561c84bb2daa2b97fc7c5353",
    "wof:hierarchy": [
      {
        "arcade_id": 1511213425,
        "building_id": 1511214277,
        "campus_id": 102527513,
        "concourse_id": 1511214223,
        "continent_id": 102191575,
        "country_id": 85633793,
        "county_id": 102087579,
        "custom_id": 1511936215,
        "locality_id": 85922583,
        "neighbourhood_id": -1,
        "object_id": 1511936215,
        "region_id": 85688637,
        "venue_id": 1511936215,
        "wing_id": 1511214207
      }
    ],
    "wof:id": 1511936215,
    "wof:lastmodified": 1787988182,
    "wof:name": "timetable: Catalina Air Lines, Golden West Airlines",
    "wof:parent_id": 1159162825,
    "wof:placetype": "custom",
    "wof:placetype_alt": [
      "object"
    ],
    "wof:repo": "sfomuseum-data-collection",
    "wof:superseded_by": [],
    "wof:supersedes": [],
    "wof:tags": []
  },
  "bbox": [
    -122.386155,
    37.616357,
    -122.386155,
    37.616357
  ],
  "geometry": {"type":"Point","coordinates":[-122.386155,37.616357]}
}
