{
  "id": 1913795679,
  "type": "Feature",
  "properties": {
    "date:cessation_lower": "1933-10-27",
    "date:cessation_upper": "1933-10-27",
    "date:inception_lower": "1933-10-27",
    "date:inception_upper": "1933-10-27",
    "edtf:cessation": "1933-10-27",
    "edtf:inception": "1933-10-27",
    "geom:area": 2.475047457570636e-7,
    "geom:bbox": "-122.386472,37.616105,-122.385834,37.616611",
    "geom:latitude": 37.61635747477365,
    "geom:longitude": -122.38615540108617,
    "millsfield:airline_id": [
      1159284991,
      1159285931
    ],
    "millsfield:category_id": 1511214251,
    "millsfield:collection_id": 1511214207,
    "millsfield:company_id": [
      1159286721
    ],
    "millsfield:images": [
      1913801285,
      1913801287,
      1913801289,
      1913801291,
      1913801293,
      1913801295
    ],
    "millsfield:images_colors_refs": {
      "crayola": [
        {
          "hex": "#87a96b"
        },
        {
          "hex": "#414a4c"
        },
        {
          "hex": "#714b23"
        },
        {
          "hex": "#9f8170"
        },
        {
          "hex": "#757575"
        },
        {
          "hex": "#efcdb8"
        }
      ],
      "css4": [
        {
          "hex": "#f5deb3"
        },
        {
          "hex": "#bdb76b"
        },
        {
          "hex": "#2e8b57"
        },
        {
          "hex": "#2f4f4f"
        },
        {
          "hex": "#556b2f"
        }
      ],
      "marekm4": [
        {
          "hex": "#4d421f"
        },
        {
          "hex": "#5a9554"
        },
        {
          "hex": "#9c9e71"
        },
        {
          "hex": "#a5976f"
        },
        {
          "hex": "#a7986f"
        },
        {
          "hex": "#484022"
        },
        {
          "hex": "#473f20"
        },
        {
          "hex": "#e1d4af"
        },
        {
          "hex": "#443d1f"
        },
        {
          "hex": "#5a9655"
        },
        {
          "hex": "#e0d3ae"
        },
        {
          "hex": "#4b401d"
        },
        {
          "hex": "#e3d6b4"
        },
        {
          "hex": "#9d9d70"
        },
        {
          "hex": "#a5966d"
        },
        {
          "hex": "#5d9656"
        },
        {
          "hex": "#3e391e"
        },
        {
          "hex": "#e1d4b0"
        },
        {
          "hex": "#9e9d71"
        },
        {
          "hex": "#e0d2ad"
        }
      ]
    },
    "millsfield:images_texts": [
      "CABLE ADDRESS:\nMANHOCO-MANILA\nALL TELEGRAPHIC CODES\nHUBERT C. ANDERSON\nMANAGER\nMANILA HOTEL\nManila, Philippines\nTHE SIGN OF SERVICE\nIN • THE\nPHILIPPINES\nFred.\n10/27\n33\nDeariat Deb-\nSau the\ngod. gun\nthis. A.m and\nhe promised\nfule copration an\nsympathetic inter-et in\nour whok regram.\nHair an engagement\nwith Presidint Quezon\ntomorraid, morning\nat 8:30 + 2 am going\nTonight\nOut to\ndinner with\nNorman Wice who is",
      "a very fro precaut\nand say to the googi\nWis toye us comes\nover on\nthe Hoover\nWhich amos hers\nNot. Znd (dog gone!)\nand she is un\nShanghai today..\nCalled\nock\nand\nBond to\n- look her up\nand try to thow\nher the systs. Mr.\nWice rentre a hours\nher furnished it\n* hurd, Arranto just\n20191)",
      "CABLE ADDRESS:\nMANHOCO-MANILA\nALL TELEGRAPHIC CODES\nHUBERT C. ANDERSON\nMANAGER\nTHE SIGN OF SERVICE\nIN THE PHILIPPINES\nMANILA HOTEL\nManila, Philippines\nwoned\nbs ale st when\nthe\narnor. Do this\nmorning he phoned\n- and said he coas\ninviting\n→ a fer freid\nto\nus dinner.\njust to\n132\nthe outfit\nworko and not to\nrapet too much.\na, Tomorrows mignt\ngo to a reciftion\nquin for gor. Mepha",
      "by the legiolaturs. It\nurce probably be an\nanatue affair bout one\nwhick I shoned\nattend tO\nIi turning\ndown a\ngood part\nat the Polo Club in\norder to do my duty.\nat that it wice b\nintreating for\nale the\nFilipinos and thei\nthers\ndresned up\nand\nthe Conct abulary Bare\nwhen is something.\n201912107676",
      "CABLE\nADDRESS:\nMANHOCO-MANILA\nALL TELEGRAPHIC CODES\nHUBERT C. ANDERSON\nMANAGER\nANIT\nTHE SIGN OF SERVICE\nIN THE PHILIPPINES\nMANILA HOTEL\nManila, Philippines\nI saw\nSenator Quezon\nthis, a.ma but mu\nmriting wit him was\nnot satisfactory at ace.\nThen wais\nat least\n75 prople waiting to\nter him\nand the poor\nrechurs\nmax was sick\nandr\nme un\nhis batk rob. He\nsirmed intratid but\nnot to\nretent of\ndory. anything or tin\nafraid the at he wort\ndo anything.",
      "Yor wale be all right\nhus though breaus us\nCan openats with out a\npancher and ply to\nHongkong with out any\nquestion\nat ace\"\n20\na. the P. 9 an\nConcurned - lent us'ee\nnot be able to Carr,\nInter. Doland passagus\nunder ur hare a\nfrancis.\nmust rush\nduming\nnow\nHad\n2019121.0767C"
    ],
    "millsfield:images_texts_ids": [
      1913801285,
      1913801287,
      1913801289,
      1913801291,
      1913801293,
      1913801295
    ],
    "millsfield:primary_image": 1913801285,
    "millsfield:subcategory_id": 1511213489,
    "mz:is_approximate": 1,
    "mz:is_current": 1,
    "sfomuseum:accession_number": "2019.121.0767 a c",
    "sfomuseum:airline": "Pan American Airways",
    "sfomuseum:airline_id": [
      685,
      1131
    ],
    "sfomuseum:category": "Employee Career History",
    "sfomuseum:classification_id": 195,
    "sfomuseum:collection": "Aviation Archive",
    "sfomuseum:creditline": "Collection of SFO Museum",
    "sfomuseum:date": "10/27/1933",
    "sfomuseum:date_acquired": "2019-11-22",
    "sfomuseum:daterange_end": "1933-10-27",
    "sfomuseum:daterange_start": "1933-10-27",
    "sfomuseum:description": "Handwritten letter from Harold M. Bixby to his wife, Debby Bixby, dated Friday, October 27, [1933], on stationery from the Manila Hotel; includes brief description of meetings with Governor General [Frank Murphy] and Senator [Manuel] Quezon, negotiations for franchise to fly passengers to Hong Kong; mentions Norman Hill, [William] Grooch and [William L.] Bond.",
    "sfomuseum:dimensions": "8 1/2 x 5 1/2 inches (21.6 x 14 cm)",
    "sfomuseum:medium": "paper, ink",
    "sfomuseum:object_id": 211115,
    "sfomuseum:placetype": "object",
    "sfomuseum:publication": ": , 10/27/1933.",
    "sfomuseum:subcategory": "Correspondence, Personal",
    "src:geom": "sfomuseum#undetermined",
    "wof:belongsto": [
      102527513,
      1159162825,
      102191575,
      85633793,
      102087579,
      85922583,
      85688637,
      1159160869
    ],
    "wof:country": "XY",
    "wof:created": 1714548862,
    "wof:depicts": [
      1159284991,
      1159285931,
      1159286721
    ],
    "wof:geomhash": "c281b9d9eefc83b5710e64b9d646067d",
    "wof:hierarchy": [
      {
        "building_id": -1,
        "campus_id": 102527513,
        "collection_id": 1159162825,
        "concourse_id": 1159162825,
        "continent_id": 102191575,
        "country_id": 85633793,
        "county_id": 102087579,
        "custom_id": 1913795679,
        "locality_id": 85922583,
        "neighbourhood_id": -1,
        "object_id": 1913795679,
        "region_id": 85688637,
        "wing_id": 1159160869
      }
    ],
    "wof:id": 1913795679,
    "wof:lastmodified": 1787988219,
    "wof:name": "correspondence: Harold M. Bixby to Debby Bixby",
    "wof:parent_id": 1159162825,
    "wof:placetype": "custom",
    "wof:placetype_alt": [
      "object"
    ],
    "wof:repo": "sfomuseum-data-collection",
    "wof:superseded_by": [],
    "wof:supersedes": []
  },
  "bbox": [
    -122.38647222518921,
    37.6161053594541,
    -122.38583385944366,
    37.61661101879963
  ],
  "geometry": {"type":"Polygon","coordinates":[[[-122.38647222518921,37.61631782178288],[-122.386434674263,37.61623283692423],[-122.38637566566466,37.61617759671399],[-122.38630056381224,37.6161308549656],[-122.38616108894348,37.6161053594541],[-122.38602161407469,37.6161308549656],[-122.38591432571411,37.61618609521055],[-122.38585531711577,37.61626683087935],[-122.38583385944366,37.61636881265146],[-122.38587141036987,37.61646654505181],[-122.38594114780425,37.61654303118856],[-122.38605380058287,37.61660252035167],[-122.38618254661559,37.61661101879963],[-122.3863059282303,37.61657277577607],[-122.3864185810089,37.61650903735973],[-122.3864668607712,37.61641130501523],[-122.38647222518921,37.61631782178288]]]}
}
