{
  "id": 1913938437,
  "type": "Feature",
  "properties": {
    "date:cessation_lower": "1991-01-01",
    "date:cessation_upper": "1991-12-31",
    "date:inception_lower": "1991-01-01",
    "date:inception_upper": "1991-12-31",
    "edtf:cessation": "1991",
    "edtf:inception": "1991",
    "geom:area": 2.475047457570636e-7,
    "geom:bbox": "-122.386472,37.616105,-122.385834,37.616611",
    "geom:latitude": 37.61635747477365,
    "geom:longitude": -122.38615540108617,
    "millsfield:aircraft_id": [
      1159290515
    ],
    "millsfield:airline_id": [
      1159283933
    ],
    "millsfield:category_id": 1762671311,
    "millsfield:collection_id": 1511214207,
    "millsfield:company_id": [
      1159294367
    ],
    "millsfield:images": [
      1913938481,
      1913938483,
      1913938485
    ],
    "millsfield:images_colors_refs": {
      "crayola": [
        {
          "hex": "#fddde6"
        },
        {
          "hex": "#9c2542"
        },
        {
          "hex": "#000000"
        },
        {
          "hex": "#414a4c"
        },
        {
          "hex": "#dbd7d2"
        }
      ],
      "css4": [
        {
          "hex": "#2f4f4f"
        },
        {
          "hex": "#000000"
        },
        {
          "hex": "#d3d3d3"
        },
        {
          "hex": "#faf0e6"
        },
        {
          "hex": "#8b0000"
        }
      ],
      "marekm4": [
        {
          "hex": "#b10303"
        },
        {
          "hex": "#eeebe3"
        },
        {
          "hex": "#0a0706"
        },
        {
          "hex": "#1d1c18"
        },
        {
          "hex": "#f2ede5"
        },
        {
          "hex": "#2a2a26"
        },
        {
          "hex": "#dad7d0"
        },
        {
          "hex": "#b60101"
        }
      ]
    },
    "millsfield:images_texts": [
      "= EXIT\nFire Extinguisher\nA fire extinguisher is located at the Flight Attendant\nStation.\nTo operate the fire extinguisher:\n1. Remove fire extinguisher from mounting bracket.\n2. Pull the locking pin.\n3. Aim nozzle at the base of the fire and squeeze\nthe trigger.\nA\nB",
      "BE PREPARED\nPassengers should follow all commands and\n5) You will have to lift the exit door over a row of\nsignals given by crewmembers. Be ready to assist\nseats to get it out of the way.\ncrewmembers in an emergency and to follow the\n6) If the exit is an over-wing exit, you may have to\nguidelines below:\nuse the escape rope for stability when exiting\n1) Know where all the exits are on this aircraft. Study\nThe flight attendant will give the rope to you\nthe briefing card and know how to open the exit\nAttach the escape rope to the base of the seat\nclosest to you. Ask a crewmember if you have\nby pulling the end through the ring.\nany questions about this.\n7) When the exit is open, should \"Unfasten seatbelts!\n2) Remember, keep your head down until the aircraft\nCome this way!\" then go out the exit as quickly\nhas come to a complete stop. Don't be tempted\nas possible.\nto look up and around until you are certain that\n8) Don't take any carry-on baggage with you. It\nthe aircraft is no longer moving.\nonly gets in the way and impedes the evacuation.\n3) If an emergency evacuation is necessary, and if\n9) If there is not immediate danger, help the people\na crewmember cannot get to the exit in your row,\nbehind you out. Direct the passengers away\nyou have have to open it. First look outside. If\nfrom any dangers, such as fire, smoke, water or\nfire, smoke, or water could come into the cabin\nmoving propellers.\nthrough the exit, don't open it.\n10) Move 200 yards away from the aircraft as soon\n4) If it is safe to open the exit, do so as quickly as\nand as quickly as you can.\npossible. Keep the pathway to the exit clear. If\nthe exit cannot be opened, go to another exit.\nTO SIT IN AN EXIT ROW\nIn order to ensure the fastest possible emergency\n5) Be able to use both hands, both arms and both\nevacuation, the Federal Aviation Administration has\nlegs, as well as be strong and flexible enough to\nset standards for people who sit in rows next to\ndo the following:\nexits. In the event of an emergency, these\na. Be able to quickly open the exit. This will\npassengers may be called upon to assist\nrequire that you be\nable to reach up,\ncrewmembers in the evacuation.\nsideways and down and be able to grasp the\nPassengers sitting in exit row seats must be\ndoor mechanism;\nwilling and able to do the following:\nb. Be able to lift the exit door out of the exit;\n1) Locate the emergency exit and move quickly to it;\nsome window hatches that must be lifted can\nweigh as much as 65 pounds (30 Kgs.), the\n2) Recognize the opening mechanism,\ncomprehend the instructions, then open the exit\naverage weight of a 7 year old child;\nat the proper time;\nc. Be able to clear from the exit any\nobstructions weighing up to 65 pounds and\n3) Decide if opening the exit will increase hazards\nto maintain balance while doing so;\nto passengers;\n4) Follow instructions given by crewmembers;\nd. Be able to quickly move to and through the\n5) Stow the exit doors;\nexit;\ne. Be able to help other passengers away from\n6) Pass quickly through the door and then assess,\nthe plane;\nselect and follow a safe path away from the\naircraft.\n6) Be at least 15 years of age;\nIn order to perform all of these functions,\n7) Have the capacity to perform these functions\npassengers sitting in emergency exit rows must:\nwithout a companion or adult;\n1) Read English well enough to understand the\n8) Be with no one that requires your care, such as a\ninstructions for opening exits and for other\nsmall child, or someone physically or mentally\nunable to care for themselves;\nemergency procedures.\n2) See well enough to read instructions, to see\n9) You must be willing and able to do all of these\nsignals given by crewmembers and to look\nthings by yourself and without harming yourself.\noutside for dangers such as smoke, fire or water\nIf you cannot or do not wish to do all these\nwhich would make the exit unusable. You can\nthings, you cannot sit in an emergency exit row\nwear glasses or contact lenses;\nseat. If you are already seated there, ask a\n3) Hear\nwell enough to understand English\ncrewmember to move you to another seat. You do\ncommands. You can use a hearing aid;\nnot have to explain why. You need to say only \"I do\nnot want to sit in an exit row.\"\n4) Speak well enough to give information in English\nto crewmembers or other passengers during an\nemergency;\nPORTABLE ELECTRONIC DEVICES\nAtlantic Southeast Airlines and the Federal Aviation\nAdministration restrict the use of certain portable\nelectronic devices on board the aircraft, as they can\ninterfere with the navigation and communication\nsystems on the aircraft. Please be certain that all\ndevices are in the \"OFF\" position during taxi, take off\nand landing.\nThe following devices are permitted only at cruise\naltitude when the Captain has turned off the seatbelt\nsign. They should be turned off at all other times:\nPersonal computers and computer games\nVHF scanner receivers\nTape players that do not have AM/FM capability\nVideo recorders\nCalculators\nCD players\nThe following devices may not be used at any time\non the aircraft:\nCellular telephones\nTwo-way radios (CB, Ham, or Walkie Talkie)\n49 MHz transmitters\nRemote controlled toys\nExternal computer devices, such as mouse, joy\nstick, or printer\nAM/FM radios or TV's\nAny other device which the crew suspects may\ninterfere with the aircraft systems\nPassengers must comply with all crewmember\ninstructions. Atlantic Southeast Airlines appreciates\nyour cooperation.\nForm BC-120 6/15/91",
      "ASA\nSafety Instructions\nEMB 120 Brasilia\nA.THE DELTA CONNECTION®"
    ],
    "millsfield:images_texts_ids": [
      1913938481,
      1913938483,
      1913938485
    ],
    "millsfield:primary_image": 1913938485,
    "millsfield:subcategory_id": 1511213703,
    "mz:is_approximate": 1,
    "mz:is_current": 1,
    "sfomuseum:accession_number": "2002.127.162",
    "sfomuseum:aircraft": "Embraer EMB-120 Brasilia",
    "sfomuseum:aircraft_id": [
      532
    ],
    "sfomuseum:airline": "Atlantic Southeast Airlines (ASA)",
    "sfomuseum:airline_id": [
      207
    ],
    "sfomuseum:category": "Passenger Amenity, Archive",
    "sfomuseum:classification_id": 581,
    "sfomuseum:collection": "Aviation Archive",
    "sfomuseum:creditline": "Gift of Thomas G. Dragges",
    "sfomuseum:date": "1991",
    "sfomuseum:date_acquired": "2003-12-22",
    "sfomuseum:daterange_end": "1991-12-31",
    "sfomuseum:daterange_start": "1991-01-01",
    "sfomuseum:description": "Safety information card issued by Atlantic Southwest Airlines (ASA) / Delta Connection for the Embraer EMB-120 Brasilia fleet; white and red double-sided bi-fold card with illustrations depicting inflight safety and emergency procedures; identification code: BC-120; revision date: 6/15/91.",
    "sfomuseum:dimensions": "10 1/2 x 5 1/2 inches (26.7 x 14 cm)",
    "sfomuseum:medium": "paper, ink",
    "sfomuseum:object_id": 68627,
    "sfomuseum:placetype": "object",
    "sfomuseum:publication": ": , 1991.",
    "sfomuseum:subcategory": "Safety Information Card",
    "src:geom": "sfomuseum#undetermined",
    "wof:belongsto": [
      102527513,
      1159162825,
      102191575,
      85633793,
      102087579,
      85922583,
      85688637,
      1159160869
    ],
    "wof:country": "XY",
    "wof:created": 1715758383,
    "wof:depicts": [
      1159290515,
      1159294367,
      1159283933
    ],
    "wof:geomhash": "c281b9d9eefc83b5710e64b9d646067d",
    "wof:hierarchy": [
      {
        "building_id": -1,
        "campus_id": 102527513,
        "collection_id": 1159162825,
        "concourse_id": 1159162825,
        "continent_id": 102191575,
        "country_id": 85633793,
        "county_id": 102087579,
        "custom_id": 1913938437,
        "locality_id": 85922583,
        "neighbourhood_id": -1,
        "object_id": 1913938437,
        "region_id": 85688637,
        "wing_id": 1159160869
      }
    ],
    "wof:id": 1913938437,
    "wof:lastmodified": 1787988220,
    "wof:name": "safety information card: Atlantic Southwest Airlines (ASA) / Delta Connection, Embraer EMB-120 Brasilia",
    "wof:parent_id": 1159162825,
    "wof:placetype": "custom",
    "wof:placetype_alt": [
      "object"
    ],
    "wof:repo": "sfomuseum-data-collection",
    "wof:superseded_by": [],
    "wof:supersedes": []
  },
  "bbox": [
    -122.38647222518921,
    37.6161053594541,
    -122.38583385944366,
    37.61661101879963
  ],
  "geometry": {"type":"Polygon","coordinates":[[[-122.38647222518921,37.61631782178288],[-122.386434674263,37.61623283692423],[-122.38637566566466,37.61617759671399],[-122.38630056381224,37.6161308549656],[-122.38616108894348,37.6161053594541],[-122.38602161407469,37.6161308549656],[-122.38591432571411,37.61618609521055],[-122.38585531711577,37.61626683087935],[-122.38583385944366,37.61636881265146],[-122.38587141036987,37.61646654505181],[-122.38594114780425,37.61654303118856],[-122.38605380058287,37.61660252035167],[-122.38618254661559,37.61661101879963],[-122.3863059282303,37.61657277577607],[-122.3864185810089,37.61650903735973],[-122.3864668607712,37.61641130501523],[-122.38647222518921,37.61631782178288]]]}
}
