{
  "id": 1762679919,
  "type": "Feature",
  "properties": {
    "date:cessation_lower": "1948-01-01",
    "date:cessation_upper": "1948-12-31",
    "date:inception_lower": "1948-01-01",
    "date:inception_upper": "1948-12-31",
    "edtf:cessation": "1948",
    "edtf:inception": "1948",
    "geom:area": 2.475047457570636e-7,
    "geom:bbox": "-122.386472,37.616105,-122.385834,37.616611",
    "geom:latitude": 37.61635747477365,
    "geom:longitude": -122.38615540108617,
    "millsfield:airline_id": [
      1159284187
    ],
    "millsfield:category_id": 1511214223,
    "millsfield:collection_id": 1511214207,
    "millsfield:company_id": [
      1159286989
    ],
    "millsfield:images": [
      1762713913,
      1762713915
    ],
    "millsfield:images_colors_refs": {
      "crayola": [
        {
          "hex": "#757575"
        },
        {
          "hex": "#dbd7d2"
        },
        {
          "hex": "#414a4c"
        }
      ],
      "css4": [
        {
          "hex": "#556b2f"
        },
        {
          "hex": "#808080"
        },
        {
          "hex": "#d3d3d3"
        },
        {
          "hex": "#2f4f4f"
        }
      ],
      "marekm4": [
        {
          "hex": "#254726"
        },
        {
          "hex": "#4b674b"
        },
        {
          "hex": "#738670"
        },
        {
          "hex": "#dbd5c9"
        },
        {
          "hex": "#dad6cb"
        }
      ]
    },
    "millsfield:images_texts": [
      "EFFECTIVE SEPTEMBER 26, 1948\nCOLONIAL\nAIRLINES\nCANADA\nUSA\nBERMUDA\nRoute of the Skycruisers",
      "GENERAL INFORMATION\nBAGGAGE AND PERSONAL PROPERTY - Passengers are permitted a free\nbaggage allowance of 40 pounds when traveling within the United States\nand Canada.\n66 pounds of baggage will be carried free when traveling\nbetween any point on Colonial Airlines and Bermuda.\nThe liability of\nthe company\nfor loss of, or damage to, baggage and other personal\nproperty is limited to $100, unless a higher valuation is declared in advance\nand an additional charge is paid.\nThe company is not responsible for\nany personal property which is not delivered into its custody.\nCUSTOMS AND IMMIGRATION - International passengers are subject to\ncustoms and immigration examinations.\nStates\nCanada service.\nBermuda service.\nFARES - All fares are applicable only for transportation between air-\nports, and are subject to\nchange without notice.\nGround transportation\nbetween airport and city is available at passenger's expense.\nRESERVATIONS - Ail seats are reserved. Advance reservations\nwelcomed and will be held until time agreed upon for purchase of tickets.\nAll reservations on other than originating flight from city where\nticket is purchased are subject to cancellation, unless passenger contacts\nflight departure time or within 30 minutes after arrival by air at such city.\nThe company may cancel any reservation when such action is neces-\nsary for safety or other cause, and the passenger's sole recourse shall be\nrecovery of the refund value of the ticket.\nSCHEDULES - All flights schedules are subject to change or cancellation\nwithout notice.\nSERVICE CHARGE - Any passenger failing to occupy reserved space\nwhose reservation is not cancelled prior to scheduled flight departure\ntime, will be assessed a service charge of 25 per cent of the one way\nfare when ticket is presented for refund or passage.\nUSE NEW AIR PARCEL POST SERVICE\n(RATES FROM YOUR LOCAL POSTMASTER)\nCITY\nRESERVATIONS\nTICKET OFFICE\nAlbany, N. Y.\nBaltimore, Md\nBermuda\nBurlington,\nVt.\nCornwall, Ont.\nGlens Falls,\nN.\nLake Placid,\n, N.\nMassena,\nN. Y\nY\nY.\nMontreal, Que.\nNew York, N. Y.\nNewark, N. J.\nOttawa,\nOnt.\nPlattsburg, N.\nPlugsbergsie, N. ...\nReading,\nPa.\nRutland\nVt.\nSaranac Lake,\nN. Y...\nSchenectady,\nN.\nY.\nScranton,\nPa.\nSyracuse,\nN. Y.\nTroy,\nWashington,\nWatertown, N. C...\nWilkes-Barre, Pa. ....\nRiverside\n8-3578\nAirport Terminal ....\n2575\n2004\nAirport Terminal\nZenith\n4600\nFront Street, Hamilton\n.4-7000\nAirport Terminal\nMassena Airport Terminc\n2-5855\nAirport Terminal\nSaranac Lake..1135\nAirport Terminal\n1008\nAirport Terminal\nMArquette .....\n2201\n1409 Peel Street\nMUrray Hill 6-5515\n51 Vanderbilt Ave., Manhattan\nHotel St. George, Brooklyn\nAsk for ....WX-6560\n5-7281\nChateau\n1983\nAirport\nLaurier\nTerminal\nAirport\nTermina\n4-8336\n2762\n1135\n2-3100\n2-3289\n2-2253\nEnterprise\n9661\nEXecutive\n2011\nDexter\nWilkes-Barre\n51\n3-4194\nAirport\nTermina\nAirport\nTerminal\nAirport Terminal\n....\nAlbany Airport Terminal\nAirport Terminal\nOnondaga\nHotel\n...\n...•\nAlbany Airport Terminal\nNational Airport Terminal\nAirport\nTerminal\nAirport\nTerminal\nRESERVATIONS MAY BE MADE THROUGH YOUR LOCAL TRAVEL AGENT\nAT NO EXTRA COST.\n1224"
    ],
    "millsfield:images_texts_ids": [
      1762713913,
      1762713915
    ],
    "millsfield:primary_image": 1762713913,
    "millsfield:subcategory_id": 1511213425,
    "mz:is_current": 1,
    "sfomuseum:accession_number": "2014.156.224",
    "sfomuseum:airline": "Colonial Airlines",
    "sfomuseum:airline_id": [
      322
    ],
    "sfomuseum:category": "Scheduling / Ticketing",
    "sfomuseum:classification_id": 158,
    "sfomuseum:collection": "Aviation Archive",
    "sfomuseum:creditline": "Gift of Captain Jon Simmonds",
    "sfomuseum:date": "1948",
    "sfomuseum:date_acquired": "2015-02-02",
    "sfomuseum:daterange_end": "1948-12-31",
    "sfomuseum:daterange_start": "1948-01-01",
    "sfomuseum:description": "Timetable issued by Colonial Airlines, effective September 26, 1948; fold-out format; green and white cover with image of airplane in flight [Douglas DC-4?], promoting service to Canada, USA, and Bermuda.",
    "sfomuseum:dimensions": "9 x 4 inches (22.9 x 10.2 cm)",
    "sfomuseum:medium": "paper, ink",
    "sfomuseum:object_id": 163726,
    "sfomuseum:placetype": "object",
    "sfomuseum:publication": ": , 1948.",
    "sfomuseum:subcategory": "Timetable",
    "src:geom": "sfomuseum#undetermined",
    "wof:belongsto": [
      102527513,
      1159162825,
      102191575,
      85633793,
      102087579,
      85922583,
      85688637,
      1159160869
    ],
    "wof:country": "XY",
    "wof:created": 1641339523,
    "wof:depicts": [
      1159286989,
      1159284187
    ],
    "wof:geomhash": "c281b9d9eefc83b5710e64b9d646067d",
    "wof:hierarchy": [
      {
        "building_id": -1,
        "campus_id": 102527513,
        "collection_id": 1159162825,
        "concourse_id": 1159162825,
        "continent_id": 102191575,
        "country_id": 85633793,
        "county_id": 102087579,
        "custom_id": 1762679919,
        "locality_id": 85922583,
        "neighbourhood_id": -1,
        "object_id": 1762679919,
        "region_id": 85688637,
        "wing_id": 1159160869
      }
    ],
    "wof:id": 1762679919,
    "wof:lastmodified": 1787988192,
    "wof:name": "timetable: Colonial Airlines",
    "wof:parent_id": 1159162825,
    "wof:placetype": "custom",
    "wof:placetype_alt": [
      "object"
    ],
    "wof:repo": "sfomuseum-data-collection",
    "wof:superseded_by": [],
    "wof:supersedes": []
  },
  "bbox": [
    -122.38647222518921,
    37.6161053594541,
    -122.38583385944366,
    37.61661101879963
  ],
  "geometry": {"type":"Polygon","coordinates":[[[-122.38647222518921,37.61631782178288],[-122.386434674263,37.61623283692423],[-122.38637566566466,37.61617759671399],[-122.38630056381224,37.6161308549656],[-122.38616108894348,37.6161053594541],[-122.38602161407469,37.6161308549656],[-122.38591432571411,37.61618609521055],[-122.38585531711577,37.61626683087935],[-122.38583385944366,37.61636881265146],[-122.38587141036987,37.61646654505181],[-122.38594114780425,37.61654303118856],[-122.38605380058287,37.61660252035167],[-122.38618254661559,37.61661101879963],[-122.3863059282303,37.61657277577607],[-122.3864185810089,37.61650903735973],[-122.3864668607712,37.61641130501523],[-122.38647222518921,37.61631782178288]]]}
}
