{
  "id": 1913796591,
  "type": "Feature",
  "properties": {
    "date:cessation_lower": "1936-10-19",
    "date:cessation_upper": "1936-10-19",
    "date:inception_lower": "1936-10-19",
    "date:inception_upper": "1936-10-19",
    "edtf:cessation": "1936-10-19",
    "edtf:inception": "1936-10-19",
    "geom:area": 2.475047457570636e-7,
    "geom:bbox": "-122.386472,37.616105,-122.385834,37.616611",
    "geom:latitude": 37.61635747477365,
    "geom:longitude": -122.38615540108617,
    "millsfield:airline_id": [
      1159284991
    ],
    "millsfield:category_id": 1511214251,
    "millsfield:collection_id": 1511214207,
    "millsfield:company_id": [
      1159286839
    ],
    "millsfield:images": [
      1913802415,
      1913802419
    ],
    "millsfield:images_colors_refs": {
      "crayola": [
        {
          "hex": "#85754e"
        },
        {
          "hex": "#bab86c"
        },
        {
          "hex": "#edd19c"
        },
        {
          "hex": "#714b23"
        }
      ],
      "css4": [
        {
          "hex": "#696969"
        },
        {
          "hex": "#eee8aa"
        },
        {
          "hex": "#deb887"
        },
        {
          "hex": "#f0e68c"
        },
        {
          "hex": "#556b2f"
        }
      ],
      "marekm4": [
        {
          "hex": "#867947"
        },
        {
          "hex": "#49421c"
        },
        {
          "hex": "#e6d69e"
        },
        {
          "hex": "#d4bf74"
        },
        {
          "hex": "#554d24"
        },
        {
          "hex": "#d1bc75"
        },
        {
          "hex": "#e7d79a"
        }
      ]
    },
    "millsfield:images_texts": [
      "STRICTLY CONFIDENTIAL\nlr• H. l. Bixby,\nVice President for China,\nPan American Airways Company,\n507 Dollar Bldg., 51 Canton Rd.,\nShanghai, China.\nDear Mr. Bixby:\nOctober 19, 1936\nDM 10|28\nI have received your letter No. 456, of September\n• 23,\nwith\nwhich you enclosed original of Permit issued by the Director of Air Ser-\nvices at long Kong, granting P.A.A. the right to operate in Hong Kong\ndor aver toat is permit and ben issued to an er ho to one.\nbecause, oi course, trans-Pacific service is operated by Pan American\nAirways Company and all our correspondence with the British with reference\nto Hong Kong rights refers specifically to \"Company.\"\nI can't imagine\nwhere the Director of Air Services ever got the idea of putting in the\nname of Pan American Airways, Inc. I immediately cabled you to have this\nchanged and as it is obviously merely a clerical error feel sure you will\nhave no difficulty, but, of course, it leaves us without a valid permit\nfor that much longer.\nI assume, however, that it will not interfere with\nMr. Trippe's proposed flight from Manila to Hong Kong on Pan American\nAirways Company's plane.\nWith regard to the text of the permit, you eall attention to\nthe changed wording in Section 1. Of course, this is not nearly so\nsatisfactory as the wording in the letter from the British Air Ministry,\nalthough it would amount to pretty much the same thing if the British\nwished to cancel.\nHowever, there is a good deal of difference between\nan automatic cancéllation, and a mere right to cancel. For example, if\nthere were some delay in negotiations looking to the extension of\nrights to the British after rights had been granted to some other nation,\npresumably this permit would be invalid during that period, whereas under\nthe former wording this permit could have remained in effect until such\ntime as the British gave up hope of obtaining the reciprocal rights.\nAgain I cannot understand why the Colonial authorities in Hong Kong\nthought it necessary to change the language proposed by their home govern-\nThe words typed onto the end of the permit \"as circumstances\nmay require\" are decidedly vague and the more you think about them the\nless you can understand what they are intended to mean.\nThis again seems\nto have been a contribution by the Hong Kong authorities.\nOn the whole, of course, we feel that there ia nothing to do\nbut to accept this permit in its present form and to see what developments\nare during the first year; this, of course, subject to the change in the\nname of the company which is imperative.\nOne reason we do not like the langusge of Section 1 in the present\npermit is that it makes it appear as though this Company had made a sort of\ntrade and given assurances, if not guarantees, that certain rights would be\nextended to the British and that our rights would be cancelled if we did not",
      "October 19, 1936\nMr. H. M. Bixby, - #2.\nmake good on these guarantees.\nOf course, that is not at all true and it\nshould be\nobvious to anyone that this Company cannot give any assurances\nas to what action the United States Government will take on any given\nquestion.\nIf this were a signed contract this criticism might be serious,\nbut inasmuch as it is merely an unilateral permit and bears no evidence of\nhaving been negotisted, I assume that we cannot be held responsible by\nanyone for the language it contains.\nI have just received your long and very interesting personal\nletter of September 21 discussing a number of confidential subjects.\nThis\nLetter was mailed, of course, before you learned that ir• Trippe was himself\ngoing to the Far Last. It will be a great help to you, I am sure, to nave\nthe opportunity to cover these important matters with him personally and\nI shall be much interested to learn of his reactions and what yau decide to\ndo. I have no comment to make and I am entirely in agreement with all of\nyour observations except that I am a little bit sceptical with regard to\nyour listing as one of our assets in CNAC \"our interest in Route 5.\"\nDue to our failure during the last three years to conclude any permanent\nor long term agreement with CNAC covering the operations of Route 3 it woudd\nseem that our interest in Route 3 is wholly dependent upon a temporary\noperating agreement, cancellable by our Chinese friends on 30 days! notice.\nThis seems to be a rather precarious ground for bargain and sale.\nI refer now to your letter of September 26, addressed to Mr. Van\nZandt with regard to the extension of Imperial and K.N.I.L.M. to Maniln, in\nwhich you make the suggestion that it would be a good thing if we could\narrange to have the Philippine domestic lines, with our participation,\nmeet the foreign airlines outside the Philippines or possibly you also\nhave in mind meeting the foreign airlines at a port of entry on the south\ncoast of the Philippine Islands.\nWith regard to this plan, I would like to\nsubmit a thought:\nThe establishment of a precedent in the Philippines\nunder which foreign international operators would be compelled to turn over\ntheir traffic to Philippine domestic companies at a point just outside the\nPhilippines or on the coast (border) might be very embarrassing so far as\nPan American Airweys System as a whole is concerned.\nYou can readily see\nthat if this practice were adopted by just a few countries in our Latin\nAmerican field, it might paralize our whole system. It is, in fact, our\nNo. 1 nightmare that someday we may be faced with the demand that our\ninternational planes stop at a frontier and turn over the traffic to a\ndomestic company to carry through that country and turn over in turn to a\ndomestic company of the next country and so on. I do not need to elaborate\non this as you can readily think it out for yourself.\nwe participate in the ownership of the domestic company would not improve\nthe situation very much, and not at all as regards Washington. Of course,\nthe Philippines are not latin America and it may be that some plan could be\nwe are going to be faced with this difficulty in any case, but the above will\ngive you something to raminate on in your spare time, if you have any, and\nwill also serve as a reminder although none is probably needed, that\nanything we do even in the farthest outpost of the system is liable to\nhave iss serious repercussions elsewhere.\nYours very truly,\nS. T. Morgan.\ncci President"
    ],
    "millsfield:images_texts_ids": [
      1913802415,
      1913802419
    ],
    "millsfield:primary_image": 1913802415,
    "millsfield:subcategory_id": 1511213489,
    "mz:is_approximate": 1,
    "mz:is_current": 1,
    "sfomuseum:accession_number": "2019.121.0939 a b",
    "sfomuseum:airline": "Pan American Airways",
    "sfomuseum:airline_id": [
      685
    ],
    "sfomuseum:category": "Employee Career History",
    "sfomuseum:classification_id": 195,
    "sfomuseum:collection": "Aviation Archive",
    "sfomuseum:creditline": "Collection of SFO Museum",
    "sfomuseum:date": "10/19/1936",
    "sfomuseum:date_acquired": "2019-11-22",
    "sfomuseum:daterange_end": "1936-10-19",
    "sfomuseum:daterange_start": "1936-10-19",
    "sfomuseum:description": "Typewritten letter from S. [Stokely] W. Morgan to Harold M. Bixby, dated October 19, 1936; marked “Strictly confidential”; includes description of concerns with draft of permit issued by government of Hong Kong as well as thoughts on contract negotiations for service within the Philippines; mentions Mr. [Juan] Trippe.",
    "sfomuseum:dimensions": "11 x 8 1/2 inches (27.9 x 21.6 cm)",
    "sfomuseum:medium": "paper, ink",
    "sfomuseum:object_id": 211302,
    "sfomuseum:placetype": "object",
    "sfomuseum:publication": ": , 10/19/1936.",
    "sfomuseum:subcategory": "Correspondence, Personal",
    "src:geom": "sfomuseum#undetermined",
    "wof:belongsto": [
      102527513,
      1159162825,
      102191575,
      85633793,
      102087579,
      85922583,
      85688637,
      1159160869
    ],
    "wof:country": "XY",
    "wof:created": 1714549138,
    "wof:depicts": [
      1159286839,
      1159284991
    ],
    "wof:geomhash": "c281b9d9eefc83b5710e64b9d646067d",
    "wof:hierarchy": [
      {
        "building_id": -1,
        "campus_id": 102527513,
        "collection_id": 1159162825,
        "concourse_id": 1159162825,
        "continent_id": 102191575,
        "country_id": 85633793,
        "county_id": 102087579,
        "custom_id": 1913796591,
        "locality_id": 85922583,
        "neighbourhood_id": -1,
        "object_id": 1913796591,
        "region_id": 85688637,
        "wing_id": 1159160869
      }
    ],
    "wof:id": 1913796591,
    "wof:lastmodified": 1787988220,
    "wof:name": "correspondence: S.W. Morgan to Harold M. Bixby",
    "wof:parent_id": 1159162825,
    "wof:placetype": "custom",
    "wof:placetype_alt": [
      "object"
    ],
    "wof:repo": "sfomuseum-data-collection",
    "wof:superseded_by": [],
    "wof:supersedes": []
  },
  "bbox": [
    -122.38647222518921,
    37.6161053594541,
    -122.38583385944366,
    37.61661101879963
  ],
  "geometry": {"type":"Polygon","coordinates":[[[-122.38647222518921,37.61631782178288],[-122.386434674263,37.61623283692423],[-122.38637566566466,37.61617759671399],[-122.38630056381224,37.6161308549656],[-122.38616108894348,37.6161053594541],[-122.38602161407469,37.6161308549656],[-122.38591432571411,37.61618609521055],[-122.38585531711577,37.61626683087935],[-122.38583385944366,37.61636881265146],[-122.38587141036987,37.61646654505181],[-122.38594114780425,37.61654303118856],[-122.38605380058287,37.61660252035167],[-122.38618254661559,37.61661101879963],[-122.3863059282303,37.61657277577607],[-122.3864185810089,37.61650903735973],[-122.3864668607712,37.61641130501523],[-122.38647222518921,37.61631782178288]]]}
}
