{
  "id": 1913871975,
  "type": "Feature",
  "properties": {
    "date:cessation_lower": "1985-01-01",
    "date:cessation_upper": "1985-12-31",
    "date:inception_lower": "1985-01-01",
    "date:inception_upper": "1985-12-31",
    "edtf:cessation": "1985~",
    "edtf:inception": "1985~",
    "geom:area": 2.475047457570636e-7,
    "geom:bbox": "-122.386472,37.616105,-122.385834,37.616611",
    "geom:latitude": 37.61635747477365,
    "geom:longitude": -122.38615540108617,
    "millsfield:aircraft_id": [
      1159291267
    ],
    "millsfield:airline_id": [
      1159283779
    ],
    "millsfield:category_id": 1762671311,
    "millsfield:collection_id": 1511214207,
    "millsfield:company_id": [
      1159293561,
      1159291259
    ],
    "millsfield:images": [
      1913872029,
      1913872031,
      1913872033
    ],
    "millsfield:images_colors_refs": {
      "crayola": [
        {
          "hex": "#757575"
        },
        {
          "hex": "#2e5894"
        },
        {
          "hex": "#1a4876"
        },
        {
          "hex": "#9fe2bf"
        },
        {
          "hex": "#979aaa"
        },
        {
          "hex": "#b0b7c6"
        },
        {
          "hex": "#414a4c"
        },
        {
          "hex": "#6dae81"
        }
      ],
      "css4": [
        {
          "hex": "#8fbc8f"
        },
        {
          "hex": "#191970"
        },
        {
          "hex": "#2f4f4f"
        },
        {
          "hex": "#a9a9a9"
        },
        {
          "hex": "#808080"
        },
        {
          "hex": "#483d8b"
        },
        {
          "hex": "#708090"
        }
      ],
      "marekm4": [
        {
          "hex": "#21335d"
        },
        {
          "hex": "#233e84"
        },
        {
          "hex": "#1b2e33"
        },
        {
          "hex": "#94c2aa"
        },
        {
          "hex": "#203160"
        },
        {
          "hex": "#76b297"
        },
        {
          "hex": "#2f588f"
        },
        {
          "hex": "#77aa8f"
        },
        {
          "hex": "#70926e"
        },
        {
          "hex": "#5f8f75"
        },
        {
          "hex": "#9ec1aa"
        },
        {
          "hex": "#7bb093"
        },
        {
          "hex": "#254687"
        },
        {
          "hex": "#8ab89d"
        }
      ]
    },
    "millsfield:images_texts": [
      "air zaire\nconsignes\nde securite\nsafety\ninstructions\nDC-10-30",
      "Ceinture.\nAttachez et serrez votre ceinture lorsque les\npanneaux lumineux sont allumes; nous vous\nrecommandons de conserver votre ceinture\nbouclée mais non serée, pendant toute la\ndurée du vol: vous serez ainsi portégé des\nturbulences imprévues.\nCigarettes.\nNe fumez pas dans les toilettes et lorsque\nles panneaux lumineux sont allumés.\nN'utilisez pas votre radio portative: elle\nrisque de dérégler les appareils de navigation.\nAu décollage et à l'atterrissage:\nredressez votre dossier.\nSi le masque à oxygène se présente,\nl'appliquer sur le visage. Eteindre\nles cigarettes.\nSeat belt.\nPlease fasten your seat belt and keep it\nfastened as long as the luminous sign is on.\nWe recommend that you keep it loosely\nfastened throughout the flight as a protection\nagainst unexpected turbulence.\nVotre gilet de sauvetage est\nlogé dans un sac sous votre\nsiège. - Pour L'utiliser,\npassez-le par la tête, attachez\nles boucles des sangles aux\ncrochets, serrez à la taille.\nATTENTION:\nne le gonflez qu'à la sortie\nde l'avion en tirant sur les\ndeux cordons en bas du gilet.\nCigarettes.\nPlease do not smoke as long as\nthe luminous sign is on or in the toilets at\nany time.\nDo not use your portable radio; it may inter-\nfere with navigation instruments.\nYour life jacket is under-\nneath your seat. To put it\non: slip it over your head,\nfasten the loops of the\nstraps onto the hooks pro-\nvided, pull in at the waist\nuntil comfortable.\nATTENTION:\nupon leaving the aircraft\n(never before), pull firmly\ndown on the two cords at\nthe bottom: the jacket will\ninflate automatically\nSi l'enfant est petit,\nplacez les sangles autour de\nsa taille, serrez et nouez les\ndans le dos. Pour gonfler, tirez\nseulement une poignée\nIf a small child, place the tab\nstraps around the waist, tighten\nand tie in back. To inflate, pull\nonly one handle.\nDuring take-off and landing adjust your seat\nto an upright position\n5\nIf the oxygen-masks come into view,\ntake the nearest mask, and hold it to\nyour face. Extinguish all smoking\nmaterials.\nEn cas d'atterrissage forcé\nou d'un amerrissage:\nObéissez aux ordres de l'équipage ;\nredressez votre dossier; conservez\nla position d'impact jusqu'à l'arrêt\ncomplete de l'avion.\nIn case of an emergency landing\nor a ditching:\nFollow the crew's orders; adjust\nyour seat to an upright position;\nremain in the bracing position\nuntil the aircraft\nhas completely stopped.",
      "Plan d'évacuation.\nEmergency exits.\n/C\nToboggan\nEmergency chute\nVotre avion est équipé de toboggan-\nradeaux: en cas d'amerrissage les\ntoboggans sont utilisés comme radeaux.\nThe DC-19 is equipped with emer-\ngency slide rafts: in case of ditching\nthe slides are used as rafts.\nRadeau de sauvetage. Life raft.\n2002.127.048"
    ],
    "millsfield:images_texts_ids": [
      1913872029,
      1913872031,
      1913872033
    ],
    "millsfield:primary_image": 1913872029,
    "millsfield:subcategory_id": 1511213703,
    "mz:is_approximate": 1,
    "mz:is_current": 1,
    "sfomuseum:accession_number": "2002.127.048",
    "sfomuseum:aircraft": "McDonnell Douglas DC-10-30",
    "sfomuseum:aircraft_id": [
      868
    ],
    "sfomuseum:airline": "Air Zaire",
    "sfomuseum:airline_id": [
      138
    ],
    "sfomuseum:category": "Passenger Amenity, Archive",
    "sfomuseum:classification_id": 581,
    "sfomuseum:collection": "Aviation Archive",
    "sfomuseum:creditline": "Gift of Thomas G. Dragges",
    "sfomuseum:date": "c. 1985",
    "sfomuseum:date_acquired": "2003-12-22",
    "sfomuseum:daterange_end": "1990-12-31",
    "sfomuseum:daterange_start": "1980-01-01",
    "sfomuseum:description": "Safety information card issued by Air Zaire for the McDonnell Douglas DC-10-30 fleet; green and blue double-sided bi-fold card with illustrations and photographic images depicting inflight safety and emergency procedures; no identification code; no revision date.",
    "sfomuseum:dimensions": "11 x 6 inches (27.9 x 15.2 cm)",
    "sfomuseum:medium": "paper, ink",
    "sfomuseum:object_id": 68365,
    "sfomuseum:placetype": "object",
    "sfomuseum:publication": ": , c. 1985.",
    "sfomuseum:subcategory": "Safety Information Card",
    "src:geom": "sfomuseum#undetermined",
    "wof:belongsto": [
      102527513,
      1159162825,
      102191575,
      85633793,
      102087579,
      85922583,
      85688637,
      1159160869
    ],
    "wof:country": "XY",
    "wof:created": 1715153567,
    "wof:depicts": [
      1159293561,
      1159291259,
      1159283779,
      1159291267
    ],
    "wof:geomhash": "c281b9d9eefc83b5710e64b9d646067d",
    "wof:hierarchy": [
      {
        "building_id": -1,
        "campus_id": 102527513,
        "collection_id": 1159162825,
        "concourse_id": 1159162825,
        "continent_id": 102191575,
        "country_id": 85633793,
        "county_id": 102087579,
        "custom_id": 1913871975,
        "locality_id": 85922583,
        "neighbourhood_id": -1,
        "object_id": 1913871975,
        "region_id": 85688637,
        "wing_id": 1159160869
      }
    ],
    "wof:id": 1913871975,
    "wof:lastmodified": 1787988220,
    "wof:name": "safety information card: Air Zaire, McDonnell Douglas DC-10-30",
    "wof:parent_id": 1159162825,
    "wof:placetype": "custom",
    "wof:placetype_alt": [
      "object"
    ],
    "wof:repo": "sfomuseum-data-collection",
    "wof:superseded_by": [],
    "wof:supersedes": []
  },
  "bbox": [
    -122.38647222518921,
    37.6161053594541,
    -122.38583385944366,
    37.61661101879963
  ],
  "geometry": {"type":"Polygon","coordinates":[[[-122.38647222518921,37.61631782178288],[-122.386434674263,37.61623283692423],[-122.38637566566466,37.61617759671399],[-122.38630056381224,37.6161308549656],[-122.38616108894348,37.6161053594541],[-122.38602161407469,37.6161308549656],[-122.38591432571411,37.61618609521055],[-122.38585531711577,37.61626683087935],[-122.38583385944366,37.61636881265146],[-122.38587141036987,37.61646654505181],[-122.38594114780425,37.61654303118856],[-122.38605380058287,37.61660252035167],[-122.38618254661559,37.61661101879963],[-122.3863059282303,37.61657277577607],[-122.3864185810089,37.61650903735973],[-122.3864668607712,37.61641130501523],[-122.38647222518921,37.61631782178288]]]}
}
