{
  "id": 1913795387,
  "type": "Feature",
  "properties": {
    "date:cessation_lower": "1933-09-23",
    "date:cessation_upper": "1933-09-23",
    "date:inception_lower": "1933-09-23",
    "date:inception_upper": "1933-09-23",
    "edtf:cessation": "1933-09-23",
    "edtf:inception": "1933-09-23",
    "geom:area": 2.475047457570636e-7,
    "geom:bbox": "-122.386472,37.616105,-122.385834,37.616611",
    "geom:latitude": 37.61635747477365,
    "geom:longitude": -122.38615540108617,
    "millsfield:airline_id": [
      1159284991,
      1159285931
    ],
    "millsfield:category_id": 1511214251,
    "millsfield:collection_id": 1511214207,
    "millsfield:company_id": [
      1159286721
    ],
    "millsfield:images": [
      1913801033,
      1913801035,
      1913801037
    ],
    "millsfield:images_colors_refs": {
      "crayola": [
        {
          "hex": "#414a4c"
        },
        {
          "hex": "#9f8170"
        },
        {
          "hex": "#6e5160"
        },
        {
          "hex": "#eceabe"
        }
      ],
      "css4": [
        {
          "hex": "#808080"
        },
        {
          "hex": "#f5deb3"
        },
        {
          "hex": "#2f4f4f"
        },
        {
          "hex": "#696969"
        }
      ],
      "marekm4": [
        {
          "hex": "#ebe0be"
        },
        {
          "hex": "#8c8878"
        },
        {
          "hex": "#525254"
        },
        {
          "hex": "#e4dcbf"
        },
        {
          "hex": "#535252"
        },
        {
          "hex": "#e3dbb9"
        },
        {
          "hex": "#5b5851"
        }
      ]
    },
    "millsfield:images_texts": [
      "23rd September 1933.\nShanghai.\nPersonal \u0026 Confidential•\nLetter No.\nMr. S. W. Morgan, President,\nPacific American\nAirways,\nNew York:\nDear lit. Morgan,\nThis is tufirst opportunity that I have had to\nanswer your letter No.83, and am dictating this letter on Sunday\nto estch the Empress of Russia the first bost to sail tomorrow\nmorning)since regeipt of your letter regarding Howard.\nis an extremelyaletter tor me to write because of my warm personal\nfriendship for Howard, and the personal gratitiestion which I\nwould have in being associated with him.\nIn my opinion, he is\nqualified in every way to represent Pan American Airweys as\nDivision Manager of the Company's Fer Eastern operation. He hos\nthe complete confidence of every one with whom he came in contact\nduring his stay in China.\nHe has a good general knowledge of\nChinese economice and political affairs, and he is possessed of\na happy faculty of getting along with the Chinese. I hope you\nwill pardon my frequent reference to this quality; as a matter of\nTact, it is hard to over-estimate the importance of this charac-\nteristic.\nSome-one has defined the word \"gentleman\" as a \"man\nwho is always considerate of others\"\nThere is ho country which\nI have ever visited where the quality o breeding and gentlemanly\nconduot is as important as in Chine.\nA report of the slightest\naffront to the lowest coolie will quickly travel to the highest\nofficials, and the party guilty of such conduct toward any Chinese\nwill tind\nhimself blocked in any undertaking which he may attempt\nwithout ever knowing the reason. why such obstacles are thrown in\nhis way.\nHoward is keenly aware of this sensitiveness and pride\non the part of the Chinese. I weld never have to worry about his\nconduct in that regard.\nHe is correot in his statement that he has had\nconsiderably experience in conducting negotiations with Chinese\nofficials.\nIn those negotiations he was tactful and straight-\nforward; he is inclined to take things very seriously and to\ncarry his problems home with himto worry over all night, walen\nHoward has undoubtedly received\nother offers to return to Chine as lepresentative of various\nconcerns desiring to sell products to the Chinese Government.\nHe would undoubtedly rather join Pan American Airways.\nHe is\nnot a man who will impress you with his quickness, he is in no\nsenge \u0026 high pressure salesman, and his strength lies almost\nentirely in his wearing qualities.\nAnswering the 3 points enumerated in your letter\nspecifically:-\nA ESTo, (SI.P/os",
      "(2)\nMr. S. \". Morgan, President, New York. Sept. 24th.\n1) In my opinion Howard is qualified for the position\nfor which he is applying.\n2) I do not believe that a second man is necessary at this\nthis time. If we should commence operations to Manila\nand Trans-Pacific, \u0026 Devision Manager would be required\nto cover a very extensive system, anå there should be\nin my opinion a competent man in charge at all times\nat Shanghai or where ever our Far Eastern headquarters\nmay be established.\n3) If Howard should be selected, I think a fair and adequate\ncompensation for him would be the same salary which he\ndrew from the Department of Commerce, the amount of which\nyou can easily determine by consulting Leighton Rogers.\nThe figure which Howard mentioned of G.$7,500 appears to\nme about correct, and would have the additional merit of\ntopping the salaries of anyone working under him, This whole\nsubject 1s one which I would frankly discuss with you\nupon my return to New York along with many other problems\nhaving to do with personel and organization.\nIf in your opinion it is advisable to employ Howard now\nbecause of other offers he is considering or for any\nother reason, I would suggest that he be given an opportu-\nnity to\nnity to fly over the greater part of the routes operated\nby the Pan American system, and be also given a thorough\ntraining in Pan American methods, executive, engineering,\noperations, comminications and traffic, and\nthat he then\nbe sent to China with a view of developing him as a No.2\nman in the Far East division, fully capable of filling\nthe\nNo.1 position.\nAt this point, I believe that it is my duty to say to\nyou at the present writing\nthat I am entirely satisfied with the\nposition which I occupy in the Pan American organization, that I\nbelieve that we shall be successful in our negotiations,\nand that\nI shall be very glad of an opportunity to return to the Far East\nfor the Company•\nIt is my desire to complete the contracts\nwhich I was sent over here to negotiate and then return to New\nYork for the purpose of discussing in details many problems of\nan economica, political and organzing\nnature which cannot be\ncarried out by correspendence.\nI would then like to have\nan @portunity to garden a programme along the line of the one\nFormington so risen the th\neducation. I am writing so agüh fully concerning my personal\naffairs because I believe that you are entitled to know what\nI have in my mind for the future, and so far as that programme\nmay effect the Company's business.\nIt appears now as though I\nwill not be able to complete the work here in less than two\nmonths as a minimum.\nd ESTOl.sI.Plos",
      "(3)\nMr. S. I. Morgan, President, New York.\nAssuming now that you are satisfied with my efforts on\nbehalf of the Company, and that you approve the programme above\noutlined so far as my own movements are concerned, then it will\nbe advisable to employ Howard and sent him out here to take my\nplace while I am home and in any event to provide the Company\nwith a man who is capable of doing my job.\nwith all due modesty,\nthere is no one zen in the present organization for here who is\nqualified to succeed me@ That condition is one which should not\nexist in any well orgenized Company.\nHoward in my opinion has\nall the qualities necessary to represent the Pan Ameriean organiza-\ntion as Division Menager in the Far East, but he undoubtedly needs\ntraning and experience in Pan American methods ( as I do also) in\norder to be of maximum value to the Company.\nWith kindest regards,\nVery sincerely yours,\nH.B.Bixby.\nHMB/MIF\n3 331\nO.S. PIOS"
    ],
    "millsfield:images_texts_ids": [
      1913801033,
      1913801035,
      1913801037
    ],
    "millsfield:primary_image": 1913801033,
    "millsfield:subcategory_id": 1511213489,
    "mz:is_approximate": 1,
    "mz:is_current": 1,
    "sfomuseum:accession_number": "2019.121.0723 a c",
    "sfomuseum:airline": "Pan American Airways",
    "sfomuseum:airline_id": [
      685,
      1131
    ],
    "sfomuseum:category": "Employee Career History",
    "sfomuseum:classification_id": 195,
    "sfomuseum:collection": "Aviation Archive",
    "sfomuseum:creditline": "Collection of SFO Museum",
    "sfomuseum:date": "09/23/1933",
    "sfomuseum:date_acquired": "2019-11-22",
    "sfomuseum:daterange_end": "1933-09-23",
    "sfomuseum:daterange_start": "1933-09-23",
    "sfomuseum:description": "Typewritten letter from Harold M. Bixby to S. [Stokley] W. Morgan, dated September 23, 1933, in Shanghai; letter recommending “Howard” [Major Edward Howard?] for the position of division manager for Pan American Airways’ Far Eastern division; includes Mr. Bixby’s thoughts about his ongoing employment with Pan American, including bringing his family to China.",
    "sfomuseum:dimensions": "11 x 8 1/2 inches (27.9 x 21.6 cm)",
    "sfomuseum:medium": "paper, ink",
    "sfomuseum:object_id": 211071,
    "sfomuseum:placetype": "object",
    "sfomuseum:publication": ": , 09/23/1933.",
    "sfomuseum:subcategory": "Correspondence, Personal",
    "src:geom": "sfomuseum#undetermined",
    "wof:belongsto": [
      102527513,
      1159162825,
      102191575,
      85633793,
      102087579,
      85922583,
      85688637,
      1159160869
    ],
    "wof:country": "XY",
    "wof:created": 1714548778,
    "wof:depicts": [
      1159284991,
      1159285931,
      1159286721
    ],
    "wof:geomhash": "c281b9d9eefc83b5710e64b9d646067d",
    "wof:hierarchy": [
      {
        "building_id": -1,
        "campus_id": 102527513,
        "collection_id": 1159162825,
        "concourse_id": 1159162825,
        "continent_id": 102191575,
        "country_id": 85633793,
        "county_id": 102087579,
        "custom_id": 1913795387,
        "locality_id": 85922583,
        "neighbourhood_id": -1,
        "object_id": 1913795387,
        "region_id": 85688637,
        "wing_id": 1159160869
      }
    ],
    "wof:id": 1913795387,
    "wof:lastmodified": 1787988219,
    "wof:name": "correspondence: Harold M. Bixby to S.W. Morgan",
    "wof:parent_id": 1159162825,
    "wof:placetype": "custom",
    "wof:placetype_alt": [
      "object"
    ],
    "wof:repo": "sfomuseum-data-collection",
    "wof:superseded_by": [],
    "wof:supersedes": []
  },
  "bbox": [
    -122.38647222518921,
    37.6161053594541,
    -122.38583385944366,
    37.61661101879963
  ],
  "geometry": {"type":"Polygon","coordinates":[[[-122.38647222518921,37.61631782178288],[-122.386434674263,37.61623283692423],[-122.38637566566466,37.61617759671399],[-122.38630056381224,37.6161308549656],[-122.38616108894348,37.6161053594541],[-122.38602161407469,37.6161308549656],[-122.38591432571411,37.61618609521055],[-122.38585531711577,37.61626683087935],[-122.38583385944366,37.61636881265146],[-122.38587141036987,37.61646654505181],[-122.38594114780425,37.61654303118856],[-122.38605380058287,37.61660252035167],[-122.38618254661559,37.61661101879963],[-122.3863059282303,37.61657277577607],[-122.3864185810089,37.61650903735973],[-122.3864668607712,37.61641130501523],[-122.38647222518921,37.61631782178288]]]}
}
