{
  "id": 1729564509,
  "type": "Feature",
  "properties": {
    "date:cessation_lower": "1950-01-01",
    "date:cessation_upper": "1950-12-31",
    "date:inception_lower": "1950-01-01",
    "date:inception_upper": "1950-12-31",
    "edtf:cessation": "1950~",
    "edtf:date": "1950~",
    "edtf:inception": "1950~",
    "geom:area": 0,
    "geom:bbox": "-122.386155,37.616357,-122.386155,37.616357",
    "geom:latitude": 37.616357,
    "geom:longitude": -122.386155,
    "iso:country": "AU",
    "millsfield:airline_id": [
      1159284025
    ],
    "millsfield:category_id": 1762671311,
    "millsfield:collection_id": 1511214207,
    "millsfield:company_id": [
      1159286739
    ],
    "millsfield:exhibition_ids": [
      1763594999
    ],
    "millsfield:images": [
      1729565195,
      1729566415,
      1729566417
    ],
    "millsfield:images_colors_refs": {
      "crayola": [
        {
          "hex": "#95918c"
        },
        {
          "hex": "#757575"
        },
        {
          "hex": "#714b23"
        },
        {
          "hex": "#e7c697"
        },
        {
          "hex": "#cd9575"
        },
        {
          "hex": "#9c2542"
        }
      ],
      "css4": [
        {
          "hex": "#a9a9a9"
        },
        {
          "hex": "#808080"
        },
        {
          "hex": "#d2b48c"
        },
        {
          "hex": "#bc8f8f"
        },
        {
          "hex": "#a52a2a"
        },
        {
          "hex": "#8fbc8f"
        },
        {
          "hex": "#800000"
        },
        {
          "hex": "#a0522d"
        }
      ],
      "marekm4": [
        {
          "hex": "#7d9084"
        },
        {
          "hex": "#cec4a2"
        },
        {
          "hex": "#8d463b"
        },
        {
          "hex": "#671f11"
        },
        {
          "hex": "#92947a"
        },
        {
          "hex": "#8b947b"
        },
        {
          "hex": "#7b8876"
        },
        {
          "hex": "#601a14"
        },
        {
          "hex": "#671c10"
        },
        {
          "hex": "#99a38f"
        },
        {
          "hex": "#a3a893"
        },
        {
          "hex": "#992f22"
        },
        {
          "hex": "#ba9474"
        }
      ]
    },
    "millsfield:images_texts": [
      "Flight\nInformation\n1950-51\nBCPA\nBritish Commonwealth\nPacific Airlines Ild.",
      "Your Instrument Panel\n2\nWhat is\nthe time?\nFlying towards the sunrise (i.e., East), one sees the sun earlier than\nit would have been seen from the point of departure. In other words,\nif you fly East you shorten your hours of daylight, and alternatively,\nflying West, you are tending to \"keep up with\" the sun and so\nlengthen your daylight hours.\nTo keep your watches in synchronisation with the daylight, it is\nnecessary to make the following corrections:\nNORTHBOUND\nBetween Sydney and Fiji add\n2 hours.\nBetween Fiji and Canton Is.\nadd | hour (less I day).\nBetween Canton Is. and Hono-\nlulu add 1 hour.\nBetween\nHonolulu and San\nFrancisco add 2 hours.\nBetween\nSan\nFrancisco and\nVancouver add nil.\nBetween Auckland and Fiji add\nnil.\nSOUTHBOUND\nBetween Vancouver and San\nFrancisco subtract nil.\nBetween\nSan\nFrancisco and\nHonolulu subtract 2 hours.\nBetween Honolulu and Canton\nIs. subtract 1 hour.\nBetween\nCanton Is. and Fiji\nsubtract | hour (plus I day).\nBetween Fiji and Sydney sub-\ntract 2 hours.\nBetween\nFili and Auckland\nsubtract nil.\nTHE INTERNATIONAL DATE LINE\nThe International Date Line was created to standardise the com-\nmencing and finishing point of a calendar day. Based on the meridian\nof 180° from Greenwich, it is an arbitrary line drawn on a map from\nNorth to South.\nThe effect\nof the International Date Line is as\nfollows: When you cross the I.D.L. on the northbound trip you must\nimmediately re-commence the 24 hours you have just completed: on\nthe southbound trip the reverse conditions apply and, on crossing\nthe I.D.L., a complete day is omitted. (For example, if you cross the\nI.D.L. at 3 p.m. flying westward on what you know as Tuesday, the\nday immediately becomes 3 p.m. on Wednesday.)\nThe Story of the\n\"SOU\nERN CROSS\" Route\nThe \"Southern Cross\" route,\nnamed\nafter the first plane to fly the Pacific,\nwas pioneered in 1928 by Sir Charles\nKingsford Smith, C. P. T. Ulm, H. W\nLyon and J. Warner. On May 31, 1928,\nthe \"Southern Cross\" took off from Oak-\nland, California, on the first stage of the\nrecord flight to Brisbane, Australia. 27\nhours later, Kingsford Smith made a per-\nfect landing at Hawaii. As soon as the\n\"Southern Cross\" was refuelled and the crew rested, the second stage,\n3,128 trackless miles to Fiji, was begun. Despite instrument trouble,\nthe \"Southern Cross\" landed at Fiji 34 hours later. The flight from Fili\nto Brisbane was made through tropical storms, necessitating much\ninstrument flying.\nHowever, on June 9, after a total of 82 hours 42\nminutes in the air, the \"Southern Cross,\" the first aircraft to negotiate\nthe 7,000 miles across the Pacific, touched down at Brisbane.\nIt is interesting to\ncompare the performance of the \"Southern\nCross\" with that of BCPA's DC-6 Airliners.\nWingspan\nCruising speed\nNumber of engines\nTotal horsepower.\nFuel carried\nAll-up weight\nFlying time across the Pacific\nPersons carried\nAverage altitude..\n\"Southern Cross\"\n71 ft. 8} ins.\n85 m.ph.\nDC-6\n117 ft. 6 ins.\n300 m.p.h.\n660\n1,300 gallons\n7 tons\n82 hrs. 42 mins.\n1,000 ft.\n9,600\n4,240\ngallons\n41} tons\n29 hrs.\n48\n18,000 f\nFor the interest and information of passengers, three instru-\nments are situated above the magazine racks, near the cloak-\nroom.\nThese are:\nCLOCK:\nShowing accurate Local Time.\nAIRSPEED INDICATOR:\nThis instrument shows the Indicated Airspeed (I.A.S.) of the\naircraft and is calibrated fo a standard condition of pressure\nand temperature.\nVariations of these factors,\nsuch as are\nexperienced at height, necessitate corrections to the I.A.S. to\nobtain\nthe\nTrue Airspeed (T.A.S.).\nThe\ncorrections to\nbe\napplied are shown on a scale beside the instrument. As an\nexample, if the aircraft is flying at 18,000 feet and the I.A.S.\nis 220 m.p.h., the T.A.S. of the aircraft is actually 314 m.p.h. at\nstandard temperature for 18,000 ft., which is 21° C.\nI.A.S. and T.A.S. are not to be confused with Ground Speed,\nwhich is the actual speed of the aircraft over the ground. It is\narrived at by taking into consideration wind speed and direc-\ntion and then adding or subtracting this component from the\nT.A.S.\ne.g., T.A.S.\nTail-wind component\nGROUND SPEED\n300 m.p.h.\n30 m.p.h.\n330 m.p.h.\nALTIMETER:\nThis instrument is actually a barometer, calibrated to read in\nthousands and hundreds of feet and gives the height of the\naircraft above sea level. An additional reading, the \"Altitude\"\nof the pressurised cabin, is shown on this Altimeter. This read-\ning shows the altitude represented by the air pressure inside\nthe cabin of your \"pressurised\" airliner.\nOUTH\nERN\nCRO\nROUTE••",
      "PLEASE ACCEPT,\nWITH OUR\nCOMPLIMENTS, THIS\nFOLDER AS A\nSOUVENIR OF YOUR\nFLIGHT WITH\nBCPA"
    ],
    "millsfield:images_texts_ids": [
      1729565195,
      1729566415,
      1729566417
    ],
    "millsfield:on_view": 0,
    "millsfield:primary_image": 1729566415,
    "millsfield:subcategory_id": 1511213565,
    "mz:hierarchy_label": 1,
    "mz:is_current": 1,
    "sfomuseum:accession_number": "2001.145.004",
    "sfomuseum:airline": "British Commonwealth Pacific Airlines (BCPA)",
    "sfomuseum:airline_id": [
      248
    ],
    "sfomuseum:category": "Passenger Amenity, Archive",
    "sfomuseum:classification_id": 241,
    "sfomuseum:collection": "Aviation Archive",
    "sfomuseum:continent": "Australia",
    "sfomuseum:creditline": "Gift of Mrs. Siusiadh Rasmussen",
    "sfomuseum:date": "c. 1950",
    "sfomuseum:date_acquired": "2003-01-02",
    "sfomuseum:daterange_end": "1955-12-31",
    "sfomuseum:daterange_start": "1945-01-01",
    "sfomuseum:description": "Flight information packet issued by British Commonwealth Pacific Airlines (BCPA); blue and red folder only; tri-fold format; includes printed information about international date line, \"Southern Cross\" route, and instrument panels.",
    "sfomuseum:dimensions": "13 1/4 x 8 inches (33.7 x 20.3 cm)",
    "sfomuseum:exhibition_ids": [
      1850
    ],
    "sfomuseum:medium": "paper, metal, ink",
    "sfomuseum:object_id": 77130,
    "sfomuseum:on_view": 1,
    "sfomuseum:placetype": "object",
    "sfomuseum:publication": ": , c. 1950.",
    "sfomuseum:subcategory": "Inflight Information",
    "src:geom": "sfomuseum#undetermined",
    "wof:belongsto": [
      102191583,
      85632793,
      136253039,
      1511214243,
      102527513,
      102191575,
      85633793,
      1511213565,
      85922583,
      102087579,
      1511214277,
      1511214203,
      85688637
    ],
    "wof:breaches": [],
    "wof:country": "AU",
    "wof:created": 1618962249,
    "wof:depicts": [
      1159284025,
      1159286739
    ],
    "wof:geomhash": "30c8a918561c84bb2daa2b97fc7c5353",
    "wof:hierarchy": [
      {
        "continent_id": 102191583,
        "country_id": 85632793,
        "custom_id": 1729564509,
        "empire_id": 136253039,
        "object_id": 1729564509,
        "venue_id": 1729564509
      },
      {
        "arcade_id": 1511213565,
        "building_id": 1511214277,
        "campus_id": 102527513,
        "concourse_id": 1511214243,
        "continent_id": 102191575,
        "country_id": 85633793,
        "county_id": 102087579,
        "custom_id": 1729564509,
        "locality_id": 85922583,
        "neighbourhood_id": -1,
        "object_id": 1729564509,
        "region_id": 85688637,
        "venue_id": 1729564509,
        "wing_id": 1511214203
      }
    ],
    "wof:id": 1729564509,
    "wof:lastmodified": 1787988190,
    "wof:name": "flight information packet: British Commonwealth Pacific Airlines (BCPA)",
    "wof:parent_id": 1159162825,
    "wof:placetype": "custom",
    "wof:placetype_alt": [
      "object"
    ],
    "wof:repo": "sfomuseum-data-collection",
    "wof:superseded_by": [],
    "wof:supersedes": [],
    "wof:tags": []
  },
  "bbox": [
    -122.386155,
    37.616357,
    -122.386155,
    37.616357
  ],
  "geometry": {"type":"Point","coordinates":[-122.386155,37.616357]}
}
