{
  "id": 1511935595,
  "type": "Feature",
  "properties": {
    "date:cessation_lower": "1969-01-01",
    "date:cessation_upper": "1969-12-31",
    "date:inception_lower": "1969-01-01",
    "date:inception_upper": "1969-12-31",
    "edtf:cessation": "1969",
    "edtf:date": "1969",
    "edtf:inception": "1969",
    "geom:area": 0,
    "geom:bbox": "-122.386155,37.616357,-122.386155,37.616357",
    "geom:latitude": 37.616357,
    "geom:longitude": -122.386155,
    "iso:country": "XX",
    "millsfield:airline_id": [
      1159284119
    ],
    "millsfield:category_id": 1511214223,
    "millsfield:collection_id": 1511214207,
    "millsfield:company_id": [
      1159288143
    ],
    "millsfield:images": [
      1527832167,
      1527844241
    ],
    "millsfield:images_colors_refs": {
      "crayola": [
        {
          "hex": "#979aaa"
        },
        {
          "hex": "#1a4876"
        },
        {
          "hex": "#a2add0"
        },
        {
          "hex": "#4a646c"
        }
      ],
      "css4": [
        {
          "hex": "#a9a9a9"
        },
        {
          "hex": "#708090"
        },
        {
          "hex": "#778899"
        },
        {
          "hex": "#2f4f4f"
        },
        {
          "hex": "#483d8b"
        }
      ],
      "marekm4": [
        {
          "hex": "#32416f"
        },
        {
          "hex": "#738da7"
        },
        {
          "hex": "#52668d"
        },
        {
          "hex": "#93aebe"
        },
        {
          "hex": "#2e3e73"
        },
        {
          "hex": "#536990"
        },
        {
          "hex": "#96b0bf"
        }
      ]
    },
    "millsfield:images_texts": [
      "1112\n10\n9\n8\n2\n3\nAERO\n7 6 5\nCOMMUTER\nand CATALINA AIR LINES\nADDITIONAL SERVICE\nCOMMENCING MARCH 28\nTHROUGH APRIL 29, 1969\nNOTE:\nFlight #707—Palm Springs to Los Angeles\nhas been deleted. A new flight, #705 de-\nparts Palm Springs at 7:05A, arrives On-\ntario at 7:40A. Departs Ontario at 7:50A,\narrives Los Angeles at 8:15A, at Western\nAirlines Satellite.\nTOMORROW'S SERVICE TODAY!",
      "11 2 1\nAERO\n765\nCOMMUTER\nCATALINA AIR LINES\nTOMORROW'S SERVICE...TODAY!\nFLIGHT\nNUMBER\nARRIVE\nLEAVE,\nCONNECTING FLIGHTS\nSTOPS\nFREQUENCY\nFROM BAKERSFIELD\nTo LOS ANGELES -\nFare $15.71\nTo VAN NUYS\nFare $14.50\n— 3:50P\n5:00P 641\nVan Nuys\nFlag stop\nBur.\nDaily\n3:50P\n4:35P\n641\nDaily\nFROM COLTON\nTo LOS ANGELES\nFare $10.52\n6:00A\n6:40A 071\n8:20A\n9:00A 073\n9:50A\n10:30A 075\n11:00A\n11:40A 077\n1:40P\n2:45P\n2:20P\n3:25P\n076\n581\n4:00P\n6:20P\n4:40P\n082\n7:00P\n083\n7:50P\n9:50P\n8:30P\n084\n110:30P|085\nAll flights use TWA Satellite.\nEx. Sat.\nDaily\nEx.\nSat.\nDaily\nEx.\nSat.\nEX.\nSat.\nEx.\nSat.\nEx.\nSat.\nDaily\nEx.\nSat.\nFROM ONTARIO\nTo LOS ANGELES\nFare $7.62\n6:00A\n6:30A\n1001\n6:40A\n7:10A\n002\n7:45A\n8:20A\n171\n7:50A\n8:00A\n8:15A\n8:30A\n705\n003\n8:20A\n9:50A\n8:50A\n909\n10:20A\n713\n10:25A\n005\nFlag\nstop Ont.\n9:55A\n11:20A\n1:05P\n11:50A\n1:35P\n001\n925\n2:55P\n3:25P\n4:10P\n176\n4:40P\n010\n6:20P\n6:50P\n7:40P\n8:10P\n011\n01\n9:00P\n9:30P\n015\n9:10P\n9:35P\n959\n10:25P |10:55P\n016\nEx.\n• Sat.\nEx.\nSat.\nDaily\nDaily\nDaily\nDaily\nDaily\nDaily\nEx.\nSat.\nDaily\nDaily\nDaily\nDaily\nDaily\nEx.\nSat\nDaily\nEx.\nSat.\nAll Ontario Flights use TWA Satellite except Flight Nos. 705 and 713.\nFROM ORANGE COUNTY\nTo LOS ANGELES\nFare $7.62\n6:30A 6:55A 203 |\n7:00A\n7:25A\n7:40A\n8:05A\n205\n207\n8:00A\n8:25A\n209\n9:00A\n9:25A\n309\n10:30A\n10:55A\n215\n12:00N\n12:25P\n225\n2:30P\n2:55P\n235\n(effective 3/27/69)\n3:15P\n3:40P\n237\n4:00P\n4:25P\n241\n5:30P\n5:55P\n247\n7:50P\n8:15P\n255\n8:30P\n8:50P\n8:55P\n355\n9:15P\n757\n(effective 3/27/69)\n10:10P|10:35P|259\nDaily\nDaily\nDaily\nDaily\nDaily\nDaily\nDaily\nDaily\nDaily\nDaily\nDaily\nDaily\nDaily\nDaily\nDaily\nAll Orange County flights use Western Airlines Satellite.\nFROM OXNARD VENTURA\nTo LOS ANGELES\nFare $9.05\n6:30A\n7:50A\n9:30A\n10:50A\n12:30P\n2:00P\n3:30P\n5:00P\n6:30P\n8:00P\n7:00A\n104\n8:20A\n108\n10:00A\n116\n11:20A\n1:00P\n122\n128\n2:30P\n4:00P\n134\n|140\n5:30P 146\n7:00P 152\n8:30P|158\nAll flights use TWA Satellite.\nDaily\nDaily\nDaily\nDaily\nDaily\nDaily\nDaily\nDaily\nDaily\nDaily\n112\n10\nAERO\n65\nCOMMUTER\nCATALINA AIR LINES\nTOMORROW'S SERVICE...TODAY!\nFLIGHT\nNUMBER\nARRIVE\nLEAVE\nCONNECTING FLIGHTS\nFREQUENCY\nFROM PALMDALE/LANCASTER\nTo LOS ANGELES — 11:55A 12:30P 627\nFare $7.96\n4:55P\n5:35P|631\nEx.\nSat\nEx.\nSat.\nAll flights use TWA Satellite.\nFROM RIVERSIDE\nTo LOS ANGELES\nFare $10.00\nAll flights use\nTWA Satellite\n6:30A\n7:00A 103\n8:00A\n9:30A\n8:30A 109\n115\n11:00A| 11:30A 121\n12:30P\n1:00P 127\n2:00P\n3:30P\n2:30P\n|133\n4:00P\n139\n5:00P\n5:30P\n145\n6:30P\n8:00P\n7:00P\n'151\n8:30P| 157\n9:30P| 10:00P 163\nFROM SANTA BARBARA\nTo LOS ANGELES\nFare $12.00\nAll flights use\nTWA Satellite\n6:55A\n7:35A |651\n7:50A\n11:20A\n8:30A\n671\n12:00N\n673\n12:30P\n2:50P\n1:10P 675\n3:30P 677\n5:10P\n5:50P 679\n8:40P\n9:20P\n681\n10:10P\n10:50P\n683\nFROM SANTA MARIA\nTo LOS ANGELES\nFare $18.00\nAll Santa Maria flights\nuse TWA Satellite\n6:20A\n7:35A| 651\nSanta\nBarbara\n9:40A 10:45A\n653\n12:50P\n1:55P\n655\n4:40P\n7:00P\n5:45P\n8:00P\n657\n659\n10:00P 11:00P\n661\nFROM VAN NUYS\nTo BAKERSFIELD\nFare $14.50\nTo LOS ANGELES\nFare $7.00\n- 2:40P\n3:25P\n634 Flag stop Bur.\n- 4:40P\n5:00P\n641\nFROM LOS ANGELES\nTo BAKERSFIELD\nFare $15.71\nTo COLTON\nFare $10.52\n2:15P\n3:25P | 634 Flag stop Bur.\nAll flights use\nTWA Satellite\nTo ONTARIO\nFare $7.62\nAll flights use\nTWA Satellite\n7:35A\n8:15A\n070\n9:05A\n9:45A\n072\n10:15A\n10:55A\n074\n12:55P\n2:00P\n1:35P\n1078\n2:40P\n580\n3:15P\n5:35P\n3:55P\n6:15P\n591\n582\n7:10P\n9:05P\n7:40P\n583\n9:45P\n584\n10:35P 11:15P\n585\n6:35A\n7:05A\n|021\n7:15A\n8:30A\n7:45A\n|022\n9:00A\n023\n10:35A 11:05A\n024\n11:35A 12:00N\n1:45P\n2:15P\n922\n3:35P\n4:05P\n025\n026\n5:40P\n6:10P\n027\n7:00P\n7:45P\n7:30P\n028\n8:10P\n8:20P\n8:50P\n956\n029\n9:40P\n10:10P\n1030\n11:00P 11:30P\n031\nDaily\nDaily\nDaily\nDaily\nDaily\nDaily\nDaily\nDaily\nDaily\nDaily\nDaily\nEx. Sat. \u0026 Sun.\nEx.\nEx.\nSat.\nSat.\nDaily\nEx.\nSat.\nDaily\nDaily\nEx.\nSat.\nEx.\nSun.\nDaily\nEx.\nSat.\nDaily\nEx.\nSat\nEx.\nSat\nDaily\nDaily\nDaily\nEx. Sat.\nEx. Sat.\nDaily\nEx.\nSat.\nEx.\nSat\nEx.\nEx.\nSat\nSat\nDaily\nDaily\nEx. Sat.\nDaily\nEx. Sat\nDaily\nEx.\nSat.\nDaily\nEx.\nSat\nDaily\nDaily\nDaily\nDaily\nEx.\nSat.\nEx\nSat\nEx.\nSat."
    ],
    "millsfield:images_texts_ids": [
      1527832167,
      1527844241
    ],
    "millsfield:primary_image": 1527832167,
    "millsfield:subcategory_id": 1511213425,
    "mz:hierarchy_label": 1,
    "mz:is_current": 1,
    "sfomuseum:accession_number": "2005.132.001.002",
    "sfomuseum:airline": "Catalina Airlines",
    "sfomuseum:airline_id": [
      292
    ],
    "sfomuseum:category": "Scheduling / Ticketing",
    "sfomuseum:classification_id": 158,
    "sfomuseum:collection": "Aviation Archive",
    "sfomuseum:creditline": "Gift of the William Hough Collection",
    "sfomuseum:date": "1969",
    "sfomuseum:date_acquired": "2006-12-05",
    "sfomuseum:daterange_end": "1969-12-31",
    "sfomuseum:daterange_start": "1969-01-01",
    "sfomuseum:description": "Timetable issued by Aero Commuter and Catalina Air Lines, effective March 28 through April 29, 1969; two page double-sided fold-out; blue cover with text announcing changes in the schedule.",
    "sfomuseum:dimensions": "9 x 4 inches (22.9 x 10.2 cm)",
    "sfomuseum:media_ids": [
      1527832167,
      1527844241
    ],
    "sfomuseum:medium": "paper, ink",
    "sfomuseum:object_id": 97431,
    "sfomuseum:placetype": "object",
    "sfomuseum:primary_media_id": 1527832167,
    "sfomuseum:publication": ": , 1969.",
    "sfomuseum:subcategory": "Timetable",
    "src:geom": "sfomuseum#undetermined",
    "wof:belongsto": [
      1511214223,
      102527513,
      102191575,
      85633793,
      1511213425,
      85922583,
      102087579,
      1511214277,
      1511214207,
      85688637
    ],
    "wof:breaches": [],
    "wof:country": "XX",
    "wof:created": 1579906656,
    "wof:depicts": [
      1159288143,
      1159284119
    ],
    "wof:geomhash": "30c8a918561c84bb2daa2b97fc7c5353",
    "wof:hierarchy": [
      {
        "arcade_id": 1511213425,
        "building_id": 1511214277,
        "campus_id": 102527513,
        "concourse_id": 1511214223,
        "continent_id": 102191575,
        "country_id": 85633793,
        "county_id": 102087579,
        "custom_id": 1511935595,
        "locality_id": 85922583,
        "neighbourhood_id": -1,
        "object_id": 1511935595,
        "region_id": 85688637,
        "venue_id": 1511935595,
        "wing_id": 1511214207
      }
    ],
    "wof:id": 1511935595,
    "wof:lastmodified": 1787988182,
    "wof:name": "timetable: Aero Commuter and Catalina Air Lines",
    "wof:parent_id": 1159162825,
    "wof:placetype": "custom",
    "wof:placetype_alt": [
      "object"
    ],
    "wof:repo": "sfomuseum-data-collection",
    "wof:superseded_by": [],
    "wof:supersedes": [],
    "wof:tags": []
  },
  "bbox": [
    -122.386155,
    37.616357,
    -122.386155,
    37.616357
  ],
  "geometry": {"type":"Point","coordinates":[-122.386155,37.616357]}
}
