{
  "id": 1763248731,
  "type": "Feature",
  "properties": {
    "date:cessation_lower": "1932-01-01",
    "date:cessation_upper": "1932-12-31",
    "date:inception_lower": "1932-01-01",
    "date:inception_upper": "1932-12-31",
    "edtf:cessation": "1932",
    "edtf:inception": "1932",
    "geom:area": 2.475047457570636e-7,
    "geom:bbox": "-122.386472,37.616105,-122.385834,37.616611",
    "geom:latitude": 37.61635747477365,
    "geom:longitude": -122.38615540108617,
    "millsfield:airline_id": [
      1159286029
    ],
    "millsfield:category_id": 1511214223,
    "millsfield:collection_id": 1511214207,
    "millsfield:company_id": [
      1159287349
    ],
    "millsfield:images": [
      1763249447,
      1763249449
    ],
    "millsfield:images_colors_refs": {
      "crayola": [
        {
          "hex": "#fddde6"
        },
        {
          "hex": "#714b23"
        },
        {
          "hex": "#ffae42"
        },
        {
          "hex": "#c46210"
        },
        {
          "hex": "#414a4c"
        }
      ],
      "css4": [
        {
          "hex": "#daa520"
        },
        {
          "hex": "#556b2f"
        },
        {
          "hex": "#b22222"
        },
        {
          "hex": "#faf0e6"
        }
      ],
      "marekm4": [
        {
          "hex": "#f1efea"
        },
        {
          "hex": "#473b1f"
        },
        {
          "hex": "#f1eee5"
        },
        {
          "hex": "#453a20"
        },
        {
          "hex": "#dcb939"
        },
        {
          "hex": "#dcb938"
        },
        {
          "hex": "#c63f16"
        }
      ]
    },
    "millsfield:images_texts": [
      "AIRWAY\nNEW YORK\nNON-STOP\nWASHINGTON\n80\nPLANES DAILY\nPHILADELPHIA\n45\nMINUTES\n12\nPLANES DAILY\nBALTIMORE\n95\nMINUTES\n12\nPLANES DAILY\nWASHINGTON\n120\nMINUTES\nCOOL\nCLEAN\nCOMFORTABLE\nFAST\nMODERN\nSCENIC\nECONOMICAL\nDAILY\nNORFOLK\n185\nMINUTES\nLOPINGTON\nLUDINGTON AIRLINES\nSCHEDULE\nNEW YORK-WASHINGTON-NORFOLK\nEastern Standard Time\nLeave\nPenn.\nSta.\nNew York\n(by car)\nLeave\nNewark\n(Airport)\nArrive\nPhiladelphia\n(Central\nAirport)\nArrive\nBaltimore\n(Logan\nField)\nArrive\nWashington\n(Airport)\nd.\n7.00\n7.30\n8.00\n9.00\n9.30\n10.00\n11.00\n12.00\n1.00\n2.00\n2.30\n3.00\n4.00\n4.30\n5.00\n6.00\np. m\nLv. Washington\n2.55 p.m.\na. ma.\n7.40\n8.10\n8.40\n9.40\n10.10\n10.40\n11.40\n12.40\n1.40\n2.40\n3.10\n3.48\n4.49\n5.10\n5.40\n6.40\np.\nm\na. m.\n8.25\na. m.\n9.20\nnon-stop high\n9.25+\nspeed\n10.25\n10.20\n11.20\nnon\n-stop high\nspeed\n11.25+\n12.20\n12.25\n1.25+\n1.09\n2.28\n2.25\n3.20\n3.25†\nnon-stop high\n4.20\n4.25\nspeed\n5.25+\n5.20\n6.20\nnon-stop high\n6.25\n7.25t\n7.20\n8.29\np. m\np.\nm\n*WASHINGTON--NORFOLK DIVISION\nAr. Norfolk Airport\n4.20 p.m.\nStops at Langley Field on Reservation\na. m.\n9.45\n9.30\n10.45\n11.45\n11.30\n12.45\n1.45\n2.45*\n145\n4.45\n4.30\n5.45\n6.45\n6.30\n7.45\n8.45\np. m.\nAr. Norfolk (car)\n4.45 p. m.\n+Flag stop.\nFor groud transportation, see inside of folder.\nFor Daylight Saving Time add one Hour\nEffective June 4, 1932",
      "TRAVEL THE AIRWAY\nWASHINGTON\nNON-STOP\nNEW YORK\n80\nMINUTES\nPLANES DAILY\nPHILADELPHIA\nMINUTES\n11\nPLANES DAILY\nBALTIMORE\n25\nMINUTES\nPLANES DAILY\nNEW YORK\n120\nMINUTES\nCOOL\nCLEAN\nCOMFORTABLE\nFAST\nMODERN\nSCENIC\nECONOMICAL\nPLANES DAILY\nBOSTON\n240\nLODINGTON\nLUDINGTON AIRLINES\nSCHEDULE\nWASHINGTON-NEW YORK-BOSTON\nEastern Standard Time\nLeave\nWashing-\nton\nAirport\nArrive\nBaltimore\n(Logan\nField)\nArrive\nPhiladel-\nphia\n(Central\nAirport)\nArrive\nNewark\nAirport\nArrive\nNew\nYork\nPenna.\nStation\n(by car)\nArrive\nBoston\n(American\nAirways)\na.m.\n8 00\n9.00\n10.00\n1.30\n00\n12 00\n2,00\n3.00\n3:900\n5.00\n5.30\n6.00\np.\nm\na. m\na. m.\nB02-stop high grisd\n9.25\n10.15+\n10.25\n11.15\n172-stop high,\n12.25\n1.25\n1.15\n2.15†\n2.25\n3.15\n3.25\n4.15†\nno3 stop high\n5.P900\n5.25\n6.15†\n2635 top high\np. m\np. m\nLv. Norfolk (car)\n4.10 p.m.\na. m.\n8.50\n10.00\n11.00\n12.00\n1:50\n2.00\n3.00\n4.00\n5.00\n50\n6.00\n7.00\n6.50\n8.00\np.\na. m.\n9.30\n10.40\n11.40\n12.40\n12.30\n1.40\n2.40\n3.40\n4.40\n5.40\n5.30\n6.40\n7.40\n7.20\n8.40\np.m.\nNORFOLK--WASHINGTON DIVISION\nLy. Norfolk Airport\n4.30 p.m.\nStops at Langley Field on Reservation\n*These American Airways planes do not run Sunday.\n+Flag Stop.\nFor ground transportation, see inside of folder.\nFor Daylight Saving Time add one Hour\np.m.\n12.05*\n2.05*\n205*\n4.05*\n6.00*\n8.00\np.m.\nAr. Washington\n5.55 p. m.\nEffective June 4. 1932\n20(4.154 22*1"
    ],
    "millsfield:images_texts_ids": [
      1763249447,
      1763249449
    ],
    "millsfield:primary_image": 1763249447,
    "millsfield:subcategory_id": 1511213425,
    "mz:is_approximate": 1,
    "mz:is_current": 1,
    "sfomuseum:accession_number": "2014.156.227",
    "sfomuseum:airline": "Ludington Air Line",
    "sfomuseum:airline_id": [
      1175
    ],
    "sfomuseum:category": "Scheduling / Ticketing",
    "sfomuseum:classification_id": 158,
    "sfomuseum:collection": "Aviation Archive",
    "sfomuseum:creditline": "Gift of Captain Jon Simmonds",
    "sfomuseum:date": "1932",
    "sfomuseum:date_acquired": "2015-02-02",
    "sfomuseum:daterange_end": "1932-12-31",
    "sfomuseum:daterange_start": "1932-01-01",
    "sfomuseum:description": "Timetable issued by Ludington Airlines, effective June 4, 1932; bi-fold format; red, yellow, and black cover with schedule for New York - Washington - Norfolk (Virginia).",
    "sfomuseum:dimensions": "9 x 4 inches (22.9 x 10.2 cm)",
    "sfomuseum:medium": "paper, ink",
    "sfomuseum:object_id": 163729,
    "sfomuseum:placetype": "object",
    "sfomuseum:publication": ": , 1932.",
    "sfomuseum:subcategory": "Timetable",
    "src:geom": "sfomuseum#undetermined",
    "wof:belongsto": [
      102527513,
      1159162825,
      102191575,
      85633793,
      102087579,
      85922583,
      85688637,
      1159160869
    ],
    "wof:country": "XY",
    "wof:created": 1646987946,
    "wof:depicts": [
      1159286029,
      1159287349
    ],
    "wof:geomhash": "c281b9d9eefc83b5710e64b9d646067d",
    "wof:hierarchy": [
      {
        "building_id": -1,
        "campus_id": 102527513,
        "collection_id": 1159162825,
        "concourse_id": 1159162825,
        "continent_id": 102191575,
        "country_id": 85633793,
        "county_id": 102087579,
        "custom_id": 1763248731,
        "locality_id": 85922583,
        "neighbourhood_id": -1,
        "object_id": 1763248731,
        "region_id": 85688637,
        "wing_id": 1159160869
      }
    ],
    "wof:id": 1763248731,
    "wof:lastmodified": 1787988205,
    "wof:name": "timetable: Ludington Airlines",
    "wof:parent_id": 1159162825,
    "wof:placetype": "custom",
    "wof:placetype_alt": [
      "object"
    ],
    "wof:repo": "sfomuseum-data-collection",
    "wof:superseded_by": [],
    "wof:supersedes": []
  },
  "bbox": [
    -122.38647222518921,
    37.6161053594541,
    -122.38583385944366,
    37.61661101879963
  ],
  "geometry": {"type":"Polygon","coordinates":[[[-122.38647222518921,37.61631782178288],[-122.386434674263,37.61623283692423],[-122.38637566566466,37.61617759671399],[-122.38630056381224,37.6161308549656],[-122.38616108894348,37.6161053594541],[-122.38602161407469,37.6161308549656],[-122.38591432571411,37.61618609521055],[-122.38585531711577,37.61626683087935],[-122.38583385944366,37.61636881265146],[-122.38587141036987,37.61646654505181],[-122.38594114780425,37.61654303118856],[-122.38605380058287,37.61660252035167],[-122.38618254661559,37.61661101879963],[-122.3863059282303,37.61657277577607],[-122.3864185810089,37.61650903735973],[-122.3864668607712,37.61641130501523],[-122.38647222518921,37.61631782178288]]]}
}
