{
  "id": 1913796203,
  "type": "Feature",
  "properties": {
    "date:cessation_lower": "1946-11-03",
    "date:cessation_upper": "1946-11-03",
    "date:inception_lower": "1946-11-03",
    "date:inception_upper": "1946-11-03",
    "edtf:cessation": "1946-11-03",
    "edtf:inception": "1946-11-03",
    "geom:area": 2.475047457570636e-7,
    "geom:bbox": "-122.386472,37.616105,-122.385834,37.616611",
    "geom:latitude": 37.61635747477365,
    "geom:longitude": -122.38615540108617,
    "millsfield:airline_id": [
      1159284991
    ],
    "millsfield:category_id": 1511214251,
    "millsfield:collection_id": 1511214207,
    "millsfield:company_id": [
      1159286839
    ],
    "millsfield:images": [
      1913799313,
      1913799315,
      1913799317,
      1913799319,
      1913799323
    ],
    "millsfield:images_colors_refs": {
      "crayola": [
        {
          "hex": "#2e5894"
        },
        {
          "hex": "#1a4876"
        },
        {
          "hex": "#95918c"
        },
        {
          "hex": "#efcdb8"
        }
      ],
      "css4": [
        {
          "hex": "#778899"
        },
        {
          "hex": "#483d8b"
        },
        {
          "hex": "#f5deb3"
        },
        {
          "hex": "#191970"
        }
      ],
      "marekm4": [
        {
          "hex": "#152a73"
        },
        {
          "hex": "#4b5f90"
        },
        {
          "hex": "#738b91"
        },
        {
          "hex": "#1c2a6f"
        },
        {
          "hex": "#475b8e"
        },
        {
          "hex": "#485c8d"
        },
        {
          "hex": "#162871"
        },
        {
          "hex": "#dfcead"
        },
        {
          "hex": "#decdad"
        },
        {
          "hex": "#495d8e"
        },
        {
          "hex": "#dfcdab"
        },
        {
          "hex": "#4a5e90"
        },
        {
          "hex": "#182c73"
        },
        {
          "hex": "#dfcdac"
        }
      ]
    },
    "millsfield:images_texts": [
      "Suneap Nor. 3M\nDearest Debs -\n1944\nEir took off at giro Gim. from Agmara\nAirport, flew on the great sprawling city of Care\nont towards gize and the Pyramids. There ur\nCircled the thies big pyamies and the Spri\nat low altitude. Down below lay Mera Wout\nin the shade of Cheaps - Cayrst of the Herit\ngoef cours - swimming pool and all around\nfar in the Egs coned tir. the yuri dest.\nA lame sky and bright sun. Back or Care\nits troin airports and on toward th\nSung\nCanne. Ur hair just cronied the canse -\ntwo\nlarge stramers moving slowly cast ward\ntoward\nPort said. Sueg. Off to on left is Par\nSaid\nit the craters and of the Canals.\nmember that Napolen first concrusd the ede\nof_ a\ncanal to connect the Red Sia and the\nmed taneer. Howers, he abandoned the gorgeo\nWhen\nhis engineers told him that the lled Sta\nwa\n300 higher sand to than the Meetmanian\nand\nworld flood all cities along the shorns of\nfate. Late, in 1869 Ferdina de Leonpa\nbmit\nthe Canal and such was the deal that\nthe ling of Egypt got half the stock. Some\nEight e\nyears after wards\nVictora\nTo be by ont the Gyptian intrust somed\nthe 1or720,000000 and the the\nBritick\nçarare contro.\nWrie flying now at\n5000\nfeet or counts,\nwhuch is as basren a.\nin wrat Taxer.\nthe land, Which Alout Face - Mat gortly grafter\"\n(guagra la pressit standards sold to Woksay.",
      "Sisted sra when the\nhas promenas to fly us belor sia lese -\nnot (2 hopz) Frad dia leze but ratha below\nmeditamina ta lure. u're gang to hare a look\nNazareth\nat the sia of galiler - them 1 Gausalen\nAnd i guest fit in this sunday moang in\na most approgree aerial \"look - siz\"\n\" of the\ntrel toe, land. On board in our representatin\nin this area - one \" Sardy\n\" Camphee who came\nont here sorne\nrars ago\nas a membe of te\nTrinerton Cretilegial Expedition and trated gran\nvan are knows the countin\nthere, of comer,\nand is\nwee tone in the ancient as well as recrat\nhistory\nocat\n9- this prat\noft the tired.\nOur\nC. 4) ta (Military Cargo version of the\nДс - 3\nis a strange booking airplane. In the rear\npart\non the\nleft hand side out nuns beat of the\nconovilionie \"buckit\" srat.\n• With the requisd sapty\nThese Oppoit the stato hair bran remoud\nand tied down their in all our baggage plu\nsone\nCompany supples, pegat, ve\nToward on\nEither\nside are porch chairs tied i the floor\nwrit\nropes, The chas Whe Bunchard i Irelard\ngo 71.20 Each - quer comfortable - wett prelous.\npom\nNY and quilt from India (2 hopre and\nto dati\nseemingh. uninhabitated. I mean the\nquieto\nnot India.\nOur Pitumatione Air Transport Goin\nmeeting broker up gender, ate a\nquinte\nsuccipare Arres o talks - Committis report -\nresolutions, Ete. There was ant 1so prope\npressat\nrepresenting 24 diffunt matious and some",
      "forty fur comparis. ast\nAll the delegats.\nspoken Engine including In. Briand the Frener\ndelegater but in the brat approt style of Satuntima\nConventions Eurything was reprated in French. If that\nprodur is not follows the thener walk ont on the\nmeeting\nLath - It ten really thriling - the flight on\nthe Herand a Batherm and just trynd it funne.\nand them torico. the Dead Sra\nJust croons the fordan which is and folking on\ndown to the Sia or galiler.\n11:30 A.m - Wies junt parad the Sea of galler -\nabort the size of Trout Laks and I imagine abrit an\nmany fus - The forden runs ont of gasiere into the\nWhen is\n13o0 bilow tra leve and of court\n*sEahead - an\nho mo\nont Let 17:00 Damarcus - sovois - grin vall, -\nCate au lait.\nSurrounded leg man montains.\nIn ancent times the\nprople\nherr must hair fet quit seen in thei\nprtee\nwall, surrounded by barren montans and mile\nof roadless desistato bar the Encronchment of raiders.\nLata. Ur made a lour o bamazeus undu\nthe a guidaner of Sane, Complice Dt was thathng. Just\nur waste down a, struct with shops on Either side.\nitigh outer had a glass green -hous-typr roof bmet\nby Kapon wilen. At the for and was\ngatewa\nTo the\nTimple of fayetn - onci\nthe Christ of for te Baptis\nChurcha\nnow the\nOmmeyade Mosque, Camptell poutes ont a\nagnificunt mosaie in green and gold leaf depicting\nHe 7t Certitu\neg o- Namesent.\nThis moraic was done in\nlooks modira beaun\nso Q. W. and , one, with reeint grass incord. Ar\nur waked though the Court youd of the old mosque\na mostem preet stood on the balcony of one of the",
      "sour\nWhile\nmin asses calling the faith the te ou\nall around devont molems knit\nthen\nheads to thi prairment - all fac sant.\nInside, the roded dome of the mosque sir.\nthe inter floor was coined wik oriental rugs. (ur\nhail\nto tahir off our thors on intring) in the\nCentre\nof the hall a box-like Encloser i\nRouss the head of fohn the Baptit.\nthe morgue clonly is the tomb of\nSaladin. From than us wint down the\n\"Strict called Suaight \" pant the honor of Aninies\n(where\nin made Vie chanta Ginne Traffic my.\ntake\noff, his hat) Then on to the spot where\nSt. Pane Escapnd on the wale.\nAccording to\nCamplice the lity of Damarcus is probably the\nmist\nancient Existing Cy in the wores dating\nваск\nDobe 10.000 yars lifer Christ.\nEir droor through\nSame\nthe\ntypr op modernetic building\n- same in be Wher\nreminas\nme of Shanghai,-\nEryone wacking in\nthe set - auto horns Constant, blowing - mmer\nConfusion a hawkers - disorder and dirt. The\nMosen women wrar beack vil - the grus and\nChristians do not. The popueatin - abne 350,\nis 5/,ts modern th Christian and 1/7t\ngrus.\nLanguage Cabic and Freen lent the\nIrener prepale are Cordial, hated. to much so\nthat the Squans har delibrate, refrained fron\nrepairing the pret of Frenes bombing. Our\nbotal for instaner - the Orientae Palace - war\nrepainted but in the dining room one wale the\nshot-up\nIrenes machine gun was not neither repared.\nor painted. ur want to a cocktaie party gurn",
      "at a Can dapa in te abe of\nthe ministh) and after dinner hand a basis\nmeeting with some Syrian de. men tr\nEnded up at a cheb when us smoked buttle -\nand drank Whiky sade until afte\nmed - nignt.\nThe giwish guestin is, of course, the\nsuby ret\nin th\nin -\nof all contion - and is Unde Sam\ndog hous! No bod, wants the grus let\nincluding of cours the gus who out\nalready think, tor was assure be, our Syria\nfor tourists - but positing no visas for fes -\nEvin transit - visas!\nmonday\nnor. # Off at 8 a.m. Now as 9 write\nur an flying or the\nDead Sia on om way\nto Luxor when ur ee\nor- night. Campbee\ntold un of an ambitions plan of the Syrian\nto breed\na dan and pown roget beor the\nSea of\ngales to isnigate a vast arza by\nduriting\n- the Rin forden, Then so as not to\nlower the leare of the\n+ Wrad Sia (whin\nWorld\n* run salt and chemical industries on\n# it\nshoes an Equal amount of Geran wate\nwond\nbe pumped up from. Brirut.\n11 Q.m Cir hair. croad the led fra and aur\nmout flying acron the light tan desist brokin herr an.\nthis by darkes colored jagged rocks and sand swept\nmountains dward of poliage.\nLanded Luxor\nno g'el mail thi from thur.\nc savo maroons ruins has and tomorrow\npush\non for Khartoum- Loto of loor - Bi"
    ],
    "millsfield:images_texts_ids": [
      1913799313,
      1913799315,
      1913799317,
      1913799319,
      1913799323
    ],
    "millsfield:primary_image": 1913799313,
    "millsfield:subcategory_id": 1511213489,
    "mz:is_approximate": 1,
    "mz:is_current": 1,
    "sfomuseum:accession_number": "2019.121.1100 a e",
    "sfomuseum:airline": "Pan American Airways",
    "sfomuseum:airline_id": [
      685
    ],
    "sfomuseum:category": "Employee Career History",
    "sfomuseum:classification_id": 195,
    "sfomuseum:collection": "Aviation Archive",
    "sfomuseum:creditline": "Collection of SFO Museum",
    "sfomuseum:date": "11/03/1946",
    "sfomuseum:date_acquired": "2019-11-22",
    "sfomuseum:daterange_end": "1946-11-03",
    "sfomuseum:daterange_start": "1946-11-03",
    "sfomuseum:description": "Handwritten letter from Harold M. Bixby to his wife, Debby Bixby, dated November 3, [1946]; includes description of flight from Cairo to Damascus and return to Luxor, history of the Suez Canal, tour of Damascus, situation with Jewish immigrants into the Eastern Mediterranean; includes description of interior of Douglas C-47 / DC-3 (seating); includes brief description of IATA meeting.",
    "sfomuseum:dimensions": "12 1/2 x 8 inches (31.8 x 20.3 cm)",
    "sfomuseum:medium": "paper, ink",
    "sfomuseum:object_id": 211463,
    "sfomuseum:placetype": "object",
    "sfomuseum:publication": ": , 11/03/1946.",
    "sfomuseum:subcategory": "Correspondence, Personal",
    "src:geom": "sfomuseum#undetermined",
    "wof:belongsto": [
      102527513,
      1159162825,
      102191575,
      85633793,
      102087579,
      85922583,
      85688637,
      1159160869
    ],
    "wof:country": "XY",
    "wof:created": 1714549015,
    "wof:depicts": [
      1159286839,
      1159284991
    ],
    "wof:geomhash": "c281b9d9eefc83b5710e64b9d646067d",
    "wof:hierarchy": [
      {
        "building_id": -1,
        "campus_id": 102527513,
        "collection_id": 1159162825,
        "concourse_id": 1159162825,
        "continent_id": 102191575,
        "country_id": 85633793,
        "county_id": 102087579,
        "custom_id": 1913796203,
        "locality_id": 85922583,
        "neighbourhood_id": -1,
        "object_id": 1913796203,
        "region_id": 85688637,
        "wing_id": 1159160869
      }
    ],
    "wof:id": 1913796203,
    "wof:lastmodified": 1787988219,
    "wof:name": "correspondence: Harold M. Bixby to Debby Bixby",
    "wof:parent_id": 1159162825,
    "wof:placetype": "custom",
    "wof:placetype_alt": [
      "object"
    ],
    "wof:repo": "sfomuseum-data-collection",
    "wof:superseded_by": [],
    "wof:supersedes": []
  },
  "bbox": [
    -122.38647222518921,
    37.6161053594541,
    -122.38583385944366,
    37.61661101879963
  ],
  "geometry": {"type":"Polygon","coordinates":[[[-122.38647222518921,37.61631782178288],[-122.386434674263,37.61623283692423],[-122.38637566566466,37.61617759671399],[-122.38630056381224,37.6161308549656],[-122.38616108894348,37.6161053594541],[-122.38602161407469,37.6161308549656],[-122.38591432571411,37.61618609521055],[-122.38585531711577,37.61626683087935],[-122.38583385944366,37.61636881265146],[-122.38587141036987,37.61646654505181],[-122.38594114780425,37.61654303118856],[-122.38605380058287,37.61660252035167],[-122.38618254661559,37.61661101879963],[-122.3863059282303,37.61657277577607],[-122.3864185810089,37.61650903735973],[-122.3864668607712,37.61641130501523],[-122.38647222518921,37.61631782178288]]]}
}
