{
  "id": 1913796687,
  "type": "Feature",
  "properties": {
    "date:cessation_lower": "1933-07-09",
    "date:cessation_upper": "1933-07-09",
    "date:inception_lower": "1933-07-09",
    "date:inception_upper": "1933-07-09",
    "edtf:cessation": "1933-07-09",
    "edtf:inception": "1933-07-09",
    "geom:area": 2.475047457570636e-7,
    "geom:bbox": "-122.386472,37.616105,-122.385834,37.616611",
    "geom:latitude": 37.61635747477365,
    "geom:longitude": -122.38615540108617,
    "millsfield:airline_id": [
      1159284991,
      1159285931
    ],
    "millsfield:category_id": 1511214251,
    "millsfield:collection_id": 1511214207,
    "millsfield:company_id": [
      1159286721
    ],
    "millsfield:images": [
      1913800673,
      1913800675
    ],
    "millsfield:images_colors_refs": {
      "crayola": [
        {
          "hex": "#6e5160"
        },
        {
          "hex": "#efcdb8"
        },
        {
          "hex": "#eceabe"
        },
        {
          "hex": "#9f8170"
        }
      ],
      "css4": [
        {
          "hex": "#bc8f8f"
        },
        {
          "hex": "#f5deb3"
        },
        {
          "hex": "#696969"
        },
        {
          "hex": "#808080"
        }
      ],
      "marekm4": [
        {
          "hex": "#dad3b6"
        },
        {
          "hex": "#8b8879"
        },
        {
          "hex": "#a29775"
        },
        {
          "hex": "#615c54"
        },
        {
          "hex": "#66625d"
        },
        {
          "hex": "#ebe2bf"
        }
      ]
    },
    "millsfield:images_texts": [
      "harles\nNanking, July 9, 1933.\nI have Just completed a very interesting survey trip along the\nChinese coast.\nTie started out in a twin motor Sikoraky amphibian on\nMonday July 3rd to tly to Canton.\nThe total distance is a little over\n1000 miles and we were to visit eities en route to establish operating\nbases, appoint agents and study possible business opportunities for air\nmail, jessengers and express. Our first stop wes fenchow, an old Chinese\nwalled aity - closed to foreign commerce when mort of the importent\ncities along the coast were made open ports.\nWenchow is today Just as\nit has been for a 1000 years.\nMany of the old ofties have torn dom the\nwalls and used the material thus acquired and the cres thus cleared, to\nbuild a motor highway to serve as the tirat unit in the development of\nconnecting streets.\nOrdinarily the so called \"streets\" are Just about\nwide enough for two people to pass comtortably:\nWenchow has a few\nriokshes, no automobiles, no wide streets and its foreign populati on\n1s two - An Engliahmen in cherge of Customs and a Standard 011 man.\nand narrow is the only means of entering the city - at leat it was the\nonly gate. we could see.\nile ciroled the town and landed on the wide,\nquiet river: which flows along the northern portion of the oity. Thenre\nwas a tranquil air about the old city - sort of like Sabbath Day Point -\nall except the dark forboding moss covered old wall above which we ould\nthe topsiot bulldings.\nPresently however people started pouring\nout the narrow gate and getting into sampans,\nJunks and every variety of\nwater omatt imaginable - al1 heading out on the hitherto guiet river.\nOn they came by the hundreds- that is hundreds of water orert\nwith anywhere fron six to fifty jabbering Chinese in esch one - men,\nwomen, antidren, who nad probably paid a copper or two to see the show.\nThe boatmen handle their oraft with such skill as to arouse the over-\nlesting admiration of a New York taxicab driver - how they escaped a\nhopeless traffio jam and gountless dzowing I'll never knows I did see\none or two tell in and others being pulled out of the river but such was\nshe excitement with the danger of having our plane wrecked that it all\nseems 11ke a kelideoscople bedlam of yelling, struggling, ax curious\ntriendly, dumfounded humanity• ve rinsily put ort in a sempen for the\nshore and after bumping and \"musaling\" our way through the ever thioken-\ning cirole which alosely surrounded us we got clear and could toke a\n1ook up at the well.\nThe top was lined with ourious Chinese of an\nunknown number thiek - give or six rows deep - the \"levee\" in front of\nthe eate wes absolutely 8011d. As we spprosched wondering how on earth\nwe would ever get through there was a tremendous comnotion up through\nthe center of that densely pecked arowd and presently a peasage wes\nolesred by soldiers with fixed beyonets.\nTe passed up that aisle in\nsingle tile and through the gate into the narrowest dirtiest streets\nImeginable, dark, dank and smelly, paved in placis with old flagstones\nworn amooth with age.\nMangey dogs everywhere, underted pigs, colored\nmen and women.\nand amid much noise and confusion bumped slong to the Texas Company\noffice which was our destination.\nThe rlokshe boys calling out \"Yungs\"\nImperiously to get through the densely congested path-11ke streets.\nlie had Chinese chow - there is of curse none other to offer in\nsuch a city,\ngot baok to the plane, the pilot, 1e Be cast, whe\nand his mechanie were",
      "-2-\nto stay away \"move for\". We managed to soare off some of the swarm a\nIlttle way by starting one motor and when we started to move the water\noreft took off in every direction - they seemed to have a lot more\nrespect for the roar of the motors then the roazs of our crew.\nThe rest of the trip included stays at openow,\nAmoy, Swatow,\nHong Kong and Canton.\nAll of these cities other then wenchow sre\nmodern Chinese cities and not especially interesting. I have a good\nyarn about our hotel proprietor at Foochow which I*11 try to get oft\nin my next letter, also a story about General Cohen (of the New York\nCohens) at Canton.\nThis letter is long enough without adding those\nstories so those will have to wait.\nMy very best,\nAs Ever\nHad\nSanding copira to\nUNBI\ny.e.c\nR tB\n9 aS.\nArctur Noster"
    ],
    "millsfield:images_texts_ids": [
      1913800673,
      1913800675
    ],
    "millsfield:primary_image": 1913800673,
    "millsfield:subcategory_id": 1511213489,
    "mz:is_approximate": 1,
    "mz:is_current": 1,
    "sfomuseum:accession_number": "2019.121.0680 a b",
    "sfomuseum:airline": "Pan American Airways",
    "sfomuseum:airline_id": [
      685,
      1131
    ],
    "sfomuseum:category": "Employee Career History",
    "sfomuseum:classification_id": 195,
    "sfomuseum:collection": "Aviation Archive",
    "sfomuseum:creditline": "Collection of SFO Museum",
    "sfomuseum:date": "07/09/1933",
    "sfomuseum:date_acquired": "2019-11-22",
    "sfomuseum:daterange_end": "1933-07-09",
    "sfomuseum:daterange_start": "1933-07-09",
    "sfomuseum:description": "Typewritten letter from Harold M. Bixby to his wife, Debby Bixby, dated July 9, 1933 in Nanking [Nanjing]; family circular letter; includes description of the survey trip to Canton [Guangzhou] in a Sikorsky [S-38] amphibian and events during the stop in Wenchow [Wenzhou].",
    "sfomuseum:dimensions": "11 x 8 1/2 inches (27.9 x 21.6 cm)",
    "sfomuseum:medium": "paper, ink",
    "sfomuseum:object_id": 211018,
    "sfomuseum:placetype": "object",
    "sfomuseum:publication": ": , 07/09/1933.",
    "sfomuseum:subcategory": "Correspondence, Personal",
    "src:geom": "sfomuseum#undetermined",
    "wof:belongsto": [
      102527513,
      1159162825,
      102191575,
      85633793,
      102087579,
      85922583,
      85688637,
      1159160869
    ],
    "wof:country": "XY",
    "wof:created": 1714549166,
    "wof:depicts": [
      1159284991,
      1159285931,
      1159286721
    ],
    "wof:geomhash": "c281b9d9eefc83b5710e64b9d646067d",
    "wof:hierarchy": [
      {
        "building_id": -1,
        "campus_id": 102527513,
        "collection_id": 1159162825,
        "concourse_id": 1159162825,
        "continent_id": 102191575,
        "country_id": 85633793,
        "county_id": 102087579,
        "custom_id": 1913796687,
        "locality_id": 85922583,
        "neighbourhood_id": -1,
        "object_id": 1913796687,
        "region_id": 85688637,
        "wing_id": 1159160869
      }
    ],
    "wof:id": 1913796687,
    "wof:lastmodified": 1787988220,
    "wof:name": "correspondence: Harold M. Bixby to Debby Bixby",
    "wof:parent_id": 1159162825,
    "wof:placetype": "custom",
    "wof:placetype_alt": [
      "object"
    ],
    "wof:repo": "sfomuseum-data-collection",
    "wof:superseded_by": [],
    "wof:supersedes": []
  },
  "bbox": [
    -122.38647222518921,
    37.6161053594541,
    -122.38583385944366,
    37.61661101879963
  ],
  "geometry": {"type":"Polygon","coordinates":[[[-122.38647222518921,37.61631782178288],[-122.386434674263,37.61623283692423],[-122.38637566566466,37.61617759671399],[-122.38630056381224,37.6161308549656],[-122.38616108894348,37.6161053594541],[-122.38602161407469,37.6161308549656],[-122.38591432571411,37.61618609521055],[-122.38585531711577,37.61626683087935],[-122.38583385944366,37.61636881265146],[-122.38587141036987,37.61646654505181],[-122.38594114780425,37.61654303118856],[-122.38605380058287,37.61660252035167],[-122.38618254661559,37.61661101879963],[-122.3863059282303,37.61657277577607],[-122.3864185810089,37.61650903735973],[-122.3864668607712,37.61641130501523],[-122.38647222518921,37.61631782178288]]]}
}
