{
  "id": 1762829297,
  "type": "Feature",
  "properties": {
    "date:cessation_lower": "1946-01-01",
    "date:cessation_upper": "1946-12-31",
    "date:inception_lower": "1946-01-01",
    "date:inception_upper": "1946-12-31",
    "edtf:cessation": "1946",
    "edtf:inception": "1946",
    "geom:area": 0,
    "geom:bbox": "-122.370943,37.617990,-122.370943,37.617990",
    "geom:latitude": 37.61799,
    "geom:longitude": -122.370943,
    "iso:country": "US",
    "millsfield:airport_id": [
      102527513
    ],
    "millsfield:category_id": 1511214239,
    "millsfield:collection_id": 1511214207,
    "millsfield:images": [
      1762893217,
      1762893219
    ],
    "millsfield:images_colors_refs": {
      "crayola": [
        {
          "hex": "#efdecd"
        },
        {
          "hex": "#dd9475"
        },
        {
          "hex": "#c46210"
        },
        {
          "hex": "#414a4c"
        },
        {
          "hex": "#fddde6"
        }
      ],
      "css4": [
        {
          "hex": "#e9967a"
        },
        {
          "hex": "#dcdcdc"
        },
        {
          "hex": "#2f4f4f"
        },
        {
          "hex": "#faf0e6"
        },
        {
          "hex": "#d2691e"
        }
      ],
      "marekm4": [
        {
          "hex": "#e3906d"
        },
        {
          "hex": "#da4e1f"
        },
        {
          "hex": "#393a32"
        },
        {
          "hex": "#eae4df"
        },
        {
          "hex": "#e49065"
        },
        {
          "hex": "#ece5e2"
        },
        {
          "hex": "#e15918"
        }
      ]
    },
    "millsfield:images_texts": [
      "C4930\nUNITED STATES OF AMER\nSTATE, OF CALIFORNIA\nCITY AND COUNTY OF SAN FRANCISCO\nNOURA\nAIRPORT BOND - 1945\nSERIES C\nC4930\nThe bidy and bounded lan Francisco, a municipal\ncorporation organized andexisting undor the bonstilution and lause) the hate ny balifornia,\nhoney achinowledges ibself indebted and for value received, promises to hary to the beaverin\nif thisbond be registered, to the registered holder hereaf, on the 151 day of December 1955\nOVE THOUSAND DOLLARS ($1,000)\ntogetherwith morest horeon alithe vate of one and one-s\nuarter percent)\nperannum\nuntil parmen tof said principal sumn full\nhayable semi annually she 5„day a fune\nand the 15 dr of Droomber o\nch year.\nis registered suchinterest, prior\nto maturihy, shelbe parable only on presentatien and surrender she properinterest\ncuponshovenahra\nespechivebtecome du\nintangelmener the Unikd Makes ed America, althe\noffice of the Treasurf\nHiscal Agering sand bidy and bounhy an Imnis in the bing cod Later New honki.\nThis bonds sued under anal pursu\nnt to the constion and sales of the\nversant to the ordnances and procedingin\nlo-thirds of alth\nby adopted and taken and a vote and assent\nqualified doctors of said bihy and brunhy voting at a special\nelection duty called ma held for that purpose\nMisherby certified, mated and declared tatall ach, and kons and things regured\nappen and to ve porformed precedent to and en the rosance of this bond\npand manner as requiredby\nhernact bedness, esard onh\nand brunhy does notescany limit presenced by the bonskhukon or statutes of said\nlate, and that provision has,\nmane to regurut\nmakhahon and stahules of\nsaid Make for the collechion o\nan one\ncento pay me prnapal of, and entereston,\ncret osaid bihy and bounhy are\nherer pledged for the punchial payment of the principal and interest of this bond\nhes pond mary be registered in the manner provided by law and thereafter the principa\nverof and interes hereon shall be harable ny to such vegistered owner\nIn Itness Whereof, said bihy and bounhy of fan Francisco has caused this bond lob\nexecut under corporate seal, signed bai Mayor and ibreasurer, and poundersigned\nbrithe blerk of the Board of supervisors, and has caused the interest coupons here\nallached to bo signed by the treasurer of said bily and bounty, and this, bond\nlove dated the 151, day of December, 1946\nCountersigned:\nJohn R. In Srath\nCLERK OF \"HE EJARD OF SUPER\nRank\nDEC 15-1955\nDEPUTY.\nCHECK TELLER\nFloat am Cathy",
      "20092\n2357\ncool\nhing pun\nBANK OF AMERICA N. T. \u0026 S. A.\nC4930\nSTATE OF CALIFORNIA\nCITY AND COUNTY\nOF\nSAN FRANCISCO\nAIRPORT BOND\n1945\nE\nPRINCIPAL DUE\nDECEMBER 15, 1955\nINTEREST PAYABLE\nSUNg 15 AND DECEMBER\nAT THE OFFICE OF THE TREASURER\nOF THE\nCITY AND COUNTY OF SAN FRANCISCO\nOR AT THE FISCAL AGENCY OF THE\nCITY AND COUNTY OF SAN FRANCISCO\nIN THE CITY AND STATE OF\nNEW YORK\nand.\nthe opinion a Orrich, Dahlquist, Nell.\nBrown\nHerrington, adorners at-lau, fan Francisco, as so the\negality of the within bond is on file in the office of the\nClerk\nthe Board of Supervisors, San Francisco, i\nCalifornin, and\nin the office of the fiscal agency of said bidy and\nounty\nin the\nsily and Jade of e"
    ],
    "millsfield:images_texts_ids": [
      1762893217,
      1762893219
    ],
    "millsfield:primary_image": 1762893217,
    "millsfield:subcategory_id": 1511213681,
    "mz:is_approximate": 1,
    "mz:is_current": 1,
    "sfomuseum:accession_number": "2013.039.002",
    "sfomuseum:airport": "San Francisco International Airport",
    "sfomuseum:airport_id": [
      121
    ],
    "sfomuseum:category": "Company Record / Document",
    "sfomuseum:classification_id": 462,
    "sfomuseum:collection": "Aviation Archive",
    "sfomuseum:creditline": "Transfer from San Francisco Public Utilities Commission",
    "sfomuseum:date": "1946",
    "sfomuseum:date_acquired": "2013-03-07",
    "sfomuseum:daterange_end": "1946-12-31",
    "sfomuseum:daterange_start": "1946-01-01",
    "sfomuseum:description": "Airport bond, Series C, issued by City and County of San Francisco to bearer in amount of one thousand dollars ($1000), signed by clerk of Board of Supervisors, Mayor, Deputy, and Treasurer, December 15, 1946, to be paid in full by December 15, 1955; orange and white certificate, serial number C4930.",
    "sfomuseum:dimensions": "14 1/2 x 9 3/4 inches (36.8 x 24.8 cm)",
    "sfomuseum:medium": "paper, ink",
    "sfomuseum:object_id": 140901,
    "sfomuseum:placetype": "object",
    "sfomuseum:publication": ": , 1946.",
    "sfomuseum:subcategory": "Stock Certificate / Bond",
    "src:geom": "sfomuseum#derived",
    "src:geom_derived_from": [
      102527513
    ],
    "wof:belongsto": [
      102527513,
      1159162825,
      102191575,
      85633793,
      102087579,
      85922583,
      85688637,
      1159160869,
      554784711,
      102085387
    ],
    "wof:country": "US",
    "wof:created": 1642729653,
    "wof:depicts": [
      102527513
    ],
    "wof:geomhash": "bf40c3bc435019ba74db5659992d9e04",
    "wof:hierarchy": [
      {
        "building_id": -1,
        "campus_id": 102527513,
        "collection_id": 1159162825,
        "concourse_id": 1159162825,
        "continent_id": 102191575,
        "country_id": 85633793,
        "county_id": 102087579,
        "custom_id": 1762829297,
        "locality_id": 85922583,
        "neighbourhood_id": -1,
        "object_id": 1762829297,
        "region_id": 85688637,
        "wing_id": 1159160869
      },
      {
        "campus_id": 102527513,
        "continent_id": 102191575,
        "country_id": 85633793,
        "county_id": 102087579,
        "custom_id": 1762829297,
        "locality_id": 85922583,
        "object_id": 1762829297,
        "postalcode_id": 554784711,
        "region_id": 85688637
      },
      {
        "campus_id": 102527513,
        "continent_id": 102191575,
        "country_id": 85633793,
        "county_id": 102085387,
        "custom_id": 1762829297,
        "object_id": 1762829297,
        "region_id": 85688637
      }
    ],
    "wof:id": 1762829297,
    "wof:lastmodified": 1787988201,
    "wof:name": "airport bond: City and County of San Francisco",
    "wof:parent_id": 1159162825,
    "wof:placetype": "custom",
    "wof:placetype_alt": [
      "object"
    ],
    "wof:repo": "sfomuseum-data-collection",
    "wof:superseded_by": [],
    "wof:supersedes": []
  },
  "bbox": [
    -122.370943,
    37.61799,
    -122.370943,
    37.61799
  ],
  "geometry": {"type":"MultiPoint","coordinates":[[-122.370943,37.61799]]}
}
