{
  "id": 1763240601,
  "type": "Feature",
  "properties": {
    "date:cessation_lower": "1981-01-01",
    "date:cessation_upper": "1981-12-31",
    "date:inception_lower": "1981-01-01",
    "date:inception_upper": "1981-12-31",
    "edtf:cessation": "1981",
    "edtf:inception": "1981",
    "geom:area": 2.475047457570636e-7,
    "geom:bbox": "-122.386472,37.616105,-122.385834,37.616611",
    "geom:latitude": 37.61635747477365,
    "geom:longitude": -122.38615540108617,
    "millsfield:airline_id": [
      1159285013
    ],
    "millsfield:category_id": 1511214223,
    "millsfield:collection_id": 1511214207,
    "millsfield:company_id": [
      1159287001
    ],
    "millsfield:images": [
      1763241167
    ],
    "millsfield:images_colors_refs": {
      "crayola": [
        {
          "hex": "#714b23"
        },
        {
          "hex": "#8a795d"
        },
        {
          "hex": "#efdecd"
        }
      ],
      "css4": [
        {
          "hex": "#800000"
        },
        {
          "hex": "#696969"
        },
        {
          "hex": "#ffebcd"
        }
      ],
      "marekm4": [
        {
          "hex": "#926658"
        },
        {
          "hex": "#f7eaca"
        },
        {
          "hex": "#5f1c22"
        }
      ]
    },
    "millsfield:images_texts": [
      "PEOPLExpress\nFLY SMART\nFlight schedule effective August 1, 1981\nWHERE WE FLY.\nWHAT WE CHARGE.\nEVERY SEAT.\nEVERY FLIGHT.\nBOEING 737 SERVICE.\nPrice Summary\nFrom New York/\nNewark to:\nWeekday\nPrices\nWeekend and\nEvening Prices\nBoston\n$35\n$23\nBuffalo\n$35\n$23\nColumbus\n$55\n$35\nIndianapolis\n$79\n$59\nJacksonville\n$79\n$49\nNorfolk\n$35\n$23\nSyracuse\n$35\n$23\nWashington DC/Baltimore\n$35\n$23\nPrices subject to change without notice\nEvening prices available on flights\nscheduled to depart between 7:00 pm and 6:59 am.\nLeave\nArrive\nFlight\nFreq.\nStops\nLeave\nArrive\nFlight\nFreq.\n• Stops\nFrom:\nBALTIMORE, MD/\nWASHINGTON, DC\nBaltimore Reservations (301) 337-2061\nWashington Reservations (202) 488-0981\nBaltimore Washington Int Airport\nTo Boston, MA\n7:25a\n9:15a\n10:30a\n12:25p\n1:15p\n3:10p\n3:45p\n5:55p\n6:20p\n8:55p\n162\n183/122\n185/133\n107/147\n189/135\nX67\nDaily\nDaily\nDaily\nX6\ngogg\nTo Buffalo, NY\n7:25a\n10:33a\n162/103\n10:30a\n3:10p\n1:45p\n5:55p\n5:13p\n183/143\n9:08p\n107\n189/111\nX67\nDaily\nDaily\nX6\nTo Columbus, OH\n7:25a\n12:35p\n162/123\n1:15p\n4:50p\n5:55p\n185/125\n8:35p\n189/127\nX67\nDaily\nX6\nTo Indianapolis, IN - EFF. 8/15/81\n7:25a\n10:46a\n162/231\nX67\nC\n1:15p\n5:55p\n3:46p\n185/233\nC\n8:01p\n189/235\nDaily\nX6\nTo Jacksonville, FL\n7:25a\n11:42a\n1:15p\n5:55p\n4:32p\n162/132\n185/134\n9:17p\n189/108\nX67\nDaily\nX6\nTo New York, NY/Newark, NJ\n7:25a\n8:05a\n10:30a\n11:10a\n162\nX67\n183\nDaily\n1:15p\n1:55p\n185\n3:10p\nDaily\n107\nDaily\n5:55p\n3:50p\n6:35p\n189\nDaily\n9:15p\n9:55p\n191\nX6\nTo Norfolk/Virginia Beach, VA\n7:25a\n10:50a\n162/102\nX67\n1:15p\n3:45p\n185/124\nDaily\n3:10p\n6:20p\n107/164\n5:55p\n8:10p\n189/226\nDaily\nX6"
    ],
    "millsfield:images_texts_ids": [
      1763241167
    ],
    "millsfield:primary_image": 1763241167,
    "millsfield:subcategory_id": 1511213425,
    "mz:is_approximate": 1,
    "mz:is_current": 1,
    "sfomuseum:accession_number": "2014.084.1101",
    "sfomuseum:airline": "PEOPLExpress",
    "sfomuseum:airline_id": [
      697
    ],
    "sfomuseum:category": "Scheduling / Ticketing",
    "sfomuseum:classification_id": 158,
    "sfomuseum:collection": "Aviation Archive",
    "sfomuseum:creditline": "Gift of Thomas G. Dragges",
    "sfomuseum:date": "1981",
    "sfomuseum:date_acquired": "2015-07-02",
    "sfomuseum:daterange_end": "1981-12-31",
    "sfomuseum:daterange_start": "1981-01-01",
    "sfomuseum:description": "Timetable issued by PEOPLExpress, effective August 1, 1981; bi-fold format; brown and beige with  list of fares.",
    "sfomuseum:dimensions": "9 x 4 inches (22.9 x 10.2 cm)",
    "sfomuseum:medium": "paper, ink",
    "sfomuseum:object_id": 157663,
    "sfomuseum:placetype": "object",
    "sfomuseum:publication": ": , 1981.",
    "sfomuseum:subcategory": "Timetable",
    "src:geom": "sfomuseum#undetermined",
    "wof:belongsto": [
      102527513,
      1159162825,
      102191575,
      85633793,
      102087579,
      85922583,
      85688637,
      1159160869
    ],
    "wof:country": "XY",
    "wof:created": 1646901767,
    "wof:depicts": [
      1159285013,
      1159287001
    ],
    "wof:geomhash": "c281b9d9eefc83b5710e64b9d646067d",
    "wof:hierarchy": [
      {
        "building_id": -1,
        "campus_id": 102527513,
        "collection_id": 1159162825,
        "concourse_id": 1159162825,
        "continent_id": 102191575,
        "country_id": 85633793,
        "county_id": 102087579,
        "custom_id": 1763240601,
        "locality_id": 85922583,
        "neighbourhood_id": -1,
        "object_id": 1763240601,
        "region_id": 85688637,
        "wing_id": 1159160869
      }
    ],
    "wof:id": 1763240601,
    "wof:lastmodified": 1787988205,
    "wof:name": "timetable: PEOPLExpress",
    "wof:parent_id": 1159162825,
    "wof:placetype": "custom",
    "wof:placetype_alt": [
      "object"
    ],
    "wof:repo": "sfomuseum-data-collection",
    "wof:superseded_by": [],
    "wof:supersedes": []
  },
  "bbox": [
    -122.38647222518921,
    37.6161053594541,
    -122.38583385944366,
    37.61661101879963
  ],
  "geometry": {"type":"Polygon","coordinates":[[[-122.38647222518921,37.61631782178288],[-122.386434674263,37.61623283692423],[-122.38637566566466,37.61617759671399],[-122.38630056381224,37.6161308549656],[-122.38616108894348,37.6161053594541],[-122.38602161407469,37.6161308549656],[-122.38591432571411,37.61618609521055],[-122.38585531711577,37.61626683087935],[-122.38583385944366,37.61636881265146],[-122.38587141036987,37.61646654505181],[-122.38594114780425,37.61654303118856],[-122.38605380058287,37.61660252035167],[-122.38618254661559,37.61661101879963],[-122.3863059282303,37.61657277577607],[-122.3864185810089,37.61650903735973],[-122.3864668607712,37.61641130501523],[-122.38647222518921,37.61631782178288]]]}
}
