{
  "id": 1511938103,
  "type": "Feature",
  "properties": {
    "date:cessation_lower": "1955-01-01",
    "date:cessation_upper": "1955-12-31",
    "date:inception_lower": "1955-01-01",
    "date:inception_upper": "1955-12-31",
    "edtf:cessation": "1955",
    "edtf:date": "1955",
    "edtf:inception": "1955",
    "geom:area": 0,
    "geom:bbox": "-122.386155,37.616357,-122.386155,37.616357",
    "geom:latitude": 37.616357,
    "geom:longitude": -122.386155,
    "iso:country": "XX",
    "millsfield:aircraft_id": [
      1159291141
    ],
    "millsfield:airline_id": [
      1159285461
    ],
    "millsfield:category_id": 1511214223,
    "millsfield:collection_id": 1511214207,
    "millsfield:company_id": [
      1159293697
    ],
    "millsfield:images": [
      1527842969,
      1527851177
    ],
    "millsfield:images_colors_refs": {
      "crayola": [
        {
          "hex": "#319177"
        },
        {
          "hex": "#cdc5c2"
        },
        {
          "hex": "#dbd7d2"
        },
        {
          "hex": "#dd9475"
        },
        {
          "hex": "#17806d"
        },
        {
          "hex": "#c46210"
        },
        {
          "hex": "#414a4c"
        }
      ],
      "css4": [
        {
          "hex": "#d3d3d3"
        },
        {
          "hex": "#2e8b57"
        },
        {
          "hex": "#e9967a"
        },
        {
          "hex": "#5f9ea0"
        },
        {
          "hex": "#a0522d"
        },
        {
          "hex": "#b22222"
        },
        {
          "hex": "#2f4f4f"
        }
      ],
      "marekm4": [
        {
          "hex": "#d6dac1"
        },
        {
          "hex": "#20886d"
        },
        {
          "hex": "#a53209"
        },
        {
          "hex": "#2b4233"
        },
        {
          "hex": "#42887c"
        },
        {
          "hex": "#262f2f"
        },
        {
          "hex": "#429689"
        },
        {
          "hex": "#b04517"
        },
        {
          "hex": "#c5d7c8"
        },
        {
          "hex": "#d59374"
        }
      ]
    },
    "millsfield:images_texts": [
      "TIMETABLE\nEFFECTIVE AUGUST 5, 1955\nVARIG\nAirlines\nNEW YORK\nSOUTH AMERICA\nvia Lockheed\nSUPER-G\nConstellations",
      "CHICAGO\nPHILADELPHI\nWASHINGTON\nNew York\nCiudad Trejillo\nBelem\nVARIG\nAirlines\nRio de Jancino\nSão Paulo\nMontevideo\nBuenos Aines\n- VARIG INTER-AMERICAN ROUTE\n- VARIG SOUTH AMERICAN NETWORK\nUNITED STATES to the CARIBBEAN - SOUTH AMERICA\nWEDNESDAY*\n851\nSATURDAY\n851\nDAY\nTUESDAY\nSATURDAY*\n- FLIGHT NO.\nSUPER-G\nCONSTELLATION\nAIR CRAFT\n850\n850\nSUPER-G CONSTELLATION\nSOUTHBOUND\n10:00\n10:00\nKead Down\nLv.\nArr.\nNEW YORK\nKead Ur\nArr.\n17:00\n17:00\nCIUDAD TRUJILLO\n4:00\n9:30\n11:00\n12:00\n13:00\n4:00\nArr.\nBELEM\nArr.\nLv.\nArr.\nArr.\n11:00\nRIO DE JANEIRO\n13:00\nArr\nLv.\nSAO PAULO\nArr.\n16:00\n18:00\n19:00\n19:50\n16:00\n18:00\n19:00\n19:50\nPORTO ALEGRE\nArr.\nLv.\nArr.\nMONTEVIDEO\nBUENOS AIRES\nArr.\nLv.\nNORTHBOUND\n16:00\n16:00\n9:00\n8:00\n9:00\n8:00\n2:00\n1:00\n2:00\n1:00\n19:30\n18:00\n19:30\n18:00\n17:00\n16:00\n17:00\n16:00\n14:00\n13:00\n14:00\n13:00\n11:00\n10:00\n11:00\nTO.00\n9:10\n9:10\n*To start at a later date.\nLOCAL TIME SHOWN THROUGHOUT\nFARES to the CARIBBEAN — SOUTH AMERICA\nONE WAY\nFIRST CLASS\nROUND TRIP\nTOURIST\nfrom NEW YORK to\nONE WAY\nROUND TRIP\n$127.00\n300.00\n$228.60\n460.00\n540.00\n828.00\n828.00\nCIUDAD TRUJILLO\nBELEM\nRIO DE JANEIRO\nSAO PAULO\n$91.00\n$176.60\n449.00\n386.00\n723.00\n460.00\n516.00\n543.00\n549.00\n386.00\n723.00\n028 80\n977.40\n988.20\nPORTO ALEGRE\nMONTEVIDEO\nBUENOS AIRES\n417.00\n793.00\n448.00\n852.00\n867.00\nFor fares to other points in Brazil, Uruguay, and Argentina consult your Travel Agent or Varig Airlines.\nCONNECTING SERVICES TO THE FOLLOWING\nCITIES: (through VARIG or other carriers)\nCADIRREANI.\nPort au Prince, Cap Haitien, Ponce, Mayaguez, San Juan, St. Thomas, St. Croix,\nKinneton Maniona Rav Curmeno\nBRAZIL:\nRecife, Salvador, Belo Horizonte, Curitiba, Manaus, Fortaleza, Natal, Aracaju,\nMaceio Toâo Passo. Vitória. Santos. and more than 50 other important cities\nMIDNIGHAY.\nARGENTINA:\nPaysandú, Salto, Treinta y Tres, Melo, Punta del Este, Artigas, Rivera.\nEva Perón, Córdoba, Mendoza, Santa Fé, Tucuman, Salta, Rosario, Posadas,\nCorrientes. San Juan. Bariloche.\nGENERAL INFORMATION\nEQUIPMENT: All Varig flights to and from New York\nare flown with four-engined Lockheed Super-G Constel-\nlations, piloted by CAA-licensed crews.\nBAGGAGE: Free baggage allowance is 30 kilos (66 lbs.)\nfor first class, and 20 kilos (44 lbs.) for tourist pas-\nsen aero.\nOvercoats.\numbrellas,\nhandbags and small\ncameras will not be weighed as baggage, but are to be\nmarked with the passenger's name and address. Excess\nweight over free allowance is charged for at 1 percent\nof the first class adult one-way fare per kilo, or 2.2 Ibs.\nCHILDREN: One child under 2 years of age, when accom-\npanied by an adult and not occupying a separate seat,\nis carried at 10 percent of the adult fare. Children over\n2 and under 12 years, or a child under 2 occupying a\nseparate seat, are charged one-half of the applicable\nadult fare. Children may travel alone only under cer-\ntain conditions.\nMEALS: All meals in flight are served free, to both first.!\nclass and tourist passengers.\nSTOPOVER PRIVILEGES: All passengers flying Varig may\nstop at any city enroute, and on the Varig system, if\nspecified in ticket.\nTAXES: Any and all government taxes are in addition\nto Varig fares.\nINSURANCE:\nTrip insurance at low rates is available\nthrough vour travel agent or at any airport.\nRESERVATIONS: Passengers must reconfirm their reser-\nvations at least 72 hours before departure from any\nstopover city.\nDEPARTURES: To facilitate on-time departures, passen-\ngers are requested to be at the airport one hour before\nscheduled take-off time.\nGROUND TRANSPORTATION: Taxicab or limousine serv-\nice is available between downtown scheduled check-in\npoints and airports. This is not a Varig service and is at\npassenger's expense.\nCONNECTIONS: Flight connections via Varig are avail-\nable to all cities with scheduled service.\nYour travel\nagent, or any Varig office, will arrange these connec\ntions for vou."
    ],
    "millsfield:images_texts_ids": [
      1527842969,
      1527851177
    ],
    "millsfield:primary_image": 1527842969,
    "millsfield:subcategory_id": 1511213425,
    "mz:hierarchy_label": 1,
    "mz:is_current": 1,
    "sfomuseum:accession_number": "2005.132.108",
    "sfomuseum:aircraft": "Lockheed L-1049G Super Constellation",
    "sfomuseum:aircraft_id": [
      812
    ],
    "sfomuseum:airline": "VARIG",
    "sfomuseum:airline_id": [
      904
    ],
    "sfomuseum:category": "Scheduling / Ticketing",
    "sfomuseum:classification_id": 158,
    "sfomuseum:collection": "Aviation Archive",
    "sfomuseum:creditline": "Gift of the William Hough Collection",
    "sfomuseum:date": "1955",
    "sfomuseum:date_acquired": "2006-12-05",
    "sfomuseum:daterange_end": "1955-12-31",
    "sfomuseum:daterange_start": "1955-01-01",
    "sfomuseum:description": "Timetable issued by VARIG Airlines for New York and South America, effective August 5, 1955; 8-page double-sided fold-out; green and white cover with illustrations international tourist sites; promoting Lockheed L-1049G Super Constellation service.",
    "sfomuseum:dimensions": "9 x 4 inches (22.9 x 10.2 cm)",
    "sfomuseum:media_ids": [
      1527842969,
      1527851177
    ],
    "sfomuseum:medium": "paper, ink",
    "sfomuseum:object_id": 98585,
    "sfomuseum:placetype": "object",
    "sfomuseum:primary_media_id": 1527842969,
    "sfomuseum:publication": ": , 1955.",
    "sfomuseum:subcategory": "Timetable",
    "src:geom": "sfomuseum#undetermined",
    "wof:belongsto": [
      1511214223,
      102527513,
      102191575,
      85633793,
      1511213425,
      85922583,
      102087579,
      1511214277,
      1511214207,
      85688637
    ],
    "wof:breaches": [],
    "wof:country": "XX",
    "wof:created": 1579906656,
    "wof:depicts": [
      1159285461,
      1159291141,
      1159293697
    ],
    "wof:geomhash": "30c8a918561c84bb2daa2b97fc7c5353",
    "wof:hierarchy": [
      {
        "arcade_id": 1511213425,
        "building_id": 1511214277,
        "campus_id": 102527513,
        "concourse_id": 1511214223,
        "continent_id": 102191575,
        "country_id": 85633793,
        "county_id": 102087579,
        "custom_id": 1511938103,
        "locality_id": 85922583,
        "neighbourhood_id": -1,
        "object_id": 1511938103,
        "region_id": 85688637,
        "venue_id": 1511938103,
        "wing_id": 1511214207
      }
    ],
    "wof:id": 1511938103,
    "wof:lastmodified": 1787988183,
    "wof:name": "timetable: VARIG, Lockheed L-1049G Super Constellation",
    "wof:parent_id": 1159162825,
    "wof:placetype": "custom",
    "wof:placetype_alt": [
      "object"
    ],
    "wof:repo": "sfomuseum-data-collection",
    "wof:superseded_by": [],
    "wof:supersedes": [],
    "wof:tags": []
  },
  "bbox": [
    -122.386155,
    37.616357,
    -122.386155,
    37.616357
  ],
  "geometry": {"type":"Point","coordinates":[-122.386155,37.616357]}
}
