{
  "id": 1913795743,
  "type": "Feature",
  "properties": {
    "date:cessation_lower": "1933-08-26",
    "date:cessation_upper": "1933-08-26",
    "date:inception_lower": "1933-08-26",
    "date:inception_upper": "1933-08-26",
    "edtf:cessation": "1933-08-26",
    "edtf:inception": "1933-08-26",
    "geom:area": 2.475047457570636e-7,
    "geom:bbox": "-122.386472,37.616105,-122.385834,37.616611",
    "geom:latitude": 37.61635747477365,
    "geom:longitude": -122.38615540108617,
    "millsfield:airline_id": [
      1159284991,
      1159285931
    ],
    "millsfield:category_id": 1511214251,
    "millsfield:collection_id": 1511214207,
    "millsfield:company_id": [
      1159286721
    ],
    "millsfield:images": [
      1913800755,
      1913800757,
      1913800759,
      1913800763,
      1913800765,
      1913800767,
      1913800769,
      1913800771,
      1913800773,
      1913800775,
      1913800777,
      1913800781,
      1913800783
    ],
    "millsfield:images_colors_refs": {
      "crayola": [
        {
          "hex": "#414a4c"
        },
        {
          "hex": "#edd19c"
        },
        {
          "hex": "#efcdb8"
        },
        {
          "hex": "#87a96b"
        },
        {
          "hex": "#e7c697"
        },
        {
          "hex": "#9f8170"
        },
        {
          "hex": "#714b23"
        },
        {
          "hex": "#000000"
        }
      ],
      "css4": [
        {
          "hex": "#eee8aa"
        },
        {
          "hex": "#f5deb3"
        },
        {
          "hex": "#556b2f"
        },
        {
          "hex": "#2f4f4f"
        },
        {
          "hex": "#000000"
        },
        {
          "hex": "#bdb76b"
        }
      ],
      "marekm4": [
        {
          "hex": "#a59d6f"
        },
        {
          "hex": "#3d3211"
        },
        {
          "hex": "#a79d6f"
        },
        {
          "hex": "#ac9b71"
        },
        {
          "hex": "#dfd0aa"
        },
        {
          "hex": "#e4d6b0"
        },
        {
          "hex": "#3d3214"
        },
        {
          "hex": "#ab9a70"
        },
        {
          "hex": "#decfaa"
        },
        {
          "hex": "#3c2b10"
        },
        {
          "hex": "#dfcfa8"
        },
        {
          "hex": "#a59c6e"
        },
        {
          "hex": "#2c1d0b"
        },
        {
          "hex": "#3e3212"
        },
        {
          "hex": "#ad9c71"
        },
        {
          "hex": "#34250d"
        },
        {
          "hex": "#ab9b71"
        },
        {
          "hex": "#e1d3b0"
        },
        {
          "hex": "#dccda6"
        },
        {
          "hex": "#a49a6e"
        },
        {
          "hex": "#453b15"
        },
        {
          "hex": "#ad9b70"
        },
        {
          "hex": "#a69d70"
        },
        {
          "hex": "#383012"
        },
        {
          "hex": "#a69e6f"
        },
        {
          "hex": "#decfa7"
        },
        {
          "hex": "#e0d1ac"
        },
        {
          "hex": "#e0d1ab"
        },
        {
          "hex": "#e0d0aa"
        },
        {
          "hex": "#34240e"
        },
        {
          "hex": "#3d3413"
        },
        {
          "hex": "#a0a26a"
        },
        {
          "hex": "#e3d6b7"
        },
        {
          "hex": "#39270d"
        },
        {
          "hex": "#38260d"
        },
        {
          "hex": "#dfd0a8"
        },
        {
          "hex": "#dfd1ac"
        },
        {
          "hex": "#423a13"
        }
      ]
    },
    "millsfield:images_texts": [
      "CABLE ADDRESS.\nMANHOCO-MANILA\nALL TELEGRAPHIC CODES\nHUBERT C. ANDERSON\nMANAGER\nMANILA HOTEL\nManila, Philippines\n8/26\nTHE SIGN OF SERVICE\nIN\nTHE PHILIPPINES\n33\nDearEst -\nYour grand\nlettero\nJuly.\n181 to 24# 0zz2\nwaiting for\non my\nreturn yrstuda, from a\nflight to Zamboanga -\na buef description 9/\nwhich is\nIncland here wah\nI wrote a famie, let\non the plane which\nwie hair typruited +\nsand to you but ma\n* not make this mail\nYou estens wiiz Noo",
      "nucr and chared me\nup more than anything\nEls coned\nhair done\nvi had a long hand\nday\nand\naftre dinnu\nI just relaxed u\nbig comfortable chair\nand had a\nа дчаня\nronning reading and\nre reading your litters\nоне :.\n- from\nBo and one\nfrom France\nalso a\ntwist one from Cat\nthat I lord.\nso bont\nour 1.7. Knight - were wets\nto Harry and tanne,.\n2019.121.0693a",
      "8.26:33\nCABLE ADDRESS.\nMANHOCO-MANILA\nALL TELEGRAPHIC CODES\nHUBERT C. ANDERSON\nMANAGER\nTHE SIGN OF SERVICE\nIN THE PHILIPPINES\nMANILA HOTEL\nManila, Philippines\nyou\nmer\nto\nthe at\nSire dict\npart,\nfor the\nand Im so\nglad Bine likid Pa Can\nfor I's oftin told him\nwoket a grach grady\nCass is and ta too.\nmer to\nDon was neer to\ncatch the fish and\nkep. He must be\ngrong the\nreal\nCourse they lor his\nnocturnal complex.",
      "you entaine, do not\nneed to Tree baah\nabout using the cottagt\nany mork - if as much\nas Ruth should akont\nthe Grage cottage. Anywa\nunles\nale your in proomet\nhais charged the intiet\nhouse\n1O dont think glove\nworld lur than angrony.\nYour ston abont Doc\nStires is awfile, funny\nHope they find\nhin\nHE answers Bie Dan\ndescription of Chair Cowdin\nwhen Die said \"I dont\nthink he would take are\nChickin off a neighbors reost\n201942106936",
      "8.26:33\nCABLE ADDRESS.\nMANHOCO-MANILA\nALL TELEGRAPHIC CODES\nHUBERT C. ANDERSON\nMANAGER\nTHE SIGN OF SERVICE\nIN THE\nPHILIPPINES\nMANILA HOTEL\nManila, Philippines\nОн -\nmoonlight night.\nSe Do dear 2 more\nthe boat work. this litte\nand Im distima\nabont it for ther\nnext\nboat wise mot sail\nuntie Sipt. 44k which\nmeans\na long time\nletters for son.\njust an\nI got to this\njay Bu groach came\ndashing in\nand\n• said\nhe had made an\napportment wit s",
      "Amiral Courtney at\nCavits and if er ruthed\nus Conta\nFit thne\non time.\nEls an\nhour to Carti ly\ncar\nand\nwhen\nback herk\nvo fenale,\nthe\nBost kid sactel.?\nte Manila is resel\nCorl, i the most goygow\nsun sits tir zou sıin\nyour ta wooned be\ncald abont thim and\nthe cloud iffets which\nans too\nbrant ful fa\nwords.\nI, julji that you\nAid not hear any mor\n2019.210693 c",
      "8.26:33\nCABLE ADDRESS.\nMANHOCO-MANILA\nALL TÊLEGRAPHIC CODES\nHUBERT C. ANDERSON\nMANAGER\nLEOT\nTHE SIGN OF SERVICE\nIN THE\nPHILIPPINES\nMANILA HOTEL\nManila, Philippines\nfrom Rueph regarding the\nsale of\nour\nhous\n2 world protate, han\nhaa cable. It\nmakes \"\nme angule sad\nto think of ace the\nhappy dayd est had\nthere and the fun\nvor had planning corry-\nthing,\nbut I should nt\nmention acthat. Debs\nI get tribe, depress\nwhen\nI look back on\nmy life during this not",
      "fue yrars. the way\nI lost money which\nI should hair protietie\nfor you axd the\nChildren.\nI want you\ntố know that Im.\ngratifie for your attitude\nniru\nword of repac\na criticiam and it\nwonce be so human\nfor you to\nsay\n\"I told\n- you\nons so or caus\nyou\ndid many times..\nIn wondering\nwhat\ncomprisatis factors\nmay work out in our\nlivia - curtang our\nseparation\n- is not one\n09.1210693 d",
      "8•26•33\nCABLE ADDRESS.\nMANHOCO-MANILA\nALL TELEGRAPHIC CODES\nHUBERT C. ANDERSON\nMANAGER\nTHE SIGN OF. SERVICE\nIN THE PHILIPPINES\nMANILA HOTEL\nManila. Philippines\nbut than is\nalways\nsome\nloss\ncompensation for the coss\nof prestige and crack.\nmayh et uree bs in\nthe advantage of trave\nWhich our\nChildren ay\nhair, or some othi\nbraift. O cant think\nit ale through to the\nEnd dear and one, know\nthat\nyou mos\nthan I ron\nhair in\nQue the Tsars which\nhair paond. The thought\no your loyales, your",
      "courags and the litro\nwhich you wats bhend\nwhich\nI can sur but\nnear read\nale the sad-\nmen and hardshya f\nсиг\ndear mu\n• work their\ngory fast and\nmore satisfactory\n\u003e than\ntor had any right to\nexpect. Locae aviation\nintrust whuck us thought\nwould te antagorentic\nan cooprating and the\nprospiet of favorable\nContracts look bright. 2\nvon t last night\nwit Bie grave to\n\"howve\"\n201912106930",
      "18.26.33\nCABLE ADDRESS.\nMANHOCO-MANILA\nALL TELEGRAPHIC CODES\nHUBERT C.\n• ANDERSON\nMANAGER\n(meT\nLUT DATE\nTHE SIGN OF SERVICE\nIN THE RHILIDPINES\nMANILA HOTEL\nManila, Pbilippines\nlout\nCame\nNolo\nand joined\na\n• in chu đing\nwho\nback Earl\nants keir\n• or on the\ndunni Bie sand o\nwint to a place sohuck\ntonyone has ben tilling\n* au, our Shanghai find\nraid abont - creed\nSanta Anna\ntor got there\nabont 103. and the\nplace wa feed rock",
      "Thieppines and Amencin\nsailors. The dana floor\nis abont 300 fact long\nby 100 fut wide wetk\nno posto She \"balarinas\n\"\na taxi danciy partners\nall look dirty and act\nthough\nthey was\nnot und to raring\n'Shors. Bee and i\nRach thought ur\nshoned at\nleast dancr\noner just\nto-\nsay that\nur had dancrd with\na Thie yaine but in\nleft with ont\ndoing so\nand when ur got\n2019.12106936",
      "8•26.33\nCABLE ADDRESS.\nMANHOCO-MANILA\nALL TELEGRAPHIC CODES\nHUBERT C. ANDERSON\nMANAGER\nBUTTE\nTHE SIGN OF SERVICE\nIN THE\nPHILIPPINES\nMANILA HOTEL\nManila, Philippines\nback to the hatre us\nfeet\ndelynted to mex\nwith white prople +\nkin clean surroundings.\nMust run along\nnow - All mu lour to\nYou darling Your own"
    ],
    "millsfield:images_texts_ids": [
      1913800755,
      1913800757,
      1913800759,
      1913800763,
      1913800765,
      1913800767,
      1913800769,
      1913800771,
      1913800773,
      1913800775,
      1913800777,
      1913800781,
      1913800783
    ],
    "millsfield:primary_image": 1913800755,
    "millsfield:subcategory_id": 1511213489,
    "mz:is_approximate": 1,
    "mz:is_current": 1,
    "sfomuseum:accession_number": "2019.121.0693 a g",
    "sfomuseum:airline": "Pan American Airways",
    "sfomuseum:airline_id": [
      685,
      1131
    ],
    "sfomuseum:category": "Employee Career History",
    "sfomuseum:classification_id": 195,
    "sfomuseum:collection": "Aviation Archive",
    "sfomuseum:creditline": "Collection of SFO Museum",
    "sfomuseum:date": "08/26/1933",
    "sfomuseum:date_acquired": "2019-11-22",
    "sfomuseum:daterange_end": "1933-08-26",
    "sfomuseum:daterange_start": "1933-08-26",
    "sfomuseum:description": "Handwritten letter from Harold M. Bixby to his wife, Debby Bixby, dated August 26, [1933], on stationery from the Manila Hotel; includes family and personal matters, negotiation process in Manila; mentions [William] Grooch.",
    "sfomuseum:dimensions": "8 1/2 x 5 1/2 inches (21.6 x 14 cm)",
    "sfomuseum:medium": "paper, ink",
    "sfomuseum:object_id": 211031,
    "sfomuseum:placetype": "object",
    "sfomuseum:publication": ": , 08/26/1933.",
    "sfomuseum:subcategory": "Correspondence, Personal",
    "src:geom": "sfomuseum#undetermined",
    "wof:belongsto": [
      102527513,
      1159162825,
      102191575,
      85633793,
      102087579,
      85922583,
      85688637,
      1159160869
    ],
    "wof:country": "XY",
    "wof:created": 1714548881,
    "wof:depicts": [
      1159285931,
      1159286721,
      1159284991
    ],
    "wof:geomhash": "c281b9d9eefc83b5710e64b9d646067d",
    "wof:hierarchy": [
      {
        "building_id": -1,
        "campus_id": 102527513,
        "collection_id": 1159162825,
        "concourse_id": 1159162825,
        "continent_id": 102191575,
        "country_id": 85633793,
        "county_id": 102087579,
        "custom_id": 1913795743,
        "locality_id": 85922583,
        "neighbourhood_id": -1,
        "object_id": 1913795743,
        "region_id": 85688637,
        "wing_id": 1159160869
      }
    ],
    "wof:id": 1913795743,
    "wof:lastmodified": 1787988219,
    "wof:name": "correspondence: Harold M. Bixby to Debby Bixby",
    "wof:parent_id": 1159162825,
    "wof:placetype": "custom",
    "wof:placetype_alt": [
      "object"
    ],
    "wof:repo": "sfomuseum-data-collection",
    "wof:superseded_by": [],
    "wof:supersedes": []
  },
  "bbox": [
    -122.38647222518921,
    37.6161053594541,
    -122.38583385944366,
    37.61661101879963
  ],
  "geometry": {"type":"Polygon","coordinates":[[[-122.38647222518921,37.61631782178288],[-122.386434674263,37.61623283692423],[-122.38637566566466,37.61617759671399],[-122.38630056381224,37.6161308549656],[-122.38616108894348,37.6161053594541],[-122.38602161407469,37.6161308549656],[-122.38591432571411,37.61618609521055],[-122.38585531711577,37.61626683087935],[-122.38583385944366,37.61636881265146],[-122.38587141036987,37.61646654505181],[-122.38594114780425,37.61654303118856],[-122.38605380058287,37.61660252035167],[-122.38618254661559,37.61661101879963],[-122.3863059282303,37.61657277577607],[-122.3864185810089,37.61650903735973],[-122.3864668607712,37.61641130501523],[-122.38647222518921,37.61631782178288]]]}
}
