{
  "id": 1913796451,
  "type": "Feature",
  "properties": {
    "date:cessation_lower": "1944-06-02",
    "date:cessation_upper": "1944-06-02",
    "date:inception_lower": "1944-06-02",
    "date:inception_upper": "1944-06-02",
    "edtf:cessation": "1944-06-02",
    "edtf:inception": "1944-06-02",
    "geom:area": 2.475047457570636e-7,
    "geom:bbox": "-122.386472,37.616105,-122.385834,37.616611",
    "geom:latitude": 37.61635747477365,
    "geom:longitude": -122.38615540108617,
    "millsfield:airline_id": [
      1159284991
    ],
    "millsfield:category_id": 1511214251,
    "millsfield:collection_id": 1511214207,
    "millsfield:company_id": [
      1159286839
    ],
    "millsfield:images": [
      1913799233,
      1913799235,
      1913799237,
      1913799239,
      1913799241,
      1913799243,
      1913799245,
      1913799247,
      1913799251
    ],
    "millsfield:images_colors_refs": {
      "crayola": [
        {
          "hex": "#1a4876"
        },
        {
          "hex": "#7851a9"
        },
        {
          "hex": "#926eae"
        },
        {
          "hex": "#eceabe"
        },
        {
          "hex": "#324ab2"
        },
        {
          "hex": "#efdecd"
        }
      ],
      "css4": [
        {
          "hex": "#6a5acd"
        },
        {
          "hex": "#483d8b"
        },
        {
          "hex": "#ffe4c4"
        },
        {
          "hex": "#663399"
        },
        {
          "hex": "#191970"
        },
        {
          "hex": "#f5deb3"
        },
        {
          "hex": "#9370db"
        }
      ],
      "marekm4": [
        {
          "hex": "#eadec6"
        },
        {
          "hex": "#e9dec6"
        },
        {
          "hex": "#eadec7"
        },
        {
          "hex": "#594aac"
        },
        {
          "hex": "#8579bb"
        },
        {
          "hex": "#5446aa"
        },
        {
          "hex": "#5749ac"
        },
        {
          "hex": "#4e3faa"
        },
        {
          "hex": "#e9ddc5"
        },
        {
          "hex": "#e8dcc3"
        },
        {
          "hex": "#4e41a4"
        },
        {
          "hex": "#1d1663"
        },
        {
          "hex": "#eddfc1"
        },
        {
          "hex": "#4b3da3"
        },
        {
          "hex": "#8876bc"
        },
        {
          "hex": "#1b1564"
        },
        {
          "hex": "#e9ddc4"
        },
        {
          "hex": "#ebdfc5"
        },
        {
          "hex": "#ebdec1"
        },
        {
          "hex": "#5a4bae"
        },
        {
          "hex": "#4a3ea2"
        },
        {
          "hex": "#6854b5"
        },
        {
          "hex": "#1a1463"
        }
      ]
    },
    "millsfield:images_texts": [
      "June 2, 1944\nDear Family,\nThis must be an entirely off the record account of a Journey\nAmong Warriora\" which must have no publieity because of rules and\nregulations laid down by Security Control Officers.\nOf course the route\nwhich I followed has been described - complete with photographs - in\nTime and other magazines but it must nevertheless not be made public.\nI would like to have written the story and sent it home from time to\nae\u0026 play by play account but the censors w111 not pass any letter\nmore informative or exciting than one of those juvenile masterpieces which\nstart out \"Dear Daddy, How are you? I am fine.\nI am having an awfully\ngood time, ete., ete.\" Iou can't even fall back on that much over worked\ntopic of weather for even the weather is secret.\nTherefore, this report\nhad to be written after my return. I often wonder if the Security Control\nOfficials. most of whom are secure enough in Washington - have not brought\nabout as many casualities as the mr - and as much expense - trough silly\nblackout regulations, air raid sheltera, camoflaged buildings ete, etc.\nThe drole side of their activities is the fact that the nearer you get to\nthe fighting front the less \"security\". For example, it takes lots of time\nand much showing of credentials to get into the Arny or lavy building in\nWashington, but I strolled into General Chenault's headquarters along with\ncoolies and anyone else who ranted to go without even a challenge. Il me\nwe wish to wire Washington the departure time of a transatlantic Cliperg.\n(known only to some 100,000 people who see the take-off) the message must\nbe sent in code, but when we dispaten 20 planes over the Japanese lines the\nthe message is sent in plain English, Fell I suppose that is all a part of\nwar and I'13 now get along with the story.\nAfter a flight\ncial schedule on Tuesday,\ney 18th, and flew over the blue waters of the\nCaribbean to Cuba, where we landed at Caneguay, then on across Guantanano Bay\nat the estern part of the island (which unbeknowst to many is as much\nAmerican territory as ie Wichita, Kansas) on to Port au Prince, capital of\nHaiti. Then a landing at Cludad Trufillo in the Dominican Republic, where\nColumbus sleeps in the first cathedral of the Western Hemisphere. Our\novernight stop was San Juen, where we arrived on schedule late in the\nafternoon,\nThe following day, Wednesday, I motored 70 miles through the\ninland to Boringuer (Arm\") Flold to wait there for a CNAC delivery flight.\n(New CNAC shipe are flow tr China by pilots at the end of their home leave).\nThe lite of Puerto Rico 1s so similar to the Philippines as to be startling.\nNo doubt this is due to the Apanish influence for Spain lost both islands\nto us in 1898,\nAnother factor is the econony-sugar is the predominant\ncrop, with rice, tobaceo and coconut producte.\nThe following day, Thursciay Hoy 20th, the CNAC C-47 (like a DC-3\nonly with bucket seats along each side of the cabin) arrived from Miami and\nwe departed early Friday sorning, following the islands wich run all the\nway to the coast of South America.\nIt is a beautiful flight starting with\nthe Virgin Islands, which ve bought from Denmark for $25,000,000 (which an,",
      "2\nalthough chicken oed these days,\nseemed like a lot of money at the tine),\nand then on along the leeward Islands fought over by Spanish, French,\nBritish, and Dutch bucaneers and pirates of the old Spanish Hain.\nSaba is especially interesting, for here a thrily Duten Colony makes e\nliving out of fishing, but have no harbor. They build their boats in a\nvolcano crater and lower them to the sea down the rocky side of the steep\nslope. So Johns, Anuguay.\nis a regular port of call for PAA.\nBelow that\nBritish colony is the French island of Guadeloupe--then British Dominica,\nfollowed by French Martinique, birthplace of Empress Josephine. The deed\ncity of St. Pierre is faintly visible below lava scars--Its 30,000 inhebitants\nwere killed, all but one man in a dungeon (some advantage in being in the\nclink) in 1902 by poisonous gasses from a volcano eruption. Below Martinique\nIle the British-owed Windward Islands, and just off the South American coast\nis Trinidad.\nHe had been dispatobed to that point but we had plenty of\ngesoline left, and so as we approached Port of Spain the airway control\ncleared us by radiu to carry on to Gorgeons, iritisi Gulans, where we suent\nGe might in ery barrocha.\nin early start the next day carried u across Britis, French,\nand Dutch\nCuiana to Brezil: Later in the afternoon tie groen of the ocean\nturned more and more yellow as we approsched the mighty Anezon. Crossing\nthe equator I vas initiated into the urder of Juglies fox by \u0026 large cup of\nmater, dumped on my head. At belem ne pipped coffee on the sidewalk in\not the Grand Hose, did tone shopping, end had a most marvelous dianar\nat laciume Gares. The letter runs \u0026 boarding house getrocised by 2 Right\nShe and her husband are typloally Fronch and three or four Jaars of\nAmerican pilot visits have taught them not a word of English.\nWe had onion\nsoup, filet mignon with muchrooms, champagn, and a chocolate souffle which\nwas really super.\nOur party consisted of the flight crew of three--Donald Fong,\nPilot (Chicago Chinese), Nelson Pell, Copilot (nephew oi the Ticonderoga\nPells), and Willian Brom, Navigator, who navigates CNAC ships from Miant\nto Acers, Gold Coast, then hitch-hikes his way back to liani.\nThe other\npassengers were Whiting Willauer, \u0026 prominant Princeton football player of\na few years back, who is Vice President of China Defense Supplies Corp.\n(Lend-lease), and James Brennan, a lawyer from New Mexioo also connected\nwith CDS.\nWe also carried a ton of supplies--mostly spare parts for CNAC\nand General Chennaul.\nThe flight fron Belem, at the nouth of the Amazon, to latel was\nover dense jungle all the way, with nothing to break the monotony of that\nendless expanse of soft green carpet way below us.\nA forced landing would\nbe just too bad! - Netaly-nearest point of the Western to the Eastern Hena-\nphere-is the jumping-off place for the trip across the South Atlantic. We\nstayed overnight at the PAA staff house and I spent most of the next day\ninspecting the seaplane base and talking to personnel.\nTook enough time out\nin the afternoon to take a swim at Natal's marvelous beach no corals pests,\nIn the late afternoon we took off for the long 111ght to\nAscension Island, where American engineers and ingenuity have produced an",
      "airport where none was possible, We errived chere without incident early the\ntolloring morning landing on the ramay sileed deep out of the mountalaside.\nBreakfeat, refueling, and we were off again lor seers, arriving there Tuesday,\nveragned Aere (Gold Coast Are barracks and get an early\nstart the following morning for the song trek sorose the dark continent.\nfrom the Gold Coast, across Togoland and Dahoney to Nigeria. Our next\nscheduled stop was at Maidugurs, bat some 100 miles West of Kano--Plying st\n5,000 feete ras into a cloud of locusts.\nFor a mesent I thought we were in\n\u0026 hall stam the din was terrific -mut a glance at the windshield wipers\nshoved dege and wings i the large hoppers.\nsoon the windshield was completely\nsmeared over and oil temperatares stazted to climb, indisting that the 013\ncoolera (like auto redistors) were caulted up witn locusts.\nWe carried on to\nKano, where Don Hong made a perfect--though alsost blind-landing.\nmenone of the oldest olties in the world-entiosed in the Bible-\nis a sented city with the bair's polace encioned by an immer wag much 31ke\nthe Forbidden City in Felping. The Emiris bodyguerd wear chain armor esptured\nFrom the Crusaders!\nWe orer-sighted at tie Ary camp and the nort day, saroute to 23\nPosher, our course ley across the French-andated old Gereen possessions\nthe Cameroomand French Wess Africa.\nInice Chod, where elephants are said to\nbe plentifel (we didn't see any), was sticked by the Germans during the\nenray operations of PAl-Africa.\n51 Tasher is served only by etes and canel\nIt tea very hot out on tha desert when we landed, but after dinner\nHe sat out under the etars and watched \"the Song of Bemadette, complete with\nsound track and color,\nand the next got over more interesting territory, for after crosstag the Nile\nsac the siue bile ze started climbing to clear mussolind's old dream capital\nof Eritres - henare.\nThe espital ie some 8,000 feet above the Red Sea pert\nof Hasrah, and is reached by some nost susing rosds built in the old Hosan\npattern at ite best.\nI'd like to visit Asmare it must be a delightful clate\nand undoubtedly hea a great fature see resort where white me cas recover fros\nhest of the lowlands.\nPassing over the high mountalas of Benito's fallen cupire me flem\nover a corner of Ethiopta to the Eastern gateway to the Red Son, where an\nIsland (Eritish, ol course) divides the narro chemel. Old forts bristle\nwith guns and on the weinland where the territory of Sadi Arabia seets the\nBritish protectorate of Aden, additional and (I suspoot) more pererful ferti-\nfications are not too well diaguised at loset not from the air. We landed at\nSoon. puld to be go on the be sue darer by espare he had\nplanned to overnight at Aden where socommodations are better than the liesen\nhuts at the next stop, Salela-int that heat deedded the question.\nto Salala-and found a cool breese bloring off the ocean and a good movie for\nentertaiment.",
      "intermediate stop at lasire Islard-enother of those British strong points\non which the Empire 18 built.\nThen on to New Delht where Bond was waiting\nto greet us. 4 day in New Delhi, calling on George Merrill, Generals and\nothers. May 3rd we flew the last lap New Delbi to Calcutta, via Agra.\nthe latter point we eiroled the Taj Mahal at lom altitude.\nMost of the\nIamous places I have seen leave we with a feeling of disappointment-due\nperhaps to orer-selling--but I had no such thought with respect to the Taf\nonly great admiration for a thing which is perlection.\nCaloutta-aecond city of the Heitish Empire-seething millions,\ndirt, stupid jay walkers who nake driving a constent strain--camels, bulloek\ncarts, eater buffaloes plodding along as in Chine and the Philipines, pal-\nling avery type of cargo. Stayed with the Sharp's (he 1s Operations Manager\nof CNAC with headquartere et the Compiny's main base at Dum Dum Airport) in\na modern apartment building with several rooms air conditioned, including\nmine. Sharp's old Chinese boy from Hankson vas ou tag delighted to see me\nnad quie to apoll me eompletelypressed uy clothes, drew ny baths, woke\nna mith a glass of orange juice la one hand und morning paper in the other.\npon my 31val in Calcutta found various messuges of vercom\nzom Chinese officials in Chungklag, end learned that the Minister of Comm\nnications was away for ten doys. I had lots to do in Caloutte and so de-\nedded to finian up there before going on to Chungking. The allitery situs-\ntion in the Kahina and Inpal sector-hich looked pretty gets when I left\nthe U. Bo--had inproved substentielly, and latest reports from General\nStell Ladleated toat there was no longer any real danger thatthe Jape\nwould be able to cut the railroad line serving the raithead fron which NAC\nsterts its intensive operations over the \"hung\".\nBond and I spent the nest few days calling on vardous Army\nand chinese end Amerion offlelals. I took a Sunday off to play golf wita\nSher, at the Royal Caloutta Gold Club-dinned at the very stuffy Bengal Club\nwhere one requirement for mombership is 15 years residenee in India.\nthe 10th there wes en air reid alarm which I slept completely through in my\nair-conditioned room.\nor therm Assam. be paased within 40 miles of Impbad and closer to Konima\nIt mas hard to realize that a desperate struggle betreen inglish and Japenese\nforces was actually going on at that very moment over there where the green\njungle met the blue horizon.\nA Den we inspected the ClAd bese and speat\nthe night with the foods-NAC Preight Manager who runs the hung operation.\nHe and Mrs. Woods board with an old Seotch doctor who acts as medico for a\ngroup of tea plantations which dot the countryside.\nne tes planters nave done extreordinerily well with the resul\nbat the whole countryside has a park like 100k of well-being\nThe spacious\nhomes of plantation menagers are surrounded by lovely gardans full of flower-\ning plants and high climbing bougainville. Hedgerows are neat and tria,\ngiving en air of prosperity to the whole countryside, with its thousands of\nacres of tea bushes neatly planted row on row as fur as the eye can see.",
      "Homever, me realised that we were is frontier country when Woode\ncomploining bitterly over the lefture of as important radio station to remain\nconstantly on the air-wes advised tast the half-hour shut-dom coourred\nbecause a cobre bad slithered into the tresamitter station, to his ons and our\nload 1uck!\nSunday lay Ith we took one of NAC's freight shipa over the hump,\nOur pilot waa formerly \u0026 member of the G.A.P. (Civilian Alr Patrol) and 1s\noffletally credited with sinking a Gernen subrarine. The weather was not\nWe were afrected to make a wide cliabing turn so as to pass over the\ncontrol atation at 6,000 feet.\nWe were in the clouds when only a few bundred\nfeet off the ground.\nThe pilot made a wide cirele constantly climbing.\ncrossed the control station at just under 6,000 and continued on instruments\nfor an hour, climbing higher and higher untll we broke out in clear westher\nat 13,500 feet.\nThe pilot pointed te a thin line winding through the jungle\nbelow the fanous Ledo koed and the fukang Valley.\nTwenty miles to the south\nhesvy fighting was in progress.\nIt nes along this Ledo Road one day that\nStilmell in the andfore of a private- piece of affectation la which he often\nindulgese stopped by sego of the Enginser Corps who--after 20oking\nStliwell ever--Bald \"Boss, thiags must be plenty tough beck home 1t they heve\nto send an old guy like you out here!\"\nOur pilot kept a retchful ore for posable Jap garats planes, and I\nman plessed to note that there were fots of elonde all along the route whiel\nwould provide ever in an energeney. We sere flying now st 14,000.\nwing oxyge- you feel the need of it after the slightest physiest exertion\nsuch as melking fron the cockpit to the cabdu. As this point ve again had to\nfly on inetrosents.\nthe moutata high apota in this ares go up to 15,000 Seatis\nso to be safe we had to olimb to 15,500, where we flew over It. Herts and\nbroke into cleez weether ever the Salveen and Mesong Hivers.\nThe Japs held\nthis area at the time of our saigato!\nIt was only a matter of a week or ten daya\nwater that the Chinese 14th Division crossed the Saiween and started pushing the\nJape south.\nA few days before one of the NAC pilota spotted \u0026 large Jap\ntruck movement along ose of the few roads serving this area.\nHe immediately\nnotified the Army by radio and the Air Foree boys really clessed up there\nHips - got them all, Another CIA pilot reported an unusual amount of aotivity\naround \u0026 large native but which turned out to be \u0026 Jap emmition dump.\nAir Force boys saved the Japa the trouble of shooting all that stuff!\nAfter a fleeting vien of the Salveen and Menong rivers, we went on\nInstruneats ell the way across the hung, breaking into good visibility egad\nover Te-l, where the Burns nosd turns\nsoutward toward Kanning. Fortunately\nfor me, that part of the hump flight which was closed on the may over was open\non the way back, and vice verse, so I resily gained \u0026 good ides of the whole\nIt is no doubt the thoughest regularly flow air route in the world.\nThe boys who Ily it are doing a war job of the greatest importance, for they-\nthe Aray and CNAC pilots-provide the only link which China has with the out-\nside world. The deterenes a the apirit or sorele of a feople free to nove\naramd at will, as against the defeatian of a people in a virtual prison, 1e\nfar nore important then the actal novement of passengers or cargo over the",
      "Bond and I spent the night st the CNAC Kunming hostel. The fol-\nlowing day me called on General Chenault, who gave us an up-to-the-minute\netory of the sir war in China and Indo-China. I do not think it a violation\nof confidence or lending aid to the enemy to say that he is pessimistic ..\nnot over the ultimate outcome but over the length of the war against Japan.\nHowever, he qualified his statement that he thought the war would last two\nor three years more by saying that he was a pessimiat and self-styled\n\"alarniat\".\nLacemares that the apa to to hate bad oked of to an unne\nthe day-time hide the locomotives in the woods.\nlanema very 11 tile converted freightine real One passenge\nsit side by side. The Chinese always poor sailors get 111, The power\nof suggestion right at your elbor-brings about \u0026 high per cent of air\nsicimess over this mounteinous stretch wrare air is always turbulent.\n\u0026 consequence, our inelegant Anerican friends have dubbed this partieular\nflight the \"y - - Express\"-and the in tide case dora not stand for \"Vietory\"?\nvery much\nbomba and fire have been replaced by temporary structures which hide the\nInflation runs riot.\nRice-which formerly cost NC$6 per pieul now\ncoste NC$9,000 and the end is not in sight.\nMerchants would prefer not\nlisher next week and the merchandise cannot be replaced.\no 5e11 wast few things they lave left in stock because the could not pet\nany constructive or datinite program from anyone, and while I do not pretend\nto be even an amateur economist it does seem as though Chinese currency will\n1 the Burma Road could be opened\nHow of some eivilian conaumer goods, then prices night turn domsard and\nbring out sales by hoarders who -ight fear a break in the market.\never, the military are slow to soprove the transoortation of anything\nother than supplies, and even 1fa bese were eventually established on the\nChina Coast it is more than doubtful thet consumer good would be permitted\non board Army or Navy controlled ships. \"Good\" money of any kind disappears\n11ke water on sand. Prices for anything of intrinsic value are absurdly\nhigh-for example a Parker 51 fountain pen ean be sold for US $100-an old\nult of clothes can be sold for twice the original value, etc. etc.\nCNAC hes been compelled to raise vices until fares are now\n20 time the prevar rates--bit truck charges are 30 times pro-mar price-\nin fact it costa more to travel from Chungking to Chengtu or Kunming ty truek\nthan by air with the result that everyone wants to fly, and me could 1i1l\nthree trips per day instead of three per week if the alrplanes were availeble\nor gasoline obtainable.\nDuring the week of May 15th we had a number of conferences with\nMr. Gauss, American Ambassador;\nDr. sung, Minister of Finance; Dr. Iseng,\nwantster of Communicationa, and Is Soong asked us to his home for dinner.\nLots of other parties including one by our old American friend Lay Litile,",
      "7.\n\"ho ta of the t too ulter to hold the all important post of Direstos-\nLots of sad news including the death of my good friend K. I. Nieh,\nwho served 14 years as Assistant Operations Manager. Also the wife of H.O.Heu,\nmy #1 Chinese assistant in Shanghai had been murdered by the Japs. She wes\nan American.\nSaddest of all was a rumor that one of our whole family's\nclosest friendg-M.I. Tang-bad been shot for treason.\nHe was one of I. Vo\nSoong's most trusted associates, and as President of the Bank of Canton (Hong\nKong) refused to leave hong Kong when. Bond offered to, fly him out, because he\ndidn't want to leave his Bank or the people who worked there. When the Japs\ncame ne kept the bank open, which naturally called for some cooperation with\nthem, but there is no doubt whatever in my mind but that hi. I. Tong wes\nwholly inhocent of the charges.\nThat tragedy reminded me that only in the\nBritish Enpire and the United States is a man sure of that elemental right of\ntrial by juryl Cortathly that is one of the things for which we are fighting!\nWe left Chungking on Sunday, May 2lat, early in the morning, and\nhad another uneventful trip over the hump, except that this time we had to\ngo up to 16,500 feet and picked up a little ice,\nbut not enough to worry\nHowever, we hed some excitement at Dinfen for just as ve were\ngetting resdy to leave the sirport the sir raid warning sounded. Trucks\nwere hiking for revetments or hiding places in the woods, each loaded with\nwhite men, Indians, and Chinese-211 but with a single thought --to\"get the\nHell out of there.\" Six pursuit plenes took off in quick succession,\nclimbing steeply to meet the Japs.\nOur crew was entirely Chinese,\nHarold\nChin, pilot, has made more than 200 round trips over the hump the Army\ngives the Air Medal for 40 trips); his copilot and redio operator, both\nChinese,\nwent about their duties as calm and collected as Chis.\nHe taxied\nthe end of the mannay-took off-end flying just shove\nthe tree-tops\nheeded weetused toward nearby Tibet-not because Tibet was neutrel, only\nbecause it was the opposite direction from where the Jap attack would come!\nIt was very exeiting for a few moments-a strange plane got on our tail,\nbut apparently mos an Inglish pilot trying only to follow CNAC technique in\ngetting away.\nAfter about 30 minutes our radio operator aaid he had received\nthe \"all clear signal. We climbed up then and headed straight for Calcutta,\nwhich we reached without incident just as the sun was setting.\nStayed on in Caleutta 11ving the 11fe of Riley at the Sharp's\nuntil the 25th, when as a result of a conference with the Army it became\nevident that Bond would have to stay on for at least another week, and so\nI determined to leave as soon as possible.\nThat was the beginning of a\nstrenuous trip home. I left viaAT for New Delhi, expecting to arrive there\nat midnight.\nInstead we arrived at 5 AM, with very little sleep on the air-\nplane-those bucket seats are about as comfortable as the pere at the Boltor\nbaptist Charen (as 1 rarember them from gevera, years ago»)\nbut the plate chatted to leane 1% De on ate 27450e all the fey from\nthe furtheast corner of India, and carried a number of boys from the 14th Air",
      "8.\nForce who were going hons on leave.\nThey were a colorful lot-mostly\n201-Con5-radio operatory, 121ght mechanies, and gunners.\nThey all carried\nleather jackete which will make something of a stir in their respective\nhome tome for on the back is painted a large Chinese flag, and below that\nare Chinese cherecters which proclain the wearer to be a foreign friend\nof Chins.\nAfter sleeping on a bench in the station I vas so tired that I\ncould sleep on the airplane, and did so all the way to Karsehi.\nArriving there at 10 4, I bathed and shaved, then looked up our\nPAl representative, whom I had net going through on ny my out.\nHe told\nwe that the next two Pld ships leaving his station were both 100% hospital\nshipe and suggested that I tate the shorter northern route, whiek-mith some\nreluctance to leave PAA-I decided to do rather than prolong ny trip by\nwaiting at Karachi.\nAn ATC C-54 (DO=4) was acheduled out that some afternoon, and I\nticketed. Got avay at 3850 and soon we were out over the ocean,\nskirting the shore of India-Iran-on aeross the Gulf of Persia. the high\nrugged gray coast o drab to Babrein Island, where the Isxas 011 Company\nbas a great relinery, Our scheduled stop at Araksa had to be cancelled aa\nchow at the British Officers' Mese.! He bed two CA men on board and the rest\n-ve in number-conetitued a ferry erer of the Royel Canadian Air Force\nwha left Canada the previous Wednesday and now on Saturday vere on the way\nbacis! The non-coms had to est in the kitchen, despite all the protests of\nthair officers.\nhaze on the god a gate an a any hard alen,\nand other historie places, arriving at Cairo as damn mas breaking.\nsip was served end after one four hours on the ground e\ntook off on a most thrilling leg of the jourey.\n• We flew low over Celme\nand the Nile. Off to our left loomed the Pyramids an^ the Sphins-I hoped\nour new pilot mould eirele but he didn't--on over It. Alsnein, where the\nsigns of \"monty'g\" rout of Rommel are clearly vinible in trenchen, abandoned\ntanks, shell holes and thousands of tracks across the sand. On paat Tobruis\nBad ad at entel dentito or odd dents for are bee to (5 unk\nto vee that sinile and refer to that beautiful airplane in such terms),\nthan flew non-stop across the Sahare Desert to Gagablanes. That desert\nhas nothing to recomend it!- I've seen some ugelese country including the\nland Albert Fall sold to Doheney-but that Sahara in the lixit in worth-\nlessness.\nfurthermore, to add insult to injury, we bar a very rough hour\nIlying\nthrough a sand atorm, which wes nost unpleasant,\nAs we got out of\nit I looked back to see it project upward as far as.I could see, and we\nwere then 10,000 feet above the desert.",
      "9.\nWe arrived in Cacablancs-every lovely place, well named the\nWhite City--Just before sunset Sunday afternoon, having left Kerachi\nSeturday afternoon (sided by a gain of some four or five hours of flying\nwith the sus),\nHad me contimed on to the U. B. we could have been in\nNew York Monday, but Instead me Leerned that beguase of storms on the\nAtlantle, plues a big beakleg of eastbound passengers, all planes were\nbeing turnen around and flow back to Cairo.\nIu thermore, we were abruptly\ntold to report bacle Tuesday night at 10:30.\nThan, to make natters worse,\nwe found hundreds of loekers filled with the baggage of passengers avaiting\ntransportation. It looked like a long\n:581%a\nWe were billetted at the Excelafor Hotel-- bus carried us in\nfrom the airport and incidentally I'm fed up on jeeps and have no desire\nto om one after riding in then all over Alries,\nIndia sand Chine. The\nExeelsior left mei to he desired, but I slept 1ike a log.\nIn the morning\ngot in touch with our PAd representative and got some good new we were\n- just starting operations to Cesablanca and during check-out of crevs vere\nnot carrying passengergI could go aleng an a member of the crew.\nWent to dinner iith Captein Hauts, formerly of Root, Clerk, then\nPAA-AFRIOA, and now Amy, etationad at Casebianca, the PAl reoresentative Serell,\nand a cousin of Jim Sadth'e.\nWe went out to the place where FDR and Minaton\nhad their confereness- beautiful spot overlooking the see, surrounded by\nlovely badges crowed with bougalavilla. Had a marvelous dinner and then\ndrove out to the airport for a 2 Al take-oft.\nCannot tell you the route we folloved home that's a military\nsecret but can tell you that leaving Karachi Saturday attemoon I\narrived in Miami Tueday evening, and furthermore spent a whole day and\nand night at Casablanes, too!\nHave now flom over more than 100 Coreign countries, colonies,\nand insular possestons. 4l80 have flown twies around the worid-onee from\nBeat to fest and one from feat to East.\nThe statement that a \"rolling\nstone gathere no moss\" is still correct!\nSincerely,"
    ],
    "millsfield:images_texts_ids": [
      1913799233,
      1913799235,
      1913799237,
      1913799239,
      1913799241,
      1913799243,
      1913799245,
      1913799247,
      1913799251
    ],
    "millsfield:primary_image": 1913799233,
    "millsfield:subcategory_id": 1511213489,
    "mz:is_approximate": 1,
    "mz:is_current": 1,
    "sfomuseum:accession_number": "2019.121.1084 a i",
    "sfomuseum:airline": "Pan American Airways",
    "sfomuseum:airline_id": [
      685
    ],
    "sfomuseum:category": "Employee Career History",
    "sfomuseum:classification_id": 195,
    "sfomuseum:collection": "Aviation Archive",
    "sfomuseum:creditline": "Collection of SFO Museum",
    "sfomuseum:date": "06/02/1944",
    "sfomuseum:date_acquired": "2019-11-22",
    "sfomuseum:daterange_end": "1944-06-02",
    "sfomuseum:daterange_start": "1944-06-02",
    "sfomuseum:description": "Typewritten letter from Harold M. Bixby to his family, dated June 2, 1944; includes description of journey from New York to Miami, Caribbean, South America, Accra, across West and North Africa, Karachi, Calcutta [Kolkata], over “the Hump,” arriving in Chungking [Chongqing]; return trip through Calcutta, New Delhi, Karachi, Cairo, and Casablanca, arriving in Miami; mentions Donald Wong, Nelson Pell, William Brown, Whiting Willauer, James Brennan, [William L.] Bond, [Charles and Sylvia] Sharp, [Hugh] and Mrs. Woods, General [Claire] Chennault, Ambassador [Clarence] Gauss, Dr. [H.H.] Kung, Dr. Tseng, T.V. Soong, Lay Little, K.I. Nieh, H.C. Hsu, M.Y. Tang [or Tong], Harold Chin, Captain Haute, Mr. Sewell.",
    "sfomuseum:dimensions": "11 x 8 1/2 inches (27.9 x 21.6 cm)",
    "sfomuseum:medium": "paper, ink",
    "sfomuseum:object_id": 211447,
    "sfomuseum:placetype": "object",
    "sfomuseum:publication": ": , 06/02/1944.",
    "sfomuseum:subcategory": "Correspondence, Personal",
    "src:geom": "sfomuseum#undetermined",
    "wof:belongsto": [
      102527513,
      1159162825,
      102191575,
      85633793,
      102087579,
      85922583,
      85688637,
      1159160869
    ],
    "wof:country": "XY",
    "wof:created": 1714549097,
    "wof:depicts": [
      1159284991,
      1159286839
    ],
    "wof:geomhash": "c281b9d9eefc83b5710e64b9d646067d",
    "wof:hierarchy": [
      {
        "building_id": -1,
        "campus_id": 102527513,
        "collection_id": 1159162825,
        "concourse_id": 1159162825,
        "continent_id": 102191575,
        "country_id": 85633793,
        "county_id": 102087579,
        "custom_id": 1913796451,
        "locality_id": 85922583,
        "neighbourhood_id": -1,
        "object_id": 1913796451,
        "region_id": 85688637,
        "wing_id": 1159160869
      }
    ],
    "wof:id": 1913796451,
    "wof:lastmodified": 1787988220,
    "wof:name": "correspondence: Harold M. Bixby, family circular letter",
    "wof:parent_id": 1159162825,
    "wof:placetype": "custom",
    "wof:placetype_alt": [
      "object"
    ],
    "wof:repo": "sfomuseum-data-collection",
    "wof:superseded_by": [],
    "wof:supersedes": []
  },
  "bbox": [
    -122.38647222518921,
    37.6161053594541,
    -122.38583385944366,
    37.61661101879963
  ],
  "geometry": {"type":"Polygon","coordinates":[[[-122.38647222518921,37.61631782178288],[-122.386434674263,37.61623283692423],[-122.38637566566466,37.61617759671399],[-122.38630056381224,37.6161308549656],[-122.38616108894348,37.6161053594541],[-122.38602161407469,37.6161308549656],[-122.38591432571411,37.61618609521055],[-122.38585531711577,37.61626683087935],[-122.38583385944366,37.61636881265146],[-122.38587141036987,37.61646654505181],[-122.38594114780425,37.61654303118856],[-122.38605380058287,37.61660252035167],[-122.38618254661559,37.61661101879963],[-122.3863059282303,37.61657277577607],[-122.3864185810089,37.61650903735973],[-122.3864668607712,37.61641130501523],[-122.38647222518921,37.61631782178288]]]}
}
