{
  "id": 1913796353,
  "type": "Feature",
  "properties": {
    "date:cessation_lower": "1936-08-13",
    "date:cessation_upper": "1936-08-13",
    "date:inception_lower": "1936-08-13",
    "date:inception_upper": "1936-08-13",
    "edtf:cessation": "1936-08-13",
    "edtf:inception": "1936-08-13",
    "geom:area": 2.475047457570636e-7,
    "geom:bbox": "-122.386472,37.616105,-122.385834,37.616611",
    "geom:latitude": 37.61635747477365,
    "geom:longitude": -122.38615540108617,
    "millsfield:airline_id": [
      1159284991
    ],
    "millsfield:category_id": 1511214251,
    "millsfield:collection_id": 1511214207,
    "millsfield:company_id": [
      1159286839
    ],
    "millsfield:images": [
      1913802351,
      1913802353,
      1913802355
    ],
    "millsfield:images_colors_refs": {
      "crayola": [
        {
          "hex": "#9c7c38"
        },
        {
          "hex": "#d68a59"
        },
        {
          "hex": "#ffffff"
        },
        {
          "hex": "#714b23"
        }
      ],
      "css4": [
        {
          "hex": "#cd853f"
        },
        {
          "hex": "#a0522d"
        },
        {
          "hex": "#8b4513"
        },
        {
          "hex": "#f5f5f5"
        },
        {
          "hex": "#bdb76b"
        }
      ],
      "marekm4": [
        {
          "hex": "#6d4b10"
        },
        {
          "hex": "#f3f2ef"
        },
        {
          "hex": "#6f4c11"
        },
        {
          "hex": "#956c29"
        },
        {
          "hex": "#986c25"
        },
        {
          "hex": "#caa057"
        },
        {
          "hex": "#966c26"
        },
        {
          "hex": "#f4f3f1"
        },
        {
          "hex": "#c99e54"
        },
        {
          "hex": "#cba25b"
        }
      ]
    },
    "millsfield:images_texts": [
      "U.S. grant 8/13\nDearest Debs-\nIts so mice to be greling nearer\nto you all the time and I'm counting\ndays - just one\nwick now y all\ngoro wree.\nGuess it was mean of\nme to Ask you to come to Hoykorf.\nbut I thougst the situation might\nOr suck that you coned git awa\non today\naskine you\n- o Bon\nto met inis Leader entring on the\nClerland. Mr. hender is with me.\nHe is a brother-in-let if Frank\nmahoney or rather.\ninks brothu\nmarried Leuders su\nLinder was\nwith sat one, Rya when the Spint of\nst Louis was ault - lath he wint\nwith P.a.Q. and is now airport\nmanagn at manila (aucerding Pane\ngorgu who confidentiall, is going home\nwith supricision\n- over macao and\nHogkong (ur le probang go to NK\nfrot - in fact\nI hair instructions\nnegotiate\ntwo contracts at A.K.\nand Macao is still out because of\nLisbons stupidity\ny) I hair to take\nLinder to macao (hate to go myref -\nthe gourma is so nec and has had\nsuch bad treatment by Lisbon) and\nshows him around Hagkong. Hopr",
      "to get the ' contracts\nstartre tomorow,\nand Sunday than and\nreturn\nNK for an appointment wit\nthe gourner monday.\nHop you.\nseling\nSan maricio - or half of it -\nat\n2 Pesos..\nI had a good tip\non\nCoco quor which was swig\nat 1.75\nto bought 5000 shares\nof that. Therfor ur now hav\nDoo ths Coco gerr @175 = 8.750\n5000\n\" San Marcio @ 2°° = 10.000\n10000\n\" Mineral Resomas @ 27=\n2.700\nalso alont 1000 pros care\n1.000\nTotal 22 450\nThe gold boom is on in Earnest - board\nrooms fuse of prople and Eiryone talks\nnotking Else. Mineral Resources has nit\nleft the post but I stice think he'se\nчил\nurle. Had a tip on Coco goi\nthat it wores go to 5 and they're\nall talking 3 for\nSan Maricio. Aloo\nMr. Marsman put me on his leat\nwhile the\nsee\nat twice the subscription pria\nwading attention is on thi\nthe day in gined that the met you at\nand that the met you al\nDible, Vangems also I and Bo\nand fair\nme your message to hurry home.",
      "Ur hair had a\ngood crossing thoge\nit has burn a bi\nt rough - just .\nnough roce to keep a boat load\nSeattle shriners tom taling to\nkittinesh - thank goodn\nAle my loor to you darling.\nDee do the shopping for you in HE\nand hop I wont o\ni looke any f\nthe thup you wantid. Yome Mares\nbongst the\ndren for 1050\nand Share\nit with me. Hair so many\nlike\nCats list\nroom on\nthe papu. Dibbs Everyone\nin manila is in lor wit\nmuck as\nand the girls tant not kat an\nBix\n2019210926"
    ],
    "millsfield:images_texts_ids": [
      1913802351,
      1913802353,
      1913802355
    ],
    "millsfield:primary_image": 1913802351,
    "millsfield:subcategory_id": 1511213489,
    "mz:is_approximate": 1,
    "mz:is_current": 1,
    "sfomuseum:accession_number": "2019.121.0932 a b",
    "sfomuseum:airline": "Pan American Airways",
    "sfomuseum:airline_id": [
      685
    ],
    "sfomuseum:category": "Employee Career History",
    "sfomuseum:classification_id": 195,
    "sfomuseum:collection": "Aviation Archive",
    "sfomuseum:creditline": "Collection of SFO Museum",
    "sfomuseum:date": "08/13/1936",
    "sfomuseum:date_acquired": "2019-11-22",
    "sfomuseum:daterange_end": "1936-08-13",
    "sfomuseum:daterange_start": "1936-08-13",
    "sfomuseum:description": "Handwritten letter from Harold M. Bixby to his wife, Debby Bixby, dated August 13, [1936], on the U.S. Grant; includes update on Pan American Airways personnel in Manila and family matters; mentions [William L.] Bond, Mr. [Carl] and Mrs. Leuder, Dibby Vaughn,  Paul Groeger.",
    "sfomuseum:dimensions": "12 1/2 x 8 inches (31.8 x 20.3 cm)",
    "sfomuseum:medium": "paper, ink",
    "sfomuseum:object_id": 211295,
    "sfomuseum:placetype": "object",
    "sfomuseum:publication": ": , 08/13/1936.",
    "sfomuseum:subcategory": "Correspondence, Personal",
    "src:geom": "sfomuseum#undetermined",
    "wof:belongsto": [
      102527513,
      1159162825,
      102191575,
      85633793,
      102087579,
      85922583,
      85688637,
      1159160869
    ],
    "wof:country": "XY",
    "wof:created": 1714549068,
    "wof:depicts": [
      1159286839,
      1159284991
    ],
    "wof:geomhash": "c281b9d9eefc83b5710e64b9d646067d",
    "wof:hierarchy": [
      {
        "building_id": -1,
        "campus_id": 102527513,
        "collection_id": 1159162825,
        "concourse_id": 1159162825,
        "continent_id": 102191575,
        "country_id": 85633793,
        "county_id": 102087579,
        "custom_id": 1913796353,
        "locality_id": 85922583,
        "neighbourhood_id": -1,
        "object_id": 1913796353,
        "region_id": 85688637,
        "wing_id": 1159160869
      }
    ],
    "wof:id": 1913796353,
    "wof:lastmodified": 1787988220,
    "wof:name": "correspondence: Harold M. Bixby to Debby Bixby",
    "wof:parent_id": 1159162825,
    "wof:placetype": "custom",
    "wof:placetype_alt": [
      "object"
    ],
    "wof:repo": "sfomuseum-data-collection",
    "wof:superseded_by": [],
    "wof:supersedes": []
  },
  "bbox": [
    -122.38647222518921,
    37.6161053594541,
    -122.38583385944366,
    37.61661101879963
  ],
  "geometry": {"type":"Polygon","coordinates":[[[-122.38647222518921,37.61631782178288],[-122.386434674263,37.61623283692423],[-122.38637566566466,37.61617759671399],[-122.38630056381224,37.6161308549656],[-122.38616108894348,37.6161053594541],[-122.38602161407469,37.6161308549656],[-122.38591432571411,37.61618609521055],[-122.38585531711577,37.61626683087935],[-122.38583385944366,37.61636881265146],[-122.38587141036987,37.61646654505181],[-122.38594114780425,37.61654303118856],[-122.38605380058287,37.61660252035167],[-122.38618254661559,37.61661101879963],[-122.3863059282303,37.61657277577607],[-122.3864185810089,37.61650903735973],[-122.3864668607712,37.61641130501523],[-122.38647222518921,37.61631782178288]]]}
}
