{
  "id": 1779735857,
  "type": "Feature",
  "properties": {
    "date:cessation_lower": "1975-01-01",
    "date:cessation_upper": "1975-12-31",
    "date:inception_lower": "1975-01-01",
    "date:inception_upper": "1975-12-31",
    "edtf:cessation": "1975~",
    "edtf:inception": "1975~",
    "geom:area": 2.475047457570636e-7,
    "geom:bbox": "-122.386472,37.616105,-122.385834,37.616611",
    "geom:latitude": 37.61635747477365,
    "geom:longitude": -122.38615540108617,
    "millsfield:airline_id": [
      1159284989
    ],
    "millsfield:category_id": 1762671311,
    "millsfield:collection_id": 1511214207,
    "millsfield:company_id": [
      1159286839
    ],
    "millsfield:images": [
      1863469871,
      1863469873,
      1863469875,
      1863469877
    ],
    "millsfield:images_colors_refs": {
      "crayola": [
        {
          "hex": "#efdecd"
        },
        {
          "hex": "#714b23"
        },
        {
          "hex": "#414a4c"
        },
        {
          "hex": "#bab86c"
        },
        {
          "hex": "#d68a59"
        },
        {
          "hex": "#6dae81"
        },
        {
          "hex": "#9c7c38"
        },
        {
          "hex": "#eceabe"
        },
        {
          "hex": "#dbd7d2"
        }
      ],
      "css4": [
        {
          "hex": "#556b2f"
        },
        {
          "hex": "#2f4f4f"
        },
        {
          "hex": "#d3d3d3"
        },
        {
          "hex": "#cd853f"
        },
        {
          "hex": "#f5deb3"
        },
        {
          "hex": "#808000"
        },
        {
          "hex": "#bdb76b"
        },
        {
          "hex": "#5f9ea0"
        }
      ],
      "marekm4": [
        {
          "hex": "#4b3c1e"
        },
        {
          "hex": "#e6ddc1"
        },
        {
          "hex": "#b59a41"
        },
        {
          "hex": "#927316"
        },
        {
          "hex": "#b7a341"
        },
        {
          "hex": "#b49943"
        },
        {
          "hex": "#3c2d12"
        },
        {
          "hex": "#6a9691"
        },
        {
          "hex": "#404a42"
        },
        {
          "hex": "#e6e0c5"
        },
        {
          "hex": "#e6dcc0"
        },
        {
          "hex": "#8f751a"
        },
        {
          "hex": "#b3a653"
        },
        {
          "hex": "#564c28"
        },
        {
          "hex": "#dadfc6"
        },
        {
          "hex": "#93741a"
        }
      ]
    },
    "millsfield:images_texts": [
      "•. PARSONS DAN\nLENGTH OF KEEL\nBREADTH OF REAM\nDIMENSIONS:\n178 FEET\n36 FEET\nEncored amending do and of Congre in che yeas 1950 ly A. Cans in the Clash Offen of the Sumed Coast of Naw Yout\nCLIPPER SHIP \"NIGHTINGALE.\nGetting under weigh off the Battery. New York\nNEW YORK, PUBLISHED BY N. CURRIER, 152 NASSAU STREET\nLITH BY N. CURRIER\nDEPTH OF HOLT\nTONNAGE PER REGISTES\nBUILT BY S. HANSCOM IN 1851",
      "THE PRESIDENT\nSherry Dubonnet Campari Dry Vermouth\nSake\nManhattan Martini\nBloody Mary Soreriver Whiskey Sour\nTom Collins Vodka Collins\nScotch Bourton Canadian\nGin Vodka\nOUR SELECTION OF VINTAGE WiNES\nGreat Wines of Burgundy\nGreat Wines of Bordeau\nChampagne\nCointreau Drambuie Bénédictine\nCrème de Menthe Cognac VSOP Bénédictine and Brandy",
      "SPECIAL\nHORS D'OEUVRE\nCulinary Specialies served from the Cart\nENIREES\nRoast Rach of Lamb-Mint Sauce\n*+####\nBreast of Chichen with Madras Curry Sauce\nRoast Cornish Game Hen stuffed with Wild Rice\n#**680=-z1\nFried Tillt Ha\nLebster Thermidor\nGarden Vegetables\nSeamed Rice\n6 BR\n¡1 z\nPotato Croquettes\nCHEESE\nSelection of Cheese\nDESSERT\nSelection of Tench Pastries\nAmerican Coffee\nSanka Coffee\nFruit Basket\n7*71125\nOrange Peroe Tea\nJapanese Green Tea\n#***\n8***\nPAN AMERiCAN CUiSiNE BY MAXIM'S OF PARis\n•GOOD FOOD IS THE BASIS FOR TRUE\nMAP.\nNESS\"' A. Escoffier\n3271\n0801",
      "CLIPPER SHIP \"NIGHTINGALE\"\nThe front cover of this menu is a reproduction of an authentic Currier \u0026 Ives clipper ship print.\nCurrier \u0026 Ives, known as the \"Printmakers of America\", graphically preserved the glorious clipper\nship era in a magnificent series of clipper ship prints. This print, one of a series, is being reproduced\nthrough the courtesy of The Mariners Museum, Newport News, Virginia.\nThe clipper ship \"Nightingale\" was named in honor of Jenny Lind, the \"Swedish Nightingale,\"\nwhose golden voice had recently enchanted America. The \"Nichtingale\" was considered one of the\nmost beautiful of all the \"American\" clippers. She was built to be exhibited at the World's Fair\nto be held in London, in 1851, as an example of the magnificent skill and craftsmanship of the\n\"Yankee\" shipbuilders. No expense was spared in her design and construction and she proudly\ncarried a life size carving of the\n\"Swedish Nightingale\" as her ship's figurehead. She started service\ncarrying passengers to and from the Worid's Fair in London and later was used on the Australian\nrun where she established such sailing records as going from Melbourne to New York in 75 days!\nLike Pan Am's modern Clippers* of the air. the early clioner ships traveled the lanes of com\nmerce to all the far places of the world.\n.. to Japan\n.. to Australia .\n. and, in the days of the\ngreat gold rush, from America's east coast, around Cape Horn, South America, to California.\nOur current equipment... the Clipper fleet of the Twentieth Century... consists of the fines\ncommercial aircraft ever developed —aircraft that have helped us establish an unparalleled record\nfor safety, speed and service.\n*CLIPPER TRADE MARK-REG US PAT OFFICE_ COPYRIGHT 1966 PAN AMERICAN WORLD AIRWAYS INd\nLITHO IN USA - 8739-0393\n2001.159.004"
    ],
    "millsfield:images_texts_ids": [
      1863469871,
      1863469873,
      1863469875,
      1863469877
    ],
    "millsfield:primary_image": 1863469871,
    "millsfield:subcategory_id": 1511213567,
    "mz:is_approximate": 1,
    "mz:is_current": 1,
    "sfomuseum:accession_number": "2001.159.004",
    "sfomuseum:airline": "Pan American World Airways",
    "sfomuseum:airline_id": [
      684
    ],
    "sfomuseum:category": "Passenger Amenity, Archive",
    "sfomuseum:classification_id": 242,
    "sfomuseum:collection": "Aviation Archive",
    "sfomuseum:creditline": "Gift of Theodore C. Johnson",
    "sfomuseum:date": "c. 1975",
    "sfomuseum:date_acquired": "2002-11-13",
    "sfomuseum:daterange_end": "1980-12-31",
    "sfomuseum:daterange_start": "1970-01-01",
    "sfomuseum:description": "Menu issued by Pan American World Airways; bi-fold menu with color reproduction of print titled “Clipper Ship ‘Nightingale’\"; entree choices include roast rack of lamb with mint sauce, breast of chicken with curry sauce, roast Cornish hen, grilled fillet steak, lobster Thermidor; cuisine by \"Maxim's of Paris;”; in English, Chinese, and Japanese; menu number 3271 0801; class: President (first); undated.",
    "sfomuseum:dimensions": "10 x 12 1/2 inches (25.4 x 31.8 cm)",
    "sfomuseum:maker": "N. Currier",
    "sfomuseum:medium": "paper, ink, fabric",
    "sfomuseum:object_id": 64549,
    "sfomuseum:placetype": "object",
    "sfomuseum:publication": ": , c. 1975.",
    "sfomuseum:series": "Currier \u0026 Ives Clipper Ships",
    "sfomuseum:subcategory": "Menu",
    "src:geom": "sfomuseum#undetermined",
    "wof:belongsto": [
      102527513,
      1159162825,
      102191575,
      85633793,
      102087579,
      85922583,
      85688637,
      1159160869
    ],
    "wof:country": "XY",
    "wof:created": 1656057890,
    "wof:depicts": [
      1159284989,
      1159286839
    ],
    "wof:geomhash": "c281b9d9eefc83b5710e64b9d646067d",
    "wof:hierarchy": [
      {
        "building_id": -1,
        "campus_id": 102527513,
        "collection_id": 1159162825,
        "concourse_id": 1159162825,
        "continent_id": 102191575,
        "country_id": 85633793,
        "county_id": 102087579,
        "custom_id": 1779735857,
        "locality_id": 85922583,
        "neighbourhood_id": -1,
        "object_id": 1779735857,
        "region_id": 85688637,
        "wing_id": 1159160869
      }
    ],
    "wof:id": 1779735857,
    "wof:lastmodified": 1787988209,
    "wof:name": "menu: Pan American World Airways, President (first) class",
    "wof:parent_id": 1159162825,
    "wof:placetype": "custom",
    "wof:placetype_alt": [
      "object"
    ],
    "wof:repo": "sfomuseum-data-collection",
    "wof:superseded_by": [],
    "wof:supersedes": []
  },
  "bbox": [
    -122.38647222518921,
    37.6161053594541,
    -122.38583385944366,
    37.61661101879963
  ],
  "geometry": {"type":"Polygon","coordinates":[[[-122.38647222518921,37.61631782178288],[-122.386434674263,37.61623283692423],[-122.38637566566466,37.61617759671399],[-122.38630056381224,37.6161308549656],[-122.38616108894348,37.6161053594541],[-122.38602161407469,37.6161308549656],[-122.38591432571411,37.61618609521055],[-122.38585531711577,37.61626683087935],[-122.38583385944366,37.61636881265146],[-122.38587141036987,37.61646654505181],[-122.38594114780425,37.61654303118856],[-122.38605380058287,37.61660252035167],[-122.38618254661559,37.61661101879963],[-122.3863059282303,37.61657277577607],[-122.3864185810089,37.61650903735973],[-122.3864668607712,37.61641130501523],[-122.38647222518921,37.61631782178288]]]}
}
