{
  "id": 1511924019,
  "type": "Feature",
  "properties": {
    "date:cessation_lower": "1985-01-01",
    "date:cessation_upper": "1985-12-31",
    "date:inception_lower": "1985-01-01",
    "date:inception_upper": "1985-12-31",
    "edtf:cessation": "1985~",
    "edtf:date": "1985~",
    "edtf:inception": "1985~",
    "geom:area": 0,
    "geom:bbox": "-122.386155,37.616357,-122.386155,37.616357",
    "geom:latitude": 37.616357,
    "geom:longitude": -122.386155,
    "iso:country": "XX",
    "millsfield:aircraft_id": [
      1159289861
    ],
    "millsfield:airline_id": [
      1159284413
    ],
    "millsfield:category_id": 1762671311,
    "millsfield:collection_id": 1511214207,
    "millsfield:company_id": [
      1159293593,
      1159289819
    ],
    "millsfield:images": [
      1527850109,
      1527850111
    ],
    "millsfield:images_colors_refs": {
      "crayola": [
        {
          "hex": "#c46210"
        },
        {
          "hex": "#324ab2"
        },
        {
          "hex": "#dbd7d2"
        },
        {
          "hex": "#000000"
        },
        {
          "hex": "#414a4c"
        }
      ],
      "css4": [
        {
          "hex": "#dcdcdc"
        },
        {
          "hex": "#b8860b"
        },
        {
          "hex": "#2f4f4f"
        },
        {
          "hex": "#4169e1"
        },
        {
          "hex": "#000000"
        },
        {
          "hex": "#b22222"
        },
        {
          "hex": "#ff4500"
        }
      ],
      "marekm4": [
        {
          "hex": "#c88a1f"
        },
        {
          "hex": "#e4e4de"
        },
        {
          "hex": "#e5e5df"
        },
        {
          "hex": "#d43b0a"
        },
        {
          "hex": "#23231e"
        },
        {
          "hex": "#1d48bf"
        },
        {
          "hex": "#292820"
        },
        {
          "hex": "#c92c06"
        }
      ]
    },
    "millsfield:images_texts": [
      "Га тру аофла оас\nFür Ihre Sicherheit\nFor your safety\nПаракалонє ну афарте туу карта апо то аероскафос.\nBitte Sicherheitsanweisungen nicht mit von Bord nehmen.\nPlease do not remove this card from the aircraft.\nAnoyeíwon kai прооувшо\nStart und Landung\nTake-off and landing\nOXYGEN\nNicht rauchen\nNo smoking\nOfuyóvo\nSauerstoff\nOxygen\nCD\nMD\nсо.ном\n2\nNicht rauchen\nNo smoking\nNotlandung\nEmergency landing\nMnv KanviTETE\nNicht rauchen\nNo smoking\nWasserung\nLanding on water\nNicht rauchen\nNo smoking\nN\nWasserung\nLanding on water\nNicht rauchen\nNo smoking\nLO\n6\nGalaxy Airways\nBoeing 737-500\n2\n3\nВулте та папойтоа\nSchuhe ausziehen\nRemove shoes\n3\nHÓvo DE nepinTwon avayKns\nva то прєтє ап т 8éon tou.\nDie Schwimmwesten sind\nEigentum von GALAXY\nSie dürfen nur im Notfall mit\nvon Bord genommen werden.",
      "EXIT\n1+3\nNotausgang\nEmergency exit\nВулте та папойтоа\nSchuhe ausziehen\nRemove shoes\nEXIT\n2\nEğodoç KIvúvou\nNotausgang\nEmergency exit\nBodennahe luchtwegmarkierung\nFloor-level escape route markings\n1R\n1L\n2R\n3\n3R\n3L\n2L\nGalaxy Airways"
    ],
    "millsfield:images_texts_ids": [
      1527850109,
      1527850111
    ],
    "millsfield:primary_image": 1527850109,
    "millsfield:subcategory_id": 1511213703,
    "mz:hierarchy_label": 1,
    "mz:is_current": 1,
    "sfomuseum:accession_number": "2002.127.315",
    "sfomuseum:aircraft": "Boeing 737-500",
    "sfomuseum:aircraft_id": [
      226
    ],
    "sfomuseum:airline": "Galaxy Airways",
    "sfomuseum:airline_id": [
      422
    ],
    "sfomuseum:category": "Passenger Amenity, Archive",
    "sfomuseum:classification_id": 581,
    "sfomuseum:collection": "Aviation Archive",
    "sfomuseum:creditline": "Gift of Thomas G. Dragges",
    "sfomuseum:date": "c. 1985",
    "sfomuseum:date_acquired": "2003-12-22",
    "sfomuseum:daterange_end": "1990-12-31",
    "sfomuseum:daterange_start": "1980-01-01",
    "sfomuseum:description": "Safety information card issued by Galaxy Airways for Boeing 737-500 aircraft fleet; white double-sided card with text in three languages and illustrations explain aircraft safety and emergency procedures.",
    "sfomuseum:dimensions": "9 x 7 1/2 inches (22.9 x 19.1 cm)",
    "sfomuseum:media_ids": [
      1527850109,
      1527850111
    ],
    "sfomuseum:medium": "paper, ink",
    "sfomuseum:object_id": 68885,
    "sfomuseum:placetype": "object",
    "sfomuseum:primary_media_id": 1527850109,
    "sfomuseum:publication": ": , c. 1985.",
    "sfomuseum:subcategory": "Safety Information Card",
    "src:geom": "sfomuseum#undetermined",
    "wof:belongsto": [
      1511214243,
      102527513,
      102191575,
      85633793,
      1511213703,
      85922583,
      102087579,
      1511214277,
      1511214203,
      85688637
    ],
    "wof:breaches": [],
    "wof:country": "XX",
    "wof:created": 1579906683,
    "wof:depicts": [
      1159289819,
      1159284413,
      1159289861,
      1159288919,
      1159293593
    ],
    "wof:geomhash": "30c8a918561c84bb2daa2b97fc7c5353",
    "wof:hierarchy": [
      {
        "arcade_id": 1511213703,
        "building_id": 1511214277,
        "campus_id": 102527513,
        "concourse_id": 1511214243,
        "continent_id": 102191575,
        "country_id": 85633793,
        "county_id": 102087579,
        "custom_id": 1511924019,
        "locality_id": 85922583,
        "neighbourhood_id": -1,
        "object_id": 1511924019,
        "region_id": 85688637,
        "venue_id": 1511924019,
        "wing_id": 1511214203
      }
    ],
    "wof:id": 1511924019,
    "wof:lastmodified": 1787988178,
    "wof:name": "safety information card: Galaxy Airways, Boeing 737-500",
    "wof:parent_id": 1159162825,
    "wof:placetype": "custom",
    "wof:placetype_alt": [
      "object"
    ],
    "wof:repo": "sfomuseum-data-collection",
    "wof:superseded_by": [],
    "wof:supersedes": [],
    "wof:tags": []
  },
  "bbox": [
    -122.386155,
    37.616357,
    -122.386155,
    37.616357
  ],
  "geometry": {"type":"Point","coordinates":[-122.386155,37.616357]}
}
