{
  "id": 1913795399,
  "type": "Feature",
  "properties": {
    "date:cessation_lower": "1933-03-23",
    "date:cessation_upper": "1933-03-23",
    "date:inception_lower": "1933-03-23",
    "date:inception_upper": "1933-03-23",
    "edtf:cessation": "1933-03-23",
    "edtf:inception": "1933-03-23",
    "geom:area": 2.475047457570636e-7,
    "geom:bbox": "-122.386472,37.616105,-122.385834,37.616611",
    "geom:latitude": 37.61635747477365,
    "geom:longitude": -122.38615540108617,
    "millsfield:airline_id": [
      1159284991,
      1159285931
    ],
    "millsfield:category_id": 1511214251,
    "millsfield:collection_id": 1511214207,
    "millsfield:company_id": [
      1159286721
    ],
    "millsfield:images": [
      1913800325
    ],
    "millsfield:images_colors_refs": {
      "crayola": [
        {
          "hex": "#9f8170"
        },
        {
          "hex": "#8a795d"
        },
        {
          "hex": "#cdc5c2"
        },
        {
          "hex": "#6e5160"
        }
      ],
      "css4": [
        {
          "hex": "#c0c0c0"
        },
        {
          "hex": "#808080"
        },
        {
          "hex": "#696969"
        }
      ],
      "marekm4": [
        {
          "hex": "#999075"
        },
        {
          "hex": "#6c685c"
        },
        {
          "hex": "#837c6a"
        },
        {
          "hex": "#d0c7a9"
        }
      ]
    },
    "millsfield:images_texts": [
      "ЗПАЛОНИХ\nМАЛОИ 25, 1933\nDanz\nI have bee very hary lately and tharatore have not had time to get out any nore\netrouler letters.\n% or the atook of that corporatton unch fomarly belongel to intererts Idantactod with\nCursion wright.\nThe balanco of tho ufoot is omed i the lindebry of Commisations of\nthe Repubite of china, The dout bas not as yot beanersorned puttely but no desht 16\nall be long heling fate Latter poshes you, lourer it the foregotag should happen to\nbe \"non\" when 1$ routes you please leap it olidential, We szo partners nor with the\nchinese Gaparnant and hops to more out a deal widea e111 be mamily satielsatory for\nthe development of arabion in chin, Ohim Tational Aviation Corporation is nor 2ly-\non up the tongre Three Dron Shanged to deadong, and the other\ntron Shanght to Peping (Pelcing to you - the rumma changed when the Oapitol mas\nPedging mama Pesos. The Nior z0m1 Le news\n100 miles and the Pelping me le about 800 allen. The only monas of surface tronanor\ntatton Fron fontor on the Jangetza to thonging in ly river boule I notice in 1ol.2°g\nnate bool that they oft Ianton on Sunday Sept, 7th and arrived at dunging on fonday\nSeph.13th. You may ramboz in the Introdustion, ha wota\" Sonalimo I hope sons of my\nchildron any go\nover the name path and tale a cow of thie book along to obery o the\nchanges\". 14t4lo did ho postise tast forban zears Jalar one of his childem would be\noperating on sir line up the Yangote and oor aring the can path in seven hore. That\ndylaton o2 tha 1ime marios t2002 load of presenge every brip, und the red? load\nLe aloo very nablafaatory. the 1ine util be actuate soon to changlu, which 1e an in\nportant provincial papital nos passhed ty four or ive dayu hand(and much more danger-\nons than flying) travel ovirland, The dietence arise is only about 180 miles. It 1n\nalso plamed to otebt operabing a Itna Pron Shanghal dom Chaesat to long kong and\nCanton. The only neen of comentortion now betron here and Canton boing by book and\nthe tine regal 1s Pran tre to our dage dopending on the bob. All the 14g bonte\nmalce 26 in to dayo, but none of than stop as Importent ostion along tho way, We m111\ncover the distanne of appealandely 1000 allos in one day, and ill of course stop at\nPoochon, Anay and Smator.\nso much for shop. I the the Oldene, they se frinily, Covilishly Inetelotent,\nterribly dirty, But nost of the work hard and teg to got shond. One thug story I\nhoard a few days ago us aloud anne dinos ordone who built a bitage woroza a mall\nriver. Then the beläge ma doa thay fout that thore me not enough clearne for the\nJuice to mans indee, no they started redging the botton of the river dor the bridge.\nmild dusten are cheaper than abaont anything elsa, and coet no much lean than a\nchot am shell that 1 sored sou one alout 16 and he antained her the intes get than.\nTig put lobe of grain and food in a pond where the dudes land, then they through into\nthe mter a lot c$ big ganada lobling than end aroust cang the dusica vatil tho lat\nter become tased to thon. Then the hunter, (D.0.3. tale note for the fun puts a gourd\nover he head with 14ttle elite to 1oo: Brough, nooshas out somes the Just yog lone\nly and gulotly butes the disha ly the hond when thay afloit their hoade wer water, and\nwas debbing the others got got several hurted dades afa angle sonaten.\nthe ducks have boon able to last after a for thousa nil yours of such sportemanhip in\nnoze then I man any.\n21d you hour that they bae changed the tortoan loblond anthon over hore to\n\"to more money in the bank, For a shile 16 me have, Ip ous would ooch ang teetom\nchests. I had a bill cos due at the hotel and they told me to furt lot it ride for a\nfor days and no what happend. The echengs meet free 4.06 to the dollar to 3.05 and\na lot of chinose gunlore inde fortres by converting gold into ativir bacoro tho\nbreak and taming t6 beal fader, len the enenge to Tast to 4.75.\nThare one lots ol Amerloons In Shangled comatod with arletios. I au giving a\ncoeletail party tonght, ant then me are el) going out to dawner. The party to for it.\nLove one of the Vice Prenteents of inited Artmnigore. la La over here trying to get\nconsorders for military epitput and aloo to consider bullie a Photory, Others here\nare the parent sales raracentatives of Unitol, Curtles aright, the Comarofal Attache\nfor avation and 0ol Jouett with tilton pilete tehing the chiness how to 2tg. Tha\nInteer are nou in the lorth ruming their school. The Chinece have many adviers in the\nyarlos Palin of sort and finance. 0ol Jeett to an adriner on arlation, Ona thing\nin suro menton aviation anterial da in demud and the Indurry should thrive hare.\nI sent through a amil eloatriont plant Jant pont oatled the Anto Elenato 0o.\nBeg have no onginoaring expone at nil, Thors botng no patest probation in ching, the\nAla Oo. furt coptes any spudpant hish they mant to produce, and those you are. te\nthere are several good radios thay piat the beet festures of saah and stars bullding\nradios. The sane thing in lane of motorn, fore, ete. The cont is about one thind the\nprice of the inporbod mteriel and of coura there to no duty to pay. the tidiona are\nmaling grant progress induetrially am if looks to no tint the marlots of the other\nprotesag mations will nutter not only from the loes of the obinone trade but aloo\nsomo of the other pointa shore ohinece ventfatured gooda can bo sold, The Jape sue\nesperally hand hid boomed the boycott ate provmted the Importation of goole fron\nJapen, Led to the establinhunt of many fetortes matuturing good fomely bought\nin Japan, Not the Chinese have lemed to mice better and chaper produote and the\nJapanone trade has vullered tho omplete loes of choco matota at the sane time\nsquiring a tou competitor in other matele. It pretty hand to any Junt whoro all\nthis wise lead but it certaine, wile lead to trouble.\nmy very but to you. Bu"
    ],
    "millsfield:images_texts_ids": [
      1913800325
    ],
    "millsfield:primary_image": 1913800325,
    "millsfield:subcategory_id": 1511213489,
    "mz:is_approximate": 1,
    "mz:is_current": 1,
    "sfomuseum:accession_number": "2019.121.0615",
    "sfomuseum:airline": "Pan American Airways",
    "sfomuseum:airline_id": [
      685,
      1131
    ],
    "sfomuseum:category": "Employee Career History",
    "sfomuseum:classification_id": 195,
    "sfomuseum:collection": "Aviation Archive",
    "sfomuseum:creditline": "Collection of SFO Museum",
    "sfomuseum:date": "03/23/1933",
    "sfomuseum:date_acquired": "2019-11-22",
    "sfomuseum:daterange_end": "1933-03-23",
    "sfomuseum:daterange_start": "1933-03-23",
    "sfomuseum:description": "Typewritten letter with handwritten note at bottom from Harold M. Bixby to “Art”, dated March 23, 1933, from the Cathay Hotel in Shanghai; family circular letter; includes description of Pan American Airways’ acquisition of 45% of the stock in CNAC, the route between Shanghai and Peiping [Peking, Beijing] and planned route to Hong Kong and Canton [Guangzhou], and the effects of the Great Depression on American in China.",
    "sfomuseum:dimensions": "14 x 8 1/2 inches (35.6 x 21.6 cm)",
    "sfomuseum:medium": "paper, ink",
    "sfomuseum:object_id": 210890,
    "sfomuseum:placetype": "object",
    "sfomuseum:publication": ": , 03/23/1933.",
    "sfomuseum:subcategory": "Correspondence, Personal",
    "src:geom": "sfomuseum#undetermined",
    "wof:belongsto": [
      102527513,
      1159162825,
      102191575,
      85633793,
      102087579,
      85922583,
      85688637,
      1159160869
    ],
    "wof:country": "XY",
    "wof:created": 1714548781,
    "wof:depicts": [
      1159285931,
      1159286721,
      1159284991
    ],
    "wof:geomhash": "c281b9d9eefc83b5710e64b9d646067d",
    "wof:hierarchy": [
      {
        "building_id": -1,
        "campus_id": 102527513,
        "collection_id": 1159162825,
        "concourse_id": 1159162825,
        "continent_id": 102191575,
        "country_id": 85633793,
        "county_id": 102087579,
        "custom_id": 1913795399,
        "locality_id": 85922583,
        "neighbourhood_id": -1,
        "object_id": 1913795399,
        "region_id": 85688637,
        "wing_id": 1159160869
      }
    ],
    "wof:id": 1913795399,
    "wof:lastmodified": 1787988219,
    "wof:name": "correspondence: Harold M. Bixby to Art, family circular letter",
    "wof:parent_id": 1159162825,
    "wof:placetype": "custom",
    "wof:placetype_alt": [
      "object"
    ],
    "wof:repo": "sfomuseum-data-collection",
    "wof:superseded_by": [],
    "wof:supersedes": []
  },
  "bbox": [
    -122.38647222518921,
    37.6161053594541,
    -122.38583385944366,
    37.61661101879963
  ],
  "geometry": {"type":"Polygon","coordinates":[[[-122.38647222518921,37.61631782178288],[-122.386434674263,37.61623283692423],[-122.38637566566466,37.61617759671399],[-122.38630056381224,37.6161308549656],[-122.38616108894348,37.6161053594541],[-122.38602161407469,37.6161308549656],[-122.38591432571411,37.61618609521055],[-122.38585531711577,37.61626683087935],[-122.38583385944366,37.61636881265146],[-122.38587141036987,37.61646654505181],[-122.38594114780425,37.61654303118856],[-122.38605380058287,37.61660252035167],[-122.38618254661559,37.61661101879963],[-122.3863059282303,37.61657277577607],[-122.3864185810089,37.61650903735973],[-122.3864668607712,37.61641130501523],[-122.38647222518921,37.61631782178288]]]}
}
