{
  "id": 1511951331,
  "type": "Feature",
  "properties": {
    "date:cessation_lower": "1960-01-01",
    "date:cessation_upper": "1960-12-31",
    "date:inception_lower": "1960-01-01",
    "date:inception_upper": "1960-12-31",
    "edtf:cessation": "1960",
    "edtf:date": "1960",
    "edtf:inception": "1960",
    "geom:area": 0,
    "geom:bbox": "-122.386155,37.616357,-122.386155,37.616357",
    "geom:latitude": 37.616357,
    "geom:longitude": -122.386155,
    "iso:country": "XX",
    "millsfield:aircraft_id": [
      1159290443
    ],
    "millsfield:airline_id": [
      1159284989
    ],
    "millsfield:category_id": 1763416397,
    "millsfield:collection_id": 1511214207,
    "millsfield:company_id": [],
    "millsfield:images": [
      1763388443
    ],
    "millsfield:images_colors_refs": {
      "crayola": [
        {
          "hex": "#414a4c"
        },
        {
          "hex": "#2e5894"
        },
        {
          "hex": "#dbd7d2"
        },
        {
          "hex": "#6699cc"
        },
        {
          "hex": "#9f8170"
        }
      ],
      "css4": [
        {
          "hex": "#4682b4"
        },
        {
          "hex": "#dcdcdc"
        },
        {
          "hex": "#bdb76b"
        },
        {
          "hex": "#2f4f4f"
        }
      ],
      "marekm4": [
        {
          "hex": "#ad9c6c"
        },
        {
          "hex": "#6091c8"
        },
        {
          "hex": "#32414f"
        },
        {
          "hex": "#e3e4e4"
        },
        {
          "hex": "#3e69a0"
        }
      ]
    },
    "millsfield:images_texts": [
      "6 hrs. 25 min.\nNew Tork - Caroco\n4 hrs. 75 min\nMiami-Son een. P.r\n2 hrs. 10 min\nLos Angeles-Tekyo\n17 bre 25 min\nNew York-Bermude\n1 hr 15 mir\nHow Yark. Taranh,\n2 me min\nNEW TOIX-MUNICH\n11 hrs. 20 min.\nLor Angeles -Fill te\n-17 hre min\n6hre d5 min\nNew York-Peremaribe\nSan Srenciero-Landon\nNew York-Hamburg\n7 hes. 15 min.\n8 hre En min\nSen Froncisco-Sydney\n18 hrs. 50 min.\nLos Angeles-Sydney\n18 hr 20 mil\n1h, to min\nS hrs, 40 mi\nNew York-Duccaldor\nTokyo-Son Froncisco\n11 hrs. 35 min.\nLondon -Homburg\n1hr. 20 min\nHow York-Leunelde\nNow Pan Am adds the DC-8 to the\nWORLD'S LARGEST, FASTEST\nThis month, another brilliant star of the strato-\nsphere-the DC-8 Jet Clipper*-joins the great Pan\nAmerican Jet fleet... the largest, fastest, and most\npowerful fleet of overseas passenger jet aircraft in\nthe world.\nWith the addition of the big over-ocean version of\nthe DC-8. Pan Am's let Clipper fleet will become more\nthan ever the first choice of international travelers.\nIn little over a vear Pan Am's let Clipper fleet has\nmade aviation history-opening up jet routes around\nthe world, serving 5 continents in between, and provid-\ning a pattern of one-plane jet services from the U.S.\nunmatched by any other airline in the world!\nNo other airline offers so impressive a selection of\nU.S.-built Jets: Boeing 707s\nand Interconfinentals and\nDouglas DC-S s-all at vour\nservice on the world's most\nexperienced airline.\nFor vour next flight. see\nPAN AM\nyour Travel Agent or any of\nPan American's 66 offices in\nthe U.S. and Canada.\nMark. Ree. T. g. Par. or\nSeattle-Honolulu\nLos Angeles -London\n111 hrs. 35 min.\nSan Frencisco-Fiji Is.\n13 hrs. 10 min\n13 Are. C0 mil\nNew York- Beirut\nTokyo-Honolelu\nCaraces-Buenos Aires\nNew York-Nossau\nSan Srantitto. Honole t\nHow York- Rom\nNew york- Amsterdan\nNew York- Tehere\nNew York- Frankfu\n19 km. 20 min\nLondon. tonkturt\nHone Xena -Honolun\n1hr. 10 min.\nLos Angeles-Hong Kong\n23 bee. 45 min\nlor Anoeler-Honolul\nNew York- Boohdad\n14 hre. 10 min\n19 hre. 3s min\nNew York-Beanes Aires\nonce min\nNew York-Copenhosen\nn hee\nNew YorkVienn\n11 Are al min\nNo Youllar\ncheese min\nNew York_How Delhi\nOVER-OCEAN JET FLEET!\nPAN AMERICA\nPan Am pilots and passengers welcome the Douglas DC-8's\n-newest of the giant over-ocean Jets!\n23 hrs. 15 min.\nWORLD'S MOST EXPERIENCED AIRLINE • FIRST ON THE ATLANTIC... FIRST ON THE PACIFIC... FIRST IN LATIN AMERICA... FIRST 'ROUND THE WORLD"
    ],
    "millsfield:images_texts_ids": [
      1763388443
    ],
    "millsfield:primary_image": 1763388443,
    "millsfield:subcategory_id": 1511213149,
    "mz:hierarchy_label": 1,
    "mz:is_current": 1,
    "sfomuseum:accession_number": "2001.038.164.115 a b",
    "sfomuseum:aircraft": "Douglas DC-8",
    "sfomuseum:aircraft_id": [
      498
    ],
    "sfomuseum:airline": "Pan American World Airways",
    "sfomuseum:airline_id": [
      684
    ],
    "sfomuseum:category": "Promotional, Archive",
    "sfomuseum:classification_id": 6,
    "sfomuseum:collection": "Aviation Archive",
    "sfomuseum:creditline": "Gift of Barnaby Conrad III",
    "sfomuseum:date": "1960",
    "sfomuseum:date_acquired": "2003-05-16",
    "sfomuseum:daterange_end": "1960-12-31",
    "sfomuseum:daterange_start": "1960-01-01",
    "sfomuseum:description": "Two-page advertisement from February 15, 1960 issue of Saturday Evening Post promoting Pan American World Airways, titled “Now Pan Am adds the DC-8 to the world’s largest, fastest, over-ocean jet fleet!” with grid of 50 small color images depicting various aircraft in company fleet.",
    "sfomuseum:dimensions": "14 x 21 inches (35.6 x 53.3 cm)",
    "sfomuseum:medium": "paper, ink",
    "sfomuseum:object_id": 122826,
    "sfomuseum:placetype": "object",
    "sfomuseum:publication": ": , 1960.",
    "sfomuseum:subcategory": "Advertisement, 2D",
    "sfomuseum:subject": "Pan Am promotional advertisement",
    "src:geom": "sfomuseum#undetermined",
    "wof:belongsto": [
      1511214205,
      102527513,
      102191575,
      85633793,
      1511213149,
      85922583,
      102087579,
      1511214277,
      1511214207,
      85688637
    ],
    "wof:breaches": [],
    "wof:country": "XX",
    "wof:created": 1618962246,
    "wof:depicts": [
      1159286839,
      1159290443,
      1159284989
    ],
    "wof:geomhash": "30c8a918561c84bb2daa2b97fc7c5353",
    "wof:hierarchy": [
      {
        "arcade_id": 1511213149,
        "building_id": 1511214277,
        "campus_id": 102527513,
        "concourse_id": 1511214205,
        "continent_id": 102191575,
        "country_id": 85633793,
        "county_id": 102087579,
        "custom_id": 1511951331,
        "locality_id": 85922583,
        "neighbourhood_id": -1,
        "object_id": 1511951331,
        "region_id": 85688637,
        "venue_id": 1511951331,
        "wing_id": 1511214207
      }
    ],
    "wof:id": 1511951331,
    "wof:lastmodified": 1787988188,
    "wof:name": "advertisement: Pan American World Airways, Saturday Evening Post, Douglas DC-8",
    "wof:parent_id": 1159162825,
    "wof:placetype": "custom",
    "wof:placetype_alt": [
      "object"
    ],
    "wof:repo": "sfomuseum-data-collection",
    "wof:superseded_by": [],
    "wof:supersedes": [],
    "wof:tags": []
  },
  "bbox": [
    -122.386155,
    37.616357,
    -122.386155,
    37.616357
  ],
  "geometry": {"type":"Point","coordinates":[-122.386155,37.616357]}
}
