{
  "id": 1762832429,
  "type": "Feature",
  "properties": {
    "date:cessation_lower": "1992-01-01",
    "date:cessation_upper": "1992-12-31",
    "date:inception_lower": "1992-01-01",
    "date:inception_upper": "1992-12-31",
    "edtf:cessation": "1992",
    "edtf:inception": "1992",
    "geom:area": 2.475047457570636e-7,
    "geom:bbox": "-122.386472,37.616105,-122.385834,37.616611",
    "geom:latitude": 37.61635747477365,
    "geom:longitude": -122.38615540108617,
    "millsfield:aircraft_id": [
      1159291227
    ],
    "millsfield:airline_id": [
      1159284489
    ],
    "millsfield:category_id": 1762671311,
    "millsfield:collection_id": 1511214207,
    "millsfield:company_id": [
      1159291223
    ],
    "millsfield:images": [
      1762894547,
      1762894549,
      1762894551
    ],
    "millsfield:images_colors_refs": {
      "crayola": [
        {
          "hex": "#6699cc"
        },
        {
          "hex": "#414a4c"
        },
        {
          "hex": "#ff2b2b"
        },
        {
          "hex": "#efdecd"
        },
        {
          "hex": "#000000"
        },
        {
          "hex": "#c46210"
        },
        {
          "hex": "#ceff1d"
        },
        {
          "hex": "#dbd7d2"
        }
      ],
      "css4": [
        {
          "hex": "#6495ed"
        },
        {
          "hex": "#daa520"
        },
        {
          "hex": "#dcdcdc"
        },
        {
          "hex": "#2f4f4f"
        },
        {
          "hex": "#000000"
        },
        {
          "hex": "#b22222"
        }
      ],
      "marekm4": [
        {
          "hex": "#49a0d8"
        },
        {
          "hex": "#cb171b"
        },
        {
          "hex": "#e4e0d5"
        },
        {
          "hex": "#282c20"
        },
        {
          "hex": "#e8e7df"
        },
        {
          "hex": "#221a2a"
        },
        {
          "hex": "#e3dfd8"
        },
        {
          "hex": "#2a2b29"
        },
        {
          "hex": "#dcd01d"
        },
        {
          "hex": "#c4350d"
        }
      ]
    },
    "millsfield:images_texts": [
      "Federal regulations require passengers to review\nthis important information for their safety.\nCabin Safety\nSécurité\nSicherheit\nSeguridad\nDC -9-50\nEXIT\nROW\nHAWATAN.\nThe Colors of Paradise.\nplease do not rem\nove card from aircraft\nCARD SAFETY - 50B\nREF.D9S-8-24-3-92\nHA904 P/N 9400439",
      "Oxygen\nOxygéne\nSauerstoff\nOssigeno\nOxigeno\nimans, V1\n'Ofuyóvo\n1\n2\n3\n4\nEXIT ROW SEAT\nINFORMATION\n• Si Ud. está sentado en una fila cerca de • Falls Sie bei einem Notausgang sitzen\nuna salida del avión, y Ud. no puede\nund nicht Englisch verstehen, melden Sie\nentender, ni hablar, ni leer ingles, por\nfavor identifíquese a un agente.\n• A fai ete leiloa ona faitau ma malamalama\n• Si vous êtes assis dans une rangée à côté\nd'une sortie de l'avion, et si vous ne\n¡ le fa'aigilisi fa' amolemole fa'afeso otai laia\npouvez pas comprendre, ni parler, ni lire\n• Kapau 'oku \"ikai teke lava o lau mo\nose sue o le aufaigaluega mo lou notoaga\nle\nmahino'i 'a e lea fakapalangi\", kataki o\nfakafe'iloaki ki ha taha\no e kau ngaue\nvakapuna' kene fakanofonofo koe\n• Eigo no owakarini naranai okyaku sama wa kokugaishi no shain ni go renraku kudasai.\nIF YOU ARE SEATED IN AN EMERGENCY EXIT\nROW. U.S. FEDERAL AVIATION REGULATIONS\nREQUIRE\nTHAT PASSENGERS\nSEATED\nIN\nDESIGNATED EMERGENCY EXIT ROWS MUST\nHAVE SUFFICIENT MOBILITY, STRENGTH AND\nDEXTERITY TO OPEN THE EMERGENCY EXITS\nIN THE EVENT OF AN EMERGENCY IN WHICH\nA CREWMEMBER IS\nNOT AVAILABLE TO\nASSIST. ANOTHER SEAT ASSIGNMENT IS RE.\nQUIRED IF YOU DO NOT WANT TO OR ARE\nUNABLE TO HELP IN THE EVENT OF AN\nEMERGENCY FOR ANY OF THE FOLLOWING\nREASONS:\n1.\nDO YOU LACK STRENGTH, DEXTERITY\nOR MOBILITY IN BOTH ARMS AND HANDS\nAND BOTH LEGS:\nA.\nTO REACH UPWARD,\nSIDEWAYS\nAND DOWNWARD TO THE LOCA-\nTION OF EMERGENCY EXIT AND EX-\nIT SLIDE OPERATING MECHANISMS;\nB.\nTO GRASP AND PUSH, PULL, TURN,\nOR\nOTHERWISE\nMANIPULATE\nTHOSE MECHANISMS;\nC.\nTO PUSH,\nSHOVE,\nPULL,\nOR\nOTHERWISE OPEN EMERGENCY\nD.\nEXITS:\nTO LIFT OUT, HOLD, DEPOSIT ON\nNEARBY\nSEATS,\nOR MANEUVER\nOVER\nTHE\nSEATBACKS TO THE\nNEXT ROW OBJECTS THE SIZE AND\nWEIGHT\nOF\nOVERWING\nEXIT\nDOORS;\nE.\nTO\nREMOVE\nOBSTRUCTIONS\nSIMILAR IN SIZE AND WEIGHT TO\nOVERWING EXIT DOORS;\nF.\nTO REACH THE EMERGENCY EXIT\nG.\nEXPEDITIOUSLY;\nTO MAINTAIN\nBALANCE\nWHILE\nREMOVING OBSTRUCTIONS;\nH.\n1.\nTO EXIT EXPEDITIOUSLY:\nTO STABILIZE AN ESCAPE SLIDE\nAFTER DEPLOYMENT; OR\nTO ASSIST OTHERS IN GETTING\nOFF THE ESCAPE SLIDE.\n2.\n4.\n5.\n6.\n7.\nARE YOU LESS THAN 15 YEARS OF AGE\nOR DO YOU LACK CAPACITY TO PER-\nFORM ONE OR MORE OF THE ABOVE\nFUNCTIONS WITHOUT THE ASSISTANCE\nOF AN ADULT COMPANION, PARENT OR\nOTHER RELATIVE.\nDO YOU LACK ABILITY TO READ AND\nUNDERSTAND INSTRUCTIONS RELATED\nTO EMERGENCY EVACUATION PROVID-\nED BY THE AIRLINE IN PRINTED OR\nGRAPHIC FORM OR THE ABILITY TO\nUNDERSTAND ORAL CREW COMMANDS\nIN THE LANGUAGE USED BY THE\nAIRLINE.\nDO YOU LACK SUFFICIENT VISUAL\nCAPACITY TO PERFORM ONE OR MORE\nOF THE ABOVE FUNCTIONS WITHOUT\nTHE ASSISTANCE\nOF\nVISUAL AIDS\nBEYOND\nCONTACT\nLENSES\nEYEGLASSES\nOR\nDO YOU LACK THE SUFFICIENT AURAL\nCAPACITY TO HEAR AND UNDERSTAND\nINSTRUCTIONS\nSHOUTED\nBY\nCREWMEMBERS WITHOUT ASSISTANCE\nBEYOND A HEARING AID.\nDO YOU LACK THE ABILITY TO ADE-\nQUATELY IMPART INFORMATION ORAL-\nLY TO OTHER PASSENGERS.\nDO YOU HAVE:\nA.\nA CONDITION OR RESPONSIBILITY\nSUCH\nAS CARING\nFOR\nSMALL\nCHILDREN THAT WOULD PREVENT\nYOU FROM PERFORMING ONE OR\nMORE OF THE ABOVE FUNCTIONS\nOR\nB.\nA CONDITION THAT MIGHT CAUSE\nYOU PERSONAL HARM IF YOU PER-\nFORM\nONE\nOR MORE OF THE\nLISTED FUNCTIONS.\nNOW, PRIOR TO TAKEOFF, CAREFULLY STUDY\nAND FULLY UNDERSTAND THE FUNCTIONS IN-\nDICATED ON THIS CARD. PLEASE CONTACT A\nCREWMEMBER IF YOU HAVE ANY QUESTIONS.\n1.",
      "A\nEXIT\nsortie de secours\nNotausgang\nUscita di emergenza\nSalida de uroencia\n#*0\nLanding on water\nAmerrisage\nWasseruno\nAmmar doule\nAvavkaiKr\n3\nA\nB\n5\n6\n4\n5\nCopyright © 1991 Cabin Safety\nInternational Ltd.\nBox\n737, Claymont, DE 19703-0737 U.S.A."
    ],
    "millsfield:images_texts_ids": [
      1762894547,
      1762894549,
      1762894551
    ],
    "millsfield:primary_image": 1762894547,
    "millsfield:subcategory_id": 1511213703,
    "mz:is_current": 1,
    "sfomuseum:accession_number": "2002.127.325",
    "sfomuseum:aircraft": "Douglas DC-9 Series 50",
    "sfomuseum:aircraft_id": [
      850
    ],
    "sfomuseum:airline": "Hawaiian Airlines",
    "sfomuseum:airline_id": [
      457
    ],
    "sfomuseum:category": "Passenger Amenity, Archive",
    "sfomuseum:classification_id": 581,
    "sfomuseum:collection": "Aviation Archive",
    "sfomuseum:creditline": "Gift of Thomas G. Dragges",
    "sfomuseum:date": "1992",
    "sfomuseum:date_acquired": "2003-12-22",
    "sfomuseum:daterange_end": "1992-12-31",
    "sfomuseum:daterange_start": "1992-01-01",
    "sfomuseum:description": "Safety information card issued by Hawaiian Airlines for its Douglas DC-9-50 fleet; white double-sided tri-fold card with illustrations demonstrating inflight safety and emergency procedures; identification code: D9S-8-24-3-92 HA 904 P/N 9400439; revision date: 3/92. ",
    "sfomuseum:dimensions": "11 x 5 3/4 inches (27.9 x 14.6 cm)",
    "sfomuseum:maker": "Cabin Safety International Ltd.",
    "sfomuseum:medium": "paper, ink",
    "sfomuseum:object_id": 68896,
    "sfomuseum:placetype": "object",
    "sfomuseum:publication": ": , 1992.",
    "sfomuseum:subcategory": "Safety Information Card",
    "src:geom": "sfomuseum#undetermined",
    "wof:belongsto": [
      102527513,
      1159162825,
      102191575,
      85633793,
      102087579,
      85922583,
      85688637,
      1159160869
    ],
    "wof:country": "XY",
    "wof:created": 1642730472,
    "wof:depicts": [
      1159284489,
      1159291223,
      1159291227
    ],
    "wof:geomhash": "c281b9d9eefc83b5710e64b9d646067d",
    "wof:hierarchy": [
      {
        "building_id": -1,
        "campus_id": 102527513,
        "collection_id": 1159162825,
        "concourse_id": 1159162825,
        "continent_id": 102191575,
        "country_id": 85633793,
        "county_id": 102087579,
        "custom_id": 1762832429,
        "locality_id": 85922583,
        "neighbourhood_id": -1,
        "object_id": 1762832429,
        "region_id": 85688637,
        "wing_id": 1159160869
      }
    ],
    "wof:id": 1762832429,
    "wof:lastmodified": 1787988202,
    "wof:name": "safety information card: Hawaiian Airlines, Douglas DC-9-50",
    "wof:parent_id": 1159162825,
    "wof:placetype": "custom",
    "wof:placetype_alt": [
      "object"
    ],
    "wof:repo": "sfomuseum-data-collection",
    "wof:superseded_by": [],
    "wof:supersedes": []
  },
  "bbox": [
    -122.38647222518921,
    37.6161053594541,
    -122.38583385944366,
    37.61661101879963
  ],
  "geometry": {"type":"Polygon","coordinates":[[[-122.38647222518921,37.61631782178288],[-122.386434674263,37.61623283692423],[-122.38637566566466,37.61617759671399],[-122.38630056381224,37.6161308549656],[-122.38616108894348,37.6161053594541],[-122.38602161407469,37.6161308549656],[-122.38591432571411,37.61618609521055],[-122.38585531711577,37.61626683087935],[-122.38583385944366,37.61636881265146],[-122.38587141036987,37.61646654505181],[-122.38594114780425,37.61654303118856],[-122.38605380058287,37.61660252035167],[-122.38618254661559,37.61661101879963],[-122.3863059282303,37.61657277577607],[-122.3864185810089,37.61650903735973],[-122.3864668607712,37.61641130501523],[-122.38647222518921,37.61631782178288]]]}
}
