{
  "id": 1796629043,
  "type": "Feature",
  "properties": {
    "date:cessation_lower": "1941-01-01",
    "date:cessation_upper": "1941-12-31",
    "date:inception_lower": "1940-01-01",
    "date:inception_upper": "1940-12-31",
    "edtf:cessation": "1941",
    "edtf:inception": "1940",
    "geom:area": 2.475047457570636e-7,
    "geom:bbox": "-122.386472,37.616105,-122.385834,37.616611",
    "geom:latitude": 37.61635747477365,
    "geom:longitude": -122.38615540108617,
    "millsfield:aircraft_id": [
      1159290417
    ],
    "millsfield:airline_id": [
      1159283849
    ],
    "millsfield:category_id": 1763416373,
    "millsfield:collection_id": 1511214203,
    "millsfield:company_id": [],
    "millsfield:exhibition_ids": [
      1159160719
    ],
    "millsfield:images": [
      1796629089,
      1796629091
    ],
    "millsfield:images_colors_refs": {
      "crayola": [
        {
          "hex": "#414a4c"
        },
        {
          "hex": "#a57164"
        },
        {
          "hex": "#4a646c"
        },
        {
          "hex": "#cdc5c2"
        },
        {
          "hex": "#cd9575"
        },
        {
          "hex": "#6699cc"
        }
      ],
      "css4": [
        {
          "hex": "#808080"
        },
        {
          "hex": "#bc8f8f"
        },
        {
          "hex": "#2f4f4f"
        },
        {
          "hex": "#c0c0c0"
        },
        {
          "hex": "#5f9ea0"
        },
        {
          "hex": "#708090"
        }
      ],
      "marekm4": [
        {
          "hex": "#cdc9c4"
        },
        {
          "hex": "#50728c"
        },
        {
          "hex": "#b5926e"
        },
        {
          "hex": "#9b6f5c"
        },
        {
          "hex": "#4e5056"
        },
        {
          "hex": "#98705f"
        },
        {
          "hex": "#b7926d"
        },
        {
          "hex": "#6c93af"
        },
        {
          "hex": "#4d4c4f"
        },
        {
          "hex": "#c8c4be"
        }
      ]
    },
    "millsfield:images_texts": [
      "Greeting\nThis calendar has been designed to be helpful to you\nthroughout 1941. We hope that it also will remind\nyou of American Airlines whenever you travel.\nAMERICAN AIRLINES, 1%\nTHESE ILLUSTRATIONS\nThese illustrations are reproductions of\nnatural-color Kodachrome photographs by\nTean Britai\nespecially for American Airlines' 1941 calendar\nsend by seng his cat, toget\ncate by suming month\nTran bruits\nGREETINGS FROM ALL OF US\nAMERICAN AIRLINES\n\u003e INC.\n1940\nSun\nMon\nTue\n3\nIO\n15\nI6\n17\n22\n23\n24\n29\n30\nDecember\nWed\nThu 1\n4\nFri\nSat\n6\nII\nI2\n13\n18\n20\n2I\n25\n26\n27\n28\n*\n*\n1940\nNOVEMBER I940\nMon\n3\nIO\n17\n24\n4\nII\n18\n25\n5\nI2\n19\n26\n6\n13\n20\n27\n7\n14\n2I\n28\n8\n15\n22\n29\n2\n9\nI6\n23\n3°\nSun\nJANUARY\nMon\nTue\nWed\nI94I\n3\n12\nI9\n26\n6\n13\n20\n27\n7\n14\n2I\n28\n8\n15\n22\n29\n2\n9\nI6\n23\n17\n24\n4\nII\n18\n25",
      "Toni bai t\nGREETINGS FROM ALL OF US\nAMERICAN AIRLINES\nINC.\n1940\nSun\nMon\nTue\nI\n2\n3\n8\n9\nIO\n15\n17\n22\n24\n29\n30\nDecember\nWed\nThu\nFri\nSat\n4\n5\n6\n7\nII\n13\n14\n18\n25\nI9\n26\n20\n2I\n27\n28\n*\n*\n*\n*\n1940\nNOVEMBER 1940\n3\n25\n5\n12\n19\n26\n9\n21\n22\n28\n29\n23\n30\nJANUARY 1941\nSun\nMon\n5\n12\n26\n20\n27\n21\n28\n2\n9\n15\n16\n22\n23\n20\n30\nIO\n24\nII\n18\n25"
    ],
    "millsfield:images_texts_ids": [
      1796629089,
      1796629091
    ],
    "millsfield:on_view": 0,
    "millsfield:primary_image": 1796629089,
    "millsfield:subcategory_id": 1511213803,
    "mz:is_approximate": 1,
    "mz:is_current": 1,
    "sfomuseum:accession_number": "2014.156.488",
    "sfomuseum:aircraft": "Douglas DC-3",
    "sfomuseum:aircraft_id": [
      487
    ],
    "sfomuseum:airline": "American Airlines",
    "sfomuseum:airline_id": [
      169
    ],
    "sfomuseum:artist": "Ivan Dmitri",
    "sfomuseum:category": "Promotional, Museum",
    "sfomuseum:classification_id": 519,
    "sfomuseum:collection": "Aviation Museum",
    "sfomuseum:creditline": "Gift of Captain Jon Simmonds",
    "sfomuseum:date": "1940-1941",
    "sfomuseum:date_acquired": "2015-02-02",
    "sfomuseum:daterange_end": "1941-12-31",
    "sfomuseum:daterange_start": "1940-01-01",
    "sfomuseum:description": "Calendar issued by American Airlines featuring a 12 month calendar, metal edge bound; 14-pages, monthly calendar for December 1940 and every month of 1941, including small printed overleaf attached to front with greetings from AA President CR Smith and explanatory text, “These illustrations are reproductions of natural - color Kodachrome photographs by Ivan Dmitri....”; calendar pages illustrated at top half include airline theme scenes of stewardesses and passengers, airplanes and scenic destinations; bottom half headed with “American Airlines” in red and black ink with calendar below in gray background and white lettering; airline logo at bottom right; paper contains perforation for tear- away of bottom half of page.",
    "sfomuseum:dimensions": "24 x 17 1/2 inches (61 x 44.5 cm)",
    "sfomuseum:exhibition_ids": [
      1483
    ],
    "sfomuseum:medium": "paper, ink, metal",
    "sfomuseum:object_id": 164621,
    "sfomuseum:placetype": "object",
    "sfomuseum:publication": ": , 1940-1941.",
    "sfomuseum:subcategory": "Calendar, Wall / Desk",
    "src:geom": "sfomuseum#undetermined",
    "wof:belongsto": [
      102527513,
      1159162825,
      102191575,
      85633793,
      102087579,
      85922583,
      85688637,
      1159160869
    ],
    "wof:country": "XY",
    "wof:created": 1668503307,
    "wof:depicts": [
      1360700619,
      1159290417,
      1159283849
    ],
    "wof:geomhash": "c281b9d9eefc83b5710e64b9d646067d",
    "wof:hierarchy": [
      {
        "building_id": -1,
        "campus_id": 102527513,
        "collection_id": 1159162825,
        "concourse_id": 1159162825,
        "continent_id": 102191575,
        "country_id": 85633793,
        "county_id": 102087579,
        "custom_id": 1796629043,
        "locality_id": 85922583,
        "neighbourhood_id": -1,
        "object_id": 1796629043,
        "region_id": 85688637,
        "wing_id": 1159160869
      }
    ],
    "wof:id": 1796629043,
    "wof:lastmodified": 1787988213,
    "wof:name": "wall calendar: American Airlines",
    "wof:parent_id": 1159162825,
    "wof:placetype": "custom",
    "wof:placetype_alt": [
      "object"
    ],
    "wof:repo": "sfomuseum-data-collection",
    "wof:superseded_by": [],
    "wof:supersedes": []
  },
  "bbox": [
    -122.38647222518921,
    37.6161053594541,
    -122.38583385944366,
    37.61661101879963
  ],
  "geometry": {"type":"Polygon","coordinates":[[[-122.38647222518921,37.61631782178288],[-122.386434674263,37.61623283692423],[-122.38637566566466,37.61617759671399],[-122.38630056381224,37.6161308549656],[-122.38616108894348,37.6161053594541],[-122.38602161407469,37.6161308549656],[-122.38591432571411,37.61618609521055],[-122.38585531711577,37.61626683087935],[-122.38583385944366,37.61636881265146],[-122.38587141036987,37.61646654505181],[-122.38594114780425,37.61654303118856],[-122.38605380058287,37.61660252035167],[-122.38618254661559,37.61661101879963],[-122.3863059282303,37.61657277577607],[-122.3864185810089,37.61650903735973],[-122.3864668607712,37.61641130501523],[-122.38647222518921,37.61631782178288]]]}
}
