{
  "id": 1914622311,
  "type": "Feature",
  "properties": {
    "date:cessation_lower": "1973-01-01",
    "date:cessation_upper": "1973-12-31",
    "date:inception_lower": "1973-01-01",
    "date:inception_upper": "1973-12-31",
    "edtf:cessation": "1973",
    "edtf:inception": "1973",
    "geom:area": 2.475047457570636e-7,
    "geom:bbox": "-122.386472,37.616105,-122.385834,37.616611",
    "geom:latitude": 37.61635747477365,
    "geom:longitude": -122.38615540108617,
    "millsfield:aircraft_id": [
      1159289759
    ],
    "millsfield:airline_id": [
      1159285415
    ],
    "millsfield:category_id": 1762671311,
    "millsfield:collection_id": 1511214207,
    "millsfield:company_id": [
      1159293593
    ],
    "millsfield:images": [
      1914622961,
      1914622963
    ],
    "millsfield:images_colors_refs": {
      "crayola": [
        {
          "hex": "#4a646c"
        },
        {
          "hex": "#414a4c"
        },
        {
          "hex": "#757575"
        },
        {
          "hex": "#9aceeb"
        },
        {
          "hex": "#6699cc"
        },
        {
          "hex": "#9c2542"
        }
      ],
      "css4": [
        {
          "hex": "#b0c4de"
        },
        {
          "hex": "#708090"
        },
        {
          "hex": "#2f4f4f"
        },
        {
          "hex": "#87ceeb"
        },
        {
          "hex": "#add8e6"
        },
        {
          "hex": "#66cdaa"
        },
        {
          "hex": "#a52a2a"
        }
      ],
      "marekm4": [
        {
          "hex": "#76b2cb"
        },
        {
          "hex": "#76b3d1"
        },
        {
          "hex": "#547892"
        },
        {
          "hex": "#547a87"
        },
        {
          "hex": "#192436"
        },
        {
          "hex": "#a3cee2"
        },
        {
          "hex": "#223031"
        },
        {
          "hex": "#a0ccdd"
        },
        {
          "hex": "#831c26"
        }
      ]
    },
    "millsfield:images_texts": [
      "FOR YOUR SAFETY. Know how to move\nSUPER B-727\nout of this airplane fast. There is fire-danger\nany time a landing is other than normal—partic-\nularly when the airplane structure is damaged.\nBelow is a floor plan of the plane you are in. Familiarize yourself with the location of\nthe exits. Note particularly the exits nearest you. Study how they are opened and also\nthe protective position you should assume during an emergency landing. When leav-\ning, do not take coats, purses or baggage with you. Move to the exits immediately.\nA WORD ABOUT YOUR SEATBELT-Rough air (turbulence) at high altitudes,\nalthough infrequent, can be severe. When seat belt sign is lighted in-flight, please\ncomply with the sign to prevent possible injury. Experienced air travelers usually\nleave their seat belts fastened all the time and pull them up snug when the seat belt\nsign is lighted.\nCA 331\nHOW TO OPEN EXITS\nPRINTED IN U.S.A.\nUNITED\n4-73\nDOOR EXITS AND ESCAPE SLIDES\n1. Lift handle up and over.\n2. Push door out.\nESCAPE EXITS WITH SLIDES\n1. Pull handle in and fully up-\n2. Push exit out.\nEXIT\nDOOR\nA\nWITH\nSLIDE\nCOCKPIT\nEXI\n[EXIT\nEXIT\nDOOR\nWITH\nSLIDE\n380\n3. Pull RED handle to\ninflate slide.\n3. When exit falls out-slide\nis automatically inflated.\n1.\nPull handle in.\n2.\nRotate it to full up position.\n3.\nPush door out.\n(EXIT\nESCAPE\nEXIT\nWITH\nSLIDE\nESCAPE\nEXIT\nWITH\nSLIDE\nESCAPE\nWINDOWS\nOVER\nWING\n4. When door is swung open\nslide is automatically inflated.\nAFTER SLIDE INFLATES\nJUMP AND SIT IN SLIDE\nESCAPE\nEXIT\nWITH\nSLIDE\nESCAPE\nEXIT\nWITH\nSLIDE\nESCAPE WINDOWS OVER WINGS\n1. Pull window handle in and down.\n3. Exit through window-leg, body, leg.\n2. Discard window.\nAt rear of wing, slide down flaps.\nU\nEXIT\nDOOR\nWITH\nSTAIR\n(may not\nbe useable)\nSEE OTHER SIDE",
      "HOW TO USE THE OXYGEN MASK\nJet aircraft fly at high altitude and the cabin is\npressurized for your comfort. If cabin pressure\never was lost, you would be breathing high alti-\ntude \"thin\" air ... so it is imperative that cigars\nand cigarettes be extinguished immediately and\noxygen masks be put on as shown below.\nEXIT DOOR\nWITH STAIR\nALTHOUGH THIS EXIT MAY NOT BE\nUSABLE BECAUSE OF STRUCTURAL\nDAMAGE OR AIRPLANE POSITION,\nYOU SHOULD KNOW HOW TO OPEN\nTHE DOOR AND LOWER THE STAIRS.\n1. WHERE TO LOCATE MASKS. Oxygen masks\nare in a compartment above each row of passenger\nseats. If oxygen is ever required, compartment door\nopens automatically. Remain seated. Grasp nearest\nmask and pull it to your face. A cord turns oxygen on\nas you pull mask to you.\n1. Push handle to left\nall the way\n2. Pull door in all\nthe way.\nJUST OUTSIDE OF DOOR, TO LEFT,\nNEAR TOP OF HANDRAIL,\nIS THE STAIR RELEASE CONTROL\n2. HOW TO USE MASKS. Promptly place the\nmask over nose and mouth. The oxygen supply tube\nis long enough to permit you to relax comfortably\nin your seat. For children's use, a spare mask is avail-\nable at each seat row.\n1. Open door.\n2. Push handle outward.\nIF STAIR DOES NOT FALL TO GROUND-\nIMMEDIATELY GO TO ANOTHER EXIT\n3. HOW TO ADJUST MASKS FOR COM-\nFORT. Once mask is in position, it may be easily\nadjusted for comfortable fit. If too tight, hold mask\nin position and pull gently on elastic head band\nwith free hand. If too loose, pull tabs located where\nhead band connects to mask. Do not overtighten,\nas this may misshape mask and cause discomfort.\nPROTECTIVE POSITION\nSit well back in seat-pull seat\nbelt tight-assume position in\nillustration- keep position\nuntil plane stops.\nLower back seat cushion is\nfloatable. Grasp it at top-pull it\nforward -HARD—to detach it\nfrom seat frame.\nFEDERAL AVIATION REGULATIONS REQUIRE:\nDURING TAKE OFF AND LANDING YOUR SEAT BACK AND TRAY TABLE MUST BE\nIN THE UPRIGHT POSITION AND YOUR CARRY-ON LUGGAGE PLACED UNDER A SEAT"
    ],
    "millsfield:images_texts_ids": [
      1914622961,
      1914622963
    ],
    "millsfield:primary_image": 1914622961,
    "millsfield:subcategory_id": 1511213703,
    "mz:is_approximate": 1,
    "mz:is_current": 1,
    "sfomuseum:accession_number": "2002.127.605",
    "sfomuseum:aircraft": "Boeing 727",
    "sfomuseum:aircraft_id": [
      180
    ],
    "sfomuseum:airline": "United Air Lines",
    "sfomuseum:airline_id": [
      884
    ],
    "sfomuseum:category": "Passenger Amenity, Archive",
    "sfomuseum:classification_id": 581,
    "sfomuseum:collection": "Aviation Archive",
    "sfomuseum:creditline": "Gift of Thomas G. Dragges",
    "sfomuseum:date": "1973",
    "sfomuseum:date_acquired": "2003-12-22",
    "sfomuseum:daterange_end": "1973-12-31",
    "sfomuseum:daterange_start": "1973-01-01",
    "sfomuseum:description": "Safety information card issued by United Air Lines for its Boeing 727 fleet; blue double-sided card with illustrations of safety procedures; identification code: CA 331; revision date: 4/73.",
    "sfomuseum:dimensions": "10 x 6 inches (25.4 x 15.2 cm)",
    "sfomuseum:medium": "plastic, ink",
    "sfomuseum:object_id": 70049,
    "sfomuseum:placetype": "object",
    "sfomuseum:publication": ": , 1973.",
    "sfomuseum:subcategory": "Safety Information Card",
    "src:geom": "sfomuseum#undetermined",
    "wof:belongsto": [
      102527513,
      1159162825,
      102191575,
      85633793,
      102087579,
      85922583,
      85688637,
      1159160869
    ],
    "wof:country": "XY",
    "wof:created": 1721028748,
    "wof:depicts": [
      1159289759,
      1159293593,
      1159285415
    ],
    "wof:geomhash": "c281b9d9eefc83b5710e64b9d646067d",
    "wof:hierarchy": [
      {
        "building_id": -1,
        "campus_id": 102527513,
        "collection_id": 1159162825,
        "concourse_id": 1159162825,
        "continent_id": 102191575,
        "country_id": 85633793,
        "county_id": 102087579,
        "custom_id": 1914622311,
        "locality_id": 85922583,
        "neighbourhood_id": -1,
        "object_id": 1914622311,
        "region_id": 85688637,
        "wing_id": 1159160869
      }
    ],
    "wof:id": 1914622311,
    "wof:lastmodified": 1787988221,
    "wof:name": "safety information card: United Air Lines, Boeing 727",
    "wof:parent_id": 1159162825,
    "wof:placetype": "custom",
    "wof:placetype_alt": [
      "object"
    ],
    "wof:repo": "sfomuseum-data-collection",
    "wof:superseded_by": [],
    "wof:supersedes": []
  },
  "bbox": [
    -122.38647222518921,
    37.6161053594541,
    -122.38583385944366,
    37.61661101879963
  ],
  "geometry": {"type":"Polygon","coordinates":[[[-122.38647222518921,37.61631782178288],[-122.386434674263,37.61623283692423],[-122.38637566566466,37.61617759671399],[-122.38630056381224,37.6161308549656],[-122.38616108894348,37.6161053594541],[-122.38602161407469,37.6161308549656],[-122.38591432571411,37.61618609521055],[-122.38585531711577,37.61626683087935],[-122.38583385944366,37.61636881265146],[-122.38587141036987,37.61646654505181],[-122.38594114780425,37.61654303118856],[-122.38605380058287,37.61660252035167],[-122.38618254661559,37.61661101879963],[-122.3863059282303,37.61657277577607],[-122.3864185810089,37.61650903735973],[-122.3864668607712,37.61641130501523],[-122.38647222518921,37.61631782178288]]]}
}
