{
  "id": 1511953185,
  "type": "Feature",
  "properties": {
    "date:cessation_lower": "1928-05-01",
    "date:cessation_upper": "1928-05-01",
    "date:inception_lower": "1928-05-01",
    "date:inception_upper": "1928-05-01",
    "edtf:cessation": "1928-05-01",
    "edtf:date": "1928-05-01",
    "edtf:inception": "1928-05-01",
    "geom:area": 0,
    "geom:bbox": "-122.386155,37.616357,-122.386155,37.616357",
    "geom:latitude": 37.616357,
    "geom:longitude": -122.386155,
    "iso:country": "XX",
    "millsfield:category_id": 1511214215,
    "millsfield:collection_id": 1511214207,
    "millsfield:images": [
      1527833519,
      1527833523
    ],
    "millsfield:images_colors_refs": {
      "crayola": [
        {
          "hex": "#9f8170"
        },
        {
          "hex": "#a5694f"
        },
        {
          "hex": "#8a795d"
        },
        {
          "hex": "#cd9575"
        },
        {
          "hex": "#414a4c"
        },
        {
          "hex": "#deaa88"
        }
      ],
      "css4": [
        {
          "hex": "#bc8f8f"
        },
        {
          "hex": "#d2b48c"
        },
        {
          "hex": "#808080"
        },
        {
          "hex": "#556b2f"
        },
        {
          "hex": "#a0522d"
        },
        {
          "hex": "#bdb76b"
        },
        {
          "hex": "#2f4f4f"
        }
      ],
      "marekm4": [
        {
          "hex": "#bca591"
        },
        {
          "hex": "#b9a06e"
        },
        {
          "hex": "#cdb694"
        },
        {
          "hex": "#ad9371"
        },
        {
          "hex": "#352b1d"
        },
        {
          "hex": "#51473c"
        },
        {
          "hex": "#915e54"
        },
        {
          "hex": "#917858"
        }
      ]
    },
    "millsfield:images_texts": [
      "UNTU\n20.00\nR$\n2\n3\nMAY 1\n1 PM\n1928\nLA\n10\nSAVES\nTIME\nATLANTA-NEW ORLEANS ROUTE\nAIR MAIL SERVCE\nEFIRST_FLIGHT\nENEW ORLEANS. LA.\ntirot- Filight-Qa. m. 23\natlanta, ba.\nBIA\nBerm\nm homer\n336 Laurel avi\nLaurel, many land.\n19005\nNeo Chleano fa.\nVia Air Mail.",
      "8361\nOZy\nwvOl.\n2\nATW\nMAY\n2\n530\nAM\n70\n28\n0\nET'S GOI\nCITIZENS\n002308:300-17056020\nMILITARY\nTRAINING\n- CAMPS +\nsaN 4\n2012.149.1607"
    ],
    "millsfield:images_texts_ids": [
      1527833519,
      1527833523
    ],
    "millsfield:primary_image": 1527833519,
    "millsfield:subcategory_id": 1511213159,
    "mz:hierarchy_label": 1,
    "mz:is_current": 1,
    "sfomuseum:accession_number": "2012.149.1607",
    "sfomuseum:category": "Philately",
    "sfomuseum:classification_id": 10,
    "sfomuseum:collection": "Aviation Archive",
    "sfomuseum:creditline": "Gift of the Captain John B. Russell Family",
    "sfomuseum:date": "05/01/1928",
    "sfomuseum:date_acquired": "2013-05-31",
    "sfomuseum:daterange_end": "1928-05-01",
    "sfomuseum:daterange_start": "1928-05-01",
    "sfomuseum:description": "Airmail flight cover, first airmail flight, CAM-23, New Orleans, Louisiana - Athens, Georgia route; dark red cachet with image of biplane and text; postmarked May 1, 1928 in New Orleans, with “Air mail saves time” cancellation mark over 10-cent postage stamp; backstamps: May 2, 1928 in Washington, DC and May 2, 1928 in Laurel, Maryland.",
    "sfomuseum:dimensions": "4 1/4 x 6 1/2 inches (10.8 x 16.5 cm)",
    "sfomuseum:media_ids": [
      1527833519,
      1527833523
    ],
    "sfomuseum:medium": "paper, ink",
    "sfomuseum:object_id": 138971,
    "sfomuseum:placetype": "object",
    "sfomuseum:primary_media_id": 1527833519,
    "sfomuseum:publication": ": , 05/01/1928.",
    "sfomuseum:subcategory": "Airmail Flight Cover",
    "src:geom": "sfomuseum#undetermined",
    "wof:belongsto": [
      1511214215,
      102527513,
      102191575,
      85633793,
      1511213159,
      85922583,
      102087579,
      1511214277,
      1511214207,
      85688637
    ],
    "wof:breaches": [],
    "wof:country": "XX",
    "wof:created": 1579906660,
    "wof:geomhash": "30c8a918561c84bb2daa2b97fc7c5353",
    "wof:hierarchy": [
      {
        "arcade_id": 1511213159,
        "building_id": 1511214277,
        "campus_id": 102527513,
        "concourse_id": 1511214215,
        "continent_id": 102191575,
        "country_id": 85633793,
        "county_id": 102087579,
        "custom_id": 1511953185,
        "locality_id": 85922583,
        "neighbourhood_id": -1,
        "object_id": 1511953185,
        "region_id": 85688637,
        "venue_id": 1511953185,
        "wing_id": 1511214207
      }
    ],
    "wof:id": 1511953185,
    "wof:lastmodified": 1787988188,
    "wof:name": "airmail flight cover: First airmail flight, CAM-23, New Orleans - Athens, Georgia route",
    "wof:parent_id": 1159162825,
    "wof:placetype": "custom",
    "wof:placetype_alt": [
      "object"
    ],
    "wof:repo": "sfomuseum-data-collection",
    "wof:superseded_by": [],
    "wof:supersedes": [],
    "wof:tags": []
  },
  "bbox": [
    -122.386155,
    37.616357,
    -122.386155,
    37.616357
  ],
  "geometry": {"type":"Point","coordinates":[-122.386155,37.616357]}
}
