{
  "id": 1511921157,
  "type": "Feature",
  "properties": {
    "date:cessation_lower": "1968-01-01",
    "date:cessation_upper": "1968-12-31",
    "date:inception_lower": "1968-01-01",
    "date:inception_upper": "1968-12-31",
    "edtf:cessation": "1968~",
    "edtf:date": "1968~",
    "edtf:inception": "1968~",
    "geom:area": 0,
    "geom:bbox": "-122.386155,37.616357,-122.386155,37.616357",
    "geom:latitude": 37.616357,
    "geom:longitude": -122.386155,
    "iso:country": "XX",
    "millsfield:airline_id": [
      1159284907
    ],
    "millsfield:category_id": 1762671311,
    "millsfield:collection_id": 1511214207,
    "millsfield:company_id": [],
    "millsfield:images": [
      1527819637,
      1527854525,
      1527854527
    ],
    "millsfield:images_colors_refs": {
      "crayola": [
        {
          "hex": "#efdecd"
        },
        {
          "hex": "#fddde6"
        },
        {
          "hex": "#ffae42"
        },
        {
          "hex": "#c46210"
        },
        {
          "hex": "#414a4c"
        },
        {
          "hex": "#000000"
        },
        {
          "hex": "#9c2542"
        }
      ],
      "css4": [
        {
          "hex": "#a52a2a"
        },
        {
          "hex": "#daa520"
        },
        {
          "hex": "#2f4f4f"
        },
        {
          "hex": "#faebd7"
        },
        {
          "hex": "#d2691e"
        },
        {
          "hex": "#000000"
        },
        {
          "hex": "#e6e6fa"
        },
        {
          "hex": "#b22222"
        }
      ],
      "marekm4": [
        {
          "hex": "#ebeaed"
        },
        {
          "hex": "#b2392a"
        },
        {
          "hex": "#2c2d1c"
        },
        {
          "hex": "#443b2c"
        },
        {
          "hex": "#c14f0c"
        },
        {
          "hex": "#e6bd1f"
        },
        {
          "hex": "#ece6d8"
        },
        {
          "hex": "#342512"
        },
        {
          "hex": "#ede8d3"
        },
        {
          "hex": "#aa3810"
        }
      ]
    },
    "millsfield:images_texts": [
      "WELCOME ABOARD\nFeb. 8, 1968\nNORTHWEST ORIENT AIRLINES",
      "Thank you for\nflying Northwest\nAirlines\nAs you fly Northwest, you are flying\nwith an airline that has experienced\nalmost half a century of flying over\nland and sea.\nSince 1926, Northwest has ex-\npanded from a Minneapolis/Saint\nPaul-to-Chicago airmail carrier to an\ninternational airline leader.\nNorth-\nwest's routes now extend from coast\nto coast, Alaska, Hawaii, and halfway\naround the world to the Orient.\nWhen you fly Northwest, you are\nin capable and experienced hands.\nAll of NWA's personnel join me\nin saying, \"Welcome aboard, and\nenjoy your Northwest flight.\"\nDonald W. Nyrop\nPresident\nNorthwest Orient Airlines\nTo make\nyour flight\nmore\nenjoyable\nIt is our privilege to have you aboard.\nSit back, make yourself comfortable\nand we will do our best to provide an\nenjoyable flight.\nFor your convenience\nThe back of your seat will adjust by\npressing the button on the arm rest;\nyou will find an ashtray there too.\nFAA regulations require that seat\nbacks and seat tables be in upright\npositions during takeoff and landing.\nWithin easy reach above your seat\nare the reading light switch, air vent,\nand stewardess call button.\nFasten your seat belt\nAir turbulence is occasionally en-\ncountered at jet flight levels with\nlittle advance warning. Seatbelts must\nbe fastened during takeoff and\nlanding, and FAA regulations require\nseat belts to be fastened loosely dur-\ning the flight.\nCheck-in time\nPassengers are requested to be at the\nairport boarding gate at least 20 min-\nutes before the scheduled departure\nof domestic flights and at least 40\nminutes before the departure of inter-\nnational flights. Passengers arriving at\nthe boarding gate less than 10 min-\nutes before scheduled departure time\nmay be refused passage if boarding\nwill delay the flight.\nCarry-on baggage\nBaggage carried on board the aircraft\nmust be placed under the passenger's\nseat and not exceed 22 x 14 x 9 inches\nin size. Garment bags are limited to\ntwo garments or equivalent; larger\nsizes must be checked as baggage.\nInternational customs\nIf you are a U.S. citizen or alien whose\nresidence is in the U.S., you are al-\nlowed an exemption of $100 at retail\nvalue. You must have been outside\nthe U.S. at least 48 hours and have\nnot claimed such an exemption within\n30 days.\nNon-residents can qualify for the $100\ngift exemption if they remain in the\nU.S. more than 72 hours and have\nnot claimed an exemption within six\nmonths.\nBe certain to declare everything ac-\nquired abroad, including personal ef-\nfects which have been worn or used.\nFamilies traveling together may pool\ntheir exemptions to apply on total\nvalue of all articles declared.\nUSTOM\nAsk your stewardess\nYour stewardess is on board to help\nyou. If you have any questions about\nyour flight or need assistance of any\nkind, call on her.\nPets\nSuitably confined, pets may be\nshipped in the cargo compartment on\n320, 720B, 727, Jet-Prop and freighter\nflights. Contact your Northwest office\nfor arrangements.\nReconfirmation\nWe suggest that you call the reserva-\ntions office at the boarding point of\nevery return or continuing flight and\nleave your local telephone number.\nReservations not reconfirmed where\nrequired are subject to cancellation.\nTickets-by-mail\nNorthwest's tickets-by-mail service is\navailable in any one of NWA's 36 on-\nline cities coast-to-coast.\nThis plan\nenables you to have your tickets de-\nlivered by mail as soon as your reser-\nvations are confirmed.\nPortable electronic devices\nSome electric devices may interfere\nwith the aircraft's navigation or com-\nmunication systems. The Federal Avi-\nation Administration has issued a\nregulation stating,\n\"No person may\noperate, nor may any operator or\npilot-in-command of an aircraft allow\nthe operation of any portable elec-\ntronic device on... aircraft operated\nby an air carrier or commercial op-\nerator.\"\nThis restriction does not apply to (1)\nportable voice recorders, (2) hearing\naids, (3) heart pacemakers or, (4) elec-\ntric shavers. Dictating machines may\nbe used if labeled MIL (Military)\n1-16910A, MIL-1-17623 or MIL-1-\n6181B.\nSmoking\nPlease refrain from smoking when the\n\"No Smoking\" sign is lighted by the\ncaptain. Travelers are asked to smoke\nonly cigarettes - no cigars or pipes\nplease.\nAlcoholic beverages\nFederal Aviation Agency regulations\nprovide that no person may drink\nalcoholic beverages aboard an airline\nflight unless they have been served by\nthe airline.",
      "WELCOME ABOARD\nNORTHWEST ORIENT AIRLINES\n200\\-07\n1:262"
    ],
    "millsfield:images_texts_ids": [
      1527819637,
      1527854525,
      1527854527
    ],
    "millsfield:primary_image": 1527819637,
    "millsfield:subcategory_id": 1511213565,
    "mz:hierarchy_label": 1,
    "mz:is_current": 1,
    "sfomuseum:accession_number": "2001.039.262",
    "sfomuseum:airline": "Northwest Airlines",
    "sfomuseum:airline_id": [
      647
    ],
    "sfomuseum:category": "Passenger Amenity, Archive",
    "sfomuseum:classification_id": 241,
    "sfomuseum:collection": "Aviation Archive",
    "sfomuseum:creditline": "Gift of David A. Abercrombie in memory of Stanley A. Abercrombie",
    "sfomuseum:date": "c. 1968",
    "sfomuseum:date_acquired": "2001-07-19",
    "sfomuseum:daterange_end": "1973-12-31",
    "sfomuseum:daterange_start": "1963-01-01",
    "sfomuseum:description": "Inflight information brochure issued by Northwest Orient Airlines, titled \"Welcome Aboard\"; multipage booklet; white cover with color illustration of aircraft in flight over city; contains information about aircraft fleet, meal service, cargo, with color photographic images and route maps. ",
    "sfomuseum:dimensions": "8 1/2 x 8 1/2 inches (21.6 x 21.6 cm)",
    "sfomuseum:media_ids": [
      1527854525,
      1527854527,
      1527819637
    ],
    "sfomuseum:medium": "paper, ink",
    "sfomuseum:object_id": 59574,
    "sfomuseum:placetype": "object",
    "sfomuseum:primary_media_id": 1527819637,
    "sfomuseum:publication": ": , c. 1968.",
    "sfomuseum:subcategory": "Inflight Information",
    "src:geom": "sfomuseum#undetermined",
    "wof:belongsto": [
      1511214243,
      102527513,
      102191575,
      85633793,
      1511213565,
      85922583,
      102087579,
      1511214277,
      1511214203,
      85688637
    ],
    "wof:breaches": [],
    "wof:country": "XX",
    "wof:created": 1579906662,
    "wof:depicts": [
      1159284907,
      1159284913,
      1159287407
    ],
    "wof:geomhash": "30c8a918561c84bb2daa2b97fc7c5353",
    "wof:hierarchy": [
      {
        "arcade_id": 1511213565,
        "building_id": 1511214277,
        "campus_id": 102527513,
        "concourse_id": 1511214243,
        "continent_id": 102191575,
        "country_id": 85633793,
        "county_id": 102087579,
        "custom_id": 1511921157,
        "locality_id": 85922583,
        "neighbourhood_id": -1,
        "object_id": 1511921157,
        "region_id": 85688637,
        "venue_id": 1511921157,
        "wing_id": 1511214203
      }
    ],
    "wof:id": 1511921157,
    "wof:lastmodified": 1787988177,
    "wof:name": "flight information brochure: Northwest Orient Airlines",
    "wof:parent_id": 1159162825,
    "wof:placetype": "custom",
    "wof:placetype_alt": [
      "object"
    ],
    "wof:repo": "sfomuseum-data-collection",
    "wof:superseded_by": [],
    "wof:supersedes": [],
    "wof:tags": []
  },
  "bbox": [
    -122.386155,
    37.616357,
    -122.386155,
    37.616357
  ],
  "geometry": {"type":"Point","coordinates":[-122.386155,37.616357]}
}
