{
  "id": 1964167311,
  "type": "Feature",
  "properties": {
    "date:cessation_lower": "2011-01-01",
    "date:cessation_upper": "2011-12-31",
    "date:inception_lower": "2011-01-01",
    "date:inception_upper": "2011-12-31",
    "edtf:cessation": "2011",
    "edtf:inception": "2011",
    "geom:area": 2.475047457570636e-7,
    "geom:bbox": "-122.386472,37.616105,-122.385834,37.616611",
    "geom:latitude": 37.61635747477365,
    "geom:longitude": -122.38615540108617,
    "millsfield:aircraft_id": [
      1159289871
    ],
    "millsfield:airline_id": [
      1159285413
    ],
    "millsfield:category_id": 1762671311,
    "millsfield:collection_id": 1511214207,
    "millsfield:company_id": [
      1159293593,
      1159289819
    ],
    "millsfield:images": [
      1964167495,
      1964167499,
      1964167501
    ],
    "millsfield:images_colors_refs": {
      "crayola": [
        {
          "hex": "#ffcf48"
        },
        {
          "hex": "#cb4154"
        },
        {
          "hex": "#dbd7d2"
        },
        {
          "hex": "#414a4c"
        },
        {
          "hex": "#cdc5c2"
        },
        {
          "hex": "#2b6cc4"
        },
        {
          "hex": "#6699cc"
        }
      ],
      "css4": [
        {
          "hex": "#c0c0c0"
        },
        {
          "hex": "#4169e1"
        },
        {
          "hex": "#daa520"
        },
        {
          "hex": "#ffd700"
        },
        {
          "hex": "#cd5c5c"
        },
        {
          "hex": "#6495ed"
        },
        {
          "hex": "#4682b4"
        },
        {
          "hex": "#2f4f4f"
        },
        {
          "hex": "#d3d3d3"
        }
      ],
      "marekm4": [
        {
          "hex": "#2f3334"
        },
        {
          "hex": "#3879c5"
        },
        {
          "hex": "#bc3e4a"
        },
        {
          "hex": "#cfd5d5"
        },
        {
          "hex": "#539edb"
        },
        {
          "hex": "#e5d93b"
        },
        {
          "hex": "#cfd0c9"
        },
        {
          "hex": "#bdc1c3"
        },
        {
          "hex": "#3578cb"
        },
        {
          "hex": "#2f3734"
        },
        {
          "hex": "#2d2d1c"
        },
        {
          "hex": "#e4de33"
        },
        {
          "hex": "#dad33c"
        }
      ]
    },
    "millsfield:images_texts": [
      "Rev. 10/11\nUNITED\nSAFETY B737-800/900\nIf you are sitting in an exit row please identify yourself to a crewmember to allow for reseating if:\nYou lack the ability to read, speak, or understand the language, or the graphic form, or the ability\nto understand oral crew commands in the language specified by the airline.\nSeguridad Por favor identifiquese con un tripulante para ser cambiado de asiento si usted\nestá sentado en una de las hileras de la salida, y si tiene problemas para: leer, entender el idioma,\ninstrucciones gráficas o la dificultad\npara entender ordenes verbales de la tripulación en el\nidioma utilizado por la aerolínea.\nSécurité Si vous êtes assis sur une rangée située près d'une sortie veuillez vous identifier\nà un membre de l'équipage afin que l'on puisse vous attribue un autre siège si: vous ne pouvez\npas lire, parler ou comprendre l'anglais, ou les illustrations graphiques, ou bien si vous ne\npouvez pas comprendre les instructions orales de l'équipage.\nSicherheit Wenn Sie in einer Reihe von Sitzen neben einem Notausgang sitzen, müssen\nSie die Flugzeugbesatzung verständigen, damit diese Ihnen einen neuen Platz zuteilen kann,\nsollten Sie: die Sprache nicht sprechen, lesen oder verstehen können, oder die grafischen\nDarstellungen nicht verstehen, oder sollten\nSie die mündlichen Anordnungen\nFlugzeugbesatzung nicht verstehen.\nFederal Regulations (FAR 121.571 \u0026 121.577)\n5) Lacks sufficient aural capacity to hear and understand\nRequire All Passengers:\ninstructions shouted by flight attendants without assistance\n• To review this card for their safety, regardless of 6) Lacks the ability to adequately impart information orally to\nwhere they are sitting or their physical condition;\n• To comply with these instructions, the instructions of 7) Has: a) a condition or responsibilities, such as caring for\nour crew or authorized employees, and all posted\nsmall children, that might prevent the person from\nperforming one or more of the applicable functions; or b) a\nand lighted signs.\ncondition that might cause the person harm if he or she\nExit Row Seating Selection Criteria: U.S.\nperforms one or more of the applicable functions;\nAviation Administration (FAA) regulations\n8) Requires use of a portable oxygen concentrator (POC), or;\nprocedures that U.S. air carriers must follow concerning exit\n9) Is traveling with a pet container, service animal or emotional\nrow seating. No air carrier may seat a person in an exit seat if\nit is determined that it is likely that the person would be unable\nFunctions to be performed: In the\nevent of an\nto perform one or more of the applicable functions listed below\nemergency in which a crewmember is not available to assist, a\nor depicted on this safety card because the person:\npassenger occupying an exit row seat may be called upon to\n1) Lacks sufficient mobility, strength, or dexterity in both arms\nperform the following functions:\nand hands, and both legs to: a) reach upward, sideways,\n1) Locate the emergency exit;\nand downward to the location of emergency exit and exit-\n2) Recognize the emergency exit opening mechanism;\nslide operating mechanisms; b) grasp and push, pull, turn,\n3) Comprehend the instructions for operating the emergency exit:\nor otherwise manipulate those mechanisms; c) push,\n4) Operate the emergency exit;\nshove, pull, or otherwise open emergency exits; d) lift out,\n5) Assess whether opening the emergency exit will increase\nhold, deposit on nearby seats, or maneuver over the\nhazards to which passengers may be exposed;\nseatbacks to the next row objects the size and weight of\n6) Follow oral directions and hand signals given by a crewmember;\nover-wing window exit doors; e) remove obstructions similar\n7) Stow or secure the emergency exit door so that it will not\nin size and weight to over-wing exit doors; f) reach the\nimpede use of the exit;\nemergency exit expeditiously; g) maintain balance while\n8) Assess the condition of an escape slide, activate the slide,\nremoving obstructions; h) exit expeditiously; i) stabilize an\nand stabilize the slide after deployment to assist others in\nescape slide after deployment, or; i) assist others in getting\ngetting off the slide;\noff an escape slide;\n9) Pass expeditiously through the emergency exit, and;\n2) Is less than 15 years of age or lacks the capacity to perform\n10) Assess, select, and follow a safe path away from the\none or more of the applicable functions without the\nemergency exit.\nassistance of an adult companion, parent, or other relative;\nThe passenger must identify himself or herself to allow\n3) Lacks the ability to read and understand instructions related to\nreseating if he or she: a) Cannot meet the selection criteria\nemergency evacuation provided by the air carrier in printed or\nlisted above; b) Has no discernible condition that will prevent\ngraphic form or the ability to understand oral crew commands;\nhim or her from performing the applicable functions; c) May\n4) Lacks sufficient visual capacity to perform one or more of\nsuffer bodily harm as the result of performing one or more of\nthe applicable functions without the assistance of visual\nthose functions; or d) Does not wish to perform those functions\naids beyond contact lenses or eyeglasses;\n(no reason needs to be given).\nWhen finished reviewing this card please return it to the seat pocket for our next customer.",
      "Prohibited items:\nDo not use at any time:\nNo usar en ningún momento:\nN'utilisez pas en tout temps:\nNicht benutzen zu keiner Zeit:\nElectronic devices:\nRestricted items:\nArtículos restringidos:\nArticles limités:\nEingeschränkte Benutzung:\nBrace positions\nPosiciones de seguridad\nPositions de sécurité\nSchutzhaltungen\n$745\nEmergency exits\nSalidas de emergencia\nSorties de secours\nNotausgänge\nA\nGPS\nA\nNo smoking at any time on board this airplane.\nNo fumar en ningún momento a bordo de este avión.\nInterdiction permanente de fumer à bord de cet avion.\nRauchen an Bord dieses Flugzeugs ist Keiner Zeit gestattet.\nTaxi, take-off, \u0026 landing\nDurante el rodaje, el despegue,\ny el aterrizaje\nDéplacement au sol, décollage\net atterrissage\nRollen, Abflug und Landung\nOxygen\nOxigeno\nOxygène\nSauerstoff\nA\nExit\nSalida\nSortie\nAusgang\n**0\nOK:®\nB\n1 EXII\nOK:*\nWhile seated\nMientras está sentado\nLorsque vous êtes assis\nWährend Sie sitzen\n•••••••",
      "On all aircraft:\nLife rafts\nBalsas salvavidas\nCanot pneumatique\nSchlauchboote\n**#\nOn some aircraft:\nOn some aircraft:\nOn some aircraft:\nOR\nOR\nOu\nOder\nwww.aerosafetygraphics.com\nCopyright © 2011 Aero Safety Graphics Inc. All Rights Reserved.\nCA737-800/900 Rev.10/11 Final assembly of this airplane was completed in the USA.\n2014.054,004"
    ],
    "millsfield:images_texts_ids": [
      1964167495,
      1964167499,
      1964167501
    ],
    "millsfield:primary_image": 1964167495,
    "millsfield:subcategory_id": 1511213703,
    "mz:is_approximate": 1,
    "mz:is_current": 1,
    "sfomuseum:accession_number": "2014.054.004",
    "sfomuseum:aircraft": "Boeing 737-800",
    "sfomuseum:aircraft_id": [
      230
    ],
    "sfomuseum:airline": "United Airlines",
    "sfomuseum:airline_id": [
      883
    ],
    "sfomuseum:category": "Passenger Amenity, Archive",
    "sfomuseum:classification_id": 581,
    "sfomuseum:collection": "Aviation Archive",
    "sfomuseum:creditline": "Anonymous gift",
    "sfomuseum:date": "2011",
    "sfomuseum:date_acquired": "2014-04-17",
    "sfomuseum:daterange_end": "2011-12-31",
    "sfomuseum:daterange_start": "2011-01-01",
    "sfomuseum:description": "Safety information card issued by United Airlines for its Boeing 737-800/900 fleet; yellow and gray double-sided tri-fold card with illustrations demonstrating inflight safety and emergency procedures; identification code: CA737-800/900; revision date: 10/11.",
    "sfomuseum:dimensions": "11 x 5 1/2 inches (27.9 x 14 cm)",
    "sfomuseum:maker": "Aero Safety Graphics Inc.",
    "sfomuseum:medium": "paper, ink",
    "sfomuseum:object_id": 154044,
    "sfomuseum:placetype": "object",
    "sfomuseum:publication": ": , 2011.",
    "sfomuseum:subcategory": "Safety Information Card",
    "src:geom": "sfomuseum#undetermined",
    "wof:belongsto": [
      102527513,
      1159162825,
      102191575,
      85633793,
      102087579,
      85922583,
      85688637,
      1159160869
    ],
    "wof:country": "XY",
    "wof:created": 1743579129,
    "wof:depicts": [
      1159293593,
      1159289819,
      1159285413,
      1159289871
    ],
    "wof:geomhash": "c281b9d9eefc83b5710e64b9d646067d",
    "wof:hierarchy": [
      {
        "building_id": -1,
        "campus_id": 102527513,
        "collection_id": 1159162825,
        "concourse_id": 1159162825,
        "continent_id": 102191575,
        "country_id": 85633793,
        "county_id": 102087579,
        "custom_id": 1964167311,
        "locality_id": 85922583,
        "neighbourhood_id": -1,
        "object_id": 1964167311,
        "region_id": 85688637,
        "wing_id": 1159160869
      }
    ],
    "wof:id": 1964167311,
    "wof:lastmodified": 1787988222,
    "wof:name": "safety information card: United Airlines, Boeing 737-800/900",
    "wof:parent_id": 1159162825,
    "wof:placetype": "custom",
    "wof:placetype_alt": [
      "object"
    ],
    "wof:repo": "sfomuseum-data-collection",
    "wof:superseded_by": [],
    "wof:supersedes": []
  },
  "bbox": [
    -122.38647222518921,
    37.6161053594541,
    -122.38583385944366,
    37.61661101879963
  ],
  "geometry": {"type":"Polygon","coordinates":[[[-122.38647222518921,37.61631782178288],[-122.386434674263,37.61623283692423],[-122.38637566566466,37.61617759671399],[-122.38630056381224,37.6161308549656],[-122.38616108894348,37.6161053594541],[-122.38602161407469,37.6161308549656],[-122.38591432571411,37.61618609521055],[-122.38585531711577,37.61626683087935],[-122.38583385944366,37.61636881265146],[-122.38587141036987,37.61646654505181],[-122.38594114780425,37.61654303118856],[-122.38605380058287,37.61660252035167],[-122.38618254661559,37.61661101879963],[-122.3863059282303,37.61657277577607],[-122.3864185810089,37.61650903735973],[-122.3864668607712,37.61641130501523],[-122.38647222518921,37.61631782178288]]]}
}
