{
  "id": 1511937401,
  "type": "Feature",
  "properties": {
    "date:cessation_lower": "1965-01-01",
    "date:cessation_upper": "1965-12-31",
    "date:inception_lower": "1965-01-01",
    "date:inception_upper": "1965-12-31",
    "edtf:cessation": "1965",
    "edtf:date": "1965",
    "edtf:inception": "1965",
    "geom:area": 0,
    "geom:bbox": "-122.386155,37.616357,-122.386155,37.616357",
    "geom:latitude": 37.616357,
    "geom:longitude": -122.386155,
    "iso:country": "XX",
    "millsfield:airline_id": [
      1159285393
    ],
    "millsfield:category_id": 1511214223,
    "millsfield:collection_id": 1511214207,
    "millsfield:company_id": [
      1159287531
    ],
    "millsfield:images": [
      1527835317,
      1527851173
    ],
    "millsfield:images_colors_refs": {
      "crayola": [
        {
          "hex": "#9c2542"
        },
        {
          "hex": "#cd4a4c"
        },
        {
          "hex": "#1a4876"
        },
        {
          "hex": "#dbd7d2"
        },
        {
          "hex": "#cdc5c2"
        },
        {
          "hex": "#4a646c"
        },
        {
          "hex": "#95918c"
        },
        {
          "hex": "#58427c"
        }
      ],
      "css4": [
        {
          "hex": "#483d8b"
        },
        {
          "hex": "#d3d3d3"
        },
        {
          "hex": "#c0c0c0"
        },
        {
          "hex": "#778899"
        },
        {
          "hex": "#b22222"
        },
        {
          "hex": "#708090"
        }
      ],
      "marekm4": [
        {
          "hex": "#515f8b"
        },
        {
          "hex": "#c2342c"
        },
        {
          "hex": "#2d3a70"
        },
        {
          "hex": "#dbd6c3"
        },
        {
          "hex": "#d8ceb6"
        },
        {
          "hex": "#3c446f"
        },
        {
          "hex": "#c30f0f"
        },
        {
          "hex": "#5c668b"
        },
        {
          "hex": "#79849a"
        }
      ]
    },
    "millsfield:images_texts": [
      "EFFECTIVE SEPTEMBER 8, 1965\nTWA\nROUTE OF THE StarStream FLEET\n•os•.a\nTIME SAVING HELICOPTER SERVICE\nNow available at TWA terminals in\nNew York and San Francisco\n(see page 3 for schedules)\nWORLDWIDE SYSTEM TIMETABLE",
      "U.S.A.\nSAN\nFRANCISCO\nWAKEANI\n- To Europe\n- To Europe\nBOSTON\nEUROPE\nLONDON\nAFRICA\nASIA\nSHANNON\nCHICAGO\n_ DETROIT\nFRANKFURT\nTWA WORLD ROUTES\nALBANY\nZURICH\nHONG KONG\nDENVER\nKANSAS CITY\nLOS\nANGELES\nCLEVELAND\nINDIANAPOLIS\nCOLUMBU\nST.LOUIS\nNASHVILLE\nROME\nATHENS\nTEL AVIV\nBASRA\nBOMBAY\nBANGKOK\nMANILA\nENEW YORK•\nPHILADELPHIA.\nPARIS GENEVA MILAN\nPHOENIX\nLAS VEGAS\nWICHITA\nTUCSON\nALBU -\nQUERQUE\nTULSA\nAMARILLO\nPITTS-\nDAYTON-\n\\ BURGH\nCINCINNATI\nATLANTA!\nBALTIMORE\nWASHINGTON\nAZORES\nDHAHRAN\nCOLOMBO\nALGIERS\nOKLAHOMA CITY\nTAMPA\nLISBON\nMADRID\nTUNIS\nCAIRO\nTRIPOLI\n• BENGASI\nMIAMI\n. TRANS WORLD AIRLINES ROUTES\n--_ROUTES CERTIFICATED OR APPLIED FOR\nSO HELICOPTER AIRLINES\nHelicopter Service\nNEW YORK AIRWAYS\nHelicopter Service\nMARIN\nBERKELEY\nCONTRA COSTA\n10 MIN*\n10 MIN\n11 MIN\n6 MIN *\n6 MIN\nNEWARK\nWALL ST.\nMIN\nI MIN\n7 MIN\nLAGUARDIA\nTWA\nTERMINAL\nOAKLAND\n12 MIN\nEMIN\n7 MIN\nAverage flight time\nbetween points\nAverage flight time\nbetween points\n8 MIN\nSAN FRANCISCO\nTWA\nTERMINAL\n12 MIN\nPALO ALTO\nSUNNYVALE\nJ. F. KENNED'\nTWA\nTERMINAL\nGENERAL PASSENGER INFORMATION\nBAGGAGE - Baggage includes all luggage, parcels, and packages carried in the cabin or\nyears, a child under 2 occupying a seat, and more than one child accompanying a passenger\nchecked in the cargo space. Overcoats, umbrellas, ladies' handbags or ladies' pocketbooks,\nare each charged one half adult fare. Children may travel alone only under certain conditions.\nand small cameras carried by the passenger will not be weighed as \"baggage.\" TWA may\nlimit the weight, size and type of baggage.\nCUSTOMS REGULATIONS-Customs officers of each country\nexamine baggage\nOnly personal articles for use while traveling are not subject to duty.\non\narrival.\nResident of the U.\nS.\nBAGGAGE ALLOWANCE-IN THE U.S.A.-On each ticket,\naway more than 48 hours may claim a duty and tax exemption of $100.00 once each 31 days\ninternational trip by air, free baggage allowance is 2 checked bags, 1 with dimensions\nfor merchandise acquired overseas. Passengers must not take fruits, vegetables, bulbs, seeds,\n(length plus width plus height) not over 62 inches and 1 with dimensions not over 55 inches,\nmeat or meat products into the U.S. A. without a U.S. Department of Agriculture permit to\nplus 1 or more pieces of underseat baggage with combined dimensions not over 45 inches.\ndo so. While TWA usually has available the latest information,\nthe carrier is not responsible\nINTERNATIONAL FIRST CLASS-66 Ibs.\n(30 kilograms) carried free for each full or half\nfor its accuracy and suggests that passengers consult the\nnearest Consulate of the country\nfare first class ticket, including portions of travel in the U.S.A.\nto be visited.\nINTERNATIONAL ECONOMY CLASS-44 Ibs. (20 kilograms) carried free for each full or\nFAMILY STYLE FARES-IN THE U.S.A.-When travel is via coach service between Monday\nhalf fare economy class ticket, including portions of travel in the U.S.A.\nCHILDREN - Children paying half fare are granted free baggage allowance on the same\nbasis as a passenger paying the full adult fare. Children traveling free or at the 10% fare\nBAGGAGE-EXCESS CHARGES-Checked baggage in excess of the above free allowances shall\nbe charged for as follows:\nIN THE U.S.A.—When the adult jet coach fare between the points between which the bag-\ngage is checked or from the passenger's origin to his destination is $25 or less, $2 per piece;\n$25.01-50.00, $3 per piece; $50.01-120.00, $4 per piece; $120.01-200.00, $5 per piece;\nover $200, $6 per piece.\nINTERNATIONAL-Excess baggage is charged for at 1% of the full first class adult one way\njet fare per kilogram (2.2 lbs.).\nBAGGAGE - EXCESS VALUE - TWA's liability for baggage is limited to its actual value, but\nnot more than $250 per passenger on trips in the U.S. A. or $16.50 per kilogram for checked\nbaggage and $330 per passenger for unchecked baggage on international trips, unless a\nhigher valuation is stated before the flight and a charge of 10g on trips in the U.S.A. or 15¢\non international trips is paid for each extra $100 or fraction thereof claimed.\nCHECK-IN FOR FLIGHTS - The times shown for international flight check-in are the mini-\nmum required for completion of government formalities. Flights cannot be detained for\npassengers arriving late, and no responsibility can be accepted in such cases.\nCHILDREN - IN THE U.S.A. - (a) One child under 2 years not occupying a seat carried free\nto Sunday noon. Family discounts do not apply to economy, jet commuter or night coach fares.\nscheduled pick-up points and airport, at passenger's expense.\nto airline reservations.\nINSURANCE - Trip insurance is available at most airlines offices in the U.S.A.\nMEAL SERVICE - For information on Food and Beverage Service, see schedule pages.\nRECONFIRMATION - INTERNATIONAL - Passengers holding continuing or return reservations\nfrom most areas must reconfirm their reservations at least 72 hours before scheduled flight\ndeparture time. Failure to reconfirm will result in cancellation of all reservations.\nbe guaranteed.\narrangement. Unaccompanied children between the ages of 5 and 12 will be charged the full\nadult fare. INTERNATIONAL - One child under 2 years not occupying a seat carried at 10%\nof adult fare with each accompanying full fare adult passenger. Children over 2 and under 12\nvided reservation is made and, on international flights, provided the passenger has a valid\nvisa if required by law.\nPAGE 1"
    ],
    "millsfield:images_texts_ids": [
      1527835317,
      1527851173
    ],
    "millsfield:primary_image": 1527835317,
    "millsfield:subcategory_id": 1511213425,
    "mz:hierarchy_label": 1,
    "mz:is_current": 1,
    "sfomuseum:accession_number": "2005.132.050.043",
    "sfomuseum:airline": "TWA (Trans World Airlines)",
    "sfomuseum:airline_id": [
      874
    ],
    "sfomuseum:category": "Scheduling / Ticketing",
    "sfomuseum:classification_id": 158,
    "sfomuseum:collection": "Aviation Archive",
    "sfomuseum:creditline": "Gift of the William Hough Collection",
    "sfomuseum:date": "1965",
    "sfomuseum:date_acquired": "2006-12-05",
    "sfomuseum:daterange_end": "1965-12-31",
    "sfomuseum:daterange_start": "1965-01-01",
    "sfomuseum:description": "Worldwide system timetable issued by TWA (Trans World Airlines), effective September 8, 1965; 23-page fold-out; blue and white cover with text promoting helicopter service to terminals in New York and San Francisco.",
    "sfomuseum:dimensions": "9 x 4 inches (22.9 x 10.2 cm)",
    "sfomuseum:media_ids": [
      1527835317,
      1527851173
    ],
    "sfomuseum:medium": "paper, ink",
    "sfomuseum:object_id": 98257,
    "sfomuseum:placetype": "object",
    "sfomuseum:primary_media_id": 1527835317,
    "sfomuseum:publication": ": , 1965.",
    "sfomuseum:subcategory": "Timetable",
    "src:geom": "sfomuseum#undetermined",
    "wof:belongsto": [
      1511214223,
      102527513,
      102191575,
      85633793,
      1511213425,
      85922583,
      102087579,
      1511214277,
      1511214207,
      85688637
    ],
    "wof:breaches": [],
    "wof:country": "XX",
    "wof:created": 1579906665,
    "wof:depicts": [
      1159285393,
      1159287531
    ],
    "wof:geomhash": "30c8a918561c84bb2daa2b97fc7c5353",
    "wof:hierarchy": [
      {
        "arcade_id": 1511213425,
        "building_id": 1511214277,
        "campus_id": 102527513,
        "concourse_id": 1511214223,
        "continent_id": 102191575,
        "country_id": 85633793,
        "county_id": 102087579,
        "custom_id": 1511937401,
        "locality_id": 85922583,
        "neighbourhood_id": -1,
        "object_id": 1511937401,
        "region_id": 85688637,
        "venue_id": 1511937401,
        "wing_id": 1511214207
      }
    ],
    "wof:id": 1511937401,
    "wof:lastmodified": 1787988183,
    "wof:name": "timetable: TWA (Trans World Airlines)",
    "wof:parent_id": 1159162825,
    "wof:placetype": "custom",
    "wof:placetype_alt": [
      "object"
    ],
    "wof:repo": "sfomuseum-data-collection",
    "wof:superseded_by": [],
    "wof:supersedes": [],
    "wof:tags": []
  },
  "bbox": [
    -122.386155,
    37.616357,
    -122.386155,
    37.616357
  ],
  "geometry": {"type":"Point","coordinates":[-122.386155,37.616357]}
}
