{
  "id": 1762692473,
  "type": "Feature",
  "properties": {
    "date:cessation_lower": "1989-01-01",
    "date:cessation_upper": "1989-12-31",
    "date:inception_lower": "1989-01-01",
    "date:inception_upper": "1989-12-31",
    "edtf:cessation": "1989",
    "edtf:inception": "1989",
    "geom:area": 2.475047457570636e-7,
    "geom:bbox": "-122.386472,37.616105,-122.385834,37.616611",
    "geom:latitude": 37.61635747477365,
    "geom:longitude": -122.38615540108617,
    "millsfield:aircraft_id": [
      1159291223
    ],
    "millsfield:airline_id": [
      1159285987
    ],
    "millsfield:category_id": 1511214215,
    "millsfield:collection_id": 1511214207,
    "millsfield:company_id": [],
    "millsfield:images": [
      1762705181,
      1762705185
    ],
    "millsfield:images_colors_refs": {
      "crayola": [
        {
          "hex": "#414a4c"
        },
        {
          "hex": "#2e5894"
        },
        {
          "hex": "#926eae"
        },
        {
          "hex": "#efdecd"
        }
      ],
      "css4": [
        {
          "hex": "#faebd7"
        },
        {
          "hex": "#778899"
        },
        {
          "hex": "#dcdcdc"
        },
        {
          "hex": "#2f4f4f"
        },
        {
          "hex": "#483d8b"
        }
      ],
      "marekm4": [
        {
          "hex": "#eaded1"
        },
        {
          "hex": "#27233d"
        },
        {
          "hex": "#f4ebd6"
        },
        {
          "hex": "#4e549a"
        },
        {
          "hex": "#8b78a4"
        }
      ]
    },
    "millsfield:images_texts": [
      "p *\nEEDERAI\nExPRES\nFEDERAL\nEXPRESS.\n1989",
      "9p1lt\n1-O0\n**1\nTHETE\n[377+-[z\nt9-\nT108\n0=m2-14- 70=m\nTEL.03-452-1152 FAX.03-452-3123\nT135 RRMIRXRE3-10\nTEL.03-521-4300 FAX.03-52|-4941\nTEL.0476-32-6168 FAX.0476-32-6174\nT272 F #R##M*2526 TACT/F**\nTEL.0473-28-2811 FAX.0473-27-5252\n540\nTEL.06-942-9292 FAX.06-942-9296\nTEL.03-201-4320\nFAX.03-201-4333\n71 -*1+/ : 0120-003200\n2015.166.\n187"
    ],
    "millsfield:images_texts_ids": [
      1762705181,
      1762705185
    ],
    "millsfield:primary_image": 1762705181,
    "millsfield:subcategory_id": 1511213363,
    "mz:is_current": 1,
    "sfomuseum:accession_number": "2015.166.0687",
    "sfomuseum:aircraft": "Douglas DC-9",
    "sfomuseum:aircraft_id": [
      848
    ],
    "sfomuseum:airline": "Federal Express",
    "sfomuseum:airline_id": [
      1156
    ],
    "sfomuseum:category": "Philately",
    "sfomuseum:classification_id": 127,
    "sfomuseum:collection": "Aviation Archive",
    "sfomuseum:creditline": "Gift of Thomas G. Dragges",
    "sfomuseum:date": "1989",
    "sfomuseum:date_acquired": "2017-01-13",
    "sfomuseum:daterange_end": "1989-12-31",
    "sfomuseum:daterange_start": "1989-01-01",
    "sfomuseum:description": "Color postcard with photographic image depicting a Federal Express Douglas DC-9 over Mount Fuji; air-to-air angled profile view.",
    "sfomuseum:dimensions": "3 1/2 x 5 1/2 inches (8.9 x 14 cm)",
    "sfomuseum:medium": "paper, ink",
    "sfomuseum:object_id": 180304,
    "sfomuseum:placetype": "object",
    "sfomuseum:publication": ": , 1989.",
    "sfomuseum:subcategory": "Postcard",
    "src:geom": "sfomuseum#undetermined",
    "wof:belongsto": [
      102527513,
      1159162825,
      102191575,
      85633793,
      102087579,
      85922583,
      85688637,
      1159160869
    ],
    "wof:country": "XY",
    "wof:created": 1641343677,
    "wof:depicts": [
      1159291223,
      1159285987
    ],
    "wof:geomhash": "c281b9d9eefc83b5710e64b9d646067d",
    "wof:hierarchy": [
      {
        "building_id": -1,
        "campus_id": 102527513,
        "collection_id": 1159162825,
        "concourse_id": 1159162825,
        "continent_id": 102191575,
        "country_id": 85633793,
        "county_id": 102087579,
        "custom_id": 1762692473,
        "locality_id": 85922583,
        "neighbourhood_id": -1,
        "object_id": 1762692473,
        "region_id": 85688637,
        "wing_id": 1159160869
      }
    ],
    "wof:id": 1762692473,
    "wof:lastmodified": 1787988198,
    "wof:name": "postcard: Federal Express, Douglas DC-9",
    "wof:parent_id": 1159162825,
    "wof:placetype": "custom",
    "wof:placetype_alt": [
      "object"
    ],
    "wof:repo": "sfomuseum-data-collection",
    "wof:superseded_by": [],
    "wof:supersedes": []
  },
  "bbox": [
    -122.38647222518921,
    37.6161053594541,
    -122.38583385944366,
    37.61661101879963
  ],
  "geometry": {"type":"Polygon","coordinates":[[[-122.38647222518921,37.61631782178288],[-122.386434674263,37.61623283692423],[-122.38637566566466,37.61617759671399],[-122.38630056381224,37.6161308549656],[-122.38616108894348,37.6161053594541],[-122.38602161407469,37.6161308549656],[-122.38591432571411,37.61618609521055],[-122.38585531711577,37.61626683087935],[-122.38583385944366,37.61636881265146],[-122.38587141036987,37.61646654505181],[-122.38594114780425,37.61654303118856],[-122.38605380058287,37.61660252035167],[-122.38618254661559,37.61661101879963],[-122.3863059282303,37.61657277577607],[-122.3864185810089,37.61650903735973],[-122.3864668607712,37.61641130501523],[-122.38647222518921,37.61631782178288]]]}
}
