{
  "id": 1511909661,
  "type": "Feature",
  "properties": {
    "date:cessation_lower": "1979-01-01",
    "date:cessation_upper": "1979-12-31",
    "date:inception_lower": "1979-01-01",
    "date:inception_upper": "1979-12-31",
    "edtf:cessation": "1979",
    "edtf:date": "1979",
    "edtf:inception": "1979",
    "geom:area": 0,
    "geom:bbox": "-122.386155,37.616357,-122.386155,37.616357",
    "geom:latitude": 37.616357,
    "geom:longitude": -122.386155,
    "iso:country": "US",
    "millsfield:airline_id": [
      1159285413
    ],
    "millsfield:category_id": 1511214223,
    "millsfield:collection_id": 1511214207,
    "millsfield:company_id": [
      1159288779
    ],
    "millsfield:images": [
      1527838707,
      1527851491
    ],
    "millsfield:images_colors_refs": {
      "crayola": [
        {
          "hex": "#6699cc"
        },
        {
          "hex": "#c46210"
        },
        {
          "hex": "#5d76cb"
        },
        {
          "hex": "#2e5894"
        },
        {
          "hex": "#efdecd"
        },
        {
          "hex": "#b0b7c6"
        },
        {
          "hex": "#414a4c"
        }
      ],
      "css4": [
        {
          "hex": "#778899"
        },
        {
          "hex": "#a0522d"
        },
        {
          "hex": "#dcdcdc"
        },
        {
          "hex": "#4682b4"
        },
        {
          "hex": "#6495ed"
        },
        {
          "hex": "#c0c0c0"
        },
        {
          "hex": "#2f4f4f"
        }
      ],
      "marekm4": [
        {
          "hex": "#6b9dc9"
        },
        {
          "hex": "#272d23"
        },
        {
          "hex": "#e7e3d5"
        },
        {
          "hex": "#b5b9c6"
        },
        {
          "hex": "#768abd"
        },
        {
          "hex": "#b64f2a"
        },
        {
          "hex": "#5268b1"
        },
        {
          "hex": "#3d629d"
        }
      ]
    },
    "millsfield:images_texts": [
      "UnITED AIRLInES\nTED AIR LINES\nOur Friendly TimesAGD\nOctober 28, 1979\nVol. 5\nOld North Bridge, Concord \u0026 Lexington, Mass.",
      "11:00 A.M.\nHAWAIIAN TIME\n(HST)\n1:00 P.M.\nPACIFIC TIME\n(PST)\nVANCOUVER\nSPOKANE\nSEATTLE\nTACOMA\n•PORTLAND\n• SALEM\nEUGENE\n• MEDFORD\nPENDLETON\n• BOISE\nELKOO\nSACRAMENTO O RENO\n'TAHOE\nSAN FRANCISCO O\nOAKLAND\\\n• STOCKTON\nSAN JOSE\nMODESTO\nELY\nMONTEREY\nSALINAS\nHONOLULU\nSANTA\nBARBARA\nFRESNO\nVISALIA\nBAKERSFIELD\n\u0026 LOS ANGELES\nONTARIO\n• SAN DIEGe\n• LAS VEGAS\n2:00 P.M.\nMOUNTAIN TIME\n(MST)\nL\n3:00 P.M.\nCENTRAL TIME\n(CST)\n4:00 P.M.\nEASTERN TIME\n(EST)\nSALT LAKE CITY\n• DENVER\nGRAND JUNCTION\nTORONTO\nLINCOLN O\nMINNEAPOLIS\nOST PAUL\nMILWAUKEE\nSAGINAW\nBAY CITY\nHARTFORD\n• BOSTON\nMIDLAND\nBUFFALO\n\"MUSKEGON\nNIAGARA\nSPRINGFIELD\nFLINT\nFALLS\nROCHESTER\n•PROVIDENCE\nGRANDC\nALLENTOWN\n6 DETROIT BETHLEHEM\nCHICAGO *\nTHARIUS\n4 NEW YORK\nCLEVELAND\nDES MOINES CEDAR RAPIDS\nLANSINGO\n• YOUNGS\nIOWA CITY\n/ OMAHA\nO MOLINE\nDAVENPORT BEND\nSOUTH CLEO\nC\nAKRONL\nPHILADELPHIA\nPITSBURGH\\\nROCK ISLAND\nWAYNE COLUMBUS\nBALTIMORE\nO WASHINGTON.D.C\n-DAYTON\nRICHMOND\nNEWPORT NEWS\n]HAMPTON• WILLIAMSBURG\nKANSAS CITY\nNORFOLK\nPORTSMOUTH\nVIRGINIA BEACH\nKNOXVILLE-\nGREENSBORO\nHIGH POINT\nSALEM\nRALEIGH\nDURHAM\n) CHARLOTTE\n• MEMPHIS\nHUNTSVILLE(\nC\nBIRMINGHAM\n• ORLANDO\nTAMPA\n• WEST PALM BEACH\nMIAMI\nHOLLYWOOD\nFT. LAUDERDALE\nOCITIES SERVED BY UNITED AIRLINES\n6) LOCATIONS SERVED BY WESTERN INTERNATIONAL HOTELS"
    ],
    "millsfield:images_texts_ids": [
      1527838707,
      1527851491
    ],
    "millsfield:primary_image": 1527838707,
    "millsfield:subcategory_id": 1511213425,
    "mz:hierarchy_label": 1,
    "mz:is_current": 1,
    "sfomuseum:accession_number": "1999.047.426",
    "sfomuseum:airline": "United Airlines",
    "sfomuseum:airline_id": [
      883
    ],
    "sfomuseum:category": "Scheduling / Ticketing",
    "sfomuseum:classification_id": 158,
    "sfomuseum:collection": "Aviation Archive",
    "sfomuseum:continent": "North America",
    "sfomuseum:country": "United States",
    "sfomuseum:creditline": "Gift of United Airlines Archives",
    "sfomuseum:date": "1979",
    "sfomuseum:date_acquired": "2000-05-11",
    "sfomuseum:daterange_end": "1979-12-31",
    "sfomuseum:daterange_start": "1979-01-01",
    "sfomuseum:description": "Timetable issued by United Airlines, effective October 28, 1979; white cover with color photographic image of Old North Bridge, Concord \u0026 Lexington, Massachusetts; red stamp from United Airlines library in Chicago.",
    "sfomuseum:dimensions": "9 x 4 inches (22.9 x 10.2 cm)",
    "sfomuseum:media_ids": [
      1527838707,
      1527851491
    ],
    "sfomuseum:medium": "paper, ink",
    "sfomuseum:object_id": 49774,
    "sfomuseum:placetype": "object",
    "sfomuseum:primary_media_id": 1527838707,
    "sfomuseum:publication": ": , 1979.",
    "sfomuseum:subcategory": "Timetable",
    "src:geom": "sfomuseum#undetermined",
    "wof:belongsto": [
      1511214223,
      102527513,
      102191575,
      85633793,
      1511213425,
      85922583,
      102087579,
      1511214277,
      1511214207,
      85688637,
      136253057
    ],
    "wof:breaches": [],
    "wof:country": "US",
    "wof:created": 1579906676,
    "wof:depicts": [
      1159288779,
      1159285413
    ],
    "wof:geomhash": "30c8a918561c84bb2daa2b97fc7c5353",
    "wof:hierarchy": [
      {
        "arcade_id": 1511213425,
        "building_id": 1511214277,
        "campus_id": 102527513,
        "concourse_id": 1511214223,
        "continent_id": 102191575,
        "country_id": 85633793,
        "county_id": 102087579,
        "custom_id": 1511909661,
        "locality_id": 85922583,
        "neighbourhood_id": -1,
        "object_id": 1511909661,
        "region_id": 85688637,
        "venue_id": 1511909661,
        "wing_id": 1511214207
      },
      {
        "continent_id": 102191575,
        "country_id": 85633793,
        "custom_id": 1511909661,
        "empire_id": 136253057,
        "object_id": 1511909661,
        "venue_id": 1511909661
      }
    ],
    "wof:id": 1511909661,
    "wof:lastmodified": 1787988176,
    "wof:name": "timetable: United Airlines",
    "wof:parent_id": 1159162825,
    "wof:placetype": "custom",
    "wof:placetype_alt": [
      "object"
    ],
    "wof:repo": "sfomuseum-data-collection",
    "wof:superseded_by": [],
    "wof:supersedes": [],
    "wof:tags": []
  },
  "bbox": [
    -122.386155,
    37.616357,
    -122.386155,
    37.616357
  ],
  "geometry": {"type":"Point","coordinates":[-122.386155,37.616357]}
}
