{
  "id": 1762830739,
  "type": "Feature",
  "properties": {
    "date:cessation_lower": "1956-01-01",
    "date:cessation_upper": "1956-12-31",
    "date:inception_lower": "1956-01-01",
    "date:inception_upper": "1956-12-31",
    "edtf:cessation": "1956",
    "edtf:inception": "1956",
    "geom:area": 2.475047457570636e-7,
    "geom:bbox": "-122.386472,37.616105,-122.385834,37.616611",
    "geom:latitude": 37.61635747477365,
    "geom:longitude": -122.38615540108617,
    "millsfield:airline_id": [
      1159285129
    ],
    "millsfield:category_id": 1511214247,
    "millsfield:collection_id": 1511214207,
    "millsfield:company_id": [
      1159287667
    ],
    "millsfield:exhibition_ids": [
      1159160113
    ],
    "millsfield:images": [
      1762890427,
      1881085849,
      1881085853,
      1881085855,
      1881085857,
      1881085859
    ],
    "millsfield:images_colors_refs": {
      "crayola": [
        {
          "hex": "#cdc5c2"
        },
        {
          "hex": "#2e5894"
        },
        {
          "hex": "#c46210"
        },
        {
          "hex": "#9c2542"
        },
        {
          "hex": "#dbd7d2"
        },
        {
          "hex": "#000000"
        },
        {
          "hex": "#bf4f51"
        },
        {
          "hex": "#414a4c"
        },
        {
          "hex": "#d68a59"
        },
        {
          "hex": "#bab86c"
        }
      ],
      "css4": [
        {
          "hex": "#c0c0c0"
        },
        {
          "hex": "#a52a2a"
        },
        {
          "hex": "#cd853f"
        },
        {
          "hex": "#d3d3d3"
        },
        {
          "hex": "#000000"
        },
        {
          "hex": "#a0522d"
        },
        {
          "hex": "#bdb76b"
        },
        {
          "hex": "#4682b4"
        },
        {
          "hex": "#2f4f4f"
        }
      ],
      "marekm4": [
        {
          "hex": "#32303e"
        },
        {
          "hex": "#bec0be"
        },
        {
          "hex": "#c7c8c2"
        },
        {
          "hex": "#111010"
        },
        {
          "hex": "#bb5636"
        },
        {
          "hex": "#8b2d2c"
        },
        {
          "hex": "#242835"
        },
        {
          "hex": "#346895"
        },
        {
          "hex": "#c5c6c2"
        },
        {
          "hex": "#ad4522"
        },
        {
          "hex": "#454042"
        },
        {
          "hex": "#8e3130"
        },
        {
          "hex": "#42709f"
        },
        {
          "hex": "#bdc0be"
        },
        {
          "hex": "#121111"
        },
        {
          "hex": "#ccceca"
        },
        {
          "hex": "#cda960"
        },
        {
          "hex": "#ba9f44"
        },
        {
          "hex": "#464246"
        },
        {
          "hex": "#d6d4c2"
        }
      ]
    },
    "millsfield:images_texts": [
      "Mitch Miller\nA MITCH MILLER MUSICAL S\nMathias Moe\nEuropean Holiday\nJerry Vale\nJill Corey\nwith\nMichael Stewart\nand his Chorus\nSIDE ONE\nENTRE NOUS\nDEALER IN DREAMS\nTHE GOURMET SONG\nHEAVENLY HOLIDAY\nFLYING UP TO EUROPE\nTAKE THE TRIP OF YOUR DREAMS\nTRAVELING THROUGH EUROPE\nSIDE TWO\nSUITE ANCIENNE BY JOHAN HALVORSEN\nPASTORAL SUITE BY LARS-ERIK LARSON-\nCHAMPAGNE GALOP BY H. C. LUMBYE\nproduced exclusively for\nSAS\nSCANDINAVIAN\nAIRLINES SYSTEM\n00\nFOLLOW YOUR HEART ON A\n\"HEAVENLY HOLIDAY\" TO ALL EUROPE\nA HI-FI\n33\nRPM NONBREAKABLE COLUMBIA TRANSCRIPTION RECORDING",
      "SCANDINA\nAN\nAIRLINES\nRESENTS\nEuropean Holiday\nSYSTEM\nDirected by\nCLEDGE ROBERTS\nMusic by\nLEE THORNSBY\nLyrics by\nDOUGLAS LANCE\nProduced Especially\nSAS\nBURKE DOWLING ADAMS, INC.\nTV 22216\nSIDE ONE\nAn Original Musical Supervised and recorded by\nMITCH MILLER",
      "SCANDINA\nR\nLINES\nPRESENT\nEuropean Holiday\nSYSTEM\nHI-FI 33 RPM\nNONBREAKABLE\nProduced Especially\nfor\nSAS\nby\nBURKE DOWLING ADAMS, INC.\nSIDE TWO\nTV 22217\nJONAN HALVORSEN\nINTRATA From SUITE ANCIENNE\nOSLO PHILHARMONIC ORCHESTRA\nBIVIN FJELDSTAD CONDUCTING\n(ASCARE\nLARS-ERIK LARSSON\nROMANCE from PASTORAL SUITE\nSTOCKHOLM RADIO ORCHESTRA\nSTIG WESTERBERG CONDUCTING\n(ASCAP)\nHO HUMRYE\nCHAMPAGNE GALOP\nTIVOLI CONCERT ORCHESTRA\nTIPPE LUMBYE CONDUCTING\n(PD)",
      "Mitch Miller\nA MITCH MILLER MUSICAL\nMathias Moe\nEuropean Holiday\nJerry Vale\nJill Corey\nwith\nMichael Stewart\nanchis chorus\nallances\nENTRE NOUS\nDEALER IN DREAMS\nTHE GOURMET SONG\nHEAVENLY HOLIDAY\nFLYING UP TO EUROPE\nTAKE THE TRIP OF YOUR DREAMS\nTRAVELING THROUGH EUROPE\nSIDE TWO\nSUITE ANCIENNE BY JOHAN HALVORSEN\nPASTORAL SUITE BY LARS-ERIK LARSSON-\nCHAMPAGNE GALOP BY H. C. LUMBYE\nproduced exclusively for\nSAS\nSCANDINAVIAN\nAIRLINES SYSTEM\n00\nFOLLOW YOUR HEART ON A\n\"HEAVENLY HOLIDAY\" TO ALL EUROPE\nA HI-FI\nRPM NONBREAKABLE COLUMBIA TRANSCRIPTION RECORDING",
      "European Holiday\nON SIDE 1. Original musical numbers\nTAKE THE TRIP OF YOUR DREAMS\nTRAVELING THROUGH EUROPE\n* INTRE NOUS\nON SIDE 2. Scandinavian musical selections\nON SIDE 1. EUROPEAN HOLIDAY\nTRAVEL AGENT\nMRS.\nROBERTS\nMITCH MILLER - Bearded wonder of the record business\nMiller is a prize example of the split\nan orchestra leader, and oboe solo\nhas been re\nre bike a Sun\nie Ray, and 12\nYear old Tirely Band\ne sent Jill from a little town\nsir's singing so\nJERRY VALE - Here is a succes story that could have been\nMICHAEL STEWART\nwar servicer Mike was feate\ntelevision with Mim Been ted now a tears\nt the widely popular MIKE STEWART CHORUS OCCUStO\nbost ot TV hits.\ncluding The Art Ford Show, You Be the\nON SIDE 2. SCANDINAVIAN MUSICAL SELECTIONS\nINTRATA from Suite Ancienne - In the gay 18th century\n• Lean tale\nLevis Holberg\nRadio.\nSuite Anime, Do G 9001en, Marcury Record\nROMANCE from Pastoral Suite - A sophistication, yet\nWesterberg leads the Stock olm ar Contemporary\nPastoral Suite, Lors-Erik Larson, London ffr Record 15 714.\no tal the tol one or\nChampagne Golap, H. C. Lumbye, Mercury Record\nSpecial thanks go to the music canteris th,\nHOW THIS RECORD CAME TO LIFE\nAND MU:\nray ever de\nthis pay he music- and start dreamin\nVICIT CYTO A\nAT NO EXTRA FARE\nurope, see more of Europe\nGO NOW- PAYlATERit vou wish\nSEE YOUR \"DEALER IN DREAMS\"\nd the virst hand\nCreated Especially For\nSAS\nSCANDINAVIAN\nAIRLINES SISTEM\nSAS SERVES MORE CITIES IN EUROPE\nTHAN ANY OTHER TRANSATLANTIC AIRLINE\nIn the Royal Viking galley, the chef hands the\nsteward a snecial dish... cooked for vour!\nFinest food aloft: Royal Viking meals are\nserved in leisurely councer with vintane winer\nAh! Bronifact in hod That's vaur niantant\noption on all Royal Viking flights to Europe",
      "ITALY: Eternal is the beauty of Rome:\naay are cities in this Mediterranean land.\nENGLAND: The Thames, Big Ben and Parliament.\na living pageant of old, historic England.\nSPAIN: Land of drama and color, of flamenco\ndance of badilione that enan conturice!\nGERMANY: In the land\nof Rhine legends, noble castles\nsymbolize ancient times\nFRANCE: The romance\not Paris. the latin Quarter\nManimarto Sacro Copur and\nboulevard shops.\nSTERLAND Winter or\nsummer, spirits soar high as the\nmichiv mountains of the Albs\nSCANDINAVIA: Vikings, fiords and fairy tale\ntowns, in clean-cut lands of modern design.\nCCOTIAND, Honihor and Hiaklande tartane\nand bagpipes stir memories of stouthearted clans.\nYour Royal Viking plane: a mighty Douglas DC-6B\nthat taloe pronne and continonte in oney etrido\nSCANDINAVIAY\nSAS\nSCA\nAIRLINES SYSTEM\n30 Rockefeller Plaza, New York, N. Y\nDD-1\n1-55\nPrintod in us A"
    ],
    "millsfield:images_texts_ids": [
      1762890427,
      1881085849,
      1881085853,
      1881085855,
      1881085857,
      1881085859
    ],
    "millsfield:on_view": 0,
    "millsfield:primary_image": 1881085849,
    "millsfield:subcategory_id": 1511213351,
    "mz:is_current": 1,
    "sfomuseum:accession_number": "2009.161.009 a b",
    "sfomuseum:airline": "Scandinavian Airlines System (SAS)",
    "sfomuseum:airline_id": [
      749
    ],
    "sfomuseum:category": "Audio / Visual",
    "sfomuseum:classification_id": 119,
    "sfomuseum:collection": "Aviation Archive",
    "sfomuseum:creditline": "Collection of SFO Museum",
    "sfomuseum:date": "1956",
    "sfomuseum:date_acquired": "2009-09-29",
    "sfomuseum:daterange_end": "1956-12-31",
    "sfomuseum:daterange_start": "1956-01-01",
    "sfomuseum:description": "Phonograph record by Mitch Miller promoting Scandinavian Airlines System (SAS), titled European holiday”;\ra. record cover; bi-fold sleeve; white and gray with color illustration of a couple sitting in a gondola and text “A Mitch Miller musical”; interior features description of recorded music and black and white photographic images of airline’s meal service; nine black and white photographic images on reverse;\rb. LP record; dark red and silver center with text “European Holiday”.",
    "sfomuseum:dimensions": "10 1/4 x 10 1/4 inches (26 x 26 cm)",
    "sfomuseum:exhibition_ids": [
      1066
    ],
    "sfomuseum:maker": "A Burke Dowling Adams, Inc.",
    "sfomuseum:medium": "cardboard, vinyl, paper, ink",
    "sfomuseum:object_id": 101577,
    "sfomuseum:placetype": "object",
    "sfomuseum:publication": ": , 1956.",
    "sfomuseum:subcategory": "Phonograph Record",
    "src:geom": "sfomuseum#undetermined",
    "wof:belongsto": [
      102527513,
      1159162825,
      102191575,
      85633793,
      102087579,
      85922583,
      85688637,
      1159160869
    ],
    "wof:country": "XY",
    "wof:created": 1642730037,
    "wof:depicts": [
      1159285129,
      1159287667
    ],
    "wof:geomhash": "c281b9d9eefc83b5710e64b9d646067d",
    "wof:hierarchy": [
      {
        "building_id": -1,
        "campus_id": 102527513,
        "collection_id": 1159162825,
        "concourse_id": 1159162825,
        "continent_id": 102191575,
        "country_id": 85633793,
        "county_id": 102087579,
        "custom_id": 1762830739,
        "locality_id": 85922583,
        "neighbourhood_id": -1,
        "object_id": 1762830739,
        "region_id": 85688637,
        "wing_id": 1159160869
      }
    ],
    "wof:id": 1762830739,
    "wof:lastmodified": 1787988201,
    "wof:name": "phonograph record: Scandinavian Airlines System (SAS), A Mitch Miller Musical European Holiday",
    "wof:parent_id": 1159162825,
    "wof:placetype": "custom",
    "wof:placetype_alt": [
      "object"
    ],
    "wof:repo": "sfomuseum-data-collection",
    "wof:superseded_by": [],
    "wof:supersedes": []
  },
  "bbox": [
    -122.38647222518921,
    37.6161053594541,
    -122.38583385944366,
    37.61661101879963
  ],
  "geometry": {"type":"Polygon","coordinates":[[[-122.38647222518921,37.61631782178288],[-122.386434674263,37.61623283692423],[-122.38637566566466,37.61617759671399],[-122.38630056381224,37.6161308549656],[-122.38616108894348,37.6161053594541],[-122.38602161407469,37.6161308549656],[-122.38591432571411,37.61618609521055],[-122.38585531711577,37.61626683087935],[-122.38583385944366,37.61636881265146],[-122.38587141036987,37.61646654505181],[-122.38594114780425,37.61654303118856],[-122.38605380058287,37.61660252035167],[-122.38618254661559,37.61661101879963],[-122.3863059282303,37.61657277577607],[-122.3864185810089,37.61650903735973],[-122.3864668607712,37.61641130501523],[-122.38647222518921,37.61631782178288]]]}
}
