{
  "id": 1763195699,
  "type": "Feature",
  "properties": {
    "date:cessation_lower": "1932-01-01",
    "date:cessation_upper": "1932-12-31",
    "date:inception_lower": "1932-01-01",
    "date:inception_upper": "1932-12-31",
    "edtf:cessation": "1932",
    "edtf:inception": "1932",
    "geom:area": 2.475047457570636e-7,
    "geom:bbox": "-122.386472,37.616105,-122.385834,37.616611",
    "geom:latitude": 37.61635747477365,
    "geom:longitude": -122.38615540108617,
    "millsfield:airline_id": [
      1159285517
    ],
    "millsfield:category_id": 1511214223,
    "millsfield:collection_id": 1511214207,
    "millsfield:company_id": [
      1159288117
    ],
    "millsfield:images": [
      1763196301,
      1763196303
    ],
    "millsfield:images_colors_refs": {
      "crayola": [
        {
          "hex": "#efdecd"
        },
        {
          "hex": "#414a4c"
        },
        {
          "hex": "#cd4a4c"
        }
      ],
      "css4": [
        {
          "hex": "#dcdcdc"
        },
        {
          "hex": "#2f4f4f"
        },
        {
          "hex": "#faebd7"
        },
        {
          "hex": "#b22222"
        }
      ],
      "marekm4": [
        {
          "hex": "#eae4d4"
        },
        {
          "hex": "#262726"
        },
        {
          "hex": "#ca262a"
        },
        {
          "hex": "#e7e1cf"
        },
        {
          "hex": "#2d2d2b"
        }
      ]
    },
    "millsfield:images_texts": [
      "•AIR PASSENGERS AIR MAIL AIR EXPRESS*\nNESTERN AIR EXPRESS\nFASTEST COAST TO COAST PASSENGER SERVICE\nFOR RESERVATIONS APPLY\nREED \u0026 MILLER, S. S. AGGY.\n404 E.. Colorado St., Pasadena, Calif.\none TErrace 0550\nAIR RATES\nand\nSCHEDULES\nNEW YORK\nCLEVELAND\nCHICAGO\nPHILADELPHIA\nDETROIT\nWASHINGTON\nPITTSBURGH\nOMAHA\nSAN DIEGO\nLOS ANGELES\nLAS VEGAS\nSALT LAKE CITY\nDENVER\nCHEYENNE\nCOLORADO SPRINGS\nPUEBLO\nALBUQUERQUE\nTRINIDAD\nSANTA FE\nEL PASO\nAMARILLO\nFastest Condections to\n54 Other Principal Cities\nSEATT\nSANCISCO\nLOS\nANGELES\nSAN DIEGO\nRENO\n•SPOKANE\nPASCO\n•GREAT FALLS\n• HELENA\n• BUTTE\nMINNGADOLIS\n•BOISE\n• POCATELLO\nHOGDAN\nCHEYENNE\nSIOUX CITY\nDES\nMOINE!\nOMAHA\nDENVER\nCOLORADO\nSPRINGS C\nTRINIDAD\nLAS VEGAS\nSANTA FE\nAMARILLO\nÁLBUQUERQUE\nEL PASO\nFIRAD PUT NONS\n→ DALLAS\n• LANI\nNEW\nYORK\nPITTSBURGN\n(UNDALI.",
      "America's First Air Passenger System\nPACIFIC COAST DIVISION\nTIME TABLES\nEffective September 15, 1932\nTable 1\n27 HRS.-COAST TO COAST LIMITED\nOVER AMERICA'S ORIGINAL TRANSCONTINENTAL AIR ROUTE\nEastbound\nRead Down\nWestbound\nRead Up\nTrip\nNo.\n2\n+7:30 AM\n8:35 AM\n9:55 AM\n12:20 PM\n4:40 PM\n5:45 PM\n9:50 PM\n3:55 AM\n8:00 AM\n8:30 AM\n12:10 PM\n3:54 PM\nLv.\nAr.\nLv\nLv.\nAr.\nLv.\nLv\nLv.\nAr.\nAr.\nAr.\nMail\nMail\nPlane\nPlane\n7:00 PM\nSAN DIEGO\n7:30 AM\n8:10 PM\nLOS ANGELES\n6:20 AM\n8:25 PM\nLOS ANGELES\n6:05 AM\n10:40 PM\nLAS VEGAS\n3:30 AM\n3:30\nAM\nSALT LAKE\n12:15 AM\n4:30\nAM\nSALT LAKE\n11:25 PM\n8:30\nAM\n2:25\nPM\nCHEYENNE...•\n6:31 PM\nOMAHA\n1:31 PM\n7:15\nPM\nCHICAGO\n8:45 AM\n12:00\nM\n*CHICAGO*\n7:00 AM\n3:42\nAM\nCLEVELAND\n4:25 AM\n7:32 AM\nNEW YORK\n12:00 M\n+Via United Air Lines and East of S. L.\n*Later planes available East and West.\nTrip\nNo.\nAr.\nLv.\nAr.\nLv.\nLv.\nAr.\nAr.\nAr.\nLv.\nAr.\nLv.\nLv.\n12:30 PM\n10:20 AM\n7:45 AM\n6:45 AM\n1:21 AM\n8:46 PM\n4:30 PM\n3:47 PM\n1:20 PM\n9:00 AM\nTable 2\n9:00 AM\n12:30 PM\n2½ HRS.-CHICAGO—DETROIT CONNECTIONS\nLv.\nAr.\n12:30 PM\nCHICAGO\n10:50 PM\n4:00 PM\nDETROIT\n9:00 PM\nAr.\nLv.\nVia Transamerican Airlines Corp.\n3:00 PM\n1:30 PM\nTable 3\n3¼ HRS.-CLEVELAND—PITTSBURGH-WASHINGTON CONNECTIONS\n1:45 PM\n3:05 PM\n5:00 PM\nLv.\nLv.\nAr.\n8:00 AM\n9:30 AM\n11:15 AM\nCLEVELAND...\nPITTSBURGH\nWASHINGTON\n9:00 PM\n7:20 PM\n5:20 PM\nAr\nLv.\nLv.\n1:05 PM\n11:25 AM\n9:20 AM\nVia Pennsylvania Airlines\nTable 4\n10 HRS.-CONNECTIONS AT SALT LAKE CITY TO\nBOISE-PASCO\n-SPOKANE-PORTLAND-TACOMA-SEATTLE\n12:15 AM\nLv.\n7:30 AM\nSALT LAKE\n5:10 PM\n3:35 AM\nLv.\n11:05 AM\nBOISE\n2:10 PM\n5:10 AM\nLv.\n12:45\nPM\nPASCO\n10:30 AM\n7.15 AM\n8:30 AM\nLv\n2:50\nPM\nPORTLAND\n8:20 AM\nLv.\n4:05 PM\nTACOMA\n1.30 AM\n8:45 AM\nAr\n4•30 PM\nSEATTLE\n11:45 PM\n12:15 AM\n7:30 AM\nSALT LAKE\n5:10 PM\n5:15 AM\n6:35 AM\nLv.\nAr\n12:35 PM\nPASCO\n10:20 AM\n1:55 PM\nSPOKANE\n9:00 AM\nAr.\nLv.\nLv.\nLv.\nLv.\nLv\nAr.\nLv\nLv\nVia United Air Lines\n6:20 AM\n2:20 AM\n11•40 PM\n9:45 PM\n8:20 PM\n8:00 PM\n5:55 AM\n10:50 PM\n9:30 PM\nTable 5\n9:30 AM\n11:00 AM\n1:30 PM\n2.00 PM\n2:50\nPM\n5½ HRS.-\nCONNECTIONS AT SALT LAKE CITY FOR\nPOCATELLO-\nBUTTE-HELENA-GREAT FALLS\nLv.\n4:30 AM\nSALT LAKE\n8:30 PM\nAr.\n6:00\nAM\nAr\n8:30\nAM\nPOCATELLO.\n7:00 PM\n4•40 PM\nAr.\n9:00\nAr.\nAM\nBUTTE\nHELENA\n4:05 PM\n9:50\nAM\nGREAT FALLS\n3.10 PM\nAr.\nLv.\nLv.\nLv.\nLv.\nVia National Parks Airways\n2:00 PM\n12:15 PM\n9:45 AM\n9:15 AM\n9:25\nAM\nStandard Time Quoted at All Points.\nAmerica's First Air Passenger System\nROCKY MOUNTAIN DIVISION\nTIME TABLES\nEffective September 15, 1932\nTable 6\n7½ HRS.-CHEYENNE-DENVER COLORADO SPRINGS-PUEBLO\nALBUQUERQUE-EL PASO-LOS ANGELES\nSouthbound\nNorthbound\nRead Down\nRead Up\n11:30 AM\nLv.\n2:00 AM\nCHEYENNE\n9:00 PM\nAr\n6:25 PM\n12:30 PM\nAr.\n3:00 AM\nDENVER\nLv.\nLv.\n6:00 AM\nDENVER\n8:00 PM\nAr\n5:25 PM\n6:25 PM\nAr.\n6:35\nAM\nCOLORADO SPGS\n5:45 PM\nAr.\n5:20 PM\nLv\nLv.\n7:05\nAM\nPUEBLO\nLv\n7:15\nLv.\n8:07\nAM\nPUEBLO\n4:58 PM\nAr.\nAM\nTRINIDAD\n4:10 PM\nLv\nLv.\n9:43 AM\nSANTA FE\n2:35 PM\nLv\nAr.\n10:08 AM\nALBUQUERQUE\n2:10 PM\nLv.\nLv.\n10:23 AM\nALBUOUERQUE\n1:55 PM\nAr.\nAr.\n12:36 PM\nEL PASO\n11:30 AM\nLv\n3:44 PM\n*ALBUQUERQUE.\n10:07 AM\nAr\nAr.\n9:53 PM\nLOS ANGELES\n3:00 AM\nLv.\n* Via Transcontinental \u0026 Western Air, Inc.\nTable 7\n7½ HRS.-PUEBLO—AMARILLO—FT. WORTH-DALLAS\nLv.\nAr.\nLv.\nLv.\nLv.\nAr.\n7:45 AM\nPUEBLO\n4•31 PM\n11:18 AM\nAMARILLO\n2:58 PM\n11:30 AM\nAMARILLO\n1:54 PM\n1:33 PM\nWICHITA\nFALLS\n11:56 AM\n2:40 PM\nFORT WORTH\n10:51 AM\n3:00 PM\nDALLAS\n10:26 AM\nAr\nLv\nAr.\nLv.\nLv.\nLv.\nVia American Airways between Amarillo \u0026 Dallas\nTable 8\n11 HRS.\nDENVER TO CHICAGO 17 HRS.—DENVER TO NEW YORK\nLv.\nAr.\nLv.\nLv.\nAr.\nAr.\nAr.\nAr.\nAr.\nAr.\nAr.\n8:00 PM\nDENVER\n9:00 PM\nCHE YENNE\n9:50 PM\nCHEYENNE\n3:55 AM\nOMAHA\n8:00 AM\nCHICAGO:\n12:30 PM\nDETROIT\n3:05 PM\nPITTSBURGH\n5:00 PM\nWASHINGTON\n7:58 PM\nPHILADELPHIA\n12:10 PM\nCLEVELAND.\n3:54 PM\nNEW YORK\n3:00 AM\n2:00 AM\n1:21 AM\n8:46 PM\n4:30 PM\n1:30 PM\n11:25 AM\n9:20 AM\n10:20 AM\n1:20 PM\n9:00 AM\nAr.\nLv.\nAr.\nAr\nLv\nLv.\nLV\nLv\nLv.\nLv.\nLv\nTable 9\n12 HRS.-DENVER-SALT LAKE-LOS ANGELES\nSAN FRANCISCO AND NORTHWESTERN CITIES\nCHEYENNE\nFOR BOISE-PASCO-PORTLAND-TACOMA-SEATTLE-SPOKANE-\nFALLS-See Table No. 5.\n12:15 AM\n3:30 AM\n6:05 AM\n7:30 AM\n11:55 PM\n3:59 AM\n5:19 AM\n6:30 AM\nPOCATELLO-BUTTE-HELENA-GREAT\nLv.\nLv.\nAr.\nAr\nLv.\nLv\nLv.\nAr.\nSALT LAKE ....\n10:20 AM\n12:30 PM\nLAS VEGAS\n12:20 PM\nLOS ANGELES\nSAN\n9:55 AM\nDIEGO\n7:30 AM\n7:15 AM\nSALT LAKE\n7:00 AM\n11:19 AM\nRENO\n12:39 PM\nSACRAMENTO\n1:45 AM\n12•20 AM\n1•45 PM\nSAN FRANCISCO\n11:45 PM\nLv.\nLv.\nLv\nAr.\nLv.\nLv.\nLv\nVia U. A. L. from Cheyenne to Salt Lake.\nVia U. A. L. from Salt Lake to San Francisco.\n12:30 PM\n11:30 AM\n8:00 AM\n4:30 AM\n3:30 AM\n10:40 PM\n8-25 PM\n7:00 PM\n5:15 PM\n12:00 N\n10:35 AM\n10:00 AM\nStandard Time Quoted at All Points."
    ],
    "millsfield:images_texts_ids": [
      1763196301,
      1763196303
    ],
    "millsfield:primary_image": 1763196301,
    "millsfield:subcategory_id": 1511213425,
    "mz:is_current": 1,
    "sfomuseum:accession_number": "2014.082.030",
    "sfomuseum:airline": "Western Air Express",
    "sfomuseum:airline_id": [
      929
    ],
    "sfomuseum:category": "Scheduling / Ticketing",
    "sfomuseum:classification_id": 158,
    "sfomuseum:collection": "Aviation Archive",
    "sfomuseum:creditline": "Gift of Thomas G. Dragges",
    "sfomuseum:date": "1932",
    "sfomuseum:date_acquired": "2015-01-06",
    "sfomuseum:daterange_end": "1932-12-31",
    "sfomuseum:daterange_start": "1932-01-01",
    "sfomuseum:description": "Timetable issued by Western Air Express, effective September 15, 1932; multipage booklet; red, white, and black cover with list of destinations, route map, and planform illustrations of three aircraft.",
    "sfomuseum:dimensions": "9 x 4 inches (22.9 x 10.2 cm)",
    "sfomuseum:medium": "paper, ink, metal",
    "sfomuseum:object_id": 156414,
    "sfomuseum:placetype": "object",
    "sfomuseum:publication": ": , 1932.",
    "sfomuseum:subcategory": "Timetable",
    "src:geom": "sfomuseum#undetermined",
    "wof:belongsto": [
      102527513,
      1159162825,
      102191575,
      85633793,
      102087579,
      85922583,
      85688637,
      1159160869
    ],
    "wof:country": "XY",
    "wof:created": 1646383439,
    "wof:depicts": [
      1159285517,
      1159288117
    ],
    "wof:geomhash": "c281b9d9eefc83b5710e64b9d646067d",
    "wof:hierarchy": [
      {
        "building_id": -1,
        "campus_id": 102527513,
        "collection_id": 1159162825,
        "concourse_id": 1159162825,
        "continent_id": 102191575,
        "country_id": 85633793,
        "county_id": 102087579,
        "custom_id": 1763195699,
        "locality_id": 85922583,
        "neighbourhood_id": -1,
        "object_id": 1763195699,
        "region_id": 85688637,
        "wing_id": 1159160869
      }
    ],
    "wof:id": 1763195699,
    "wof:lastmodified": 1787988205,
    "wof:name": "timetable: Western Air Express",
    "wof:parent_id": 1159162825,
    "wof:placetype": "custom",
    "wof:placetype_alt": [
      "object"
    ],
    "wof:repo": "sfomuseum-data-collection",
    "wof:superseded_by": [],
    "wof:supersedes": []
  },
  "bbox": [
    -122.38647222518921,
    37.6161053594541,
    -122.38583385944366,
    37.61661101879963
  ],
  "geometry": {"type":"Polygon","coordinates":[[[-122.38647222518921,37.61631782178288],[-122.386434674263,37.61623283692423],[-122.38637566566466,37.61617759671399],[-122.38630056381224,37.6161308549656],[-122.38616108894348,37.6161053594541],[-122.38602161407469,37.6161308549656],[-122.38591432571411,37.61618609521055],[-122.38585531711577,37.61626683087935],[-122.38583385944366,37.61636881265146],[-122.38587141036987,37.61646654505181],[-122.38594114780425,37.61654303118856],[-122.38605380058287,37.61660252035167],[-122.38618254661559,37.61661101879963],[-122.3863059282303,37.61657277577607],[-122.3864185810089,37.61650903735973],[-122.3864668607712,37.61641130501523],[-122.38647222518921,37.61631782178288]]]}
}
