{
  "id": 2015275705,
  "type": "Feature",
  "properties": {
    "date:cessation_lower": "2010-01-01",
    "date:cessation_upper": "2019-12-31",
    "date:inception_lower": "2010-01-01",
    "date:inception_upper": "2019-12-31",
    "edtf:cessation": "201X",
    "edtf:inception": "201X",
    "geom:area": 2.475047457570636e-7,
    "geom:bbox": "-122.386472,37.616105,-122.385834,37.616611",
    "geom:latitude": 37.61635747477365,
    "geom:longitude": -122.38615540108617,
    "millsfield:airline_id": [
      1159284583
    ],
    "millsfield:category_id": 1762679663,
    "millsfield:collection_id": 1511214203,
    "millsfield:company_id": [
      1159287011
    ],
    "millsfield:images": [
      2015275803
    ],
    "millsfield:images_texts": [
      "FLOW\nmill\nThis regimen is designed to keep\nyou in your flow from takeoff to\nFLOW post-flight.\n# wandertuel.com\n@@bewanderfuel\nPROIECE\nChew Goop Perfect\nAttendance to your\nTENERGIZI\nPour a Carelof Extra\nenergy and focus.*\nPour a Carefof Gut Check\nairecty in mouth - no wate\nneeded, for on-the-go\ndigestive support\nMix Electrolytes with 8 oz.\nof water to stay hydrated\nouning your might\nREJUVENATE\nReplenish dry skin with\nUrse Major's Golden\nHour Recovery Cream!\nSwipe on a dot of Bite\nBeauty Agave Lip Mask\nwhenever lips feel dry.\nREFRESH\nRemove odor and\nsweat instantly with a\nBusy Beauty Active\nDeodorant wipe.\nIBITE\nAGAVET\ng/01707\nGAVE-\naNness\nPerfect\nAttendance\nIMMUNE-SUPPORT\nSOFT CHEWS+\nWITH ELDERBER\nEXTRACT AND ER\nDIETARY SUPPLEMENT\nCUCE\n\"ACKBERRY\nAVORED\ncare/of\nFly healthy\nTake care of your hydration with electrolytes*\nTake care of your digestion with probiotics*\nTake care of your energy with caffeine*\n2 Quick Sticks, 1 packet I Dietary supplement\nectrolvtes: 1 - 0.18 oz. (5g) Packet, Extra Batteries: 1 - 0.07 oz. (2g) Stick\n*These statements have not been evaluated by the Food and Drug Administratior\nnashi sproduct is not intended to diagnose, treat, cure or preventary disease.\nbusyc\nget the\nfunk\noutta here\ndeodorant wipe\ncleanse and deodorize\n1 Wipe 5.2g (0.18oz)"
    ],
    "millsfield:images_texts_ids": [
      2015275803
    ],
    "millsfield:primary_image": 2015275803,
    "millsfield:subcategory_id": 1511213187,
    "mz:is_approximate": 1,
    "mz:is_current": 1,
    "sfomuseum:accession_number": "2021.084.038 a i",
    "sfomuseum:airline": "JetBlue Airways",
    "sfomuseum:airline_id": [
      501
    ],
    "sfomuseum:category": "Passenger Amenity, Museum",
    "sfomuseum:classification_id": 23,
    "sfomuseum:collection": "Aviation Museum",
    "sfomuseum:creditline": "Gift of Lee Packer",
    "sfomuseum:date": "2010s",
    "sfomuseum:date_acquired": "2021-09-27",
    "sfomuseum:daterange_end": "2019-12-31",
    "sfomuseum:daterange_start": "2010-01-01",
    "sfomuseum:description": "Amenity kit issued by JetBlue Airways for Mint class; \ra. amenity kit case;\rb. sleep socks;\rc. supplement packet;\rd. hydration supplement;\re. soft chew dietary supplement;\rf. lip balm;\rg. skin cream;\rh. deodorant wipe;\ri. product card.",
    "sfomuseum:dimensions": "10 3/4 x 8 1/4 x 3/4 inches (27.3 x 21 x 1.9 cm)",
    "sfomuseum:medium": "paper, polyester, plastic, cosmetic products, ink",
    "sfomuseum:object_id": 226801,
    "sfomuseum:placetype": "object",
    "sfomuseum:publication": ": , 2010s.",
    "sfomuseum:subcategory": "Amenity Kit",
    "src:geom": "sfomuseum#undetermined",
    "wof:belongsto": [
      102527513,
      1159162825,
      102191575,
      85633793,
      102087579,
      85922583,
      85688637,
      1159160869
    ],
    "wof:country": "XY",
    "wof:created": 1776152019,
    "wof:depicts": [
      1159287011,
      1159284583
    ],
    "wof:geomhash": "c281b9d9eefc83b5710e64b9d646067d",
    "wof:hierarchy": [
      {
        "building_id": -1,
        "campus_id": 102527513,
        "collection_id": 1159162825,
        "concourse_id": 1159162825,
        "continent_id": 102191575,
        "country_id": 85633793,
        "county_id": 102087579,
        "custom_id": 2015275705,
        "locality_id": 85922583,
        "neighbourhood_id": -1,
        "object_id": 2015275705,
        "region_id": 85688637,
        "wing_id": 1159160869
      }
    ],
    "wof:id": 2015275705,
    "wof:lastmodified": 1776242800,
    "wof:name": "amenity kit: JetBlue Airways, Mint class",
    "wof:parent_id": 1159162825,
    "wof:placetype": "custom",
    "wof:placetype_alt": [
      "object"
    ],
    "wof:repo": "sfomuseum-data-collection",
    "wof:superseded_by": [],
    "wof:supersedes": []
  },
  "bbox": [
    -122.38647222518921,
    37.6161053594541,
    -122.38583385944366,
    37.61661101879963
  ],
  "geometry": {"type":"Polygon","coordinates":[[[-122.38647222518921,37.61631782178288],[-122.386434674263,37.61623283692423],[-122.38637566566466,37.61617759671399],[-122.38630056381224,37.6161308549656],[-122.38616108894348,37.6161053594541],[-122.38602161407469,37.6161308549656],[-122.38591432571411,37.61618609521055],[-122.38585531711577,37.61626683087935],[-122.38583385944366,37.61636881265146],[-122.38587141036987,37.61646654505181],[-122.38594114780425,37.61654303118856],[-122.38605380058287,37.61660252035167],[-122.38618254661559,37.61661101879963],[-122.3863059282303,37.61657277577607],[-122.3864185810089,37.61650903735973],[-122.3864668607712,37.61641130501523],[-122.38647222518921,37.61631782178288]]]}
}
