{
  "id": 1931109205,
  "type": "Feature",
  "properties": {
    "date:cessation_lower": "1976-01-01",
    "date:cessation_upper": "1976-12-31",
    "date:inception_lower": "1976-01-01",
    "date:inception_upper": "1976-12-31",
    "edtf:cessation": "1976",
    "edtf:inception": "1976",
    "geom:area": 2.475047457570636e-7,
    "geom:bbox": "-122.386472,37.616105,-122.385834,37.616611",
    "geom:latitude": 37.61635747477365,
    "geom:longitude": -122.38615540108617,
    "millsfield:aircraft_id": [
      1159289759
    ],
    "millsfield:airline_id": [
      1159285413
    ],
    "millsfield:category_id": 1762671311,
    "millsfield:collection_id": 1511214207,
    "millsfield:company_id": [
      1159293593
    ],
    "millsfield:images": [
      1931109531,
      1931122635
    ],
    "millsfield:images_colors_refs": {
      "crayola": [
        {
          "hex": "#9aceeb"
        },
        {
          "hex": "#757575"
        },
        {
          "hex": "#a2add0"
        },
        {
          "hex": "#8fd400"
        },
        {
          "hex": "#414a4c"
        },
        {
          "hex": "#6699cc"
        }
      ],
      "css4": [
        {
          "hex": "#5f9ea0"
        },
        {
          "hex": "#708090"
        },
        {
          "hex": "#87ceeb"
        },
        {
          "hex": "#6b8e23"
        },
        {
          "hex": "#2f4f4f"
        }
      ],
      "marekm4": [
        {
          "hex": "#8bc0d2"
        },
        {
          "hex": "#5a7787"
        },
        {
          "hex": "#577a8d"
        },
        {
          "hex": "#1e2730"
        },
        {
          "hex": "#6f98a8"
        },
        {
          "hex": "#8ac1d4"
        },
        {
          "hex": "#70a2b5"
        },
        {
          "hex": "#55a90c"
        },
        {
          "hex": "#67ae0d"
        },
        {
          "hex": "#2d383f"
        }
      ]
    },
    "millsfield:images_texts": [
      "FOR YOUR SAFETY. Know how to move\nSTRETCH B-727\nout of this airplane fast. There is fire-danger\nany time a landing is other than normal—partic-\nularly when the airplane structure is damaged.\nBelow is a floor plan of the plane you are in. Familiarize yourself with the location of\nthe exits. Note particularly the exits nearest you. Study how they are opened and also\nthe protective position you should assume during an emergency landing. When leav-\ning, do not take coats, purses or baggage with you. Move to the exits immediately.\nA WORD ABOUT YOUR SEAT BELT-Rough air (turbulence) at high altitudes,\nalthough infrequent, can be severe. When seat belt sign is lighted in-flight, please\ncomply with the sign to prevent possible injury. Experienced air travelers usually\nleave their seat belts fastened all the time and pull them up snug when the seat belt\nsign is lighted.\nCA 331\nHOW TO OPEN EXITS\nPRINTED IN U.S. A.\nUNITED\n6-76\nDOOR EXITS AND ESCAPE SLIDES\n1. Lift handle up and over.\n2. Push door out.\nEXIT\nDOOR\nCOCKPIT\nESCAPE EXITS WITH SLIDES\n1. Pull handle in and fully up-\n2. Push exit out.\n®\nEXIT\nWITH\nSLIDE\nEXIT\nDOOR\nWITH\nSLIDE\n3. Pull RED handle to\ninflate slide.\n3. When exit falls out-slide\nis automatically inflated.\n1.\nPull handle in.\n2. Rotate it to full up position.\n3. Push door out.\nESCAPE\nEXIT\nB\nWITH\nSLIDE\nESCAPE\nEXIT\nB\nWITH\nSLIDE\nESCAPE\nWINDOWS\nOVER\nWING\n4. When door is swung open\nslide is automatically inflated\nAFTER SLIDE INFLATES - JUMP\nAND SLIDE IN SITTING POSITION\nESCAPE\nEXIT\nWITH\nSLIDE\nESCAPE\nEXIT\nWITH\nSLIDE\nESCAPE WINDOWS OVER WINGS\n1. Pull window handle in and down.\n3. Exit through window-leg, body, leg.\n2. Discard window.\n4. At rear of wing, slide down flaps.\nO T\nREAR\nEXIT\nDOOR\nWITH\nSTAIR\n(may not\nbe useable)\nSEE OTHER SIDE",
      "HOW TO USE THE OXYGEN MASK\nJet aircraft fly at high altitude and the cabin is\npressurized for your comfort. If cabin pressure\never was lost, you would be breathing high alti-\ntude \"thin\" air ... so it is imperative that cigars\nand cigarettes be extinguished immediately and\noxygen masks be put on as shown below.\nREAR EXIT DOOR WITH STAIR\nALTHOUGH THIS EXIT MAY NOT BE\nUSABLE BECAUSE OF STRUCTURAL\nDAMAGE OR AIRPLANE POSITION,\nYOU SHOULD KNOW HOW TO OPEN\nTHE DOOR AND LOWER THE STAIRS.\n1. WHERE TO LOCATE MASKS. Oxygen masks\nare in a compartment above each row of passenger\nseats. If oxygen is ever required, compartment door\nopens automatically. Remain seated. Grasp nearest\nmask and pull it to your face. A cord turns oxygen on\nas you pull mask to you.\n1. Push handle to left\nall the way.\n2. Pull door in all\nthe way.\nJUST OUTSIDE OF DOOR, TO LEFT,\nNEAR TOP OF HANDRAIL,\nIS THE STAIR RELEASE CONTROL\n2. HOW TO USE MASKS.\nPromptly place the\nmask over nose and mouth. The oxygen supply tube\nis long enough to permit you to relax comfortably\nin your seat.\nFor childrens' use, a spare mask is available at\neach row.\n1.\nOpen door.\n2.\nPush handle outward.\nIF STAIR DOES NOT FALL TO GROUND-\nIMMEDIATELY GO TO ANOTHER EXIT\n3. HOW TO ADJUST MASKS FOR COM-\nFORT. Once mask is in position, it may be easily\nadjusted for comfortable fit. If too tight, hold mask\nin position and pull gently on elastic head band\nwith free hand. If too loose, pull tabs located where\nhead band connects to mask. Do not overtighten,\nas this may misshape mask and cause discomfort.\nPROTECTIVE POSITION\nSit well back in seat.\nPull seat belt tight.\nAssume position in illustration.\nKeep position until plane stops.\nLower back cushion is floatable.\nGrasp it at top.\nPull it forward HARD to detach it.\nFEDERAL AVIATION REGULATIONS REQUIRE:\nDURING TAKE OFF AND LANDING YOUR SEAT BACK AND TRAY TABLE MUST BE\nIN THE UPRIGHT POSITION AND YOUR CARRY-ON LUGGAGE PLACED UNDER A SEAT.\n2007.01/"
    ],
    "millsfield:images_texts_ids": [
      1931109531,
      1931122635
    ],
    "millsfield:primary_image": 1931109531,
    "millsfield:subcategory_id": 1511213703,
    "mz:is_approximate": 1,
    "mz:is_current": 1,
    "sfomuseum:accession_number": "2007.011.085",
    "sfomuseum:aircraft": "Boeing 727",
    "sfomuseum:aircraft_id": [
      180
    ],
    "sfomuseum:airline": "United Airlines",
    "sfomuseum:airline_id": [
      883
    ],
    "sfomuseum:category": "Passenger Amenity, Archive",
    "sfomuseum:classification_id": 581,
    "sfomuseum:collection": "Aviation Archive",
    "sfomuseum:creditline": "Gift of the William Hough Collection",
    "sfomuseum:date": "1976",
    "sfomuseum:date_acquired": "2006-11-10",
    "sfomuseum:daterange_end": "1976-12-31",
    "sfomuseum:daterange_start": "1976-01-01",
    "sfomuseum:description": "Safety information card issued by United Airlines for its Stretch Boeing 727 fleet; blue double-sided card with illustrations demonstrating inflight safety and emergency procedures; identification code: CA 331; revision date: 6/76.",
    "sfomuseum:dimensions": "10 x 6 inches (25.4 x 15.2 cm)",
    "sfomuseum:medium": "plastic, ink",
    "sfomuseum:object_id": 82536,
    "sfomuseum:placetype": "object",
    "sfomuseum:publication": ": , 1976.",
    "sfomuseum:subcategory": "Safety Information Card",
    "src:geom": "sfomuseum#undetermined",
    "wof:belongsto": [
      102527513,
      1159162825,
      102191575,
      85633793,
      102087579,
      85922583,
      85688637,
      1159160869
    ],
    "wof:country": "XY",
    "wof:created": 1727196634,
    "wof:depicts": [
      1159285413,
      1159289759,
      1159293593
    ],
    "wof:geomhash": "c281b9d9eefc83b5710e64b9d646067d",
    "wof:hierarchy": [
      {
        "building_id": -1,
        "campus_id": 102527513,
        "collection_id": 1159162825,
        "concourse_id": 1159162825,
        "continent_id": 102191575,
        "country_id": 85633793,
        "county_id": 102087579,
        "custom_id": 1931109205,
        "locality_id": 85922583,
        "neighbourhood_id": -1,
        "object_id": 1931109205,
        "region_id": 85688637,
        "wing_id": 1159160869
      }
    ],
    "wof:id": 1931109205,
    "wof:lastmodified": 1787988222,
    "wof:name": "safety information card: United Airlines, Stretch Boeing 727",
    "wof:parent_id": 1159162825,
    "wof:placetype": "custom",
    "wof:placetype_alt": [
      "object"
    ],
    "wof:repo": "sfomuseum-data-collection",
    "wof:superseded_by": [],
    "wof:supersedes": []
  },
  "bbox": [
    -122.38647222518921,
    37.6161053594541,
    -122.38583385944366,
    37.61661101879963
  ],
  "geometry": {"type":"Polygon","coordinates":[[[-122.38647222518921,37.61631782178288],[-122.386434674263,37.61623283692423],[-122.38637566566466,37.61617759671399],[-122.38630056381224,37.6161308549656],[-122.38616108894348,37.6161053594541],[-122.38602161407469,37.6161308549656],[-122.38591432571411,37.61618609521055],[-122.38585531711577,37.61626683087935],[-122.38583385944366,37.61636881265146],[-122.38587141036987,37.61646654505181],[-122.38594114780425,37.61654303118856],[-122.38605380058287,37.61660252035167],[-122.38618254661559,37.61661101879963],[-122.3863059282303,37.61657277577607],[-122.3864185810089,37.61650903735973],[-122.3864668607712,37.61641130501523],[-122.38647222518921,37.61631782178288]]]}
}
