{
  "id": 1511924663,
  "type": "Feature",
  "properties": {
    "date:cessation_lower": "1978-01-01",
    "date:cessation_upper": "1978-12-31",
    "date:inception_lower": "1978-01-01",
    "date:inception_upper": "1978-12-31",
    "edtf:cessation": "1978",
    "edtf:date": "1978",
    "edtf:inception": "1978",
    "geom:area": 0,
    "geom:bbox": "-122.386155,37.616357,-122.386155,37.616357",
    "geom:latitude": 37.616357,
    "geom:longitude": -122.386155,
    "iso:country": "XX",
    "millsfield:airline_id": [
      1159284989
    ],
    "millsfield:category_id": 1763416373,
    "millsfield:collection_id": 1511214203,
    "millsfield:company_id": [
      1159286839
    ],
    "millsfield:images": [
      1527856121,
      1527856123
    ],
    "millsfield:images_colors_refs": {
      "crayola": [
        {
          "hex": "#000000"
        },
        {
          "hex": "#1164b4"
        },
        {
          "hex": "#efdecd"
        }
      ],
      "css4": [
        {
          "hex": "#000000"
        },
        {
          "hex": "#dcdcdc"
        },
        {
          "hex": "#4169e1"
        },
        {
          "hex": "#f5deb3"
        }
      ],
      "marekm4": [
        {
          "hex": "#e7e4d7"
        },
        {
          "hex": "#0a50b8"
        },
        {
          "hex": "#100f0a"
        },
        {
          "hex": "#e4dcc2"
        },
        {
          "hex": "#0051cb"
        }
      ]
    },
    "millsfield:images_texts": [
      "PAN AM\n1978. ARTH-O-GRAF SLIDE CHARTS. RESEDA. CALIF. 91335\nPRINTED in U.S.A.",
      "MOSCOW\nBASRA\nJOHANNESBURG\nISTANBUL\nBEIRUT\nCAIRO\nSOFIA\nATHENS\nHELSINKI\nJERUSALEM\nDAMASCUS\nROME\nAMSTERDAM\nBRUSSELS\nCOPENHAGEN\nMADRID\nMUNICH\nFRANKFURT\nWARSAW\nOSLO\nPARIS\nBERLIN\nGREENWICH\nLONDON\nDUBLIN\nSHANNON\nLISBON\nGLASGOW\nDAKAR\nKEFLAVIK\nREYKJAVIK\nAZORES\nTIME SELECTOR\nTimes Indicated are Local Meridian (STANDARD)\nRANGOON\nDJAKARTA\nKARACHI\nSINGAPORE\nBOMBAY\nDELHI\nBANGKOK\nHONG KONG\nBAHRAIN\nDHAHRAN\nSAIGON\nMANILA\nPEKING\nSHANGHAI\n1\n10 PM\n/ PM\n9 PM\n6 PM\n7 PM\n6 PM\n-\n-\n5 PM\nА РМ\n3 AM\n2100\n2200\n2300\n2000\n1900\n1800\n1700\n1600\n1500\n1400\n1300\nPM\nPM\n/\nBUENOS AIRES\nRIO DE JANEIRO\nRECIFE\nMONTEVIDEO\nBERMUDA\nCARACAS\nSAN JUAN\nBOSTON\nSANTIAGO\nLIMA\nMIAMI\nNEW YORK\nPANAMA\nWASHINGTON\nSet City opposite time\nAM\nAn\n3\n0100\n0200\n0300\n0400\n0500\n0600\n0700\n800\n0900\n1000\nA AN\n5\nAM\n6\nAM\n7\nAM\nAM\n9\nAM\n10 AM\n/\n• NOON ZI\nSEOUL\nTOKYO\nOSAKA\nSYDNEY\nMELBOURNE\nGUAM\n---\n=-2™\n--\n04-ш\n-\nANCHORAGE\nHONOLULU\nTAHITI\nDENVER\nLAS VEGAS\nPHOENIX\nSALT LAKE CITY\nTUCSON\nCHICAGO\nGUATEMALA\nHOUSTON\nMEXICO D. F.\nNEW ORLEANS\n® Read time opposite any other city\nLOS ANGELES\nPORTLAND\nSAN DIEGO\nSAN FRANCISCO\nSEATTLE\nVANCOUVER\n= -NOUMEA\nTIME SELECTOR\nWestbound\nAUCKLAND\n- SUVA\nWAKE\nEastbound\nsubtract 1 day\nSAMOA\nNOME"
    ],
    "millsfield:images_texts_ids": [
      1527856121,
      1527856123
    ],
    "millsfield:primary_image": 1527856123,
    "millsfield:subcategory_id": 1511213647,
    "mz:hierarchy_label": 1,
    "mz:is_current": 1,
    "sfomuseum:accession_number": "2000.058.1498",
    "sfomuseum:airline": "Pan American World Airways",
    "sfomuseum:airline_id": [
      684
    ],
    "sfomuseum:category": "Promotional, Museum",
    "sfomuseum:classification_id": 290,
    "sfomuseum:collection": "Aviation Museum",
    "sfomuseum:creditline": "Gift of the Pan Am Association",
    "sfomuseum:date": "1978",
    "sfomuseum:date_acquired": "2000-12-14",
    "sfomuseum:daterange_end": "1978-12-31",
    "sfomuseum:daterange_start": "1978-01-01",
    "sfomuseum:description": "Time converter issued by Pan American World Airways; circular shape; wheel in center with 24-hour clock surrounded by names of destination cities; large blue airline globe logo on back.",
    "sfomuseum:dimensions": "4 x 4 inches (10.2 x 10.2 cm)",
    "sfomuseum:media_ids": [
      1527856121,
      1527856123
    ],
    "sfomuseum:medium": "cardboard, ink, metal",
    "sfomuseum:object_id": 71512,
    "sfomuseum:placetype": "object",
    "sfomuseum:primary_media_id": 1527856123,
    "sfomuseum:publication": ": , 1978.",
    "sfomuseum:subcategory": "Calculator / Converter, Rotary",
    "src:geom": "sfomuseum#undetermined",
    "wof:belongsto": [
      1511214205,
      102527513,
      102191575,
      85633793,
      1511213647,
      85922583,
      102087579,
      1511214277,
      1511214207,
      85688637
    ],
    "wof:breaches": [],
    "wof:country": "XX",
    "wof:created": 1579906667,
    "wof:depicts": [
      1159286839,
      1159284989
    ],
    "wof:geomhash": "30c8a918561c84bb2daa2b97fc7c5353",
    "wof:hierarchy": [
      {
        "arcade_id": 1511213647,
        "building_id": 1511214277,
        "campus_id": 102527513,
        "concourse_id": 1511214205,
        "continent_id": 102191575,
        "country_id": 85633793,
        "county_id": 102087579,
        "custom_id": 1511924663,
        "locality_id": 85922583,
        "neighbourhood_id": -1,
        "object_id": 1511924663,
        "region_id": 85688637,
        "venue_id": 1511924663,
        "wing_id": 1511214207
      }
    ],
    "wof:id": 1511924663,
    "wof:lastmodified": 1787988178,
    "wof:name": "time converter: Pan American World Airways",
    "wof:parent_id": 1159162825,
    "wof:placetype": "custom",
    "wof:placetype_alt": [
      "object"
    ],
    "wof:repo": "sfomuseum-data-collection",
    "wof:superseded_by": [],
    "wof:supersedes": [],
    "wof:tags": []
  },
  "bbox": [
    -122.386155,
    37.616357,
    -122.386155,
    37.616357
  ],
  "geometry": {"type":"Point","coordinates":[-122.386155,37.616357]}
}
