{
  "id": 1913796537,
  "type": "Feature",
  "properties": {
    "date:cessation_lower": "1935-08-09",
    "date:cessation_upper": "1935-08-09",
    "date:inception_lower": "1935-08-09",
    "date:inception_upper": "1935-08-09",
    "edtf:cessation": "1935-08-09",
    "edtf:inception": "1935-08-09",
    "geom:area": 2.475047457570636e-7,
    "geom:bbox": "-122.386472,37.616105,-122.385834,37.616611",
    "geom:latitude": 37.61635747477365,
    "geom:longitude": -122.38615540108617,
    "millsfield:airline_id": [
      1159284991,
      1159285931
    ],
    "millsfield:category_id": 1511214251,
    "millsfield:collection_id": 1511214207,
    "millsfield:company_id": [
      1159286721
    ],
    "millsfield:images": [
      1913801837,
      1913801839
    ],
    "millsfield:images_colors_refs": {
      "crayola": [
        {
          "hex": "#cdc5c2"
        },
        {
          "hex": "#dbd7d2"
        },
        {
          "hex": "#414a4c"
        },
        {
          "hex": "#9f8170"
        }
      ],
      "css4": [
        {
          "hex": "#d3d3d3"
        },
        {
          "hex": "#2f4f4f"
        },
        {
          "hex": "#808080"
        },
        {
          "hex": "#dcdcdc"
        }
      ],
      "marekm4": [
        {
          "hex": "#505458"
        },
        {
          "hex": "#e0e0d8"
        },
        {
          "hex": "#d9d4bd"
        },
        {
          "hex": "#8d8a77"
        },
        {
          "hex": "#4f514b"
        }
      ]
    },
    "millsfield:images_texts": [
      "Flying to Feiping\nAugust 8th, 1935.\nDear Family:\nI have been pretty much on the go ever since early Spring and as a\nresult my weary readers, have had a much needed rest which the author just now\nI am going to spend a few days with\nthe family just to get back on speaking terms and say to the ehildren \"my how\nyou've grown!\"\nThere is really not much to write about other than Chinese and Philippine\npolities. You wouldn't be interested and I am not qualified to diseuss either\nbrand beyond saying that they compare very favorably with our own. In the\nPhilippines as in Missouri there are a certain number of patriots who are\nvociferously willing to dedicate their lives to the public welfare, get their\nnames on a pay roll and their feet on a desk. After the Philippine Commonwealth\nIs established the number of patriots will undoubtedly increase.\nI had six weeks in Manila during which time we accomplished a great\ndeal but did not secure favorable action on the franchise which we tried to\nsecure from the Philippine Legislature.\nHowever, there seans to be no real\nopposition and we hope that the next session which is called for September 23r\nwi11 approve our bill.\nThis is Thursday. Got back to Shanghai Monday afternoon.\nthere was plenty to do and I brought a lot of correspondence with me to read on\nthe plane and try to answer or dispose of in one way or another.\nLast night one of our best Chinese friends M.Y. Tang came by to see me\nand learning that I was in a meeting wrote me a note.\nIt seems that his niece,\neither actual or adopted, is going to attend some Catholic College in Webster\nthis Winter. Her name is Eppy Chang. She is related to Mrs. I.V. Soong and comes\nfrom one of the best families in China. Debby and I had Luneh with her almost a\nyear ago at a party which Me. MY. Zang gave for Hebe and Catherine. She is a\nvery charming girl, speaks English well and is very good looking. I have written\nLetters of introduction for her to Ruth, Lucy, Mary Scott, Mrs. Beauregard\n(Lindbergh Trophies) and to Archbishop Glennon. I hope very much that the\nmembers of the St. Louis Bixby clan will show Miss Chang a good time - maybe have\nher around for Sunday dinner or invite her to the Country Club some Saturday night.\nIf she dances as well as most Chinese girls you will fine your boy friends forming\nFlying back to Shanghai Friday August 16th. I was booked to\nreturn on Wednesday but at the request of one of our ofticials gave up my reserva-\ntion in favor of an important passenger vho had to be in Shanghai on Wednesday.\nThe Douglas transport flies up to Peiping on Tuesday, back on Wednesday and up\nagain on Saturday returning Sunday. The other trip is made via Stinson up on\nThursday and back on Friday so, of course, I struck the small Stinson both ways.\nIts funny how soon and how easily you become spoiled. The Stinson nine hour\nschedule used to seem de lux indeed as compared with 44 hours by train. Now,\nhowever, the Douglas 14 passenger liner with comfortable seats, no noise, 5 hour\nschedule and steward serving tea, coffee, beer, sandwiches etc. makes the Stinson\nhP0s",
      "- 2 -\nseem like the wheel barrow which we just flew over. I have always wanted to see\na wheel barrow with a sail and just now I spied one going along a narrow road.\nIt\nwas headed the opposite direction from our route which is another way of expressing\nthe aviators favorite complaint - 1.e., we have a head wind. However, when you are\nbueking a head wind you usually fly low and that is how it happened that I saw the\nwheel barrow with full rigged square sail, The wolfe who was acting as helmsman\nof this \"Kansas Yacht\" was stepping along at a lively rate while four people sat on\nthe barrow - two on each side of the \"keel\". The sail was about five feet high by\ntour feet wide. I have seen pictures of these contraptions but this is the first\none I have ever seen in actual use. The \"captain\" did not have to worry like the\nold Cape Cod captain who said he would not sail a brig because he was a good\nChristian and the bible directed that no good Christian \"could serve two masters.\"\nI had a fine rest at leiping. When I arrived found Irances, Bo and Ruth\nwere away on a trip to Tai Yuan lu, Capital of Shansi Province. Shansi means\n\"west of the mountaina\" while Shantung means \"east of the mountains\". In that section\nthere had been heavy rains with reports in Peiping that the rivers were overflowing\ntheir banks, many cities wiped out, bandits on the loose and the usual number of\nrumors which thrive and gain momentun in a country where transportation and\ncomunication is so uncertain. Debby was quite worried but Sunday we received a\nvery welcome if inelegant telegram \"hold your noses here te come\". And sure\nenough Sunday evening about 7:30 the girls descended on us with eighteen bundles\nof 100t gathered in Shansi, the packages ranging in size from small boxes to good\nsized Shansi chests. If we had locked the bathroom doors, I think the girls would\nhave traded all their plunder for the keys.\nAfter one day in Peiping, they started\noff early Tuesday morning for a trip to the Diamond Mountains of Korea, It will be\nanother interesting experience for them, and I'm wondering what the high light will\nbe. On the lasttrip it was gun fire. The girls were crossing a big plain in Shansi\nwhen they heard a loud whizzing noise over head, often repeated. In the distance\nthey could hear rifly fire. Tinally it dawned on them that the whizzing sound\nwas caused by bullets and they proe eded in true negro fashion to say \"feet carry\nme away\". It turned out that they were crossing a rifle range and probably stood\na much better chance of getting hit than if they had been the targets.\nWe aze all very sad over the thought of Ruth going home early in\nSeptember. She has been a real addition to our party in China and we*ll miss her.\nI imagine there will be times during hez debutant winter when some boring dimer\npar ther will catch \u0026 far away 100k in her eye and never quite know what the score is,\nbut I know too that she will carry on in St. Louis as she has here taling things\ngood, bad and indirterent, maling the most of them all.\nNearing Shanghai now so md11 wind up this letter - as ever\nNarold"
    ],
    "millsfield:images_texts_ids": [
      1913801837,
      1913801839
    ],
    "millsfield:primary_image": 1913801837,
    "millsfield:subcategory_id": 1511213489,
    "mz:is_approximate": 1,
    "mz:is_current": 1,
    "sfomuseum:accession_number": "2019.121.0854 a b",
    "sfomuseum:airline": "Pan American Airways",
    "sfomuseum:airline_id": [
      685,
      1131
    ],
    "sfomuseum:category": "Employee Career History",
    "sfomuseum:classification_id": 195,
    "sfomuseum:collection": "Aviation Archive",
    "sfomuseum:creditline": "Collection of SFO Museum",
    "sfomuseum:date": "08/09/1935",
    "sfomuseum:date_acquired": "2019-11-22",
    "sfomuseum:daterange_end": "1935-08-09",
    "sfomuseum:daterange_start": "1935-08-09",
    "sfomuseum:description": "Typewritten letter from Harold M. Bixby to his family, dated August 9, 1935; broad overview of activities in China and Philippines; includes introduction of Eppy Chang, niece of M.Y. Tang and relative of Mrs. T.V. Soong, to the St. Louis recipients; comparison of flights on the Douglas DC-2 versus the Stinson.",
    "sfomuseum:dimensions": "11 x 8 1/2 inches (27.9 x 21.6 cm)",
    "sfomuseum:medium": "paper, ink",
    "sfomuseum:object_id": 211206,
    "sfomuseum:placetype": "object",
    "sfomuseum:publication": ": , 08/09/1935.",
    "sfomuseum:subcategory": "Correspondence, Personal",
    "src:geom": "sfomuseum#undetermined",
    "wof:belongsto": [
      102527513,
      1159162825,
      102191575,
      85633793,
      102087579,
      85922583,
      85688637,
      1159160869
    ],
    "wof:country": "XY",
    "wof:created": 1714549123,
    "wof:depicts": [
      1159285931,
      1159286721,
      1159284991
    ],
    "wof:geomhash": "c281b9d9eefc83b5710e64b9d646067d",
    "wof:hierarchy": [
      {
        "building_id": -1,
        "campus_id": 102527513,
        "collection_id": 1159162825,
        "concourse_id": 1159162825,
        "continent_id": 102191575,
        "country_id": 85633793,
        "county_id": 102087579,
        "custom_id": 1913796537,
        "locality_id": 85922583,
        "neighbourhood_id": -1,
        "object_id": 1913796537,
        "region_id": 85688637,
        "wing_id": 1159160869
      }
    ],
    "wof:id": 1913796537,
    "wof:lastmodified": 1787988220,
    "wof:name": "correspondence: Harold M. Bixby, family circular letter",
    "wof:parent_id": 1159162825,
    "wof:placetype": "custom",
    "wof:placetype_alt": [
      "object"
    ],
    "wof:repo": "sfomuseum-data-collection",
    "wof:superseded_by": [],
    "wof:supersedes": []
  },
  "bbox": [
    -122.38647222518921,
    37.6161053594541,
    -122.38583385944366,
    37.61661101879963
  ],
  "geometry": {"type":"Polygon","coordinates":[[[-122.38647222518921,37.61631782178288],[-122.386434674263,37.61623283692423],[-122.38637566566466,37.61617759671399],[-122.38630056381224,37.6161308549656],[-122.38616108894348,37.6161053594541],[-122.38602161407469,37.6161308549656],[-122.38591432571411,37.61618609521055],[-122.38585531711577,37.61626683087935],[-122.38583385944366,37.61636881265146],[-122.38587141036987,37.61646654505181],[-122.38594114780425,37.61654303118856],[-122.38605380058287,37.61660252035167],[-122.38618254661559,37.61661101879963],[-122.3863059282303,37.61657277577607],[-122.3864185810089,37.61650903735973],[-122.3864668607712,37.61641130501523],[-122.38647222518921,37.61631782178288]]]}
}
