{
  "id": 1913796383,
  "type": "Feature",
  "properties": {
    "date:cessation_lower": "1933-01-28",
    "date:cessation_upper": "1933-01-28",
    "date:inception_lower": "1933-01-28",
    "date:inception_upper": "1933-01-28",
    "edtf:cessation": "1933-01-28",
    "edtf:inception": "1933-01-28",
    "geom:area": 2.475047457570636e-7,
    "geom:bbox": "-122.386472,37.616105,-122.385834,37.616611",
    "geom:latitude": 37.61635747477365,
    "geom:longitude": -122.38615540108617,
    "millsfield:airline_id": [
      1159284991,
      1159285931
    ],
    "millsfield:category_id": 1511214251,
    "millsfield:collection_id": 1511214207,
    "millsfield:company_id": [
      1159286721
    ],
    "millsfield:images": [
      1913800043,
      1913800045,
      1913800047
    ],
    "millsfield:images_colors_refs": {
      "crayola": [
        {
          "hex": "#414a4c"
        },
        {
          "hex": "#edd19c"
        },
        {
          "hex": "#efcdb8"
        },
        {
          "hex": "#9f8170"
        }
      ],
      "css4": [
        {
          "hex": "#f5deb3"
        },
        {
          "hex": "#2f4f4f"
        },
        {
          "hex": "#bdb76b"
        }
      ],
      "marekm4": [
        {
          "hex": "#a89970"
        },
        {
          "hex": "#444135"
        },
        {
          "hex": "#e3d1aa"
        },
        {
          "hex": "#e0d1ac"
        },
        {
          "hex": "#e0d0aa"
        },
        {
          "hex": "#454135"
        },
        {
          "hex": "#3c3526"
        }
      ]
    },
    "millsfield:images_texts": [
      "CANADIAN\nPACIFIC\nSTEAMSHIP\nLINES\nSYSTEM\n1/28\nR.M.S.\nDearist Dile-\nI hair just recturd\nfrom you. yours wa\nEsprciall, mees - Frances\nBo (dictatid) and unris\nfor jack- is nt that a\ndirty dig just coken Im\nleaving too!) Havey Kought.\nHy Bucklirid a euten\nenclosing their most\nBatting letter if introducti\nto important prople un\nthe Ovent - wrin from",
      "Ruth + Strov, Ed Queen,\nPa and Ma Case - was st\nthat nees of them - Dib\nI loir them as much\nas 9 did my own\npainto and 9 th inte\nmayh they lor me\nas much be caur the\ndo not tenow me a.\nlice. Also a were from\nKitt, and 1dy wishing me\na bon voyag and thanking\nme for a litthe o wret?\nthem, and last but\nnut leat one win.\nprecions 10\nit which 9\nwo kris alway.\nI'm sinding you\na uri\ni From ralph which\nis gaod news. Shair\nwired hum approval.\nThor two acres to the\nSouth are the least\ndesiable of our hand.\nThe sale wice reduce the\nindebtes pay ups ale\nback interest and par\nthe takes which Iwas\ncounting on your praying.\nIt wai eut down the\nintricot charges to a\nJoint whees the he curdy\nrent will come neares\nmeeting them and 9\ndont think the sale\nwale hust the value",
      "Of what ur hair left.\nmust get this off\nmore as\n• hair a lot\nof luis to write\nbefore us get to Vectora\nIs n't the tilegram\nfom trances cath-\nShe is a lot liks you\nin her thoughtfulnes ano\nI hope the\ngrows like you more and\nmore - which is another\nway of saying that o\nwant her to be the\nswitzet proon on\nthis raith - you\nNad\n#00.1702\n73"
    ],
    "millsfield:images_texts_ids": [
      1913800043,
      1913800045,
      1913800047
    ],
    "millsfield:primary_image": 1913800043,
    "millsfield:subcategory_id": 1511213489,
    "mz:is_approximate": 1,
    "mz:is_current": 1,
    "sfomuseum:accession_number": "2019.121.0573",
    "sfomuseum:airline": "Pan American Airways",
    "sfomuseum:airline_id": [
      685,
      1131
    ],
    "sfomuseum:category": "Employee Career History",
    "sfomuseum:classification_id": 195,
    "sfomuseum:collection": "Aviation Archive",
    "sfomuseum:creditline": "Collection of SFO Museum",
    "sfomuseum:date": "01/28/1933",
    "sfomuseum:date_acquired": "2019-11-22",
    "sfomuseum:daterange_end": "1933-01-28",
    "sfomuseum:daterange_start": "1933-01-28",
    "sfomuseum:description": "Handwritten letter from Harold M. Bixby to his wife, Debby Bixby dated January 28, [1933], written on stationery from Canadian Pacific Steamship Lines; includes personal and family matters.",
    "sfomuseum:dimensions": "8 x 5 inches (20.3 x 12.7 cm)",
    "sfomuseum:medium": "paper, ink",
    "sfomuseum:object_id": 210848,
    "sfomuseum:placetype": "object",
    "sfomuseum:publication": ": , 01/28/1933.",
    "sfomuseum:subcategory": "Correspondence, Personal",
    "src:geom": "sfomuseum#undetermined",
    "wof:belongsto": [
      102527513,
      1159162825,
      102191575,
      85633793,
      102087579,
      85922583,
      85688637,
      1159160869
    ],
    "wof:country": "XY",
    "wof:created": 1714549077,
    "wof:depicts": [
      1159284991,
      1159285931,
      1159286721
    ],
    "wof:geomhash": "c281b9d9eefc83b5710e64b9d646067d",
    "wof:hierarchy": [
      {
        "building_id": -1,
        "campus_id": 102527513,
        "collection_id": 1159162825,
        "concourse_id": 1159162825,
        "continent_id": 102191575,
        "country_id": 85633793,
        "county_id": 102087579,
        "custom_id": 1913796383,
        "locality_id": 85922583,
        "neighbourhood_id": -1,
        "object_id": 1913796383,
        "region_id": 85688637,
        "wing_id": 1159160869
      }
    ],
    "wof:id": 1913796383,
    "wof:lastmodified": 1787988220,
    "wof:name": "correspondence: Harold M. Bixby to Debby Bixby",
    "wof:parent_id": 1159162825,
    "wof:placetype": "custom",
    "wof:placetype_alt": [
      "object"
    ],
    "wof:repo": "sfomuseum-data-collection",
    "wof:superseded_by": [],
    "wof:supersedes": []
  },
  "bbox": [
    -122.38647222518921,
    37.6161053594541,
    -122.38583385944366,
    37.61661101879963
  ],
  "geometry": {"type":"Polygon","coordinates":[[[-122.38647222518921,37.61631782178288],[-122.386434674263,37.61623283692423],[-122.38637566566466,37.61617759671399],[-122.38630056381224,37.6161308549656],[-122.38616108894348,37.6161053594541],[-122.38602161407469,37.6161308549656],[-122.38591432571411,37.61618609521055],[-122.38585531711577,37.61626683087935],[-122.38583385944366,37.61636881265146],[-122.38587141036987,37.61646654505181],[-122.38594114780425,37.61654303118856],[-122.38605380058287,37.61660252035167],[-122.38618254661559,37.61661101879963],[-122.3863059282303,37.61657277577607],[-122.3864185810089,37.61650903735973],[-122.3864668607712,37.61641130501523],[-122.38647222518921,37.61631782178288]]]}
}
