{
  "id": 1913796473,
  "type": "Feature",
  "properties": {
    "date:cessation_lower": "1933-07-02",
    "date:cessation_upper": "1933-07-02",
    "date:inception_lower": "1933-07-02",
    "date:inception_upper": "1933-07-02",
    "edtf:cessation": "1933-07-02",
    "edtf:inception": "1933-07-02",
    "geom:area": 2.475047457570636e-7,
    "geom:bbox": "-122.386472,37.616105,-122.385834,37.616611",
    "geom:latitude": 37.61635747477365,
    "geom:longitude": -122.38615540108617,
    "millsfield:airline_id": [
      1159284991,
      1159285931
    ],
    "millsfield:category_id": 1511214251,
    "millsfield:collection_id": 1511214207,
    "millsfield:company_id": [
      1159286721
    ],
    "millsfield:images": [
      1913800637,
      1913800639
    ],
    "millsfield:images_colors_refs": {
      "crayola": [
        {
          "hex": "#bab86c"
        },
        {
          "hex": "#edd19c"
        },
        {
          "hex": "#414a4c"
        },
        {
          "hex": "#9f8170"
        }
      ],
      "css4": [
        {
          "hex": "#f0e68c"
        },
        {
          "hex": "#2f4f4f"
        },
        {
          "hex": "#eee8aa"
        },
        {
          "hex": "#bdb76b"
        }
      ],
      "marekm4": [
        {
          "hex": "#363e34"
        },
        {
          "hex": "#e5d69e"
        },
        {
          "hex": "#3b413d"
        },
        {
          "hex": "#aa9e72"
        },
        {
          "hex": "#e6d692"
        },
        {
          "hex": "#c6b675"
        }
      ]
    },
    "millsfield:images_texts": [
      "33\nSunday\nguly 2ad\nDearrat Dibs\nWee I think our deal is\npractically cond and after all this\nmonths of waiting that my work has\nnot bra en vain.\nAm not going to\nbr sure mate all\ncontracto ars signed\n(there are tiler in ace to put ento\nmeans plent, of\nwork) but with\nthe Exception of\nOne small detail the minest of\nCommunications agrid to Estrything.\nHe was very nice and 9 sprat\nseviral homs with has from the\ntime our shy arrivid\nat 10: 30\nuntil\nt aft at 1 Am.\nHad a\nGone tap in\nand tack- its\nalont 100 miles rach wan. the\nm of c. cale gire mimi rememtred\nme and uras\naufule, cute - was\nI homesick\n- boy ok bor, - the is\nas much a brunette as Mit fible\nis a blond but\nsame!\nIts nou\na. m -\nbus, tir sine returning fom Ranks.\nCor arz leaving at 7 a.m, must git\nup at 5:30, so now to bid. an\nlooking perward to the trip to Canton\nof you\nhad your map handy look",
      "it over. Tir go to Winchow.\nFoochou - Amoy- Seator - NompKong\nCaaton. The trip along the coast\nhas one, burn made a very fu\ntimes\nand it wee be interating.\nFroach and fast use te the\nPelot, Ehmer radio\noprator\nthe ottins uree bi Bond, grozger,\nWong (substitutes for Dai who fet\nare frost bitten and your belter l\nget two tirrive\ncartin in\nmy teeth fixed up. Me, dentist is the\nbut Dir rear seen - ded nt hurt a\nbit and he certaine, knows hi\ntrick _ mayh his taperience\nhunting got bace with Don\nhelpre\nhem find\nCartes - Am Jorg back\nale fixed up when. I retur\nThe Enclone\nis from a local\npapra\nand may\nannaigon.\nhots and lots of lour to\nyou and the kids\n2t begins te\nlook as though I might is home\nfor you. before the snow flie. a\nwile merr be separated agam - not\nEva - nocking is worth that- te\nyour ore..\n2019.121.066"
    ],
    "millsfield:images_texts_ids": [
      1913800637,
      1913800639
    ],
    "millsfield:primary_image": 1913800637,
    "millsfield:subcategory_id": 1511213489,
    "mz:is_approximate": 1,
    "mz:is_current": 1,
    "sfomuseum:accession_number": "2019.121.0669",
    "sfomuseum:airline": "Pan American Airways",
    "sfomuseum:airline_id": [
      685,
      1131
    ],
    "sfomuseum:category": "Employee Career History",
    "sfomuseum:classification_id": 195,
    "sfomuseum:collection": "Aviation Archive",
    "sfomuseum:creditline": "Collection of SFO Museum",
    "sfomuseum:date": "07/02/1933",
    "sfomuseum:date_acquired": "2019-11-22",
    "sfomuseum:daterange_end": "1933-07-02",
    "sfomuseum:daterange_start": "1933-07-02",
    "sfomuseum:description": "Handwritten letter from Harold M. Bixby to his wife, Debby Bixby, dated Sunday, July 2, [1933]; includes description of final negotiations with the minister of communications [Chu Chia-hua] and upcoming trip to Canton [Guangzhou] with [William] Grooch and [Robert] Gast as pilots, radio operator William Ehmer, [William L.] Bond, [Paul] Groeger, and Mr. Wong; mentions Mimi Chu, Dai [Enki].",
    "sfomuseum:dimensions": "12 1/2 x 8 inches (31.8 x 20.3 cm)",
    "sfomuseum:medium": "paper, ink",
    "sfomuseum:object_id": 211007,
    "sfomuseum:placetype": "object",
    "sfomuseum:publication": ": , 07/02/1933.",
    "sfomuseum:subcategory": "Correspondence, Personal",
    "src:geom": "sfomuseum#undetermined",
    "wof:belongsto": [
      102527513,
      1159162825,
      102191575,
      85633793,
      102087579,
      85922583,
      85688637,
      1159160869
    ],
    "wof:country": "XY",
    "wof:created": 1714549103,
    "wof:depicts": [
      1159285931,
      1159286721,
      1159284991
    ],
    "wof:geomhash": "c281b9d9eefc83b5710e64b9d646067d",
    "wof:hierarchy": [
      {
        "building_id": -1,
        "campus_id": 102527513,
        "collection_id": 1159162825,
        "concourse_id": 1159162825,
        "continent_id": 102191575,
        "country_id": 85633793,
        "county_id": 102087579,
        "custom_id": 1913796473,
        "locality_id": 85922583,
        "neighbourhood_id": -1,
        "object_id": 1913796473,
        "region_id": 85688637,
        "wing_id": 1159160869
      }
    ],
    "wof:id": 1913796473,
    "wof:lastmodified": 1787988220,
    "wof:name": "correspondence: Harold M. Bixby to Debby Bixby",
    "wof:parent_id": 1159162825,
    "wof:placetype": "custom",
    "wof:placetype_alt": [
      "object"
    ],
    "wof:repo": "sfomuseum-data-collection",
    "wof:superseded_by": [],
    "wof:supersedes": []
  },
  "bbox": [
    -122.38647222518921,
    37.6161053594541,
    -122.38583385944366,
    37.61661101879963
  ],
  "geometry": {"type":"Polygon","coordinates":[[[-122.38647222518921,37.61631782178288],[-122.386434674263,37.61623283692423],[-122.38637566566466,37.61617759671399],[-122.38630056381224,37.6161308549656],[-122.38616108894348,37.6161053594541],[-122.38602161407469,37.6161308549656],[-122.38591432571411,37.61618609521055],[-122.38585531711577,37.61626683087935],[-122.38583385944366,37.61636881265146],[-122.38587141036987,37.61646654505181],[-122.38594114780425,37.61654303118856],[-122.38605380058287,37.61660252035167],[-122.38618254661559,37.61661101879963],[-122.3863059282303,37.61657277577607],[-122.3864185810089,37.61650903735973],[-122.3864668607712,37.61641130501523],[-122.38647222518921,37.61631782178288]]]}
}
