{
  "id": 1913796167,
  "type": "Feature",
  "properties": {
    "date:cessation_lower": "1936-01-01",
    "date:cessation_upper": "1936-12-31",
    "date:inception_lower": "1936-01-01",
    "date:inception_upper": "1936-12-31",
    "edtf:cessation": "1936~",
    "edtf:inception": "1936~",
    "geom:area": 2.475047457570636e-7,
    "geom:bbox": "-122.386472,37.616105,-122.385834,37.616611",
    "geom:latitude": 37.61635747477365,
    "geom:longitude": -122.38615540108617,
    "millsfield:airline_id": [
      1159284991
    ],
    "millsfield:category_id": 1511214251,
    "millsfield:collection_id": 1511214207,
    "millsfield:company_id": [
      1159286839
    ],
    "millsfield:images": [
      1913802593,
      1913802595,
      1913802599
    ],
    "millsfield:images_colors_refs": {
      "crayola": [
        {
          "hex": "#414a4c"
        },
        {
          "hex": "#cd9575"
        },
        {
          "hex": "#edd19c"
        }
      ],
      "css4": [
        {
          "hex": "#f5deb3"
        },
        {
          "hex": "#2f4f4f"
        },
        {
          "hex": "#bdb76b"
        }
      ],
      "marekm4": [
        {
          "hex": "#b29c6d"
        },
        {
          "hex": "#e2d0a6"
        },
        {
          "hex": "#e2d0a8"
        },
        {
          "hex": "#392a18"
        },
        {
          "hex": "#b29c6e"
        },
        {
          "hex": "#3b2c18"
        },
        {
          "hex": "#b09b6e"
        },
        {
          "hex": "#e5d4ab"
        }
      ]
    },
    "millsfield:images_texts": [
      "Draurat Drba -\nWele the gire.\narrird thio Q. ma.\nmet tham at the\nstation\nCn go the\nMetro pole portre to\nlook afte the\ntrunks 1 Ete Delord\nthe smale packag\nto Mues Fortes - had\nbreakfat at bondo.\nTiffin at the Helmich\nand mow afle a",
      "heetie day\nIn yoing\nout to gut a little\nexercin. Was to\nplay tennis but it\nsix oclock mois so\nit ee have to be\nbowling.\nare set\nfor Tuesday\nthough\nDor accon plished\nnothing\nwith the\nChinese.\nle mu\nlor to\nyou dear titi mone",
      "but need the\nand hav\nto go out tonegat\nwont han a\nChance late and\nMitch\nleaves\na.m.\nAm sandin,\nDo me\nthe stuff\nby\nordinan, maie\nHad\nPS- Plean saur stamp\nand tand back to me"
    ],
    "millsfield:images_texts_ids": [
      1913802593,
      1913802595,
      1913802599
    ],
    "millsfield:primary_image": 1913802593,
    "millsfield:subcategory_id": 1511213489,
    "mz:is_approximate": 1,
    "mz:is_current": 1,
    "sfomuseum:accession_number": "2019.121.0983 a c",
    "sfomuseum:airline": "Pan American Airways",
    "sfomuseum:airline_id": [
      685
    ],
    "sfomuseum:category": "Employee Career History",
    "sfomuseum:classification_id": 195,
    "sfomuseum:collection": "Aviation Archive",
    "sfomuseum:creditline": "Collection of SFO Museum",
    "sfomuseum:date": "c. 1936",
    "sfomuseum:date_acquired": "2019-11-22",
    "sfomuseum:daterange_end": "1941-12-31",
    "sfomuseum:daterange_start": "1931-01-01",
    "sfomuseum:description": "Handwritten letter from Harold M. Bixby to his wife, Debby Bixby, undated; includes personal matters; mentions Miss Forbes, the Bonds.",
    "sfomuseum:dimensions": "7 x 5 1/4 inches (17.8 x 13.3 cm)",
    "sfomuseum:medium": "paper, ink",
    "sfomuseum:object_id": 211346,
    "sfomuseum:placetype": "object",
    "sfomuseum:publication": ": , c. 1936.",
    "sfomuseum:subcategory": "Correspondence, Personal",
    "src:geom": "sfomuseum#undetermined",
    "wof:belongsto": [
      102527513,
      1159162825,
      102191575,
      85633793,
      102087579,
      85922583,
      85688637,
      1159160869
    ],
    "wof:country": "XY",
    "wof:created": 1714549005,
    "wof:depicts": [
      1159284991,
      1159286839
    ],
    "wof:geomhash": "c281b9d9eefc83b5710e64b9d646067d",
    "wof:hierarchy": [
      {
        "building_id": -1,
        "campus_id": 102527513,
        "collection_id": 1159162825,
        "concourse_id": 1159162825,
        "continent_id": 102191575,
        "country_id": 85633793,
        "county_id": 102087579,
        "custom_id": 1913796167,
        "locality_id": 85922583,
        "neighbourhood_id": -1,
        "object_id": 1913796167,
        "region_id": 85688637,
        "wing_id": 1159160869
      }
    ],
    "wof:id": 1913796167,
    "wof:lastmodified": 1787988219,
    "wof:name": "correspondence: Harold M. Bixby to Debby Bixby",
    "wof:parent_id": 1159162825,
    "wof:placetype": "custom",
    "wof:placetype_alt": [
      "object"
    ],
    "wof:repo": "sfomuseum-data-collection",
    "wof:superseded_by": [],
    "wof:supersedes": []
  },
  "bbox": [
    -122.38647222518921,
    37.6161053594541,
    -122.38583385944366,
    37.61661101879963
  ],
  "geometry": {"type":"Polygon","coordinates":[[[-122.38647222518921,37.61631782178288],[-122.386434674263,37.61623283692423],[-122.38637566566466,37.61617759671399],[-122.38630056381224,37.6161308549656],[-122.38616108894348,37.6161053594541],[-122.38602161407469,37.6161308549656],[-122.38591432571411,37.61618609521055],[-122.38585531711577,37.61626683087935],[-122.38583385944366,37.61636881265146],[-122.38587141036987,37.61646654505181],[-122.38594114780425,37.61654303118856],[-122.38605380058287,37.61660252035167],[-122.38618254661559,37.61661101879963],[-122.3863059282303,37.61657277577607],[-122.3864185810089,37.61650903735973],[-122.3864668607712,37.61641130501523],[-122.38647222518921,37.61631782178288]]]}
}
