{
  "id": 1913796031,
  "type": "Feature",
  "properties": {
    "date:cessation_lower": "1937-09-17",
    "date:cessation_upper": "1937-09-17",
    "date:inception_lower": "1937-09-17",
    "date:inception_upper": "1937-09-17",
    "edtf:cessation": "1937-09-17",
    "edtf:inception": "1937-09-17",
    "geom:area": 2.475047457570636e-7,
    "geom:bbox": "-122.386472,37.616105,-122.385834,37.616611",
    "geom:latitude": 37.61635747477365,
    "geom:longitude": -122.38615540108617,
    "millsfield:airline_id": [
      1159284991
    ],
    "millsfield:category_id": 1511214251,
    "millsfield:collection_id": 1511214207,
    "millsfield:company_id": [
      1159286839
    ],
    "millsfield:images": [
      1913799945,
      1913799947
    ],
    "millsfield:images_colors_refs": {
      "crayola": [
        {
          "hex": "#edd19c"
        },
        {
          "hex": "#714b23"
        },
        {
          "hex": "#bab86c"
        },
        {
          "hex": "#deaa88"
        }
      ],
      "css4": [
        {
          "hex": "#f0e68c"
        },
        {
          "hex": "#556b2f"
        },
        {
          "hex": "#bdb76b"
        },
        {
          "hex": "#deb887"
        }
      ],
      "marekm4": [
        {
          "hex": "#5d562e"
        },
        {
          "hex": "#e6d498"
        },
        {
          "hex": "#5c542b"
        },
        {
          "hex": "#d7c177"
        },
        {
          "hex": "#e7d596"
        },
        {
          "hex": "#d0bb75"
        }
      ]
    },
    "millsfield:images_texts": [
      "Confidential\netter Nor 197-37\nSeptember 17, 1937\nMr. H. M. Bixby\nVice President for China\nPan American Airways Co.\nManila, Philippine Islands\nDear Mr. Bixby:\nI enclose for your information and files copy of a memo-\nrandum dated September 8th which I have prepared here and which is\nself-explanatory.\nThe memorandum attached thereto and dated August\n25th is, as you will imediately perceive, a synthetic composition of\nyour memorandum of August 25th and your personal and confidential let-\nter of the same date, but with certain confidential, off-the-record,\nand imaterial matter omnitted. My object was to have one memorandum\ngiving the record of the events leading up to your departure fron Chine\nwhich would be in such form that it could be show to any interested\nparties and form,\n1l necessary, a part of a published or legal record.\nI believe this memorandum will fill the purpose I have in mind but if\nyou have any conments to make, and particularly if you have any addi-\ntions to incorporate, I would appreciate having them in the form of a\nsupplementary memorandum with no confidential material included which\ncould be attached to this as a part of the official record.\nThe mail was just received today with your letters B-1 to\nB-21, ommitting B-2 and B-6 not received, and gives us more infornation\nand a good deal of interesting comment but nothing which I think has to\nbe added.\nThe President has instructed me, with the Comptroller, to\nprepare a statement showing as nearly as poseible the actual losses euf-\nfered through our forced withdrawl fron China.\nI find our last CNAC\nstatement is that for May and I do not suppose that a later statement\nwill be received. If you have or can obtain any data tending to reflect\nthe belance sheet for CNAC at a later date than that, we should like to\nhave it.\nWith regard to our PAA losses, we are having Mr. Nowlin prepare\na statement of all property in China fully owned by Pan Americen Airways\nIl at a ister date any of\nthis property can be salvaged it can, of course, be checked off on this\nlist. I do not know in what manner we will present our claim for our\nfair participation in the assets of CNAC at the time of our withdrawal,\nor for Losses Butterb (gaie shall probably consult with",
      "Bixby - 197-37\n2\n-\nSeptember 17, 1937\nthe State Department in this regard in due time. In the meanwhile any\ncomments or suggestions you have to make will be welcome. lie fully under-\nstand that the DO-2 is being turned over (if the present\ndeal goes through)\nas an ofiset in part to the cash owed us by CNAC, and this transaction\nwil1 of course be recognized in any claim we might make at a later date.\nI will try to instruct you next week about the Hong Kong\nairmail contract and other matters.\nCONFIDENTIAL: I belleve it is going to be possible to place\na number of CNAC pilots with either Pan American Airways or Pan American-\nGrace or both. The latter is particularly in need of some new good pilots.\nI cabled you today for data on Allison and Pottschmidt.\nThe former unfor-\ntunately, but perhaps from modesty, had neglected to send a report on him-\nself and although we know in a general way of his wide experience and un-\nquestionable ability, the operating departments of both companies feel\nthat they must have\nthe actual figures on all of these men's flying ex-\nperience before making any decision.\nVery truly yours,\nPAN AMERICAN AIRIAYS COMPANY\nBJ_\nSWIM: AH\nS. W. Morgan"
    ],
    "millsfield:images_texts_ids": [
      1913799945,
      1913799947
    ],
    "millsfield:primary_image": 1913799945,
    "millsfield:subcategory_id": 1511213489,
    "mz:is_approximate": 1,
    "mz:is_current": 1,
    "sfomuseum:accession_number": "2019.121.1030 a b",
    "sfomuseum:airline": "Pan American Airways",
    "sfomuseum:airline_id": [
      685
    ],
    "sfomuseum:category": "Employee Career History",
    "sfomuseum:classification_id": 195,
    "sfomuseum:collection": "Aviation Archive",
    "sfomuseum:creditline": "Collection of SFO Museum",
    "sfomuseum:date": "09/17/1937",
    "sfomuseum:date_acquired": "2019-11-22",
    "sfomuseum:daterange_end": "1937-09-17",
    "sfomuseum:daterange_start": "1937-09-17",
    "sfomuseum:description": "Typewritten letter from S. [Stokely] W. Morgan to Harold M. Bixby, dated September 17, 1937, marked Confidential; includes description of memo synthesizing Bixby’s letter into an on-the-record memorandum and requesting a financial statement and balance sheet for CNAC reflecting Pan American’s losses in China as well as information about employees [Ernest] Allison and [Robert] Pottschmidt.",
    "sfomuseum:dimensions": "11 x 8 1/2 inches (27.9 x 21.6 cm)",
    "sfomuseum:medium": "paper, ink",
    "sfomuseum:object_id": 211393,
    "sfomuseum:placetype": "object",
    "sfomuseum:publication": ": , 09/17/1937.",
    "sfomuseum:subcategory": "Correspondence, Personal",
    "src:geom": "sfomuseum#undetermined",
    "wof:belongsto": [
      102527513,
      1159162825,
      102191575,
      85633793,
      102087579,
      85922583,
      85688637,
      1159160869
    ],
    "wof:country": "XY",
    "wof:created": 1714548964,
    "wof:depicts": [
      1159284991,
      1159286839
    ],
    "wof:geomhash": "c281b9d9eefc83b5710e64b9d646067d",
    "wof:hierarchy": [
      {
        "building_id": -1,
        "campus_id": 102527513,
        "collection_id": 1159162825,
        "concourse_id": 1159162825,
        "continent_id": 102191575,
        "country_id": 85633793,
        "county_id": 102087579,
        "custom_id": 1913796031,
        "locality_id": 85922583,
        "neighbourhood_id": -1,
        "object_id": 1913796031,
        "region_id": 85688637,
        "wing_id": 1159160869
      }
    ],
    "wof:id": 1913796031,
    "wof:lastmodified": 1787988219,
    "wof:name": "correspondence: S.W. Morgan to Harold M. Bixby",
    "wof:parent_id": 1159162825,
    "wof:placetype": "custom",
    "wof:placetype_alt": [
      "object"
    ],
    "wof:repo": "sfomuseum-data-collection",
    "wof:superseded_by": [],
    "wof:supersedes": []
  },
  "bbox": [
    -122.38647222518921,
    37.6161053594541,
    -122.38583385944366,
    37.61661101879963
  ],
  "geometry": {"type":"Polygon","coordinates":[[[-122.38647222518921,37.61631782178288],[-122.386434674263,37.61623283692423],[-122.38637566566466,37.61617759671399],[-122.38630056381224,37.6161308549656],[-122.38616108894348,37.6161053594541],[-122.38602161407469,37.6161308549656],[-122.38591432571411,37.61618609521055],[-122.38585531711577,37.61626683087935],[-122.38583385944366,37.61636881265146],[-122.38587141036987,37.61646654505181],[-122.38594114780425,37.61654303118856],[-122.38605380058287,37.61660252035167],[-122.38618254661559,37.61661101879963],[-122.3863059282303,37.61657277577607],[-122.3864185810089,37.61650903735973],[-122.3864668607712,37.61641130501523],[-122.38647222518921,37.61631782178288]]]}
}
