{
  "id": 1914555793,
  "type": "Feature",
  "properties": {
    "date:cessation_lower": "1993-01-01",
    "date:cessation_upper": "1993-12-31",
    "date:inception_lower": "1993-01-01",
    "date:inception_upper": "1993-12-31",
    "edtf:cessation": "1993",
    "edtf:inception": "1993",
    "geom:area": 2.475047457570636e-7,
    "geom:bbox": "-122.386472,37.616105,-122.385834,37.616611",
    "geom:latitude": 37.61635747477365,
    "geom:longitude": -122.38615540108617,
    "millsfield:aircraft_id": [
      1159289789
    ],
    "millsfield:airline_id": [
      1159284647
    ],
    "millsfield:category_id": 1762671311,
    "millsfield:collection_id": 1511214207,
    "millsfield:company_id": [
      1159293593,
      1159289759
    ],
    "millsfield:images": [
      1914556123,
      1914556125,
      1914556127
    ],
    "millsfield:images_colors_refs": {
      "crayola": [
        {
          "hex": "#efdecd"
        },
        {
          "hex": "#000000"
        },
        {
          "hex": "#6699cc"
        },
        {
          "hex": "#ff2b2b"
        },
        {
          "hex": "#ceff1d"
        },
        {
          "hex": "#1974d2"
        }
      ],
      "css4": [
        {
          "hex": "#dcdcdc"
        },
        {
          "hex": "#000000"
        },
        {
          "hex": "#6495ed"
        },
        {
          "hex": "#ffd700"
        },
        {
          "hex": "#b22222"
        },
        {
          "hex": "#4682b4"
        },
        {
          "hex": "#ff0000"
        }
      ],
      "marekm4": [
        {
          "hex": "#0e142d"
        },
        {
          "hex": "#eae4d9"
        },
        {
          "hex": "#e8e5d9"
        },
        {
          "hex": "#e6d203"
        },
        {
          "hex": "#242122"
        },
        {
          "hex": "#d2110e"
        },
        {
          "hex": "#6dacdd"
        },
        {
          "hex": "#e7e1d6"
        },
        {
          "hex": "#1e75c4"
        },
        {
          "hex": "#e70207"
        },
        {
          "hex": "#101221"
        }
      ]
    },
    "millsfield:images_texts": [
      "727\n200\nLAKER\nAIRWAYS\nPlease help us comply with Federal Aviation Regulations\n• Review the information on this card.\n• Observe all posted signs.\n• Pay attention to our crew members' instructions at all times.\nBecause we care about your safety...\n• If you are seated in an exit row, and do not understand\nEnglish, please contact a crew member immediately.\nDebido a que nos importa su seguridad...\n• Si usted está sentado en una fila de salida y no comprende\ninglés, por favor comuníquese con un miembro de la\ntripulación inmediatamente.\nParce que votre sécurité nous intéresse...\n• Si vous êtes assis dans une rangée qui mène à une sortie\net si vous ne comprenez pas l'anglais, veuillez vous mettre\nen rapport immediatement avec un membre de l'équipage.\nWeil uns Ihre Sicherheit wichtig ist...\n• Wenn Sie bei einem Notausgang sitzen und nicht Englisch\nsprechen, melden Sie sich bitte sofort bei einem Flugbegleiter.\nATTENTION\nPassengers Seated in an Exit Row\nPlease Review the Following Information\nIn the event of an emergency and if a crew member is\nunavailable, you may be asked to assist other passengers,\nprovided that you are willing to do so and you:\n• Are at least 15 years old.\n• Have the mobility, strength, dexterity, and balance to\noperate the exit door and slide and to help passengers safely\nleave the aircraft.\n• Can clearly hear, understand, and communicate oral\ninstructions.\n• Require no visual aids other than glasses or contact lenses.\n• Have no physical conditions or responsibilities, such as caring\nfor another passenger, which could cause harm to yourself or\nothers if you were to perform this function.\nPlease alert a crew member immediately if you do not under-\nstand this information or need to be reseated for safety reasons.\nThank You For Your Cooperation.\nDo Not Remove This Card From Aircraft",
      "Take-off, Landing and during Surface Movement.\nDespegue, Aterrizaje y durante Desplazamientos\nen la Superficie. • Au Décollage, à l'atterrissage\net Pendant les Déplacements au Sol • Bei Start,\nLandung und Fahrt auf Land\nOxygen\nOxigeno\nOxygène\nSauerstoff\n1\n2\n0000\n3\nIn Flight\nEn Vuelo\nEn Vol\nWährend des Fluges\nLand Evacuation\nEvacuación Terrestrel\nEvacuation à Terre\nEvakuierung an Land\n000\n/Emergency/Brace Position\nPosición de Preparación/Emergencia\nDanger/Position Attachée\nSchutzhaltung bei Notfällen\nEXIT\nFire\nIncendio\nIncendie\nFeuer\nSmoke\nHumo\nFumée\nDebris/Obstruction\nDesperdicios/Obstrucción\nDébris/Obstruction\nrummer sincerais",
      "EXIT\nWater Evacuation\nEvacuación Acuática\nEvacuation Sur Leau\nEvakuierung im Wasser\nFire\nIncendio\nIncendie\nFeuer\nSmoke\nHumo\nFumée\nRauch\nDebris/Obstruction\nDesperdicios/Obstrucción\nDébris/Obstruction\nTrümmer/Hindernis\n1\n2\n3\n4\n5\n00000\nNOTE:\nAll aircraft are not\nequipped with life rafts,\nyour flight crew will\nadvise you if life rafts\nare installed.\n© Rand McNally 1993"
    ],
    "millsfield:images_texts_ids": [
      1914556123,
      1914556125,
      1914556127
    ],
    "millsfield:primary_image": 1914556123,
    "millsfield:subcategory_id": 1511213703,
    "mz:is_approximate": 1,
    "mz:is_current": 1,
    "sfomuseum:accession_number": "2002.127.364",
    "sfomuseum:aircraft": "Boeing 727-200",
    "sfomuseum:aircraft_id": [
      194
    ],
    "sfomuseum:airline": "Laker Airways",
    "sfomuseum:airline_id": [
      530
    ],
    "sfomuseum:category": "Passenger Amenity, Archive",
    "sfomuseum:classification_id": 581,
    "sfomuseum:collection": "Aviation Archive",
    "sfomuseum:creditline": "Gift of Thomas G. Dragges",
    "sfomuseum:date": "1993",
    "sfomuseum:date_acquired": "2003-12-22",
    "sfomuseum:daterange_end": "1993-12-31",
    "sfomuseum:daterange_start": "1993-01-01",
    "sfomuseum:description": "Safety information card issued by Laker Airways for the Boeing 727-200 fleet; white and red double-sided tri-fold card with illustrations depicting inflight safety and emergency procedures; no identification code; revision date: 1993.",
    "sfomuseum:dimensions": "11 x 5 1/2 inches (27.9 x 14 cm)",
    "sfomuseum:maker": "Rand McNally",
    "sfomuseum:medium": "paper, ink",
    "sfomuseum:object_id": 69005,
    "sfomuseum:placetype": "object",
    "sfomuseum:publication": ": , 1993.",
    "sfomuseum:subcategory": "Safety Information Card",
    "src:geom": "sfomuseum#undetermined",
    "wof:belongsto": [
      102527513,
      1159162825,
      102191575,
      85633793,
      102087579,
      85922583,
      85688637,
      1159160869
    ],
    "wof:country": "XY",
    "wof:created": 1720459812,
    "wof:depicts": [
      1159289789,
      1159293593,
      1159289759,
      1159284647
    ],
    "wof:geomhash": "c281b9d9eefc83b5710e64b9d646067d",
    "wof:hierarchy": [
      {
        "building_id": -1,
        "campus_id": 102527513,
        "collection_id": 1159162825,
        "concourse_id": 1159162825,
        "continent_id": 102191575,
        "country_id": 85633793,
        "county_id": 102087579,
        "custom_id": 1914555793,
        "locality_id": 85922583,
        "neighbourhood_id": -1,
        "object_id": 1914555793,
        "region_id": 85688637,
        "wing_id": 1159160869
      }
    ],
    "wof:id": 1914555793,
    "wof:lastmodified": 1787988221,
    "wof:name": "safety information card: Laker Airways, Boeing 727-200",
    "wof:parent_id": 1159162825,
    "wof:placetype": "custom",
    "wof:placetype_alt": [
      "object"
    ],
    "wof:repo": "sfomuseum-data-collection",
    "wof:superseded_by": [],
    "wof:supersedes": []
  },
  "bbox": [
    -122.38647222518921,
    37.6161053594541,
    -122.38583385944366,
    37.61661101879963
  ],
  "geometry": {"type":"Polygon","coordinates":[[[-122.38647222518921,37.61631782178288],[-122.386434674263,37.61623283692423],[-122.38637566566466,37.61617759671399],[-122.38630056381224,37.6161308549656],[-122.38616108894348,37.6161053594541],[-122.38602161407469,37.6161308549656],[-122.38591432571411,37.61618609521055],[-122.38585531711577,37.61626683087935],[-122.38583385944366,37.61636881265146],[-122.38587141036987,37.61646654505181],[-122.38594114780425,37.61654303118856],[-122.38605380058287,37.61660252035167],[-122.38618254661559,37.61661101879963],[-122.3863059282303,37.61657277577607],[-122.3864185810089,37.61650903735973],[-122.3864668607712,37.61641130501523],[-122.38647222518921,37.61631782178288]]]}
}
