{
  "id": 1511932049,
  "type": "Feature",
  "properties": {
    "date:cessation_lower": "1983-01-01",
    "date:cessation_upper": "1983-12-31",
    "date:inception_lower": "1983-01-01",
    "date:inception_upper": "1983-12-31",
    "edtf:cessation": "1983",
    "edtf:date": "1983",
    "edtf:inception": "1983",
    "geom:area": 0,
    "geom:bbox": "-122.386155,37.616357,-122.386155,37.616357",
    "geom:latitude": 37.616357,
    "geom:longitude": -122.386155,
    "iso:country": "XX",
    "millsfield:airline_id": [
      1159285393
    ],
    "millsfield:category_id": 1511214223,
    "millsfield:collection_id": 1511214207,
    "millsfield:company_id": [
      1159287531
    ],
    "millsfield:images": [
      1527844747
    ],
    "millsfield:images_colors_refs": {
      "crayola": [
        {
          "hex": "#bab86c"
        },
        {
          "hex": "#000000"
        },
        {
          "hex": "#deaa88"
        },
        {
          "hex": "#85754e"
        }
      ],
      "css4": [
        {
          "hex": "#bdb76b"
        },
        {
          "hex": "#d2b48c"
        },
        {
          "hex": "#000000"
        },
        {
          "hex": "#696969"
        }
      ],
      "marekm4": [
        {
          "hex": "#c7b691"
        },
        {
          "hex": "#2d2411"
        },
        {
          "hex": "#887850"
        },
        {
          "hex": "#bba573"
        }
      ]
    },
    "millsfield:images_texts": [
      "System Timetable\nEffective April 24 through May 31, 1983\nARY\nFLT\nABQ ICT 0250P 0514P\n1131A\n300г\n0100P\nIcco\n0341P\nUDJOr\nEQ FREQ\nARY\nFLT\nED FRED\nFM\nTO\nDPT\n331B\nUCI CONT\nSTL 0340P 0640P\n444 7275\nDFW JFK 1145A 0409P 7107275\nDSM STL\n0750f\nSTL 0545P 06401\nATH CAL 0045 0340-\n840 14\n830429\nCAI 0245P\n840 747\nEFF\n830430\nFON CORDA 1945A\n841\nJFK 0100P 0425P\n881\n747\nх6\nDTW JFK 0220P 0355P\n0757A\n1102A\nSTL\n7275\nСкек\n1cca\n901\nL11\nL11\nX357\nSTL 0335P\n0807A\n7275\n40S\n8·3889056\n6888\n8888\nCDG\n₴₴··₴\n88088\n6E011\n8885992885555\nHEEEEN!\n58888\n6041r\nKAPP\n!!!!\nERASESS\nAllE\nApril 11, 1983\nSIL\n1042A\n50010\n143\n727S\nL10\n77 L18\nFCO ATH 110ĐA 0155F\nlast ter\n840 747\n941 747\nX234\nFLL MCO 82SBP 0345F\n497 727\n01T0\n850\n!!!\nX7\nJFK\nPRARENAR\n401l\n88-800\nFLT\nLAX\nCONT\n18848g5\nHI!\nEFF\nDCA DeZDA\nFF\nKERRRR\n8288\n3985\n3₴\n331B X6\n8878\nX7\nPH\n808889033033032038900030232\nшаленими ті\n0440F\nSIL\nSFO\nSLUS\nSTL\nEFF\nFREQ\nто\n28508\n727S\n230 7B\n.54\n7275\n727S\n....\n......\n··8588₴?82883§9§§§§9999999335ã\n8888868688\n1058F\n5c s\n525058\nT27S\nFili\nт....\nBERNARDNE SOBASE BANNERS BREN\nDISC\na!!!\nFRAN\n•15\nTW INT'L TO TW DOMESTIC\nBOSTON\n(ORD)\nANGELES\n(JFK)\n:00\n-1\nALES LONGE\nTW DOMESTIC TO TW INTL\nCHICACO CURI\nLOS ANGELES\nNEW YORK (JFK)\n(EUR\nPHILADELPHI\n2008.015.988"
    ],
    "millsfield:images_texts_ids": [
      1527844747
    ],
    "millsfield:primary_image": 1527844747,
    "millsfield:subcategory_id": 1511213425,
    "mz:hierarchy_label": 1,
    "mz:is_current": 1,
    "sfomuseum:accession_number": "2008.055.988",
    "sfomuseum:airline": "TWA (Trans World Airlines)",
    "sfomuseum:airline_id": [
      874
    ],
    "sfomuseum:category": "Scheduling / Ticketing",
    "sfomuseum:classification_id": 158,
    "sfomuseum:collection": "Aviation Archive",
    "sfomuseum:creditline": "Gift of the William Hough Collection",
    "sfomuseum:date": "1983",
    "sfomuseum:date_acquired": "2008-04-13",
    "sfomuseum:daterange_end": "1983-12-31",
    "sfomuseum:daterange_start": "1983-01-01",
    "sfomuseum:description": "Timetable issued by TWA (Trans World Airlines), effective April 24 through May 31, 1983; double-sided newspaper tearsheet with system schedule on one side and general airline news on the other.",
    "sfomuseum:dimensions": "16 x 11 1/4 inches (40.6 x 28.6 cm)",
    "sfomuseum:media_ids": [
      1527844747
    ],
    "sfomuseum:medium": "paper, ink",
    "sfomuseum:object_id": 91905,
    "sfomuseum:placetype": "object",
    "sfomuseum:primary_media_id": 1527844747,
    "sfomuseum:publication": ": , 1983.",
    "sfomuseum:subcategory": "Timetable",
    "sfomuseum:subject": "Airlines -- Commercial -- TWA (Trans World Airlines)",
    "src:geom": "sfomuseum#undetermined",
    "wof:belongsto": [
      1511214223,
      102527513,
      102191575,
      85633793,
      1511213425,
      85922583,
      102087579,
      1511214277,
      1511214207,
      85688637
    ],
    "wof:breaches": [],
    "wof:country": "XX",
    "wof:created": 1579906661,
    "wof:depicts": [
      1159285393,
      1159287531
    ],
    "wof:geomhash": "30c8a918561c84bb2daa2b97fc7c5353",
    "wof:hierarchy": [
      {
        "arcade_id": 1511213425,
        "building_id": 1511214277,
        "campus_id": 102527513,
        "concourse_id": 1511214223,
        "continent_id": 102191575,
        "country_id": 85633793,
        "county_id": 102087579,
        "custom_id": 1511932049,
        "locality_id": 85922583,
        "neighbourhood_id": -1,
        "object_id": 1511932049,
        "region_id": 85688637,
        "venue_id": 1511932049,
        "wing_id": 1511214207
      }
    ],
    "wof:id": 1511932049,
    "wof:lastmodified": 1787988181,
    "wof:name": "timetable / newspaper tearsheet: TWA (Trans World Airlines)",
    "wof:parent_id": 1159162825,
    "wof:placetype": "custom",
    "wof:placetype_alt": [
      "object"
    ],
    "wof:repo": "sfomuseum-data-collection",
    "wof:superseded_by": [],
    "wof:supersedes": [],
    "wof:tags": []
  },
  "bbox": [
    -122.386155,
    37.616357,
    -122.386155,
    37.616357
  ],
  "geometry": {"type":"Point","coordinates":[-122.386155,37.616357]}
}
