{
  "id": 1511910223,
  "type": "Feature",
  "properties": {
    "date:cessation_lower": "1943-01-01",
    "date:cessation_upper": "1943-12-31",
    "date:inception_lower": "1943-01-01",
    "date:inception_upper": "1943-12-31",
    "edtf:cessation": "1943",
    "edtf:date": "1943",
    "edtf:inception": "1943",
    "geom:area": 0,
    "geom:bbox": "-122.386155,37.616357,-122.386155,37.616357",
    "geom:latitude": 37.616357,
    "geom:longitude": -122.386155,
    "iso:country": "XX",
    "millsfield:airline_id": [
      1159284907
    ],
    "millsfield:category_id": 1511214223,
    "millsfield:collection_id": 1511214207,
    "millsfield:company_id": [],
    "millsfield:images": [
      1527837513,
      1527850297
    ],
    "millsfield:images_colors_refs": {
      "crayola": [
        {
          "hex": "#cdc5c2"
        },
        {
          "hex": "#dbd7d2"
        },
        {
          "hex": "#000000"
        },
        {
          "hex": "#757575"
        },
        {
          "hex": "#414a4c"
        },
        {
          "hex": "#ff2b2b"
        },
        {
          "hex": "#cd4a4c"
        }
      ],
      "css4": [
        {
          "hex": "#d3d3d3"
        },
        {
          "hex": "#dc143c"
        },
        {
          "hex": "#dcdcdc"
        },
        {
          "hex": "#708090"
        },
        {
          "hex": "#191970"
        },
        {
          "hex": "#2f4f4f"
        }
      ],
      "marekm4": [
        {
          "hex": "#11163d"
        },
        {
          "hex": "#e4ddd6"
        },
        {
          "hex": "#363d5b"
        },
        {
          "hex": "#6e7487"
        },
        {
          "hex": "#d02c32"
        },
        {
          "hex": "#d93328"
        },
        {
          "hex": "#d8cdc6"
        }
      ]
    },
    "millsfield:images_texts": [
      "AUGUST\n1943\nU.S.\nAIRMAIL\nBuy\nMore\nWar\nBowls\nCHICAGO • MILWAUKEE • MADISON • ROCHESTER\nST. PAUL • MINNEAPOLIS • DULUTH • FARGO • WINNIPEG\nBISMARCK • MILES CITY • BILLINGS • HELENA • MISSOULA\nBUTTE • SPOKANE • PORTLAND • SEATTLE\nSHORTEST...FASTEST",
      "To Alaska\nancouver\nSeat!\ncom\nYakima\nPendleton\nO Medford\nWinnipeg\nSpokane\nMissoula\nHelena\nButte\nBoise O\nTo Hawaian Island\nana:\nOrient\nSan Francisco\nTo Orient\nGreat Falls\nO Lewistown\nBillings Miles City\nBismarck\n• Sheridan\nWatertown\nOldaho Falls\nAberdeen\nPocatello\nCasper O\nOgden\nSpearfish\nHuron\nO Rapid City\nSioux City\nReno\nCheyenne\nO-\n•'Sacramento\nSalt Lake City\nOakland\nLincoln\nDenver\nKansas City\n• Fresno\nColorado Springs O\nPueblo O\nBakersfield\nLas Vegaso...\nWichita\nGrand Canyon\nSanta Barbara\n•O.\nSanta Fe O\nLos Angeles\nWinslow\ncatalina O\nAlbuquerque\nSan Diego\n-O Phoenix\nO.Tucson\nFargo\nDuluth\nMinneapolis\nSt. Paul\nMilwaukee\nRochester\nMadison\nChicago\nOmaha\nMuskegon\nGrand Rapid\nnsing\nToledo,\nDayton\nSt. Louis\nIndianapo\nLouisville\nNashville O\nMontreal\ni Waterville\nToronto\nSyracuse\n--O\nBuffalo\nleveland\nColumbus\nCincinnati Washingt\nRich\nKnoxville.\n-O\nGreensboro o\nAmarillo\n•Tulsa\nOklahoma Cit Mempnis\noga O\nChattan\nBirmingham\nO charleston\nFort Worth Dallas\nJackson,\nMontgomery,\nDEl Paso\nBig Spring\nMobile\nnsacola\nWaco\nJacksonville\nAustin\nNew Orleans\nTallahassee\nO-\n0----0\n© Houston\nO--\n, Orlando\nDaytona Beach\nCentral,\nSan Antonio\n_Corpus Christi\nNorthwest Airlines\nConnecting Airlines\nOther Airlines\nTo Mexico and Central Ame\nSt Petersourg\nỜ Tamp\nTest Palm Beach\nNORTHWEST\nATREINES\nTo Central and South America\nNow York\ni To Europs\nPaladelphia\nBa amore\nBernida\nCHOOSE FROM 3 FAST FLIGHTS EAST AND WEST DAILY\nFRONTIERSMAN —Morning arrival as far west as Billings.\nSUNLIGHTER-Fast, daylight flight; the way to see the country.\nRANGER-Famed daylight flight, entrancing scenery.\nTWILIGHTER-Early morning arrival gives full day in Chicago.\nVIGILANTE-Overnight, fastest to Seattle; early AM arrival.\nSTARLIGHTER-The fast, overnight flight to the East.\nFrontiersman\nRanger\nVigilante\nSunlighter\nTwilighter\nStarlighter\nLv Chicago\n(CT)\n4 00am\n8 00am\n940pm\nLv Portland\n• (PT)\n6 30am\n11 45am\n755pm\nLv Milwaukee.\n4 45\n8 50\nLv Yakima\n12 55\n9 05\nLv Madison..\n5 25\nAr Spokane\n2 30\n10 15\nLv Rochester, Minn.\n10 40\nLv Seattle.\n8 15\n4 35\n8 30\nLv St. Paul.\na\na\na\nLv Wenatchee.\nLv Minneapolis.\n7 25\n11 30\n12 20\nLv Spokane..\n(PT)\n10 05\n6 30\n10 30\nLv Fargo.\n915\n1 20\n2 10\nLv Missoula.\nLv Bismarck\n(CT)\n(MI)\n12 20\n10 45\n3 40\nLv Helena.\n125\nLv Miles City.\n(MT)\n3 25\nLv Butte.\n1 20\n9 20\nLv Billings..\n12 35\n4 35\n5 30\nLv Billings\n2 50\n10 50\n2 55\nLv Helena\n2 10\nLv Miles City...\nLv Butte..\n6 15\n710\n• (MT)\n3\n55\nLv Bismarck..\nLv Missoula.\n(MT)\n.. (CT)\n6 10\n2 10\n3 05\nLv Fargo.\n7 35\n7 30\nLv Spokane.\n(PT)\n3 25\n715\n8 10\nLv Minneapolis.\n9 15\n4 50\n910\nLv Wenatchee\n4 35\nLv St. Paul...\na\na\na\nAr Seattle.\n5 35\n9 05\n10 00\nLv Rochester, Minn.\n9 50\nLv Spokane.\n3 40\n8 20\nLv Madison\n6 20\nLv Yakima..\n5 00\n940\nLv Milwaukee.\n7 00\nAr Portland.\n(PT)\n610pm\npm\n10 50am\nAr Chicago\n(CT)\n11 30pm\n7 40am\n11 35am\n(a) St. Paul served from Minneapolis Municipal Airport.\nFASTEST ROUTE BETWEEN CHICAGO AND SEATTLE!"
    ],
    "millsfield:images_texts_ids": [
      1527837513,
      1527850297
    ],
    "millsfield:primary_image": 1527837513,
    "millsfield:subcategory_id": 1511213425,
    "mz:hierarchy_label": 1,
    "mz:is_current": 1,
    "sfomuseum:accession_number": "2000.046.006",
    "sfomuseum:airline": "Northwest Airlines",
    "sfomuseum:airline_id": [
      647
    ],
    "sfomuseum:category": "Scheduling / Ticketing",
    "sfomuseum:classification_id": 158,
    "sfomuseum:collection": "Aviation Archive",
    "sfomuseum:creditline": "Collection of SFO Museum",
    "sfomuseum:date": "1943",
    "sfomuseum:date_acquired": "2000-01-01",
    "sfomuseum:daterange_end": "1943-12-31",
    "sfomuseum:daterange_start": "1943-01-01",
    "sfomuseum:description": "Timetable issued by Northwest Airlines, effective August 1943; fold-out format; dark blue and red cover with planform illustration of a red aircraft in the center and list of cities served.",
    "sfomuseum:dimensions": "9 x 4 inches (22.9 x 10.2 cm)",
    "sfomuseum:media_ids": [
      1527837513,
      1527850297
    ],
    "sfomuseum:medium": "paper, ink",
    "sfomuseum:object_id": 50885,
    "sfomuseum:placetype": "object",
    "sfomuseum:primary_media_id": 1527837513,
    "sfomuseum:publication": ": , 1943.",
    "sfomuseum:subcategory": "Timetable",
    "sfomuseum:subject": "Airlines -- Timetables -- Northwest Airlines",
    "src:geom": "sfomuseum#undetermined",
    "wof:belongsto": [
      1511214223,
      102527513,
      102191575,
      85633793,
      1511213425,
      85922583,
      102087579,
      1511214277,
      1511214207,
      85688637
    ],
    "wof:breaches": [],
    "wof:country": "XX",
    "wof:created": 1579906672,
    "wof:depicts": [
      1159284907
    ],
    "wof:geomhash": "30c8a918561c84bb2daa2b97fc7c5353",
    "wof:hierarchy": [
      {
        "arcade_id": 1511213425,
        "building_id": 1511214277,
        "campus_id": 102527513,
        "concourse_id": 1511214223,
        "continent_id": 102191575,
        "country_id": 85633793,
        "county_id": 102087579,
        "custom_id": 1511910223,
        "locality_id": 85922583,
        "neighbourhood_id": -1,
        "object_id": 1511910223,
        "region_id": 85688637,
        "venue_id": 1511910223,
        "wing_id": 1511214207
      }
    ],
    "wof:id": 1511910223,
    "wof:lastmodified": 1787988176,
    "wof:name": "timetable: Northwest Airlines",
    "wof:parent_id": 1159162825,
    "wof:placetype": "custom",
    "wof:placetype_alt": [
      "object"
    ],
    "wof:repo": "sfomuseum-data-collection",
    "wof:superseded_by": [],
    "wof:supersedes": [],
    "wof:tags": []
  },
  "bbox": [
    -122.386155,
    37.616357,
    -122.386155,
    37.616357
  ],
  "geometry": {"type":"Point","coordinates":[-122.386155,37.616357]}
}
