{
  "id": 1511937275,
  "type": "Feature",
  "properties": {
    "date:cessation_lower": "1950-01-01",
    "date:cessation_upper": "1950-12-31",
    "date:inception_lower": "1950-01-01",
    "date:inception_upper": "1950-12-31",
    "edtf:cessation": "1950",
    "edtf:date": "1950",
    "edtf:inception": "1950",
    "geom:area": 0,
    "geom:bbox": "-122.386155,37.616357,-122.386155,37.616357",
    "geom:latitude": 37.616357,
    "geom:longitude": -122.386155,
    "iso:country": "XX",
    "millsfield:airline_id": [
      1159284949,
      1159284949
    ],
    "millsfield:category_id": 1511214223,
    "millsfield:collection_id": 1511214207,
    "millsfield:company_id": [
      1159287837
    ],
    "millsfield:images": [
      1527838069,
      1527850747
    ],
    "millsfield:images_colors_refs": {
      "crayola": [
        {
          "hex": "#95918c"
        },
        {
          "hex": "#414a4c"
        },
        {
          "hex": "#efcdb8"
        },
        {
          "hex": "#cdc5c2"
        },
        {
          "hex": "#9f8170"
        }
      ],
      "css4": [
        {
          "hex": "#c0c0c0"
        },
        {
          "hex": "#808080"
        },
        {
          "hex": "#d2b48c"
        },
        {
          "hex": "#2f4f4f"
        }
      ],
      "marekm4": [
        {
          "hex": "#989b78"
        },
        {
          "hex": "#dac7ad"
        },
        {
          "hex": "#948c75"
        },
        {
          "hex": "#3b3b2f"
        },
        {
          "hex": "#bfbc9f"
        },
        {
          "hex": "#334f2e"
        }
      ]
    },
    "millsfield:images_texts": [
      "COMPLETE TIMETABLE\nAPRIL 30, 1950\nWASH\nSouthwest\nAirways\nUAL - WCA\nORE\nMEDFORD\nCRESCENT CITY\nYREKA\nEUREKA-ARCATA\nREDDING\nFORT BRAGG\nRED BLUFF\nUKIAH\nCHICO\nOROVILLE\nMARYSVILLE • YUBA CITY\nSANTA ROSA\nSACRAMENTO\nVALLEJO-NAPA\nAA. TWA -UAL•\nSAN FRANCISCO\nOAKLAND\nSAN JOSE-\nSANTA CLARA\nSANTA CRUZ-\nWATSONVILLE\nMONTEREY -\nCARMEL\nPASO ROBLES\nSAN LUIS OBISPO\nSANTA MARIA\nCAL.\nSANTA BARBARA\nOXNARD - VENTURA\nAA - TWA - UAL\nLOS ANGELES\nSANTA ANA - LAGUNA BEACH\nSAN DIEGO\nEL CENTRO -\nBRAWLEY\nYUMA\nService Between Los Angeles and\nPhoenix pending decision of Civil\nAeronautics Board.\nNEV\nA\nPHOENIX\n•\nAJO\nMEX.",
      "Southwest\nAirways\nCali-\nSan\nWoods\nA COMPLETE TIME TABLE\nPacific Standard Time\nPros-\nSouthwest\nAirways\nSOUTHBOUND\nSun\nRises\nEarly\nBird\nEarly\nSunshine\nBird\nExpress\nNorth Bend Coos Bay\nMedford\nye.\nMedford\nRedding\nRed Bluff\nChico\nCroville\nMarysville-Yuba City\nSacramento\nCrescent City\nEureka-Arcata\nFt. Bragg-Mendocinc\nUkiah\nSanta Rosi\nValleio-Nana\nOakland\nSan Francisco\nSan rancisc\nSan lose-Santa Clara\nWatsonville-Santa Cruz\nMonterey-Carmel\nraso nobles\nSan Luis Obispo\nSanta Maria-Lompoc\nSanta Barbara\nOxnard-Ventura\nLos Angeles (Int1)\n* Los Angeles (Int 1)\n* Santa Ana-Laguna Bch\n* Oceanside\n* San Diego-Coronade\n* El Centro-Brawley.\n* Yuma\n(MST) Lv\nSUN \u0026 HOT\n6:40a\n6:55a\n7:14a\n7:3la\n7-48 A\nSUN \u0026 HOL\nONLY\n9:0Ue\n9:15a\n9:34c\n9.5la\nURUSS\n10:32\nb:4Ua\n7:10a\n8:21a\n8:47a\n9:07a\n9.28a\n9:40a\n8:39a\n9:00a\nSIN \u0026 HO\n9 Ca\nSUN \u0026 HOL\nONLY\n9.30a\n7:5la\n8:10a\n9:5la\n8.27a\n10:10a\n9:10a\n10:27a\n9:30a\n11:10a\n11:30a\n11:52a\n10:18a\n12:18p\n12:4lp\n1:05p\n10:59a\n11-20\n11:30a\nGeneral Information\nEQUIPMENT— 24-Passenger Douglas DC-3's.\nRESERVATIONS - Reservations must be made in advance and\nare tentative until tickets are purchased. Southwest reserves the right\ncance the reservation\non nascenter\nwho fails to present him.\nself at the\nSOUTHWEST Airport ticket office at least 10 minutes\nbefore scheduled departure of flight on\nwhich\nhis reservation\nmade.\nwas\nSCHEDULES - Schedules show the times at which planes may be\nexpected to arrive at or\ndepart from stations, and to\nconnect with\nother planes, but SOUTHWEST AIRWAYS will not\nbe\nresponsible\nfor consequences arising from delays or from errors\nin the printed\nschedule.\nThe times shown are subiect to change without notice.\nBAGGAGE - 40 pounds of personal baggage will be carried free\non\neach ticket\nBaggage in excess of 40 pounds may be carried at\npublished excess baggage rates.\nCHILDREN'S FARES - One child under two years of age, not\ncupying a seat, will be carried fre\nwith each accompanying pas-\nsenger\nover\ntwo vears\nage\nunder\n12 years of age\nand\nwill be charged one-half of applicable one-way\nadult fare, or $2.S0, whichever is greater.\nSun\nRiser\nCoast\nFlyer\n₩ 1:30p\n10237-\nW 3:18g\nW 4:05p\n4:35p\nSIN CHOR\n9.200\n9:50a\n10:40a\n11107-\n11:47a\nDAILY\n12:08p\n1:30p\n12:20p\n1:5lp\n2:17p\n3:100\n3:32p\n3:580\n1450\nONLY\n2.40m\n4:01p\n4:20p\n4:37p\n5:30p\n5:52p\n6:18p\n6:41p\nMARCH 1, 1950\nFares Subiect to Chang\nCascade\nExpress\nW 9.45a\nw10.59-\nW11:30a\nW12:20p\n1:20p\n1:45p\n2:24p\n2:52o\n3:4lp\nDAILY\n4:08p\n4:29p\n4:40p\nW 9:45a\nW11:30,\nW12:20c\n12:30p\n1:50p\nEXCEPT\nSUN \u0026 HOL\nSUN \u0026 HOL\nONLY\nDAILY\n1 2 3/5\nW 3:18p\nW 4:05p\n4:45p\n5:10p\n5:49p\n6:04p\n603r\n:40p\n7-210\n1:080\n1:38p\n2:39p\n2:280\n2:58p\n4:02p\n3 30p\n450p\n43p\n6:33\n6:54p\n7:520\n8:00p\nDAILY\n7:55c\n8:05p\nSUUD\n5:21p\n3:4Up\n5:57p\n6:50p\n7:12p\n7:38p\n8:01p\n8:25p\nNORTHBOUND\n*Phoenix\n* AlO\n* Yuma\n* El Centro-Brawley_\n..(PST) -L\n* San Diego-Coronado\n* Oceanside\n* Santa Ana-Laguna Bch\n* Los Angeles (Int]).\nLos Angeles (Int'l)\nMynard Venture\nSanta Barbara\nSanta Maria-Lompoc\nSan luis Obisno\nPaso Robles\nMonterev. Carmel\nwatsonville-santa Cruz\nSan lose-Santa Clare\nSan Franciscc\nsan francisco\nOakland\nVallejo-Napa\nSanta Rosa\nUkiah!\nFt. Bragg-Mendocino\nEureka-Arcata\nCrescent City\nSacramento\nMarysville-Yuba City\nOroville\nChica\nRed Blat\nReading\nYreka\nMechore\nMedford\nNorth Bend-Coos Bay\nEngene\nPortland\nround trip faresdark face\n1\nONE. WAY AND ROUND TRIP CARES\nRed Bluf\nacrament\n85.70\n585\n... Santa Care\n3290\n888288 88802\nlumbe\nMorning\nMoming\nLumber\nKing\nEXCEP\nSUN \u0026 HO.\nSUN \u0026 HO\nONLY\n8:50a\n10:05a\n10:36a\n9 38-\n10:53a\n9.590\n11:14a\nEXCEPT\nEXCEPT\nSUN \u0026 HOL\nSUN \u0026 HOL\n10:58a\n12:13p\n11:190\n12:340\nSIN \u0026 HOT\nSUN \u0026 HOL\nONLY\nDAILY\nDAILY\n8:20a\nONLY\n9:15a\n11:35a\n1:00p\n1250p\n8:15a\n8:35a\n9 Sa\n9:3Ua\n12Uc\n8:54a\n8-45.\n10:00a\n9:10a\n10:25.\n0-20-1\n10:240\n10:44a\n11:39\n10-52A\n12:07p\n1:4/D\n2:51p\n3:20p\n₩ 1:00p\nW 1:47p\nW 2:25p\n9:22a\n9:44a\n10:01a\n10:16a\n10:350\n10-S0a\n11:340\n₩ 1:00p\nW 1:47p\nW 225p\n₩ 3:35p\n10:12a\n10:34a\n10:5la\n11-06a\n11:25a\n11-40A\n12:24p\n12:45p\n12:45p\n1:53p\n2:15p\n2:40p\n3:07p\n₩ 4:30p\nW 5:17-\nW 5:55p\nW 7:05p\n(All Fares Subject to 15% Federal Transportation Tax\nSanta Barbara\nalejo-Nap\n1\nBismud\nrote one died sir is camento or Sants Road\nAnd from or points or beet to C.A. B. approval\nSun.\ndowner\nDAILY\n5:35p\n5:50p\n0.3U1\n0:00p\n7:14p\n8:09p\n8:35p\nU515p\nU 6:15p\nU 7:20p\nPacini\nExpres\nEvening\n2:05p\n2:470\n3:18p\n3:35r\n4:55m\n5:10p\nMASSIC\nFlyer\nPRIS SUR\n4:3Ur\n5:80\n6.28p\n5490\n7:05p\n6:3Uk\n7:01p\n7.18p\n8:28p\n8:49p\n9:05p\nDAILY\n5:45p\n6:00p\n6:47p\n7:09p\n7:34p\n7:53p\n8:10p\nW 4:30p\nW 5:17p\nW 5:55p\nWUS\nLEGEND\nIndicates Connecting Flights\nU ..... United Air Lines\nW.... West Coast Airlines\n* ....Service between Los Angeles and Phoenix\npending decision of Civil Aeronautics Board\n(PST)... Pacific Standard Time\n(MST).. Mountain Standard Time\na .....A.M.\np ..... P.M."
    ],
    "millsfield:images_texts_ids": [
      1527838069,
      1527850747
    ],
    "millsfield:primary_image": 1527838069,
    "millsfield:subcategory_id": 1511213425,
    "mz:hierarchy_label": 1,
    "mz:is_current": 1,
    "sfomuseum:accession_number": "2005.132.047.004",
    "sfomuseum:airline": "Southwest Airways",
    "sfomuseum:airline_id": [
      666,
      666
    ],
    "sfomuseum:category": "Scheduling / Ticketing",
    "sfomuseum:classification_id": 158,
    "sfomuseum:collection": "Aviation Archive",
    "sfomuseum:creditline": "Gift of the William Hough Collection",
    "sfomuseum:date": "1950",
    "sfomuseum:date_acquired": "2006-12-05",
    "sfomuseum:daterange_end": "1950-12-31",
    "sfomuseum:daterange_start": "1950-01-01",
    "sfomuseum:description": "Timetable issued by Southwest Airways, effective April 30, 1950; four page double-sided fold-out; light green and white cover with route map for destinations in California, Oregon, and Arizona.",
    "sfomuseum:dimensions": "9 x 4 inches (22.9 x 10.2 cm)",
    "sfomuseum:media_ids": [
      1527838069,
      1527850747
    ],
    "sfomuseum:medium": "paper, ink",
    "sfomuseum:object_id": 98201,
    "sfomuseum:placetype": "object",
    "sfomuseum:primary_media_id": 1527838069,
    "sfomuseum:publication": ": , 1950.",
    "sfomuseum:subcategory": "Timetable",
    "src:geom": "sfomuseum#undetermined",
    "wof:belongsto": [
      1511214223,
      102527513,
      102191575,
      85633793,
      1511213425,
      85922583,
      102087579,
      1511214277,
      1511214207,
      85688637
    ],
    "wof:breaches": [],
    "wof:country": "XX",
    "wof:created": 1579906674,
    "wof:depicts": [
      1159284949,
      1159287837
    ],
    "wof:geomhash": "30c8a918561c84bb2daa2b97fc7c5353",
    "wof:hierarchy": [
      {
        "arcade_id": 1511213425,
        "building_id": 1511214277,
        "campus_id": 102527513,
        "concourse_id": 1511214223,
        "continent_id": 102191575,
        "country_id": 85633793,
        "county_id": 102087579,
        "custom_id": 1511937275,
        "locality_id": 85922583,
        "neighbourhood_id": -1,
        "object_id": 1511937275,
        "region_id": 85688637,
        "venue_id": 1511937275,
        "wing_id": 1511214207
      }
    ],
    "wof:id": 1511937275,
    "wof:lastmodified": 1787988183,
    "wof:name": "timetable: Southwest Airways",
    "wof:parent_id": 1159162825,
    "wof:placetype": "custom",
    "wof:placetype_alt": [
      "object"
    ],
    "wof:repo": "sfomuseum-data-collection",
    "wof:superseded_by": [],
    "wof:supersedes": [],
    "wof:tags": []
  },
  "bbox": [
    -122.386155,
    37.616357,
    -122.386155,
    37.616357
  ],
  "geometry": {"type":"Point","coordinates":[-122.386155,37.616357]}
}
