{
  "id": 1913795825,
  "type": "Feature",
  "properties": {
    "date:cessation_lower": "1936-05-13",
    "date:cessation_upper": "1936-05-13",
    "date:inception_lower": "1936-05-13",
    "date:inception_upper": "1936-05-13",
    "edtf:cessation": "1936-05-13",
    "edtf:inception": "1936-05-13",
    "geom:area": 2.475047457570636e-7,
    "geom:bbox": "-122.386472,37.616105,-122.385834,37.616611",
    "geom:latitude": 37.61635747477365,
    "geom:longitude": -122.38615540108617,
    "millsfield:airline_id": [
      1159284991
    ],
    "millsfield:category_id": 1511214251,
    "millsfield:collection_id": 1511214207,
    "millsfield:company_id": [
      1159286839
    ],
    "millsfield:images": [
      1913802035,
      1913802037,
      1913802041
    ],
    "millsfield:images_colors_refs": {
      "crayola": [
        {
          "hex": "#efcdb8"
        },
        {
          "hex": "#414a4c"
        }
      ],
      "css4": [
        {
          "hex": "#2f4f4f"
        },
        {
          "hex": "#f5deb3"
        }
      ],
      "marekm4": [
        {
          "hex": "#e3d3b1"
        },
        {
          "hex": "#e4d5b6"
        },
        {
          "hex": "#3c372b"
        },
        {
          "hex": "#443e2f"
        },
        {
          "hex": "#413a2a"
        },
        {
          "hex": "#e8d8b8"
        }
      ]
    },
    "millsfield:images_texts": [
      "M.S. TJI BADAK\nS. S.\n5/13/34e\nDrarist Wele darling -\nYustr day-\nwhen\narri\nat 1tk it was\na dreamy\ndreadfue day\nfratured by fog ane\nram.\nI want direct\nto the 1.K. hatre and\nlearned that the lat\ntender left at q a.m.\nso had to hustle\nalont\nto\n• get some money\nbuy a\nI lor theo ship-\nClean\nas a whistle.\nver good food - fine",
      "struice performed le Chinese boys\nWho sprak English and understand\nwhat for evant.\nThe crew arron\nthe job the Offend are mick\nlooking courtrous men who ale\nsprak infect.\nI want you to go with me\nsomitime on the trip - this boat\ngos from manila to macassar and\nBali\nher it assurs on the 21st\n(stern dap firm Manica) tir doned\nthen fly in a Dc.z from Bali to\nBatavia and on to Singapor or\nCatch the boat again at Bali.\nMy pact of the exput wones te\nfor company we and yours waned\nnot be great.\nThink it own! This\nboat lears A.K. again on the 23rd\nof June - another lears on the qth\nof June. tir cones go back to\nAre fron Seizapore via Saigon\nankor, etc. It wored be a lot of\nfree- sometting that I ought to do\nwored not take too long.",
      "This ship has a free\npassenger list - moste\nDutch gong.\nback fron\nvacations in Japan. a\nSper Chinese\n→ as and to\ngoung back\nalso and four hundred\ndeck passengers eho\nsleep most of the time\nthe deck.\nPlayre deck lennes\nthis,\naftunoon weth two\nChinese and had a swim\nnow at 10 Pm In read\nfor the hay\ncare, resig\nat manila.\nall my lor to you\nOrbs darling - Bir\n2019.121.0887"
    ],
    "millsfield:images_texts_ids": [
      1913802035,
      1913802037,
      1913802041
    ],
    "millsfield:primary_image": 1913802035,
    "millsfield:subcategory_id": 1511213489,
    "mz:is_approximate": 1,
    "mz:is_current": 1,
    "sfomuseum:accession_number": "2019.121.0887",
    "sfomuseum:airline": "Pan American Airways",
    "sfomuseum:airline_id": [
      685
    ],
    "sfomuseum:category": "Employee Career History",
    "sfomuseum:classification_id": 195,
    "sfomuseum:collection": "Aviation Archive",
    "sfomuseum:creditline": "Collection of SFO Museum",
    "sfomuseum:date": "05/13/1936",
    "sfomuseum:date_acquired": "2019-11-22",
    "sfomuseum:daterange_end": "1936-05-13",
    "sfomuseum:daterange_start": "1936-05-13",
    "sfomuseum:description": "Handwritten letter from Harold M. Bixby to his wife, Debby Bixby, dated May 13, 1936, on stationery from the Java-China-Japan Line “Tjibadak”; includes description of ship and route.",
    "sfomuseum:dimensions": "8 x 5 1/2 inches (20.3 x 14 cm)",
    "sfomuseum:medium": "paper, ink",
    "sfomuseum:object_id": 211240,
    "sfomuseum:placetype": "object",
    "sfomuseum:publication": ": , 05/13/1936.",
    "sfomuseum:subcategory": "Correspondence, Personal",
    "src:geom": "sfomuseum#undetermined",
    "wof:belongsto": [
      102527513,
      1159162825,
      102191575,
      85633793,
      102087579,
      85922583,
      85688637,
      1159160869
    ],
    "wof:country": "XY",
    "wof:created": 1714548905,
    "wof:depicts": [
      1159286839,
      1159284991
    ],
    "wof:geomhash": "c281b9d9eefc83b5710e64b9d646067d",
    "wof:hierarchy": [
      {
        "building_id": -1,
        "campus_id": 102527513,
        "collection_id": 1159162825,
        "concourse_id": 1159162825,
        "continent_id": 102191575,
        "country_id": 85633793,
        "county_id": 102087579,
        "custom_id": 1913795825,
        "locality_id": 85922583,
        "neighbourhood_id": -1,
        "object_id": 1913795825,
        "region_id": 85688637,
        "wing_id": 1159160869
      }
    ],
    "wof:id": 1913795825,
    "wof:lastmodified": 1787988219,
    "wof:name": "correspondence: Harold M. Bixby to Debby Bixby",
    "wof:parent_id": 1159162825,
    "wof:placetype": "custom",
    "wof:placetype_alt": [
      "object"
    ],
    "wof:repo": "sfomuseum-data-collection",
    "wof:superseded_by": [],
    "wof:supersedes": []
  },
  "bbox": [
    -122.38647222518921,
    37.6161053594541,
    -122.38583385944366,
    37.61661101879963
  ],
  "geometry": {"type":"Polygon","coordinates":[[[-122.38647222518921,37.61631782178288],[-122.386434674263,37.61623283692423],[-122.38637566566466,37.61617759671399],[-122.38630056381224,37.6161308549656],[-122.38616108894348,37.6161053594541],[-122.38602161407469,37.6161308549656],[-122.38591432571411,37.61618609521055],[-122.38585531711577,37.61626683087935],[-122.38583385944366,37.61636881265146],[-122.38587141036987,37.61646654505181],[-122.38594114780425,37.61654303118856],[-122.38605380058287,37.61660252035167],[-122.38618254661559,37.61661101879963],[-122.3863059282303,37.61657277577607],[-122.3864185810089,37.61650903735973],[-122.3864668607712,37.61641130501523],[-122.38647222518921,37.61631782178288]]]}
}
