{
  "id": 1511921567,
  "type": "Feature",
  "properties": {
    "date:cessation_lower": "1940-01-01",
    "date:cessation_upper": "1940-12-31",
    "date:inception_lower": "1940-01-01",
    "date:inception_upper": "1940-12-31",
    "edtf:cessation": "1940~",
    "edtf:date": "1940~",
    "edtf:inception": "1940~",
    "geom:area": 0,
    "geom:bbox": "-122.386155,37.616357,-122.386155,37.616357",
    "geom:latitude": 37.616357,
    "geom:longitude": -122.386155,
    "iso:country": "US",
    "millsfield:aircraft_id": [
      1159290417
    ],
    "millsfield:category_id": 1763416397,
    "millsfield:collection_id": 1511214207,
    "millsfield:company_id": [],
    "millsfield:images": [
      1527819415
    ],
    "millsfield:images_colors_refs": {
      "crayola": [
        {
          "hex": "#414a4c"
        },
        {
          "hex": "#1a4876"
        },
        {
          "hex": "#bab86c"
        },
        {
          "hex": "#6699cc"
        },
        {
          "hex": "#efdecd"
        }
      ],
      "css4": [
        {
          "hex": "#778899"
        },
        {
          "hex": "#faebd7"
        },
        {
          "hex": "#483d8b"
        },
        {
          "hex": "#bdb76b"
        },
        {
          "hex": "#2f4f4f"
        }
      ],
      "marekm4": [
        {
          "hex": "#213b54"
        },
        {
          "hex": "#a8a254"
        },
        {
          "hex": "#6a8ea7"
        },
        {
          "hex": "#ebe0cc"
        },
        {
          "hex": "#1d458c"
        }
      ]
    },
    "millsfield:images_texts": [
      "FLY-IT COSTS LESS THAN YOU THINK\nT7312\nSee how these attractive one-way air fares between a few cities served by the\ndomestic and international Airlines of the United States compare with your\nown idea of the cost of Air Travel\nElapsed Time *\nAtlanta\nChicago\nCleve-\nland\nHono-\nlulu\nrious\nton\nKansas\nCity\nLos\nAngeles\nMem-\nphis\nMexico\nCity\nMiami\nPhoenix\nSt.\nLouis\nBermuda\n*Time\n118.15\n114.95\n12:55\n11:22\n96.70\n9:22\n44:30\n164.15\n18:25\n136.45\n17:50\n219.95\n24:00\n132.10\n222.60\n141.75\n209.90\n13:04\n25:40\n16:00\n22:10\n123.50\n13:59\n60.10\n54.20\nBoston\n437.20\nTime\n8:39\n106.10\n14:09\n75.70\n159.20\n17:19\n74.05\n7.59\n164.55\n21:24\n83.70\n10:55\n150.60\n65.45\n16:14\n7:19\nDallas-\nFt. Worth\nTime\n38.50\n40.85\n04.40 5/0.45\n5:55\n6:40\n31:10\n14.00\n1:35\n27.50\n3:45\n69.10\n7.10\n27.40\n2:23\n70.00\n8:40\n75.75\n10:04\n57.30\n6:28\n33.90\n4:21\n46.40\n13.25\nDetroit\n1:30\n7.90\n396.25\n38:00\n74.10\n34.75\n118.25\n39.63\n130.10\n83.65\nTime\n7.25\n11:30\n6:16\n19:00\n10:25\n113.65\n14:30\n26.20\n485U\n3:32\nWinneaDols-\n16.50\n38.59\nSt. Paul\nTime\n7.10\n2:10\n4:40\n34:00\n65.50\n44.00\n47.88\n13:55\n4:02\n13:30\n5:58\n121.50\n22:30\n92.65\n11:55\n107.50\n16:55\n28.95\n4:01\n25.70|\n44.60\n62.85\nNew Orleans\n6:36\n400.06\n31:05\n20.30\n2:05\n46.64\n103.11\n19.76\nTime\n80.30\n47.20\n7:10\n86.91\n11:43\n33.69\n4:38\nNewark.\nNew York\nTime\n48.15\n2:39\n44.95\n427.95\n00.45\n5:05\n3:59\n2:23\n37:43\n10:35\n6:29\n406.95\n80.40\n15:17\n6:00\n17:50\n71.75\n8:20\n139.90\n14:35\n53.50\n5:17\nPittsburgh\n49.35\n7.00\n45.45\n128.95\n45.70\n72.95\nTime\n23.95\n136.40\n119.50\n32.50\n5:30\n2:27\n0:50\n37:35\n11:11\n4:38\n13:05\n5:48\n19:30\n3:05\nSalt LaKE\n58.03\n144.\nCity\nTime\n12:45\n73.95\n7:06\n9:05\n24:13\n16:55\n10:21\n34.75\n278.00\n102.05\n3:50\n85.5l\n11:04\n17:35\n17:35\n37.00\n7.14\n71.58\n9:04\n3095\n18.95\n128.95\n-rancisco\nTime\n105.00\n123.25\n94.03\n117.05\n42.10\n105.00\n16:35\n11:01\n13:00\n18:00\n17:00\n11:17\n2:04\n12:48\n14:00\n41-40\n4945\n99.00\nSeattle\nTime\n19:15\n12:50\n15:45\n25:30\n19:30\n16:51\n7:34\n17:34\n24:25\n24:15\n86.08\n11:17\n111.95\n15:34\nWashington\n35.95\n36.00\n19.10\n417.75\n4:17\n2.20\n81.95\n56.65\n139.75\n49.90\n140.45\n59.55\n127.75\nTime\n43.70\n3.95\n38.10\n9-00\n14:10\n4:07\n16:10\n0:AS\n4:30\nYou can save dollars, hours and days by using the fast, direct air service operating day and night between more\nthan 265 United States cities and 53 forein countries. To make a true comparison between the cost ot Air 1ravel\nand tae cost or tastes ars •class surace transportation,add extra rares. cost orspect accommodations, meals, Up\nand other incidentals of surface travel. Remember the Airlines give at least a 10% saving on Round-trip tickets.\nFares quoted subject to change without notice\n* Elapsed time in hours and minutes\nMANY people who have never been off the\nborder journeys—and weeks on trips to foreign\nground believe air travel is expensive.\nlands. In the air, meals are free and attend-\nNothing could be farther from the truth as\nants are forbidden to accept tips.\nyou can see by checking the one-way fares\nWhen business calls for travel-fly and save\nshown above.\nhours and days for productive work; save en-\nIn most cases, an air ticket costs no more\nergy and traveling expense. Cover the same\nthan you would pay for the fastest first-class\nterritory and have more time at home.\ntravel on the ground when all costs are\nWhen pleasure calls for travel -fly and\nconsidered.\nhave more time for play at your destination.\nAnd remember, flying saves hours on short\nIt costs much less than you think to fly.\ntrips, days on transcontinental and border to\nWhy not make your next trip by air?\nAIR TRANSPORT ASSOCIATION, 135 South LaSalle Street, Chicago, Illinois\nAsk Your Travel Agent: It's easy to buy an air ticket to any place\nin the United States or the world. Simply phone or call at any Travel\nBureau, Hotel Transportation Desk, Telegraph office or local Airline\noffice, for airline schedules and fares or information\nIT PAYS TO\nThis educational campaign is sponsored jointly by\nturers and Suppliers to the Air Transport Industry"
    ],
    "millsfield:images_texts_ids": [
      1527819415
    ],
    "millsfield:primary_image": 1527819415,
    "millsfield:subcategory_id": 1511213149,
    "mz:hierarchy_label": 1,
    "mz:is_current": 1,
    "sfomuseum:accession_number": "2001.094.002",
    "sfomuseum:aircraft": "Douglas DC-3",
    "sfomuseum:aircraft_id": [
      487
    ],
    "sfomuseum:category": "Promotional, Archive",
    "sfomuseum:classification_id": 6,
    "sfomuseum:collection": "Aviation Archive",
    "sfomuseum:continent": "North America",
    "sfomuseum:country": "United States",
    "sfomuseum:creditline": "Gift of Kathleen M. Smookler",
    "sfomuseum:date": "c. 1940",
    "sfomuseum:date_acquired": "2001-07-19",
    "sfomuseum:daterange_end": "1945-12-31",
    "sfomuseum:daterange_start": "1935-01-01",
    "sfomuseum:description": "Advertisement produced by Air Transport Association titled, \"Fly - It costs less than you think”  with color illustration of stylized inflight Douglas DC-3; chart in center with fares and route map.",
    "sfomuseum:dimensions": "14 x 10 inches (35.6 x 25.4 cm)",
    "sfomuseum:media_ids": [
      1527819415
    ],
    "sfomuseum:medium": "paper, ink",
    "sfomuseum:object_id": 60826,
    "sfomuseum:placetype": "object",
    "sfomuseum:primary_media_id": 1527819415,
    "sfomuseum:publication": ": , c. 1940.",
    "sfomuseum:subcategory": "Advertisement, 2D",
    "src:geom": "sfomuseum#undetermined",
    "wof:belongsto": [
      1511214205,
      102527513,
      102191575,
      85633793,
      1511213149,
      85922583,
      102087579,
      1511214277,
      1511214207,
      85688637,
      136253057
    ],
    "wof:breaches": [],
    "wof:country": "US",
    "wof:created": 1579906679,
    "wof:depicts": [
      1159290417
    ],
    "wof:geomhash": "30c8a918561c84bb2daa2b97fc7c5353",
    "wof:hierarchy": [
      {
        "arcade_id": 1511213149,
        "building_id": 1511214277,
        "campus_id": 102527513,
        "concourse_id": 1511214205,
        "continent_id": 102191575,
        "country_id": 85633793,
        "county_id": 102087579,
        "custom_id": 1511921567,
        "locality_id": 85922583,
        "neighbourhood_id": -1,
        "object_id": 1511921567,
        "region_id": 85688637,
        "venue_id": 1511921567,
        "wing_id": 1511214207
      },
      {
        "continent_id": 102191575,
        "country_id": 85633793,
        "custom_id": 1511921567,
        "empire_id": 136253057,
        "object_id": 1511921567,
        "venue_id": 1511921567
      }
    ],
    "wof:id": 1511921567,
    "wof:lastmodified": 1787988177,
    "wof:name": "advertisement: Air Transport Association",
    "wof:parent_id": 1159162825,
    "wof:placetype": "custom",
    "wof:placetype_alt": [
      "object"
    ],
    "wof:repo": "sfomuseum-data-collection",
    "wof:superseded_by": [],
    "wof:supersedes": [],
    "wof:tags": []
  },
  "bbox": [
    -122.386155,
    37.616357,
    -122.386155,
    37.616357
  ],
  "geometry": {"type":"Point","coordinates":[-122.386155,37.616357]}
}
