{
  "id": 1762831933,
  "type": "Feature",
  "properties": {
    "date:cessation_lower": "1969-01-01",
    "date:cessation_upper": "1969-12-31",
    "date:inception_lower": "1969-01-01",
    "date:inception_upper": "1969-12-31",
    "edtf:cessation": "1969",
    "edtf:inception": "1969",
    "geom:area": 2.475047457570636e-7,
    "geom:bbox": "-122.386472,37.616105,-122.385834,37.616611",
    "geom:latitude": 37.61635747477365,
    "geom:longitude": -122.38615540108617,
    "millsfield:airline_id": [
      1159284989
    ],
    "millsfield:category_id": 1511214239,
    "millsfield:collection_id": 1511214207,
    "millsfield:company_id": [
      1159286839
    ],
    "millsfield:exhibition_ids": [
      1159160311
    ],
    "millsfield:images": [
      1762893209
    ],
    "millsfield:images_colors_refs": {
      "crayola": [
        {
          "hex": "#414a4c"
        },
        {
          "hex": "#9f8170"
        },
        {
          "hex": "#eceabe"
        },
        {
          "hex": "#9c7c38"
        }
      ],
      "css4": [
        {
          "hex": "#a0522d"
        },
        {
          "hex": "#556b2f"
        },
        {
          "hex": "#f5deb3"
        },
        {
          "hex": "#bc8f8f"
        }
      ],
      "marekm4": [
        {
          "hex": "#eae1c1"
        },
        {
          "hex": "#ae906b"
        },
        {
          "hex": "#9a6034"
        },
        {
          "hex": "#4a3d2b"
        }
      ]
    },
    "millsfield:images_texts": [
      "$12.5375/shace\nSHAR\nEF0C11112\nCAPITAL STOCK\nSHARES\n+19-\nCAPITAL STOCK\nINCORPORATED UNDERTHE\nLAWS\nOF THE STATE\nNEW YORK.\nThis Certifies that\nPAN AMERICAN WORLD AIRWAYS, INC.\nJANICE BOLANGSTON \u0026\nCLARENCE A LANGSTON JT TEN\n0307 MELBOURNE AVENUE\nINDIALANTIC\nFLORIDA 32901\nHIS CERTIFICATE IS TRANSFERABLE\nJN TI\nYO-NEWYORK\nOO-SAN FRANCISC\nHICAGO OR IN\nis the owner of\nSEE REVERSE FOR\nCERTAIN DEFINITIONS\n**NINETEEN**\nFULLY PAID AND NON-ASSESSABLE SHARES OF THE CAPITAL STOCK OF\nPan American Nootd Siwan, Ino transferabe in peson or by duhp nuthe ed allonapupen müonder of thes\nfertificale pinpichy odöised. this titifionle isissu sutjeclo ult the lerms of the lorporations\nlahifienh ol\nnemporation\nas amer\naus as amended, to ulc efernc is höubyy made wot the same effect as\nhoy vớn houn sd tơnh\nin full and k\nficovesions of which the holder\nhereof by acceptance of\nThis löchtcake assenb.\ntransfer Ugent and registered by the hegistar.\nsignalires of is duly authorised offices.\nDaled\nSEP 30\nfrie kag. fi.\nSECRETARY\nSEAL\n1927\nKE. Bray\nCHARMAN OF\nTHE BOARD\nASSISTANT SECRETARY\n11112\nCERT\nLESS THAN IOO\nSHARES\nCATE\nCOUNTERSIGNED:\nBANKERS TRUST COMPANY,\nTRANSFER AGENT.\n8\n7\n8\n8\n9\n00"
    ],
    "millsfield:images_texts_ids": [
      1762893209
    ],
    "millsfield:on_view": 0,
    "millsfield:primary_image": 1762893209,
    "millsfield:subcategory_id": 1511213681,
    "mz:is_current": 1,
    "sfomuseum:accession_number": "2010.279.001.078",
    "sfomuseum:airline": "Pan American World Airways",
    "sfomuseum:airline_id": [
      684
    ],
    "sfomuseum:category": "Company Record / Document",
    "sfomuseum:classification_id": 462,
    "sfomuseum:collection": "Aviation Archive",
    "sfomuseum:creditline": "Gift of Jon E. Krupnick",
    "sfomuseum:date": "1969",
    "sfomuseum:date_acquired": "2011-01-28",
    "sfomuseum:daterange_end": "1969-12-31",
    "sfomuseum:daterange_start": "1969-01-01",
    "sfomuseum:description": "Stock certificate issued to Janice B. Langston and Clarence A. Langston for 19 shares of Pan American World Airways, Inc.; brown and white; certificate number EF0011112, dated September 30, 1969; engraved signatures of [illegible signature], Secretary, and H. E. Gray, Chairman of the Board; countersigned by Bankers Trust Company, registered by Chemical Bank (New York); certificate note by American Bank Note Company.",
    "sfomuseum:dimensions": "8 x 12 inches (20.3 x 30.5 cm)",
    "sfomuseum:exhibition_ids": [
      1189
    ],
    "sfomuseum:medium": "paper, ink",
    "sfomuseum:object_id": 112284,
    "sfomuseum:placetype": "object",
    "sfomuseum:publication": ": , 1969.",
    "sfomuseum:subcategory": "Stock Certificate / Bond",
    "src:geom": "sfomuseum#undetermined",
    "wof:belongsto": [
      102527513,
      1159162825,
      102191575,
      85633793,
      102087579,
      85922583,
      85688637,
      1159160869
    ],
    "wof:country": "XY",
    "wof:created": 1642730344,
    "wof:depicts": [
      1159286839,
      1159284989
    ],
    "wof:geomhash": "c281b9d9eefc83b5710e64b9d646067d",
    "wof:hierarchy": [
      {
        "building_id": -1,
        "campus_id": 102527513,
        "collection_id": 1159162825,
        "concourse_id": 1159162825,
        "continent_id": 102191575,
        "country_id": 85633793,
        "county_id": 102087579,
        "custom_id": 1762831933,
        "locality_id": 85922583,
        "neighbourhood_id": -1,
        "object_id": 1762831933,
        "region_id": 85688637,
        "wing_id": 1159160869
      }
    ],
    "wof:id": 1762831933,
    "wof:lastmodified": 1787988202,
    "wof:name": "stock certificate: Pan American World Airways",
    "wof:parent_id": 1159162825,
    "wof:placetype": "custom",
    "wof:placetype_alt": [
      "object"
    ],
    "wof:repo": "sfomuseum-data-collection",
    "wof:superseded_by": [],
    "wof:supersedes": []
  },
  "bbox": [
    -122.38647222518921,
    37.6161053594541,
    -122.38583385944366,
    37.61661101879963
  ],
  "geometry": {"type":"Polygon","coordinates":[[[-122.38647222518921,37.61631782178288],[-122.386434674263,37.61623283692423],[-122.38637566566466,37.61617759671399],[-122.38630056381224,37.6161308549656],[-122.38616108894348,37.6161053594541],[-122.38602161407469,37.6161308549656],[-122.38591432571411,37.61618609521055],[-122.38585531711577,37.61626683087935],[-122.38583385944366,37.61636881265146],[-122.38587141036987,37.61646654505181],[-122.38594114780425,37.61654303118856],[-122.38605380058287,37.61660252035167],[-122.38618254661559,37.61661101879963],[-122.3863059282303,37.61657277577607],[-122.3864185810089,37.61650903735973],[-122.3864668607712,37.61641130501523],[-122.38647222518921,37.61631782178288]]]}
}
