{
  "id": 1511943081,
  "type": "Feature",
  "properties": {
    "date:cessation_lower": "1976-01-01",
    "date:cessation_upper": "1976-12-31",
    "date:inception_lower": "1976-01-01",
    "date:inception_upper": "1976-12-31",
    "edtf:cessation": "1976",
    "edtf:date": "1976",
    "edtf:inception": "1976",
    "geom:area": 0,
    "geom:bbox": "-122.386155,37.616357,-122.386155,37.616357",
    "geom:latitude": 37.616357,
    "geom:longitude": -122.386155,
    "iso:country": "XX",
    "millsfield:aircraft_id": [
      1159289653
    ],
    "millsfield:airline_id": [
      1729557769
    ],
    "millsfield:category_id": 1511214223,
    "millsfield:collection_id": 1511214207,
    "millsfield:company_id": [
      1159293593
    ],
    "millsfield:images": [
      1527845703
    ],
    "millsfield:images_colors_refs": {
      "crayola": [
        {
          "hex": "#414a4c"
        },
        {
          "hex": "#ffa343"
        },
        {
          "hex": "#efdecd"
        }
      ],
      "css4": [
        {
          "hex": "#faebd7"
        },
        {
          "hex": "#2f4f4f"
        },
        {
          "hex": "#ffa500"
        }
      ],
      "marekm4": [
        {
          "hex": "#f8a007"
        },
        {
          "hex": "#eee9d5"
        },
        {
          "hex": "#2b2a20"
        }
      ]
    },
    "millsfield:images_texts": [
      "AEROCONDOR\nNEWS\nBOEING 707-C FREIGHTER\nSCHEDULES\nEffective July 19, 1976\n707-C\n707-C\nL-188\nL-188\nL-188\nOD-151\nOD-153\nOD-161\nOD-16 3.\nOD-165\nMo-Tu\nIn - sa\nSu\nMo\nTu\nWe\nL-188\nOD-167\nL-188\nL-188\nOD-169\nOD- 171\nAIRCRAFT\nFLIGHT\n707-C\nOD-152\nEX\nWe-Fr\nL-188\nL-188\nOD-164\nOD-166\n1500\n1200\n0400\n0400\n1330\n1700\n0630\n0730\n0630\n0800\n0900\n1730\n1800\n0930\nTh\nFr\n0400\n0400\n0400\n0600\n0800\n0930\n0700\n0900\n-\n0700\n0900\n0930\n1000\nL-188\nOD-162\nSa\nFREQUENCY\nMo\n0400\nLV MIAMI\nAR\n0200\n2000\n4\nAR\nSAN ANDRES ISLA\nLV\nLV\nAR\n0630\n0800\nAR\nBARRANQUILLA\nLV\nLV\nAR\n1530\n1330\niN CARTAGENA\nLV\nAR\nAR MEDELLIN\nLV\nAR\nBUCARAMANGA\nLV\nAR\n1200\nAR\nBOGOTA\nLV\nAR\n2130\nAR\nLV\nPEREIRA\nLV\nAR\n1000\nAR CALI\nLV\nPALLET RATES AVAILABLE\nFOR RESERVATIONS CALL:\nMiami 526-3150\nU.S.A. 1-(800) 327-1270\n\"Aerocondor Serves You Best\"\nTu\n2000\n1530\n1400\n1230\nL-188\nOD-168\nWe\nTh\n2100\n4\n1630\n1630\n1530\n1200\n1415\n1300\n1200\nTOLL FREE NUMBERS FOR PASSENGER RESERVATIONS AND INFORMATION\nU.S.A.\n1-800-327-7406\nFlorida\n1-800-432-9079\nMiami\n358-3777\nCargo\n1-800-327-1270\nL-188\nOD-170\nFr\n2000\n1530\n1430\n1315\n1200\n1130\nL-188\nOD-172\nSa\n2000\n4\n1530\n1400\n1200\nMIA\nADZ\nBAQ\nCTG\nMDE\nBGA\nBOG\nPEI\nCLO"
    ],
    "millsfield:images_texts_ids": [
      1527845703
    ],
    "millsfield:primary_image": 1527845703,
    "millsfield:subcategory_id": 1511213425,
    "mz:hierarchy_label": 1,
    "mz:is_current": 1,
    "sfomuseum:accession_number": "2010.225.033",
    "sfomuseum:aircraft": "Boeing 707",
    "sfomuseum:aircraft_id": [
      133
    ],
    "sfomuseum:airline": "Aerocondor Colombia",
    "sfomuseum:airline_id": [
      1401
    ],
    "sfomuseum:category": "Scheduling / Ticketing",
    "sfomuseum:classification_id": 158,
    "sfomuseum:collection": "Aviation Archive",
    "sfomuseum:creditline": "Gift of the William Hough Collection",
    "sfomuseum:date": "1976",
    "sfomuseum:date_acquired": "2011-11-10",
    "sfomuseum:daterange_end": "1976-12-31",
    "sfomuseum:daterange_start": "1976-01-01",
    "sfomuseum:description": "Large timetable issued by Aerocondor Colombia for Boeing 707-C freighter service, effective July 19, 1976; single sheet, orange and white, titled “Aerocondor News” with black and white profile view of aircraft.",
    "sfomuseum:dimensions": "11 x 8 1/2 inches (27.9 x 21.6 cm)",
    "sfomuseum:media_ids": [
      1527845703
    ],
    "sfomuseum:medium": "paper, ink",
    "sfomuseum:object_id": 111295,
    "sfomuseum:placetype": "object",
    "sfomuseum:primary_media_id": 1527845703,
    "sfomuseum:publication": ": , 1976.",
    "sfomuseum:subcategory": "Timetable",
    "src:geom": "sfomuseum#undetermined",
    "wof:belongsto": [
      1511214223,
      102527513,
      102191575,
      85633793,
      1511213425,
      85922583,
      102087579,
      1511214277,
      1511214207,
      85688637
    ],
    "wof:breaches": [],
    "wof:country": "XX",
    "wof:created": 1579906664,
    "wof:depicts": [
      1159289653,
      1159293593,
      1729557769
    ],
    "wof:geomhash": "30c8a918561c84bb2daa2b97fc7c5353",
    "wof:hierarchy": [
      {
        "arcade_id": 1511213425,
        "building_id": 1511214277,
        "campus_id": 102527513,
        "concourse_id": 1511214223,
        "continent_id": 102191575,
        "country_id": 85633793,
        "county_id": 102087579,
        "custom_id": 1511943081,
        "locality_id": 85922583,
        "neighbourhood_id": -1,
        "object_id": 1511943081,
        "region_id": 85688637,
        "venue_id": 1511943081,
        "wing_id": 1511214207
      }
    ],
    "wof:id": 1511943081,
    "wof:lastmodified": 1787988185,
    "wof:name": "timetable: Aerocondor, Boeing 707-C",
    "wof:parent_id": 1159162825,
    "wof:placetype": "custom",
    "wof:placetype_alt": [
      "object"
    ],
    "wof:repo": "sfomuseum-data-collection",
    "wof:superseded_by": [],
    "wof:supersedes": [],
    "wof:tags": []
  },
  "bbox": [
    -122.386155,
    37.616357,
    -122.386155,
    37.616357
  ],
  "geometry": {"type":"Point","coordinates":[-122.386155,37.616357]}
}
