{
  "id": 1511951183,
  "type": "Feature",
  "properties": {
    "date:cessation_lower": "1947-01-01",
    "date:cessation_upper": "1947-12-31",
    "date:inception_lower": "1947-01-01",
    "date:inception_upper": "1947-12-31",
    "edtf:cessation": "1947",
    "edtf:date": "1947",
    "edtf:inception": "1947",
    "geom:area": 0,
    "geom:bbox": "-122.386155,37.616357,-122.386155,37.616357",
    "geom:latitude": 37.616357,
    "geom:longitude": -122.386155,
    "iso:country": "XX",
    "millsfield:airline_id": [
      1159284989
    ],
    "millsfield:category_id": 1763416397,
    "millsfield:collection_id": 1511214207,
    "millsfield:company_id": [
      1159286839
    ],
    "millsfield:images": [
      1763388327
    ],
    "millsfield:images_colors_refs": {
      "crayola": [
        {
          "hex": "#414a4c"
        },
        {
          "hex": "#fddde6"
        },
        {
          "hex": "#d68a59"
        },
        {
          "hex": "#7851a9"
        },
        {
          "hex": "#a5694f"
        }
      ],
      "css4": [
        {
          "hex": "#bdb76b"
        },
        {
          "hex": "#2f4f4f"
        },
        {
          "hex": "#a0522d"
        },
        {
          "hex": "#708090"
        },
        {
          "hex": "#faf0e6"
        }
      ],
      "marekm4": [
        {
          "hex": "#a86649"
        },
        {
          "hex": "#443f43"
        },
        {
          "hex": "#5c6c97"
        },
        {
          "hex": "#d0a05c"
        },
        {
          "hex": "#f3f0eb"
        }
      ]
    },
    "millsfield:images_texts": [
      "rebruary longer\n\"We felt the lure of Latin America\nthe instant we boarded the Clipper\"\n'St, Senores Ramírez,' the stewardess was saying as we stepped\nsoara te cmper... den que puedo serviries.\n\"... And the answer of our Latin American fellow passengers was\nso rapid, so musical, so different from English that Tom and I felt\nwe were already in Latin America even before the Clipper took off!\n\"Here we were at New York in the dead of winter. Yet in only 8\nBours, the same stewardess told us in English, we'd be landing in\ntopical ruerto rico. ... benevelt or not, thats almost a third of the\nway to distant Rio de Janeiro!\"\nJanuary and February are Midsummer in Rio! Here at world-\nfamous Copacabana Beach you can stroll, hatless, along hand-set\nmosaic sidewalks and laugh at ice and snow. Pan American. the\nworld's most experienced international airline, has made possible a\nnew, more exciting kind of winter vacation in distant foreign lands.\nWant to fly somewhere closer to home? Ask your Travel Agent about Clipper\nservice to MEXICO and GUATEMALA! In Guatemala (above) Indian craftsmen\nweave intricate designs by hand, without even using a pattern. You can iv there\nfrom Miami, New Orleans, Nuevo Laredo, Houston, Brownsville or Los Angeles ...\nWinter is the \"dry season\" in Guatemala-sunshine every day. Stopovers easily arranged.\nThat extra something that makes \"going by Clipper\" a delightful experience\nA Great Tradition\nMakes You Our Guest\nWe or Pan Amencan share in a nineteen.\nyear record of public service unequaled in\nair transport.\nWe realize and know in detail every one\nof the requirements which make traveling\nabroad so different from traveling inside\nthe United States-and so much more\ninteresting! It is our privilege and duty\nto act as your host from the minute you\nreach the airport until you leave us at your\ndestination.\nCall on us for help with customs, foreign\nexchange and immigration procedures -\nfor any personal service great or small re-\ngarding your transportation ... A great\ntacon makes you our quest\nPAN AMERICAN\nWORLD AIRWAYS\nPAA\nThe System of the Hlying Clippers\nSee your local Travel Agent or the nearest Pan American\noffice for rates and reservations, not only to Latin America but\nalso to burope...Alrica... Alaska... Australasia...or the Orient.\nWORLD'S MOST\nEXPERIENCED\nAIRLINE\nOn foreign soil you're greeted by a friendly Passenger-Servie-Representative who speaks English, makes you feel at home abroad."
    ],
    "millsfield:images_texts_ids": [
      1763388327
    ],
    "millsfield:primary_image": 1763388327,
    "millsfield:subcategory_id": 1511213149,
    "mz:hierarchy_label": 1,
    "mz:is_current": 1,
    "sfomuseum:accession_number": "2001.038.164.027",
    "sfomuseum:airline": "Pan American World Airways",
    "sfomuseum:airline_id": [
      684
    ],
    "sfomuseum:category": "Promotional, Archive",
    "sfomuseum:classification_id": 6,
    "sfomuseum:collection": "Aviation Archive",
    "sfomuseum:creditline": "Gift of Barnaby Conrad III",
    "sfomuseum:date": "1947",
    "sfomuseum:date_acquired": "2003-05-16",
    "sfomuseum:daterange_end": "1947-12-31",
    "sfomuseum:daterange_start": "1947-01-01",
    "sfomuseum:description": "Two-page advertisement from February 1, 1947 issue of Saturday Evening Post promoting Pan American World Airways, titled “We felt the lure of Latin America the instant we boarded the Clipper / That extra something that makes ‘going by Clipper’ a delightful experience”; contains color illustration of flight attendant greeting seated passengers, with smaller images depicting tourist destinations in Rio de Janeiro, Mexico, and Guatemala.",
    "sfomuseum:dimensions": "14 x 21 inches (35.6 x 53.3 cm)",
    "sfomuseum:medium": "paper, ink",
    "sfomuseum:object_id": 122738,
    "sfomuseum:placetype": "object",
    "sfomuseum:publication": ": , 1947.",
    "sfomuseum:subcategory": "Advertisement, 2D",
    "sfomuseum:subject": "Pan Am promotional advertisement",
    "src:geom": "sfomuseum#undetermined",
    "wof:belongsto": [
      1511214205,
      102527513,
      102191575,
      85633793,
      1511213149,
      85922583,
      102087579,
      1511214277,
      1511214207,
      85688637
    ],
    "wof:breaches": [],
    "wof:country": "XX",
    "wof:created": 1618962245,
    "wof:depicts": [
      1159286839,
      1159284989
    ],
    "wof:geomhash": "30c8a918561c84bb2daa2b97fc7c5353",
    "wof:hierarchy": [
      {
        "arcade_id": 1511213149,
        "building_id": 1511214277,
        "campus_id": 102527513,
        "concourse_id": 1511214205,
        "continent_id": 102191575,
        "country_id": 85633793,
        "county_id": 102087579,
        "custom_id": 1511951183,
        "locality_id": 85922583,
        "neighbourhood_id": -1,
        "object_id": 1511951183,
        "region_id": 85688637,
        "venue_id": 1511951183,
        "wing_id": 1511214207
      }
    ],
    "wof:id": 1511951183,
    "wof:lastmodified": 1787988188,
    "wof:name": "advertisement: Pan American World Airways, Saturday Evening Post",
    "wof:parent_id": 1159162825,
    "wof:placetype": "custom",
    "wof:placetype_alt": [
      "object"
    ],
    "wof:repo": "sfomuseum-data-collection",
    "wof:superseded_by": [],
    "wof:supersedes": [],
    "wof:tags": []
  },
  "bbox": [
    -122.386155,
    37.616357,
    -122.386155,
    37.616357
  ],
  "geometry": {"type":"Point","coordinates":[-122.386155,37.616357]}
}
