{
  "id": 1511932019,
  "type": "Feature",
  "properties": {
    "date:cessation_lower": "1982-01-01",
    "date:cessation_upper": "1982-12-31",
    "date:inception_lower": "1982-01-01",
    "date:inception_upper": "1982-12-31",
    "edtf:cessation": "1982",
    "edtf:date": "1982",
    "edtf:inception": "1982",
    "geom:area": 0,
    "geom:bbox": "-122.386155,37.616357,-122.386155,37.616357",
    "geom:latitude": 37.616357,
    "geom:longitude": -122.386155,
    "iso:country": "XX",
    "millsfield:airline_id": [
      1159284059
    ],
    "millsfield:category_id": 1511214223,
    "millsfield:collection_id": 1511214207,
    "millsfield:company_id": [
      1159286763
    ],
    "millsfield:images": [
      1527851443
    ],
    "millsfield:images_colors_refs": {
      "crayola": [
        {
          "hex": "#324ab2"
        },
        {
          "hex": "#ffffff"
        }
      ],
      "css4": [
        {
          "hex": "#fffaf0"
        },
        {
          "hex": "#483d8b"
        }
      ],
      "marekm4": [
        {
          "hex": "#3845a2"
        },
        {
          "hex": "#fbf9f1"
        }
      ]
    },
    "millsfield:images_texts": [
      "CAAC\nSAN FRANCISCO OFFICE\n• 51 GRANT AVENUE • SAN FRANCISCO, CA 94108 • PHONE (415) 392-2156 • 392-2161\nNEW YORK OFFICE\n477 MADISON AVE.\nSUITE 707\nNEW YORK, NY 10022\nLOS ANGELES OFFICE\n•\n2500 WILSHIRE BOULEVARD\n•\nLOS ANGELES, CA 90057\n212) 371-9898\n(213) 384-2703\nCA985\nMON.\nB-747SP\n09:30\n11:10\n12:55\n09:40\nFROM\nSAN FRANCISCO\nFIRST CLASS/OW\nBUSINESS CLASS/OW\nECONOMY CLASS/OW\nYHAP (HIGH SEASON)\nYLAP (LOW SEASON)\nYHGV (HIGH SEASON)\nYLGV (LOW SEASON)\nBUDGET FARE/OW\nBUDGET FARE/RT\nYHAP\nYLAP\nYHGV\nYLGV\nCHINA-USA SERVICE TIMETABLES\n01APR-310CT, ALL TIMES LOCAL, 1982\nCA983\nSAT.\nB-747SP\n10:35\n12:15\n13:50\nCA981\nWED.\nB-747SP\n10:10\n11:50\n13:20\nDEP\nARR\nDEP\nFLIGHT NUMBER\nDAYS\nAIRCRAFT\nPEKING\nSHANGHAI\nSHANGHAI\nARR\nDEP\nARR\n10:10\n09:40\n11:35\nCA982\nTHUR.\nB-747SP\n22:20\n20:35\n19:35\n(FRI.)\n15:15\n13:45\nCA984\nSAT.\nB-747SP\n21:20\n19:35\n18:25\n(SUN.)\n14:00\n19:50\nARR\nDEP\nARR\nARR\nS.F\nS.F.\nL.A.\nN.Y.\nDEP\nARR\nDẸP\nDEP\n10:30\nPASSENGER FARES (AFTER JUNE 1, 1982)\nTO SHA\nTO PEK\nFROM\nNEW YORK\nUSD\nRMB\n1,552\n2,953\n986\n1,876\n792\n1,507\n1,224\n2,329\n1,167\n2,220\n1,152\n2,192\n1,152\n2,192\n569\n1,082\n1,124\n2,138\nUSD\n1,609\n1,023\n848\n1,311\n1,249\n1,233\n1,233\n609\n1,203\nRMB\n3,061\n1,945\n1,613\n2,494\n2,376\n2,346\n2,346\n1,159\n2,289\nFIRST CLASS/OW\nBUSINESS CLASS/OW\nECONOMY CLASS/OW\nYHAP (HIGH SEASON)\nYLAP (LOW SEASON)\nYHGV (HIGH SEASON)\nYLGV (LOW SEASON)\nBUDGET FARE/OW\nBUDGET FARE/RT\nTO SHA\nUSD\nRMB\n1,756\n3,340\n1,178\n2,241\n976\n1,857\n1,438\n2,736\n1,420\n2,701\n1,420\n2,701\n1,420\n2,701\n725\n1,379\n1,433\n2,726\n_JUNE 01 THROUGH OCTOBER 31 OF EACH YEAR.\n_ NOVEMBER 01 THROUGH MAY 31 OF THE FOLLOWING YEAR.\nMARCH 01 THROUGH OCTOBER 31 OF EACH YEAR.\nNOVEMBER THROUGH FEBRUARY OF THE FOLLOWING YEAR.\nCA986\nMON.\nB-747SP\n21:40\n19:55\n18:55\n(TUE.)\n14:30\n12:50\n11:40\nTO PEK\nUSD\nRMB\n1,808\n3,440\n1,213\n2,308\n1,052\n2,001\n1,551\n2,950\n1,530\n2,911\n1,530\n2,911\n1,530\n2,911\n782\n1,488\n1,544\n2,957"
    ],
    "millsfield:images_texts_ids": [
      1527851443
    ],
    "millsfield:primary_image": 1527851443,
    "millsfield:subcategory_id": 1511213425,
    "mz:hierarchy_label": 1,
    "mz:is_current": 1,
    "sfomuseum:accession_number": "2008.055.966",
    "sfomuseum:airline": "CAAC (Civil Aviation Administration of China)",
    "sfomuseum:airline_id": [
      264
    ],
    "sfomuseum:category": "Scheduling / Ticketing",
    "sfomuseum:classification_id": 158,
    "sfomuseum:collection": "Aviation Archive",
    "sfomuseum:creditline": "Gift of the William Hough Collection",
    "sfomuseum:date": "1982",
    "sfomuseum:date_acquired": "2008-04-13",
    "sfomuseum:daterange_end": "1982-12-31",
    "sfomuseum:daterange_start": "1982-01-01",
    "sfomuseum:description": "Timetable issued by CAAC (Civil Aviation Administration of China), effective April 1 through October 31, 1982; single-sided sheet with schedules; includes passenger fares after June 1, 1982.",
    "sfomuseum:dimensions": "11 x 8 1/2 inches (27.9 x 21.6 cm)",
    "sfomuseum:media_ids": [
      1527851443
    ],
    "sfomuseum:medium": "paper, ink",
    "sfomuseum:object_id": 91883,
    "sfomuseum:placetype": "object",
    "sfomuseum:primary_media_id": 1527851443,
    "sfomuseum:publication": ": , 1982.",
    "sfomuseum:subcategory": "Timetable",
    "sfomuseum:subject": "Airlines -- Commercial -- CAAC\rAirlines -- timetables",
    "src:geom": "sfomuseum#undetermined",
    "wof:belongsto": [
      1511214223,
      102527513,
      102191575,
      85633793,
      1511213425,
      85922583,
      102087579,
      1511214277,
      1511214207,
      85688637
    ],
    "wof:breaches": [],
    "wof:country": "XX",
    "wof:created": 1579906685,
    "wof:depicts": [
      1159284059,
      1159286763
    ],
    "wof:geomhash": "30c8a918561c84bb2daa2b97fc7c5353",
    "wof:hierarchy": [
      {
        "arcade_id": 1511213425,
        "building_id": 1511214277,
        "campus_id": 102527513,
        "concourse_id": 1511214223,
        "continent_id": 102191575,
        "country_id": 85633793,
        "county_id": 102087579,
        "custom_id": 1511932019,
        "locality_id": 85922583,
        "neighbourhood_id": -1,
        "object_id": 1511932019,
        "region_id": 85688637,
        "venue_id": 1511932019,
        "wing_id": 1511214207
      }
    ],
    "wof:id": 1511932019,
    "wof:lastmodified": 1787988181,
    "wof:name": "timetable / fare information: CAAC (Civil Aviation Administration of China)",
    "wof:parent_id": 1159162825,
    "wof:placetype": "custom",
    "wof:placetype_alt": [
      "object"
    ],
    "wof:repo": "sfomuseum-data-collection",
    "wof:superseded_by": [],
    "wof:supersedes": [],
    "wof:tags": []
  },
  "bbox": [
    -122.386155,
    37.616357,
    -122.386155,
    37.616357
  ],
  "geometry": {"type":"Point","coordinates":[-122.386155,37.616357]}
}
