{
  "id": 1511954515,
  "type": "Feature",
  "properties": {
    "date:cessation_lower": "1976-04-25",
    "date:cessation_upper": "1976-04-25",
    "date:inception_lower": "1976-04-25",
    "date:inception_upper": "1976-04-25",
    "edtf:cessation": "1976-04-25",
    "edtf:date": "1976-04-25",
    "edtf:inception": "1976-04-25",
    "geom:area": 0,
    "geom:bbox": "-122.386155,37.616357,-122.386155,37.616357",
    "geom:latitude": 37.616357,
    "geom:longitude": -122.386155,
    "iso:country": "XX",
    "millsfield:aircraft_id": [
      1159289931
    ],
    "millsfield:airline_id": [
      1159284989
    ],
    "millsfield:category_id": 1511214215,
    "millsfield:collection_id": 1511214207,
    "millsfield:company_id": [
      1159293593,
      1159289873
    ],
    "millsfield:images": [
      1527852583,
      1527852585,
      1527852587,
      1527852589
    ],
    "millsfield:images_colors_refs": {
      "crayola": [
        {
          "hex": "#78dbe2"
        },
        {
          "hex": "#cdc5c2"
        },
        {
          "hex": "#efcdb8"
        },
        {
          "hex": "#ffffff"
        },
        {
          "hex": "#ff2b2b"
        },
        {
          "hex": "#000000"
        },
        {
          "hex": "#414a4c"
        },
        {
          "hex": "#fddde6"
        }
      ],
      "css4": [
        {
          "hex": "#b22222"
        },
        {
          "hex": "#66cdaa"
        },
        {
          "hex": "#2f4f4f"
        },
        {
          "hex": "#000000"
        },
        {
          "hex": "#c0c0c0"
        },
        {
          "hex": "#fdf5e6"
        },
        {
          "hex": "#fff8dc"
        },
        {
          "hex": "#f5deb3"
        }
      ],
      "marekm4": [
        {
          "hex": "#2b2421"
        },
        {
          "hex": "#e2d3be"
        },
        {
          "hex": "#2d2637"
        },
        {
          "hex": "#d7ccb6"
        },
        {
          "hex": "#d71b12"
        },
        {
          "hex": "#fbf8ea"
        },
        {
          "hex": "#66c9c7"
        },
        {
          "hex": "#fcf5db"
        },
        {
          "hex": "#281e1a"
        }
      ]
    },
    "millsfield:images_texts": [
      "FIRST NONSTOP FLIGHT\nIN SCHEDULED SERVICE\nLOS ANGELES-TOKYO\nBOEING 747SP\n@FAN AMI\n1GE\nAPR25\nAM\n1976\n900\nUSAirmail\n31°",
      "2012449.2245",
      "time. GMT, for a 1-hr. 53-min. transi Common Market Asked\nFuel taken on at New Delhi for the\n7,520-mi. New Delhi-Tokyo segment\nbrought the final aircraft weight at the\nTo Issue Noise Directive\ngate to 645,200 lb. The second segment\nwas the shortest of the three, and aircraft\nspeed was reduced to 536.329 mph. The\nLondon-Ministerial council of the Euro-\nsegment was completed in 14 hr. 21 min.,\npean Economic Community (Common\ngate-to-gate, time, after the aircraft had\nMarket) has been asked by its adminis-\nbeen placed in a holding pattern for ap-\ntrative commission to issue a subsonic\nproximately 20 min. Total fuel burned\naircraft noise directive (AW\u0026ST May 3,\nwas 281,800 lb. Cruising altitude during\np. 13) that would be binding on its mem-\nthe second segment ranged from 35,000\nber airlines, and also on non-EEC aircraft\nft. to 45,000 ft.\nlanding in Common Market countries.\nLanding at Tokyo occurred at 0329\nInitial directive, if the council acts on\nGMT and arrival at the gate was at 0334\nthe commission recommendation, would\nGMT.\nbe based on the International Civil Avia-\nFuel remaining on the aircraft after\ntion Organization's Annex 16 adopted in\narrival was 31,600 lb., or 4,952 gal.\nApril, 1971, and which has been generally\nAfter the 3-hr. 53-min. transit time in\nfollowed, in measurement of noise emis-\nTokyo, the Liberty Bell departed at 0725\nsions, by a number of countries, at the\nGMT for the final 7,621 mi. to New\nleast as a target for future legislation.\nYork.\nThe proposal to the council was made\nAverage aircraft speed during the final to standardize national laws within the\nquencies increase, and the environmental\nimpact of business jet aircraft must not be\noverlooked.\n• Noise of light propeller aircraft is\ncausing serious problems in Europe,\nciting annoyance from takeoffs, landings\nand low flying, mainly on weekends and\non holidays.\n• Most effective way of reducing air-\ncraft noise is by uniform application in\nall member states under ICAO Annex 16,\nwhich requires each contracting state to\nachieve the greatest possible uniformity\nin regulation and standards.\nThe commission appears to be taking a\nmarkedly guarded view on retrofit of\nquiet engines and in refanning kits to cut\nback noise emissions on older aircraft still",
      "747SP Sets Around-the-World Record\nBy Rosalind K. Ellingsworth\nNew York-Pan American World Airways Boeing 747SP record-setting flight around\nthe world was a demonstration of the long-range capability, comfort and convenience\nof current air transport technology.\nThe flight of Pan American's second-\ndelivered 747SP, which was called Clip-\nper Liberty Bell, was a scheduled extra\nsection revenue flight. More than that, it\nwas a public relations tactic thought up\nby a Pan American pilot that caught the\nimagination of at least 71 persons, who\npaid either $2,927 for a first-class ticket or\n$1,865 for a coach ticket.\nThe flight was generally planned\naround the longest segment of more than\n8,000 mi., New York-New Delhi. Fuel re-\nquirements and weight restrictions for\nthat leg limited passenger capacity to no\nmore than 130 persons.\nAt one point during the planning for\nthe flight, 132 persons were on the pas-\nsenger list, but several revenue passengers\ncanceled as departure time neared. At\ntakeoff, there were 20 paying first-class\npassengers and 51 coach passengers on\nboard.\nDeparture from the gate at John F.\nKennedy International in New York was\n5:23 p.m. EDT May 1, or 2123 Green-\nwich Mean Time. Return to the gate,\nwhile planned for 1 p.m. EDT May 3,\nwas actually at 3:50 p.m. May 3, or 1950\nGMT. Total time from gate to gate was\n46 hr. 18 min. 40 sec.\nThe record, however, was established\non a takeoff to touchdown time of 46 hr.\n50 sec. Total air time for the flight was 39\nhr. 25 min. 53 sec., or 4 min. 7 sec. under\nthe original flight plan.\nThe record time, which was verified by\nan official from the National Aeronautics\nAssn., the U.S. representative of the Fed-\neration Aeronautique Internationale,\nbroke the standing record of 62 hr. 27\nmin. 35 sec.\nThe old record had been set in Novem-\nber, 1965, by a Boeing 707-320C. The\nnew 46-hr. 50-sec. record time includes\ntransit times at New Delhi and Tokyo.\nPan American had planned a new\nrecord time of 43 hr. 30 min., but a labor\ndispute with airport ground workers in\nTokyo increased the transit time there by\n2 hr. 1 min. The Tokyo dispute was no\nsurprise to Pan American officials, who\nhad known for about two weeks prior to\nthe flight that ground workers at Haneda\nInternational had been delaying depar-\ntures for a number of airlines.\nAirline officials decided to take the risk\nof a possible delay in Tokyo because they\nhad advertised the record-breaking flight\nwith a stop in that city and wanted to ad-\nhere to their preflight planning.\nA 2-hr. transit time had been planned\nfor Tokyo and passengers were re-\nboarded, after ceremonies in the terminal\nbuilding, to comply with that time sched-\nule. Once on board, however, passengers\nwere informed by Capt. Walter H. Mulli-\nkin, Pan American's vice president and\nchief pilot and head of the 15-man cock-\npit crew for the record flight, that ground\nworkers had parked equipment behind\nthe 747SP's wings and at least one ground\nworker was sitting on a high stool under\nthe belly of the aircraft.\nRush S. Clark, Pan American manag-\ning director in Tokyo, negotiated with\nmembers of the Japanese Airport Em-\nployes' Union, a national union, to obtain\nrelease of the aircraft. Calculations were\nquickly made on board and constantly\nupdated to determine the final possible\nminute the aircraft would have to depart\nto establish the sought-for 43-hr. 30-min.\nblock-to-block time.\nThere was never much of a risk to like-\nlihood of establishing a new world record\nfor a transport category aircraft because\nof the large difference between the stand-\ning record of more than 62hr. and the\ncurrent aircraft capabilities.\nDuring negotiations with the union, the\ndecision was made to take on 12,000 lb.\nof fuel in order to fly the last segment at\nhigher-than-planned speeds to adhere to\nthe advertised promise of circling the\nglobe in 39.5 hr.\nOther than the Tokyo incident, which\nfor the passengers provided a bit of diver-\nsionary excitement and prompted talk of\njumping ship for a Japanese hot bath, the\nrecord-setting flight went according to\nschedule.\nThe New York-New Delhi segment of\n8,088 mi. was completed in 13 hr. 57 min.\ngate-to-gate. Average air speed on the\nfirst segment was 598.146 mph. Total de-\nparture weight from New York was\n660,700 Ib., 330,700 Ib. of that in fuel.\nFuel consumed during the segment to-\ntaled 41,099 gal., or 276,600 lb. Enough\nfuel remained (54,100 lb.) that the flight\ncould have gone on to Bangkok and still\nhad required reserves: Highest cruise alti-\ntude of 45,000 ft. reached during the total\nflight was on the New York-New Delhi\nsegment.\nArrival at the gate in New Delhi was at\n1120 GMT May 2, and departure was at\nAviation Week \u0026 Space Technology, May 17, 1976\n31"
    ],
    "millsfield:images_texts_ids": [
      1527852583,
      1527852585,
      1527852587,
      1527852589
    ],
    "millsfield:primary_image": 1527852583,
    "millsfield:subcategory_id": 1511213159,
    "mz:hierarchy_label": 1,
    "mz:is_current": 1,
    "sfomuseum:accession_number": "2012.149.2345 a b",
    "sfomuseum:aircraft": "Boeing 747SP",
    "sfomuseum:aircraft_id": [
      257
    ],
    "sfomuseum:airline": "Pan American World Airways",
    "sfomuseum:airline_id": [
      684
    ],
    "sfomuseum:category": "Philately",
    "sfomuseum:classification_id": 10,
    "sfomuseum:collection": "Aviation Archive",
    "sfomuseum:creditline": "Gift of the Captain John B. Russell Family",
    "sfomuseum:date": "04/25/1976",
    "sfomuseum:date_acquired": "2013-05-31",
    "sfomuseum:daterange_end": "1976-04-25",
    "sfomuseum:daterange_start": "1976-04-25",
    "sfomuseum:description": "a. Airmail flight cover, Pan American World Airways, first nonstop Boeing 747SP flight, Los Angeles - Tokyo route; white envelope with green ink stamped cachet at left with route map and text; postmarked April 25, 1976 in Los Angeles with wavy cancellation mark over 31-cent stamp; backstamp: April 26, 1976 in Tokyo.\rb. Backing sheet with two sets of mounting corners, with partial article: “Pan American World Airways is moving its Boeing 747SP service inaugural date from May 1 to April 25” and black and white photographic image of Pan Am Boeing 747SP.",
    "sfomuseum:dimensions": "3 3/4 x 6 1/2 inches (9.5 x 16.5 cm)",
    "sfomuseum:media_ids": [
      1527852583,
      1527852585,
      1527852587,
      1527852589
    ],
    "sfomuseum:medium": "paper, ink",
    "sfomuseum:object_id": 139771,
    "sfomuseum:placetype": "object",
    "sfomuseum:primary_media_id": 1527852583,
    "sfomuseum:publication": ": , 04/25/1976.",
    "sfomuseum:subcategory": "Airmail Flight Cover",
    "sfomuseum:subject": "Airlines -- Commercial -- Pan American Airways.",
    "src:geom": "sfomuseum#undetermined",
    "wof:belongsto": [
      1511214215,
      102527513,
      102191575,
      85633793,
      1511213159,
      85922583,
      102087579,
      1511214277,
      1511214207,
      85688637
    ],
    "wof:breaches": [],
    "wof:country": "XX",
    "wof:created": 1579906657,
    "wof:depicts": [
      1159293593,
      1159289931,
      1159284989,
      1159289873,
      1159286839
    ],
    "wof:geomhash": "30c8a918561c84bb2daa2b97fc7c5353",
    "wof:hierarchy": [
      {
        "arcade_id": 1511213159,
        "building_id": 1511214277,
        "campus_id": 102527513,
        "concourse_id": 1511214215,
        "continent_id": 102191575,
        "country_id": 85633793,
        "county_id": 102087579,
        "custom_id": 1511954515,
        "locality_id": 85922583,
        "neighbourhood_id": -1,
        "object_id": 1511954515,
        "region_id": 85688637,
        "venue_id": 1511954515,
        "wing_id": 1511214207
      }
    ],
    "wof:id": 1511954515,
    "wof:lastmodified": 1787988189,
    "wof:name": "airmail flight cover: Pan American World Airways, Boeing 747SP, Los Angeles - Tokyo route",
    "wof:parent_id": 1159162825,
    "wof:placetype": "custom",
    "wof:placetype_alt": [
      "object"
    ],
    "wof:repo": "sfomuseum-data-collection",
    "wof:superseded_by": [],
    "wof:supersedes": [],
    "wof:tags": []
  },
  "bbox": [
    -122.386155,
    37.616357,
    -122.386155,
    37.616357
  ],
  "geometry": {"type":"Point","coordinates":[-122.386155,37.616357]}
}
