{
  "id": 1511942351,
  "type": "Feature",
  "properties": {
    "date:cessation_lower": "1944-01-01",
    "date:cessation_upper": "1944-12-31",
    "date:inception_lower": "1944-01-01",
    "date:inception_upper": "1944-12-31",
    "edtf:cessation": "1944",
    "edtf:date": "1944",
    "edtf:inception": "1944",
    "geom:area": 0,
    "geom:bbox": "-122.386155,37.616357,-122.386155,37.616357",
    "geom:latitude": 37.616357,
    "geom:longitude": -122.386155,
    "iso:country": "XX",
    "millsfield:airline_id": [
      1159284989
    ],
    "millsfield:category_id": 1511214223,
    "millsfield:collection_id": 1511214207,
    "millsfield:company_id": [
      1159286839
    ],
    "millsfield:images": [
      1527841967,
      1527850331
    ],
    "millsfield:images_colors_refs": {
      "crayola": [
        {
          "hex": "#757575"
        },
        {
          "hex": "#414a4c"
        },
        {
          "hex": "#1a4876"
        },
        {
          "hex": "#ff2b2b"
        },
        {
          "hex": "#cdc5c2"
        },
        {
          "hex": "#9c2542"
        }
      ],
      "css4": [
        {
          "hex": "#c0c0c0"
        },
        {
          "hex": "#b22222"
        },
        {
          "hex": "#191970"
        },
        {
          "hex": "#708090"
        }
      ],
      "marekm4": [
        {
          "hex": "#192066"
        },
        {
          "hex": "#646d86"
        },
        {
          "hex": "#d21a18"
        },
        {
          "hex": "#c41113"
        },
        {
          "hex": "#cac1b7"
        },
        {
          "hex": "#222854"
        },
        {
          "hex": "#c9baad"
        },
        {
          "hex": "#686c8b"
        }
      ]
    },
    "millsfield:images_texts": [
      "OCTOBER 1944\nPAN AMERICAN\nWORLD AIRWAYS\nLatin America\nPASSENGER • MAIL • EXPRESS\nTIME TABLES\nThe Suptem of the Flying Clipper Ships,",
      "-45\n-30°\nTO:\nRALIA\nH5°\nH5°\n-30\nPAN AMERICAN WORLD AIRWAYS\nLATIN AMERICA SERVICES\nCircled numbers refer to corresponding tables in Current Time Table\n90°\nOctober 1944\n30°\n120°\n105°\n60°\n45°\nCALGARY\nMOOSE JAW O REGINA\nRED LNE\nAROW LAKE\nRAT RAPIDS\nMINAKI\nLETHARIOTS\nKENORAG\nWAGAMING\nANTICOSTI\nKAPUSKASING\n@BOTWOOD\nSPOKANE\nCONTAIN\nWALLA WALLA\nHELENA\nBISMARCK\nARGO\nNEW FOONDLAND\nST.JOHNS\nILLINOS\nST PAUL\nANSYONE!\nPENDLETON\nBOISE\nSPEARFISH\nПАРОСТ\nDAHO FALLS\nPOCATELLO\nLOUX CITYNES ON\nC. Sable\nBOSTON\nONCO SABLE I\nT\n.E\nJC Coa\nSALT LAKE CITY\nTUCKET\nRENO\nDENVER\nCRAMENTO\nCOLORADO SPRIN\nAKLANC\nPUEBLO\nNEW YORK\nTO NEWFOUNDLAND AND EUROPE\nAZORES\nLAS VEGAS..\nBOULDER CITY\nIMORE\nTO BERMUDA AND EUROPE\nHORTA\nAMARIL\nWINSLOW\nPHOENIX\n_BUQUERQUE\nKLANOMA CITY\nTUCSON\nWICHITA FALLS\nLITTLE ROCKA\n(ARLESTOR\nRoutes of the\nMEXICALI\nPASO\nстом моніт\nMONTGOMERY\nPUGLAS\nJAMASSEL\nBERMUDA\nFLYING CLIPPER\nGULFPOR\nCEDROS I\nHERMOSINLO LAREDO\nGALVESTON\nNEW ORLEANS\nJACKSONVILLE\nSHIPS\nDAYTONA BE ACH\n! Pan American World Airways Services\nCalifornia\nEUVO LAREDOO\n3 MONTERREY\nNO\nBROWNSVILLE\nMIAMI\ni Shown in This Time Table\n13\nOCULIAÇAN\nLAPAL\nTORREON\n12\nHAVANA\nONASSAU N. P\nOther Airlines\nMAZATLAN\nVERA CRUZ\nUINATITLAN\nCARMEN\nCAMPECHE\nMERIDA\nCuba\nCAMAGUEY Guba\nCENTUECOS\n¿SANTIAGO Cuba\nPORT AU PRINCE Haiti\nGIUDAD TRUJILLO D.R.\nATLANTIC AND PACIFIC SERVICES\nThese services are operating but war time regulations do not\npermit publicatfon\nGUADALAJARA\nSAN JUAN Puerto Rico\n*ST. THOMAS Virgin Is\nPTO.VALLARTA\n-HETUMAL\nдени владіо-\nKINGSTON\nANTIGUA, B.W.I.\nACAPULCO\n19\nIXTEPEC\nTUXTLA GUTIERREZ-\nTAPACHULA (Max).\nGUATEMALA\nPALORTIELDS\nGUMÓN\nBARRANDULLAO\nPOINTE A PITRE Guedeloupe\nGUAIRA\nFT. DE FRANCE Martinique\nST. LUCIA\n4.\n/BARBADOS\nTEGUCI\n8\nPORT OF SPAIN\nMARACAIBO\n8\nMATURIN\nTrinidad\nGEORGETOWN B.G\nBALBOA\n0°\nOR QUERTO CARRENO\nPARAMADIBO Surin.\nCAYENNE F. G\nCOLOMHIA\nST.ELENA\nTUM\nGALAPAGOS\nEsmeraldas\nIPIALES\nEQUATOR\nLEM(PARA)\n18 Manta\nQUITO\n(Ecuador)\nSALINAS O\nDOMESTIC SERVICES IN COLOMBIA\n8 Loen\nCuenca\nB SAOLLIZ\nPARNAHYBA\nCAMOCIM\nFORTALEZA\nTALARA\nTERESINA\nMOSSORO\nVURIMAGUAS\nRATAL\nCARIBBEAN\nSEA\nTo Kingston,\nHavana Miami, -\n•CHICLAYC\nNew York\nTRUILLO\nIMPERATRIES\nCAROLINA\nPETROLINA\nJOAO PESSOA\nRECIFE\nSAN RAMON COBIJA 14\nGUAYARAM ERIN\nARACAJU\n177 staMarta\nSAN SCAQUIN B\nR\nA\nPERU\nSAO\nU.S.A\nBarranquilla\nLIMA\nCartage\nScience (a\nCalla°\nAPOLOQ\nSANTA AND\nO MAGDALENA\nSALVADORIBAHIA)\nOValledup:\n95.BORJA\n• CONCEPCION\n15)\nSAN IGNEUVABA\nCristobal\nB\nRECUIPA\nA PA-\nfallends\nCOCHABAMB,\nCANNAVIEIRAS\nSALT\nGOV\nCORUMBA\nVALLADARES\nARICA\nHORIZON\n•/CARAVELLAS\nCARL RECHO\nUBERABA O\nOPATOS\nARACATUBA\n: EAN\nANTOFAGASTA\n\"CURITYBA\"\nIGUASSU FALLS\nVICTORIA\nASUNCION\nBAURU\nSAO PAULO O\n° c\nSALTA\nRIO DE JANEIRO\nChoquichd\nO SANTOS\nTUCUMAN\nPACIFIC\nBuenaventura\nPARAGUAY\n6 San Martin\nVALLENAR\nPopayan\nMind tires\n- AVIANCA (Toble 16\nCORDOBA\nPORTO ALEGRE\nTumat\n•------ UMCA (Table 9)\nPelotas\nraldas.\nO Ipiates\n.......-. Connecting Pan Americao Airway\nJUAN FERNANDEZ I.\nMENDOZA\nValparaiso\nSANTIAG\nTO CONCEPCION\nENOS. AIRE\nMONT EVIDEO\n\" TO C) RIVADAVIA, RIO GRANDE, ETC.\n120°\n105°\n90°\n75°\n60°\n45°\n30°\n30°\n15°\n0°-\n150\n30°"
    ],
    "millsfield:images_texts_ids": [
      1527841967,
      1527850331
    ],
    "millsfield:primary_image": 1527841967,
    "millsfield:subcategory_id": 1511213425,
    "mz:hierarchy_label": 1,
    "mz:is_current": 1,
    "sfomuseum:accession_number": "2002.017.007.012",
    "sfomuseum:airline": "Pan American World Airways",
    "sfomuseum:airline_id": [
      684
    ],
    "sfomuseum:category": "Scheduling / Ticketing",
    "sfomuseum:classification_id": 158,
    "sfomuseum:collection": "Aviation Archive",
    "sfomuseum:creditline": "Gift of the San Francisco Aeronautical Society",
    "sfomuseum:date": "1944",
    "sfomuseum:date_acquired": "2010-06-09",
    "sfomuseum:daterange_end": "1944-12-31",
    "sfomuseum:daterange_start": "1944-01-01",
    "sfomuseum:description": "Timetable issued by Pan American World Airways for Latin America service, effective October 1944; blue and red cover with illustration of top view of three-dimensional winged globe logo.",
    "sfomuseum:dimensions": "9 1/4 x 4 inches (23.5 x 10.2 cm)",
    "sfomuseum:media_ids": [
      1527841967,
      1527850331
    ],
    "sfomuseum:medium": "paper, ink, metal",
    "sfomuseum:object_id": 109646,
    "sfomuseum:placetype": "object",
    "sfomuseum:primary_media_id": 1527841967,
    "sfomuseum:publication": ": , 1944.",
    "sfomuseum:subcategory": "Timetable",
    "src:geom": "sfomuseum#undetermined",
    "wof:belongsto": [
      1511214223,
      102527513,
      102191575,
      85633793,
      1511213425,
      85922583,
      102087579,
      1511214277,
      1511214207,
      85688637
    ],
    "wof:breaches": [],
    "wof:country": "XX",
    "wof:created": 1579906685,
    "wof:depicts": [
      1159284991,
      1159284989,
      1159286839
    ],
    "wof:geomhash": "30c8a918561c84bb2daa2b97fc7c5353",
    "wof:hierarchy": [
      {
        "arcade_id": 1511213425,
        "building_id": 1511214277,
        "campus_id": 102527513,
        "concourse_id": 1511214223,
        "continent_id": 102191575,
        "country_id": 85633793,
        "county_id": 102087579,
        "custom_id": 1511942351,
        "locality_id": 85922583,
        "neighbourhood_id": -1,
        "object_id": 1511942351,
        "region_id": 85688637,
        "venue_id": 1511942351,
        "wing_id": 1511214207
      }
    ],
    "wof:id": 1511942351,
    "wof:lastmodified": 1787988185,
    "wof:name": "timetable: Pan American World Airways, Latin America",
    "wof:parent_id": 1159162825,
    "wof:placetype": "custom",
    "wof:placetype_alt": [
      "object"
    ],
    "wof:repo": "sfomuseum-data-collection",
    "wof:superseded_by": [],
    "wof:supersedes": [],
    "wof:tags": []
  },
  "bbox": [
    -122.386155,
    37.616357,
    -122.386155,
    37.616357
  ],
  "geometry": {"type":"Point","coordinates":[-122.386155,37.616357]}
}
