{
  "id": 1913796127,
  "type": "Feature",
  "properties": {
    "date:cessation_lower": "1954-01-31",
    "date:cessation_upper": "1954-01-31",
    "date:inception_lower": "1954-01-31",
    "date:inception_upper": "1954-01-31",
    "edtf:cessation": "1954-01-31",
    "edtf:inception": "1954-01-31",
    "geom:area": 2.475047457570636e-7,
    "geom:bbox": "-122.386472,37.616105,-122.385834,37.616611",
    "geom:latitude": 37.61635747477365,
    "geom:longitude": -122.38615540108617,
    "millsfield:airline_id": [
      1159284989
    ],
    "millsfield:category_id": 1511214251,
    "millsfield:collection_id": 1511214207,
    "millsfield:company_id": [
      1159286839
    ],
    "millsfield:images": [
      1913796861,
      1913796863
    ],
    "millsfield:images_colors_refs": {
      "crayola": [
        {
          "hex": "#fddde6"
        },
        {
          "hex": "#414a4c"
        },
        {
          "hex": "#fcd975"
        },
        {
          "hex": "#ffffff"
        },
        {
          "hex": "#f8d568"
        }
      ],
      "css4": [
        {
          "hex": "#2f4f4f"
        },
        {
          "hex": "#f0e68c"
        },
        {
          "hex": "#faf0e6"
        },
        {
          "hex": "#556b2f"
        }
      ],
      "marekm4": [
        {
          "hex": "#eedf72"
        },
        {
          "hex": "#f5f4eb"
        },
        {
          "hex": "#4e5e4c"
        },
        {
          "hex": "#495c4d"
        },
        {
          "hex": "#edde6f"
        },
        {
          "hex": "#f6f4ec"
        }
      ]
    },
    "millsfield:images_texts": [
      "waglin Sunday gan 31 154\nDianet Dra.\nUr had lots of fum last night. Have\nAn d\nFrank arizo abot 7 and ur had\ndrinks in Cat + Due setting room. Then ur\nhad\nall but Cat who had Lin \u0026 Bacon - for\ndent we had profiteroles. When tor got rund,\nto go to the thratis trank coned nit hr\nfound. We mano a cople of taxis waiting\nfor him. Bile locked for him in the mens\nroom and I lockd in the bar. Poor Hin\nalmost in trass suggestri that ur go along\nand shad want with the taeket but abrat\nthat\n• time Frank shours up cut no excus\nand no explanation. Que taxis coma gone so\nLor walked to Franks car\n3 blocks away\nand get to the kiate 15 minutes late.\nFrank took his ticket and parked in a\njange oin near star. Of course ofte the\nshow us had an awfe time getting the car\nOnt of the gangs lot apart from that ale\nWint\nwell.\nThe show was aupee good\nand the music and dancing wondefie. Om\nArals\nwine ale togithan in the b raw.\nThe tends didnt care about going\ndan eng\nso tand A coppo us\noff at the lozglu.\nThis mornng Cat\nordere breakfast in then room a g\nJones than then Com lift them alone with\nmorning papus. That was atont 9: 30\nNor\n@ ак\nDin writing for a pase\nfom cat and we foin them for\na light luner.\nCat han\nhad a short\nhar out ano Der neon sir her looteng",
      "as crie\nLath. 2 Pm.\nCat and Bur decided\nthat they was nt hungry to took a linck and\ndid some windoes shopping. Than came l, my\nroom and Cat trus on the Destantee sureate\nwhich larks in wee on he and fits almost\npupetty Its real, good looking and ident\nsking or for cats cold house. she say\nte's going to his in it tie spray. vis\nnow that I had bought one for Nite too\nbut at the time did nit treas whithe they\nwar machine a hand made. Cat sace\nN at\nit was hard tenit.\nIn conniction writ my wak on\ni come tax o wakes ly some information\nyou intiment then 9 me Sols\nhae\nStennis common at 13 which\nnems that the remains 500 sho in your\nWann account stand ya 0 and 9 hopr\nwe fo highe but if they dost at least\nthai\nunt to any\nlos.\nAn try ing\nyou already\nhan inough cash in you wacku acermt\nto pay me for the $10.00o loan when 9\nmadi to the Nautems.\nThought that wonce\nte a good incatment for jon.\nNap and expect to get to\nIt meyer\nSaturday fate and hors Im eupy\nsorry that my in abilig\nlo male\ndefinite\nPam has so upst.\nTha-ke\nnext went Dee retir\nas of my\nbuth day\nImD antitLri\nto a\npro monits ti\nminal lair - dont you thak!\nau my lon angre. cru\nmaci\nthis an om way to Caddy s\ny\nN\n20194211194"
    ],
    "millsfield:images_texts_ids": [
      1913796861,
      1913796863
    ],
    "millsfield:primary_image": 1913796861,
    "millsfield:subcategory_id": 1511213489,
    "mz:is_approximate": 1,
    "mz:is_current": 1,
    "sfomuseum:accession_number": "2019.121.1194",
    "sfomuseum:airline": "Pan American World Airways",
    "sfomuseum:airline_id": [
      684
    ],
    "sfomuseum:category": "Employee Career History",
    "sfomuseum:classification_id": 195,
    "sfomuseum:collection": "Aviation Archive",
    "sfomuseum:creditline": "Collection of SFO Museum",
    "sfomuseum:date": "01/31/1954",
    "sfomuseum:date_acquired": "2019-11-22",
    "sfomuseum:daterange_end": "1954-01-31",
    "sfomuseum:daterange_start": "1954-01-31",
    "sfomuseum:description": "Handwritten letter from Harold M. Bixby to his wife, Debby Bixby, dated January 31, [1954], at the Weylin, New York; includes family matters.",
    "sfomuseum:dimensions": "12 1/2 x 8 inches (31.8 x 20.3 cm)",
    "sfomuseum:medium": "paper, ink",
    "sfomuseum:object_id": 211557,
    "sfomuseum:placetype": "object",
    "sfomuseum:publication": ": , 01/31/1954.",
    "sfomuseum:subcategory": "Correspondence, Personal",
    "src:geom": "sfomuseum#undetermined",
    "wof:belongsto": [
      102527513,
      1159162825,
      102191575,
      85633793,
      102087579,
      85922583,
      85688637,
      1159160869
    ],
    "wof:country": "XY",
    "wof:created": 1714548993,
    "wof:depicts": [
      1159286839,
      1159284989
    ],
    "wof:geomhash": "c281b9d9eefc83b5710e64b9d646067d",
    "wof:hierarchy": [
      {
        "building_id": -1,
        "campus_id": 102527513,
        "collection_id": 1159162825,
        "concourse_id": 1159162825,
        "continent_id": 102191575,
        "country_id": 85633793,
        "county_id": 102087579,
        "custom_id": 1913796127,
        "locality_id": 85922583,
        "neighbourhood_id": -1,
        "object_id": 1913796127,
        "region_id": 85688637,
        "wing_id": 1159160869
      }
    ],
    "wof:id": 1913796127,
    "wof:lastmodified": 1787988219,
    "wof:name": "correspondence: Harold M. Bixby to Debby Bixby",
    "wof:parent_id": 1159162825,
    "wof:placetype": "custom",
    "wof:placetype_alt": [
      "object"
    ],
    "wof:repo": "sfomuseum-data-collection",
    "wof:superseded_by": [],
    "wof:supersedes": []
  },
  "bbox": [
    -122.38647222518921,
    37.6161053594541,
    -122.38583385944366,
    37.61661101879963
  ],
  "geometry": {"type":"Polygon","coordinates":[[[-122.38647222518921,37.61631782178288],[-122.386434674263,37.61623283692423],[-122.38637566566466,37.61617759671399],[-122.38630056381224,37.6161308549656],[-122.38616108894348,37.6161053594541],[-122.38602161407469,37.6161308549656],[-122.38591432571411,37.61618609521055],[-122.38585531711577,37.61626683087935],[-122.38583385944366,37.61636881265146],[-122.38587141036987,37.61646654505181],[-122.38594114780425,37.61654303118856],[-122.38605380058287,37.61660252035167],[-122.38618254661559,37.61661101879963],[-122.3863059282303,37.61657277577607],[-122.3864185810089,37.61650903735973],[-122.3864668607712,37.61641130501523],[-122.38647222518921,37.61631782178288]]]}
}
