{
  "id": 1511910323,
  "type": "Feature",
  "properties": {
    "date:cessation_lower": "1939-01-01",
    "date:cessation_upper": "1939-12-31",
    "date:inception_lower": "1939-01-01",
    "date:inception_upper": "1939-12-31",
    "edtf:cessation": "1939",
    "edtf:date": "1939",
    "edtf:inception": "1939",
    "geom:area": 0,
    "geom:bbox": "-122.386155,37.616357,-122.386155,37.616357",
    "geom:latitude": 37.616357,
    "geom:longitude": -122.386155,
    "iso:country": "XX",
    "millsfield:aircraft_id": [
      1159290417
    ],
    "millsfield:airline_id": [
      1159285395
    ],
    "millsfield:category_id": 1511214223,
    "millsfield:collection_id": 1511214207,
    "millsfield:company_id": [],
    "millsfield:images": [
      1527831433,
      1527851089
    ],
    "millsfield:images_colors_refs": {
      "crayola": [
        {
          "hex": "#2e5894"
        },
        {
          "hex": "#ff2b2b"
        },
        {
          "hex": "#c46210"
        },
        {
          "hex": "#757575"
        },
        {
          "hex": "#cdc5c2"
        },
        {
          "hex": "#1a4876"
        },
        {
          "hex": "#dbd7d2"
        }
      ],
      "css4": [
        {
          "hex": "#708090"
        },
        {
          "hex": "#191970"
        },
        {
          "hex": "#dc143c"
        },
        {
          "hex": "#d3d3d3"
        },
        {
          "hex": "#483d8b"
        },
        {
          "hex": "#b22222"
        }
      ],
      "marekm4": [
        {
          "hex": "#d4d0c2"
        },
        {
          "hex": "#19204d"
        },
        {
          "hex": "#465d8e"
        },
        {
          "hex": "#e0cccc"
        },
        {
          "hex": "#1d2957"
        },
        {
          "hex": "#c22107"
        },
        {
          "hex": "#667287"
        },
        {
          "hex": "#ea3e2b"
        }
      ]
    },
    "millsfield:images_texts": [
      "Effective MARCH 1, 1939\nTWA\nCOMMUTER\nSERVICE\nNEW YORK.. CHICAGO\nTRANSCONTINENTAL\n\u0026 WESTERN AIR, INC.",
      "THE FAMOUS\nSunshine Way of\nTWA\nSHORTEST... FASTEST\nCoast to Coast\nSEATTLE\nSPOKANE\nBANGOR\nTHA\nMISSOULA\nPORTLAND\"•\n$ WALLA WALLA\n•Á PENDLETON\nGREAT FALLS\nHELENA\nLEWISTOWN\nBILLINGS\nBUTTE\nBISMARCK\nFARGO\nSAULT ST\nMINNEAPOLIS\nST. PAUL\nEDFORD\nVIE CITY\nSIOUX CITY\nNORTH PLATIE\nBONDES MONES- CHICAGO\n0 C\nCLIPPER SHIPS\n-TO HAWAII:\nAND: THE:\nPHILIPPINES:\nDENVER\nCOLORADO SPRINGS\nSAN FRANCISCO\nFRESHO\nLAS VEGÁS\nBOULDER DAM\nGRAND CANYON\nPUEBLO\nSANTA FE\nKANSAS CITY\nWICHITA\nAMARILLO\nLOy\nPITTSBURGR\nLOUISVILLE\nHARRISBURG\nOPHILADELPHIA\nWASHINGTON\nALBUQUERQUE\nTULSA\nOKLAHOMA CITY\nLOS ANGELES\nWINSLOW\nPHOENIX\nMEMPHIS\nATLANTA\nPALM SPRINGS\n) SAN DIEGO\nFT. WORTH\nLITTLE ROCK\nEL PASO\nJACKSONVILLE\nHOUSTON\nNEW ORLEANS\nEST PETERSBUR\nTWA System\nConnecting Lines\nOther Lines\n(FTEMYERS\nGee or MEXICO\nFASTEST WAY BETWEEN\nNEW YORK...LOS ANGELES\nONLY DIRECT SERVICE TO\nCHICAGO FROM LOS ANGELES\nOvernight Across the Cantinent\nTWA offers the finest, fastest air service between\nNew York and Los Angeles over the shortest trans-\ncontinental route. TWA flies the great natural coast\nto coast route-over The Sunny Santa Fe Trail. You\ncan leave New York on TWA's \"Sky Chief\" at 5:10\np.m. and arrive in Los Angeles at 8:24 the next\nmorning. Sleep in a luxurious TWA Skysleeper all\nthe way across the Nation. Soft, downy berths as\nwide as the average twin-bed.\nTWA's famous daylight flight\nVia TWA\n$149.95\nONE WAY FARE\nvia Grand Canyon and Boulder\nDam leaves New York one min-\nute after midnight and arrives\nin Los Angeles at 4:24 in the\nafternoon.\nOnly 11¾ Hours Over Shortest Ronte\nOn your next trip to Chicago from Los Angeles fly\nLe famous TWA \"Sky Master\" leaving at 9:00 p.m.\nand arriving in Chicago at 10:45 o'clock the next\nmorning. There is no finer air service than TWA be-\ntween Los Angeles and Chicago. TWA offers the only\nthrough Skysleeper to Chicago.\nBusiness Men: If\nyour time means money-travel TWA! Make your\nlongest trips in a few hours.\nHave more time on the job ...\nor at home with your family. Fly\nTWA from Chicago to New York\n—3 hours 59 minutes non-stop.\nFare, $44.95. Your choice of\nseven convenient flights, Chi-\ncago to New York.\nVia TWA\n$105.00\nONE WAY FARE\n2"
    ],
    "millsfield:images_texts_ids": [
      1527831433,
      1527851089
    ],
    "millsfield:primary_image": 1527831433,
    "millsfield:subcategory_id": 1511213425,
    "mz:hierarchy_label": 1,
    "mz:is_current": 1,
    "sfomuseum:accession_number": "2000.075.007",
    "sfomuseum:aircraft": "Douglas DC-3",
    "sfomuseum:aircraft_id": [
      487
    ],
    "sfomuseum:airline": "Transcontinental \u0026 Western Air",
    "sfomuseum:airline_id": [
      875
    ],
    "sfomuseum:category": "Scheduling / Ticketing",
    "sfomuseum:classification_id": 158,
    "sfomuseum:collection": "Aviation Archive",
    "sfomuseum:creditline": "Collection of SFO Museum",
    "sfomuseum:date": "1939",
    "sfomuseum:date_acquired": "2000-08-22",
    "sfomuseum:daterange_end": "1939-12-31",
    "sfomuseum:daterange_start": "1939-01-01",
    "sfomuseum:description": "Timetable issued by Transcontinental \u0026 Western Air (TWA), effective March 1, 1939; red and blue cover with illustration of landmarks from 1939 Expositions in San Francisco and New York, including Tower of the Sun, and Trylon and Perisphere; promotes new commuter service New York and Chicago.",
    "sfomuseum:dimensions": "9 x 4 inches (22.9 x 10.2 cm)",
    "sfomuseum:media_ids": [
      1527851089,
      1527831433
    ],
    "sfomuseum:medium": "paper, ink",
    "sfomuseum:object_id": 51561,
    "sfomuseum:placetype": "object",
    "sfomuseum:primary_media_id": 1527831433,
    "sfomuseum:publication": ": , 1939.",
    "sfomuseum:subcategory": "Timetable",
    "src:geom": "sfomuseum#undetermined",
    "wof:belongsto": [
      1511214223,
      102527513,
      102191575,
      85633793,
      1511213425,
      85922583,
      102087579,
      1511214277,
      1511214207,
      85688637
    ],
    "wof:breaches": [],
    "wof:country": "XX",
    "wof:created": 1579906684,
    "wof:depicts": [
      1159287531,
      1159285395,
      1159290417
    ],
    "wof:geomhash": "30c8a918561c84bb2daa2b97fc7c5353",
    "wof:hierarchy": [
      {
        "arcade_id": 1511213425,
        "building_id": 1511214277,
        "campus_id": 102527513,
        "concourse_id": 1511214223,
        "continent_id": 102191575,
        "country_id": 85633793,
        "county_id": 102087579,
        "custom_id": 1511910323,
        "locality_id": 85922583,
        "neighbourhood_id": -1,
        "object_id": 1511910323,
        "region_id": 85688637,
        "venue_id": 1511910323,
        "wing_id": 1511214207
      }
    ],
    "wof:id": 1511910323,
    "wof:lastmodified": 1787988176,
    "wof:name": "timetable: Transcontinental \u0026 Western Air (TWA)",
    "wof:parent_id": 1159162825,
    "wof:placetype": "custom",
    "wof:placetype_alt": [
      "object"
    ],
    "wof:repo": "sfomuseum-data-collection",
    "wof:superseded_by": [],
    "wof:supersedes": [],
    "wof:tags": []
  },
  "bbox": [
    -122.386155,
    37.616357,
    -122.386155,
    37.616357
  ],
  "geometry": {"type":"Point","coordinates":[-122.386155,37.616357]}
}
