{
  "id": 1511924707,
  "type": "Feature",
  "properties": {
    "date:cessation_lower": "1946-01-01",
    "date:cessation_upper": "1946-12-31",
    "date:inception_lower": "1946-01-01",
    "date:inception_upper": "1946-12-31",
    "edtf:cessation": "1946",
    "edtf:date": "1946",
    "edtf:inception": "1946",
    "geom:area": 0,
    "geom:bbox": "-122.386155,37.616357,-122.386155,37.616357",
    "geom:latitude": 37.616357,
    "geom:longitude": -122.386155,
    "iso:country": "XX",
    "millsfield:airline_id": [
      1159284991
    ],
    "millsfield:category_id": 1511214239,
    "millsfield:collection_id": 1511214207,
    "millsfield:company_id": [
      1159286839
    ],
    "millsfield:exhibition_ids": [
      1159160311
    ],
    "millsfield:images": [
      1527831971
    ],
    "millsfield:images_colors_refs": {
      "crayola": [
        {
          "hex": "#8a795d"
        },
        {
          "hex": "#cdc5c2"
        },
        {
          "hex": "#87a96b"
        },
        {
          "hex": "#414a4c"
        }
      ],
      "css4": [
        {
          "hex": "#c0c0c0"
        },
        {
          "hex": "#8fbc8f"
        },
        {
          "hex": "#808080"
        },
        {
          "hex": "#2f4f4f"
        }
      ],
      "marekm4": [
        {
          "hex": "#c6d3bd"
        },
        {
          "hex": "#71915d"
        },
        {
          "hex": "#2b431f"
        },
        {
          "hex": "#89a675"
        }
      ]
    },
    "millsfield:images_texts": [
      "WARRANT TO PURCHASE LESS THAN 100 SHARES\nVOID AFTER 3 P.M., NEW YORK TIME, ON DECEMBER 30, 1947\nSTOCK PURCHASE WARRANT\nWarrant to Purchase\nNo.O 11768\nFor Common Capital Stock of\n-25-\nShares\nPan American Airways Corporation\nFOR VALUE RECEIVED, PAN AMERICAN AIRWAYS CORPORATION, a corporation of the State of Delaware (hereinafter called the Corporation) promises to deliver to\n-DEAN WITTER \u0026 CO-\n......or the assignee hereof, a certificate for\nfull paid and non-assessable shares of the common capital stock of the Corporation,\nas its common capital stock may be\nconstituted at the time of purchase,\nupon\npresentation and surrender\nnicannis\nWarrant,\nwith the form of subscription on the reverse side hereof duly filled in and signed by the registered holder or assignee hereof, at any time after July S, 1945 and at or befor\n3:00 o'clock P.\nM.,\nYork Time,\non December\n30, 1947, at the\nprincipal office of Bankers Trust Company,\nAgent, in the Borough of Manhattan, The City of New York, and upon payment of\nthe purchase price of\ntherefor,\n28001\nand subject\nto the terms and conditions set forth herein and pursuant to the\nProspectus of the\nCorporation\nissued herewit*\nThe shares of stock of the Corporation subject to purchase hereunder shall be the number hereinabove specified of shares of the\nsuch\nste eativalent to stie red s or interests represented by shes of common capital stol of the Corporation sliter bed\nnumber of shares of such stock shall be good delivery hereunder whether or not the rights or interests represented by suc. shares\nand irrespective ot any change tech may have cubed prer the exercise here, inclin (without prettice to the genetandy of thete he fange by way of tele change se\nwith respect to any class of of ek of she Coration, or any hate or lease by the Corporation of alton utantally at of ty part offs assets or any corne wiser do do wor\nwhile this Warrant is in effect, the shares of such common capital stock which the holder hereof maybe entired to peror oldern the stares of so con more cople\ndivided or consolidated into a greater or lesser number of shares of common capital stock of the Corporation, or if, upon a merger or consolidation,\nexchangeable for the nut cer of shares of conmon capital stack of the Corporation which the holder would have been enteed to patinase except for sust\nin case at any time after July 3, 1945 and prior to the\npresentation and surrender\nof this Warrant as atoresaid bed pontend of the chase ese price charporation pall have distributed t\nnumber of shares of its common capital stock as a dividend or dividends upon\nthe shares of its common\nwith resnect to each one hindred charac nicommon\ncapital stock outstanding throughout such period, then the holder hereof\nhen the holder hereof uponte cheese of the ed excitin in the evidenced espe\nsubscription\npayment as herein provided shall be entitled to receive in addition\nof common capital stock of the Corporation hereinbefore specified, a number of full shares o.\nto the number of full shares of common\ncapital stock of the Corporation hereinbefore specified as the\nexcess over ten of the number of shares\nbeing given in\nof such excess and of\nsuch ratio to any\nother adjuster int\nthe number of shares purchaseable hereunder shall increase or decrease the total purchase price her nuer and\nnotWithstanding\nanything herein contained.\nto receive any\nfractional share\nof\nstock or\nanything in lieu thereof or any\nright with respect hereto.\nWhenever in this Warrant the Corporation\nwarrant anachat antira tho\nThis\nthe same number\nWer of threshne able\nat the option\nthe oring do the bode it desence of Bake rat may to her paratio\nmay have been merged\nconsolidated.\nBankers Trust\nther Warrants of different denominations relating in the agregate (\nof shares\nrights represented hereby are transferable only\nonthe\nooks of the Corporation at the said office of Bankers Trust Company by the registered hider hereo\nin person or by his duly authorized attorney upon surrender of this Warrant properly endorsed.\nSHALL BE MADE AS AFORESAID AT OR BEFORE 3 P.M., NEW YORK TIME,\nON LECEN\nBER 30.\nRIGHT\nThe poration may Nemand tete person in Whose rome this War ant appears on its books as the true and lawful owner hereof tor all\nAIRWAYS\nclaim\nother\nperson or\ncontrary notwithstanding.\ni not bothed entes or undie te the cone ranster Aget dino is, for compensation, acting as the Agent of the Corporation\nto perform\ncertain\nWITNESS\nministerial duties only\nthe facsimile seal of the Corporation and the facsimile signatures of its duly authorized officers\nDATED.\nATTEST:\n1946\nPAN AMERICAN AIRWAYS CORPORATION\nBy\n1928\nELAWAR\nPreston Hannia Secretary\nPresident\nCOUNT I SINET:\nBANKERS TRUST COMPANY,\nSecretary\nTr nsfer Agent"
    ],
    "millsfield:images_texts_ids": [
      1527831971
    ],
    "millsfield:on_view": 0,
    "millsfield:primary_image": 1527831971,
    "millsfield:subcategory_id": 1511213681,
    "mz:hierarchy_label": 1,
    "mz:is_current": 1,
    "sfomuseum:accession_number": "2003.103.008",
    "sfomuseum:airline": "Pan American Airways",
    "sfomuseum:airline_id": [
      685
    ],
    "sfomuseum:category": "Company Record / Document",
    "sfomuseum:classification_id": 462,
    "sfomuseum:collection": "Aviation Archive",
    "sfomuseum:creditline": "Anonymous gift",
    "sfomuseum:date": "1946",
    "sfomuseum:date_acquired": "2003-12-22",
    "sfomuseum:daterange_end": "1946-12-31",
    "sfomuseum:daterange_start": "1946-01-01",
    "sfomuseum:description": "Stock Purchase Warrant to Purchase 25 Shares: issued to Dean Witter and Company for Common Capital Stock of Pan American Airways Corporation: No. 11768; stamped and signed on reverse; dated January 25, 1946.",
    "sfomuseum:exhibition_ids": [
      1189
    ],
    "sfomuseum:media_ids": [
      1527831971
    ],
    "sfomuseum:medium": "paper, ink",
    "sfomuseum:object_id": 71650,
    "sfomuseum:placetype": "object",
    "sfomuseum:primary_media_id": 1527831971,
    "sfomuseum:publication": ": , 1946.",
    "sfomuseum:subcategory": "Stock Certificate / Bond",
    "src:geom": "sfomuseum#undetermined",
    "wof:belongsto": [
      1511214239,
      102527513,
      102191575,
      85633793,
      1511213681,
      85922583,
      102087579,
      1511214277,
      1511214207,
      85688637
    ],
    "wof:breaches": [],
    "wof:country": "XX",
    "wof:created": 1579906656,
    "wof:depicts": [
      1159284991,
      1159286839
    ],
    "wof:geomhash": "30c8a918561c84bb2daa2b97fc7c5353",
    "wof:hierarchy": [
      {
        "arcade_id": 1511213681,
        "building_id": 1511214277,
        "campus_id": 102527513,
        "concourse_id": 1511214239,
        "continent_id": 102191575,
        "country_id": 85633793,
        "county_id": 102087579,
        "custom_id": 1511924707,
        "locality_id": 85922583,
        "neighbourhood_id": -1,
        "object_id": 1511924707,
        "region_id": 85688637,
        "venue_id": 1511924707,
        "wing_id": 1511214207
      }
    ],
    "wof:id": 1511924707,
    "wof:lastmodified": 1787988178,
    "wof:name": "stock certificate: Pan American Airways Corporation",
    "wof:parent_id": 1159162825,
    "wof:placetype": "custom",
    "wof:placetype_alt": [
      "object"
    ],
    "wof:repo": "sfomuseum-data-collection",
    "wof:superseded_by": [],
    "wof:supersedes": [],
    "wof:tags": []
  },
  "bbox": [
    -122.386155,
    37.616357,
    -122.386155,
    37.616357
  ],
  "geometry": {"type":"Point","coordinates":[-122.386155,37.616357]}
}
