{
  "id": 2015174207,
  "type": "Feature",
  "properties": {
    "date:cessation_lower": "1980-08-01",
    "date:cessation_upper": "1980-08-31",
    "date:inception_lower": "1980-05-01",
    "date:inception_upper": "1980-05-31",
    "edtf:cessation": "1980-08",
    "edtf:inception": "1980-05",
    "geom:area": 2.475047457570636e-7,
    "geom:bbox": "-122.386472,37.616105,-122.385834,37.616611",
    "geom:latitude": 37.61635747477365,
    "geom:longitude": -122.38615540108617,
    "millsfield:airline_id": [
      1159284261
    ],
    "millsfield:category_id": 1762679663,
    "millsfield:collection_id": 1511214203,
    "millsfield:company_id": [
      1159287931
    ],
    "millsfield:images": [
      2015174361
    ],
    "millsfield:images_texts": [
      "RON\nINSTANT\nShoe Polish\nDer by: AIR-TEX\nDes Mones: 1a. 60002\nRON\nINSTANT\nSpot Remover\nDater AUR-TEX\nDes Mones, Iowa 50002\nRON\n*remain ouer night\nPersonal Toiletry Kit\nHis\nDelta Air Lines\nA®\nAfter Shave\nRON\nDeodorant\nmale ever pl\nKON\nBRUSHLESS\nShave\nSh conte\nColgates"
    ],
    "millsfield:images_texts_ids": [
      2015174361
    ],
    "millsfield:primary_image": 2015174361,
    "millsfield:subcategory_id": 1511213187,
    "mz:is_approximate": 1,
    "mz:is_current": 1,
    "sfomuseum:accession_number": "2020.067.001 a k",
    "sfomuseum:airline": "Delta Air Lines",
    "sfomuseum:airline_id": [
      355
    ],
    "sfomuseum:category": "Passenger Amenity, Museum",
    "sfomuseum:classification_id": 23,
    "sfomuseum:collection": "Aviation Museum",
    "sfomuseum:creditline": "Collection of SFO Museum",
    "sfomuseum:date": "mid 1980s",
    "sfomuseum:date_acquired": "2020-09-08",
    "sfomuseum:daterange_end": "1986-12-31",
    "sfomuseum:daterange_start": "1984-01-01",
    "sfomuseum:description": "Amenity kit issued by Delta Air Lines; in multiple parts:\ra. tan amenity kit cover with small snap closure, printed “His” and logo on left side, “RON / *remain over night / Personal Toiletry Kit” near top right corner;\rb. toothbrush;\rc. toothpaste;\rd. razor;\re. bottle of shave cream;\rf. bottle of after shave;\rg. bottle of deodorant;\rh. bottle of shampoo;\ri. comb;\rj. packet of spot remover;\rk. packet of shoe polish.",
    "sfomuseum:dimensions": "1 3/4 x 7 x 3 3/4 inches (4.4 x 17.8 x 9.5 cm)",
    "sfomuseum:maker": "Airline Textile Manufacturing Company",
    "sfomuseum:medium": "synthetic textile, plastic, metal, cosmetic products, paper, ink",
    "sfomuseum:object_id": 219121,
    "sfomuseum:placetype": "object",
    "sfomuseum:publication": ": , mid 1980s.",
    "sfomuseum:subcategory": "Amenity Kit",
    "src:geom": "sfomuseum#undetermined",
    "wof:belongsto": [
      102527513,
      1159162825,
      102191575,
      85633793,
      102087579,
      85922583,
      85688637,
      1159160869
    ],
    "wof:country": "XY",
    "wof:created": 1775077243,
    "wof:depicts": [
      1159284261,
      1159287931
    ],
    "wof:geomhash": "c281b9d9eefc83b5710e64b9d646067d",
    "wof:hierarchy": [
      {
        "building_id": -1,
        "campus_id": 102527513,
        "collection_id": 1159162825,
        "concourse_id": 1159162825,
        "continent_id": 102191575,
        "country_id": 85633793,
        "county_id": 102087579,
        "custom_id": 2015174207,
        "locality_id": 85922583,
        "neighbourhood_id": -1,
        "object_id": 2015174207,
        "region_id": 85688637,
        "wing_id": 1159160869
      }
    ],
    "wof:id": 2015174207,
    "wof:lastmodified": 1775115227,
    "wof:name": "amenity kit: Delta Air Lines",
    "wof:parent_id": 1159162825,
    "wof:placetype": "custom",
    "wof:placetype_alt": [
      "object"
    ],
    "wof:repo": "sfomuseum-data-collection",
    "wof:superseded_by": [],
    "wof:supersedes": []
  },
  "bbox": [
    -122.38647222518921,
    37.6161053594541,
    -122.38583385944366,
    37.61661101879963
  ],
  "geometry": {"type":"Polygon","coordinates":[[[-122.38647222518921,37.61631782178288],[-122.386434674263,37.61623283692423],[-122.38637566566466,37.61617759671399],[-122.38630056381224,37.6161308549656],[-122.38616108894348,37.6161053594541],[-122.38602161407469,37.6161308549656],[-122.38591432571411,37.61618609521055],[-122.38585531711577,37.61626683087935],[-122.38583385944366,37.61636881265146],[-122.38587141036987,37.61646654505181],[-122.38594114780425,37.61654303118856],[-122.38605380058287,37.61660252035167],[-122.38618254661559,37.61661101879963],[-122.3863059282303,37.61657277577607],[-122.3864185810089,37.61650903735973],[-122.3864668607712,37.61641130501523],[-122.38647222518921,37.61631782178288]]]}
}
