{
  "id": 1913796573,
  "type": "Feature",
  "properties": {
    "date:cessation_lower": "1936-12-18",
    "date:cessation_upper": "1936-12-18",
    "date:inception_lower": "1936-12-18",
    "date:inception_upper": "1936-12-18",
    "edtf:cessation": "1936-12-18",
    "edtf:inception": "1936-12-18",
    "geom:area": 2.475047457570636e-7,
    "geom:bbox": "-122.386472,37.616105,-122.385834,37.616611",
    "geom:latitude": 37.61635747477365,
    "geom:longitude": -122.38615540108617,
    "millsfield:airline_id": [
      1159284991
    ],
    "millsfield:category_id": 1511214251,
    "millsfield:collection_id": 1511214207,
    "millsfield:company_id": [
      1159286839
    ],
    "millsfield:images": [
      1913802485,
      1913802487
    ],
    "millsfield:images_colors_refs": {
      "crayola": [
        {
          "hex": "#edd19c"
        },
        {
          "hex": "#714b23"
        },
        {
          "hex": "#deaa88"
        },
        {
          "hex": "#bab86c"
        },
        {
          "hex": "#414a4c"
        },
        {
          "hex": "#e7c697"
        }
      ],
      "css4": [
        {
          "hex": "#f0e68c"
        },
        {
          "hex": "#2f4f4f"
        },
        {
          "hex": "#deb887"
        },
        {
          "hex": "#bdb76b"
        },
        {
          "hex": "#556b2f"
        }
      ],
      "marekm4": [
        {
          "hex": "#3b331b"
        },
        {
          "hex": "#4c4427"
        },
        {
          "hex": "#dfcc94"
        },
        {
          "hex": "#c6b076"
        },
        {
          "hex": "#e3d29a"
        },
        {
          "hex": "#d7c079"
        }
      ]
    },
    "millsfield:images_texts": [
      "Fuday Dec 18,1936\nDear Debts -\nAs the\nJury to Narking on the train tongut\nWrathi is bad and looks a\nthough it'll git work. Am truit,\nupset ao 2\ndont fire too usee .\nand hair ben take\ning brancoup\nasperin in an\nalmpt to stair\noff a cold.\nAlso I'm sunk\nbicaun Expretes to te leaving tomonow\nof the Change in amangrments at\ntongkong. Cant understand why the\nNoons did nt lit on know about\nth in return.\nof cout in the aborne\nang cord\nbut clear out a could do notting\n- the apposed day.\naeso ta spot abort the gibsone\nI knew\nyou a hair trankle moving but\nthought Youd be spand all that\nhectic indecision.\nwas delayed in\nYour last eate\nreachug me on\naccount up insufficent postags.\nP bonght\ntwo Eliz. Keith\nprinto today.\nand am stee looking\nsomething appropriate to cant\nAnd the\nlist us made ont",
      "Also Im wored abont\nthrough on Tuesday. Eddie Smith Jetting\neft\nhee Thrusday sprat that night at\nWinchow and tonight at Amo,. Ne\nmay\nJut into At.K. tomorrow -\ntivo\nThat\nwoned be the last straw! But\nthus no boat of englis saling\nont of her Sunday or honday and\nLee bar to chance gitting through.\nAm going to h\nennu\nwith the nelsons and Bond is\ncalling for me at 10 .m lo go t\nthe\nsebtion va grogs fillets who\ngon with us\nto Raking.\nNothing nui in the poltical\nsituation.\nHad denne with go. slit\nlust night - queste Mr + kurs (S.0. man\nwith Russan cop) hus Hunt, mr.\nNicholson. Un had bustard not\nburgad. Its a cred turk a d\nuvas marirlous.\nSome one sunt it\nto grays.\nMust run now - all my\nyou precion ange - 2 do\nhope you\nan pittled and reasonabe\nhappy\nwhen this reaches you. fin\nhoping for god wrathe Tuesday.\nyou our -\nBix\n2019.1210952"
    ],
    "millsfield:images_texts_ids": [
      1913802485,
      1913802487
    ],
    "millsfield:primary_image": 1913802485,
    "millsfield:subcategory_id": 1511213489,
    "mz:is_approximate": 1,
    "mz:is_current": 1,
    "sfomuseum:accession_number": "2019.121.0952",
    "sfomuseum:airline": "Pan American Airways",
    "sfomuseum:airline_id": [
      685
    ],
    "sfomuseum:category": "Employee Career History",
    "sfomuseum:classification_id": 195,
    "sfomuseum:collection": "Aviation Archive",
    "sfomuseum:creditline": "Collection of SFO Museum",
    "sfomuseum:date": "12/18/1936",
    "sfomuseum:date_acquired": "2019-11-22",
    "sfomuseum:daterange_end": "1936-12-18",
    "sfomuseum:daterange_start": "1936-12-18",
    "sfomuseum:description": "Handwritten letter from Harold M. Bixby to his wife, Debby Bixby, undated [likely December 18, 1936]; includes personal and family matters; mentions [Floyd and Mrs.] Nelson, [William L.] Bond, George Sellett, Eddie Smith.",
    "sfomuseum:dimensions": "12 1/2 x 8 inches (31.8 x 20.3 cm)",
    "sfomuseum:medium": "paper, ink",
    "sfomuseum:object_id": 211315,
    "sfomuseum:placetype": "object",
    "sfomuseum:publication": ": , 12/18/1936.",
    "sfomuseum:subcategory": "Correspondence, Personal",
    "src:geom": "sfomuseum#undetermined",
    "wof:belongsto": [
      102527513,
      1159162825,
      102191575,
      85633793,
      102087579,
      85922583,
      85688637,
      1159160869
    ],
    "wof:country": "XY",
    "wof:created": 1714549133,
    "wof:depicts": [
      1159286839,
      1159284991
    ],
    "wof:geomhash": "c281b9d9eefc83b5710e64b9d646067d",
    "wof:hierarchy": [
      {
        "building_id": -1,
        "campus_id": 102527513,
        "collection_id": 1159162825,
        "concourse_id": 1159162825,
        "continent_id": 102191575,
        "country_id": 85633793,
        "county_id": 102087579,
        "custom_id": 1913796573,
        "locality_id": 85922583,
        "neighbourhood_id": -1,
        "object_id": 1913796573,
        "region_id": 85688637,
        "wing_id": 1159160869
      }
    ],
    "wof:id": 1913796573,
    "wof:lastmodified": 1787988220,
    "wof:name": "correspondence: Harold M. Bixby to Debby Bixby",
    "wof:parent_id": 1159162825,
    "wof:placetype": "custom",
    "wof:placetype_alt": [
      "object"
    ],
    "wof:repo": "sfomuseum-data-collection",
    "wof:superseded_by": [],
    "wof:supersedes": []
  },
  "bbox": [
    -122.38647222518921,
    37.6161053594541,
    -122.38583385944366,
    37.61661101879963
  ],
  "geometry": {"type":"Polygon","coordinates":[[[-122.38647222518921,37.61631782178288],[-122.386434674263,37.61623283692423],[-122.38637566566466,37.61617759671399],[-122.38630056381224,37.6161308549656],[-122.38616108894348,37.6161053594541],[-122.38602161407469,37.6161308549656],[-122.38591432571411,37.61618609521055],[-122.38585531711577,37.61626683087935],[-122.38583385944366,37.61636881265146],[-122.38587141036987,37.61646654505181],[-122.38594114780425,37.61654303118856],[-122.38605380058287,37.61660252035167],[-122.38618254661559,37.61661101879963],[-122.3863059282303,37.61657277577607],[-122.3864185810089,37.61650903735973],[-122.3864668607712,37.61641130501523],[-122.38647222518921,37.61631782178288]]]}
}
