{
  "id": 1913795223,
  "type": "Feature",
  "properties": {
    "date:cessation_lower": "1936-10-11",
    "date:cessation_upper": "1936-10-11",
    "date:inception_lower": "1936-10-11",
    "date:inception_upper": "1936-10-11",
    "edtf:cessation": "1936-10-11",
    "edtf:inception": "1936-10-11",
    "geom:area": 2.475047457570636e-7,
    "geom:bbox": "-122.386472,37.616105,-122.385834,37.616611",
    "geom:latitude": 37.61635747477365,
    "geom:longitude": -122.38615540108617,
    "millsfield:airline_id": [
      1159284991
    ],
    "millsfield:category_id": 1511214251,
    "millsfield:collection_id": 1511214207,
    "millsfield:company_id": [
      1159286839
    ],
    "millsfield:images": [
      1913802413
    ],
    "millsfield:images_colors_refs": {
      "crayola": [
        {
          "hex": "#8a795d"
        },
        {
          "hex": "#efcdb8"
        },
        {
          "hex": "#9f8170"
        },
        {
          "hex": "#85754e"
        }
      ],
      "css4": [
        {
          "hex": "#696969"
        },
        {
          "hex": "#f5deb3"
        },
        {
          "hex": "#808080"
        }
      ],
      "marekm4": [
        {
          "hex": "#dcd0ad"
        },
        {
          "hex": "#757157"
        },
        {
          "hex": "#837d60"
        },
        {
          "hex": "#948f72"
        }
      ]
    },
    "millsfield:images_texts": [
      "SHANGAR OOTOBER 11\n1936\nDear Pendlys\nAn apology for feilure to write asento fint there do a destra on the part\nof the addresso to hear from tho writer - on aanmplien which any or may not be Are in\nthe case of ny \"fondly lebtero\". 16 has in the pant beas ay habit to uttlies a part of\nay tine me air truit serbbling a lotter to be hamled to gooretary upon ug sebum\ndo thangies with instruation to male as ming legible copies (and emo that woren't) an\nposeible.\nThan bao when I robumod to Shanged ry sortery, 1e Forben, mas aboode\nImom yoses as fill of sex appant as the lincoln lemorial.\nSho had to miergo sons lind\nof a very serous operation intel she omeladed nas note job for tours and according\nly sent to Pardo thoro the Taier 1 in this line of nor was reported to be pmotlaing.\nCao of the sea in out offlee la flattering nood megsted that che mas empooting a baby\nand after the oportion mote to hes to Sagadre hother 16 me a bay or a girl.\nrogate in due course that 2s ves trio. In the see letter, written Son 8 2540le ou\nin lenly where one sea recouposebing, sho ald the then she was in Fosio she had dent\nhoe Chinece made boot noggee to aPronch laundry end mas presented with a 5833 Sos 38\ngold on the theory no doubt that the got her minay easy and tould pert with 26 au onely\nShe went on to may tiant in the madlItalS tom che ma afruld to send her umention-\nables e the leisy 2os four of loing her repotation.\nto rotara to ny objood. In\nahe absonce of 18o Forbes all of ry noribbling was regulatod to the wonte banises sni\nven now certain partles who pay extravagut priess for wonte paper are probably beying\nmailly to unite atso sense out of all Wind dissormooted shatter.\n12 of you during ay gulls trip hone and I eepcotally\nenjoyed ny too tripe to lake leo\nego over the noelante.\nThere Se suply no other place\n11teo 40 or ef lost I have nevor coon eno is ay Creato.\nTho taip bool agroos the Pa»\n1.8t0 van mate in the China 022ppos with cupt. Tandole in cond.\nIs ves as plencont and\neu inventin no the authound panage.\nI missed the flat of Augst in moro mayo them\none. Te 101 1âng on Augurt 1et bus aroosed the 18002 moridion after en hoar'e 222g\nand no about the tino we are molly stating out to negate the bace cosoon at lale\ngoorgo wy \"pirat of August becone Asgard Ett nocond..\nle arrived et felo corty in the\naftornoon and I Joinod none of the mabers of the orar in the sport of the inland which\nbethave 16 or not is shooting 21ch. You yet on a pair of soggles,\nbon and arson aal plungo into the legons sharo mo do eupposed to dimport hastels in a\n2 mas detonal to shoot a big\nrods boss and then are Bolton landing to old in tho silk had but informately that day\ntho Lagoon ma rough and the water mo too attired up to so more than a for foot. 1g\nlunting or choid \u0026 my Stahing expedition mo thoralore ontarely uproduotive,\nI univod at lentin on the fourtle of Angun, reined there will the 3\nand Shes want on to longtong and Isono 20g a Sar dayo belore flying up to Shanghai Didan\nConson. I love made one other tarip to thosouth arl should be those now but now these\nhere have bean solonely ortileel for seny neels cal 16 has seened bast to be on\nShe\nLeave hose on tho 150 fos lada, Honglong end possibly Insis.\nThe 53g girle, Transes, Bo and Jino come doom Srom Pesping none\ndays ago.\nOat and lobe so stalying Prenoly nate ond Arring to my nothing of\nnaotering their\nPidgin Inglich. Dably and I are going ovar song to the home of one of our bork onda-\nace friends to heve Chinese chon.\nToday Se Sunday and I have gone withost food all day\nSun order to do futtee to a dinnor bals I lanow oter horts have bean consoling for noet of\ntade Sant trodee\nProm Onbon for the dimes. Malton come which tale cavoral daya to cool. Bande nent\nsoul, chas fas and all the other delfasten had oldly enough I he leamed to 12200\nfur better the any othe 2ood. You wi12 reneber 1ầ Zu Pang'o bool tos a chapter or eo\non the mabjoot of hinose cooling that to w013 worth sending.\nI poon one dinner up in\nChengtu where ig hook nold \"the boat cooles in the morld re Chinee, the beat cooles fa\nChine are ta Seedle Provinco, the boot cools in Szeteen Province are in Chang and I\nhave the boot coole in Changtu\". le me right.\n16 te tine to drees noa ne so 1022 cy goodbge with the tbrent to setto\nat more length 15 net any better when 19os Forbongoto bual and the offort of weing ry\nBoole and Pools ayotes of typeriting in less echomoting.\nAs 000e\nSEPO (SI,0/05"
    ],
    "millsfield:images_texts_ids": [
      1913802413
    ],
    "millsfield:primary_image": 1913802413,
    "millsfield:subcategory_id": 1511213489,
    "mz:is_approximate": 1,
    "mz:is_current": 1,
    "sfomuseum:accession_number": "2019.121.0938",
    "sfomuseum:airline": "Pan American Airways",
    "sfomuseum:airline_id": [
      685
    ],
    "sfomuseum:category": "Employee Career History",
    "sfomuseum:classification_id": 195,
    "sfomuseum:collection": "Aviation Archive",
    "sfomuseum:creditline": "Collection of SFO Museum",
    "sfomuseum:date": "10/11/1936",
    "sfomuseum:date_acquired": "2019-11-22",
    "sfomuseum:daterange_end": "1936-10-11",
    "sfomuseum:daterange_start": "1936-10-11",
    "sfomuseum:description": "Typewritten letter from Harold M. Bixby to his family, dated October 11, 1936 in Shanghai; includes anecdote about his secretary, Miss Forbes, description of flights over the Pacific route, and update on location.",
    "sfomuseum:dimensions": "13 x 8 1/2 inches (33 x 21.6 cm)",
    "sfomuseum:medium": "paper, ink",
    "sfomuseum:object_id": 211301,
    "sfomuseum:placetype": "object",
    "sfomuseum:publication": ": , 10/11/1936.",
    "sfomuseum:subcategory": "Correspondence, Personal",
    "src:geom": "sfomuseum#undetermined",
    "wof:belongsto": [
      102527513,
      1159162825,
      102191575,
      85633793,
      102087579,
      85922583,
      85688637,
      1159160869
    ],
    "wof:country": "XY",
    "wof:created": 1714548730,
    "wof:depicts": [
      1159286839,
      1159284991
    ],
    "wof:geomhash": "c281b9d9eefc83b5710e64b9d646067d",
    "wof:hierarchy": [
      {
        "building_id": -1,
        "campus_id": 102527513,
        "collection_id": 1159162825,
        "concourse_id": 1159162825,
        "continent_id": 102191575,
        "country_id": 85633793,
        "county_id": 102087579,
        "custom_id": 1913795223,
        "locality_id": 85922583,
        "neighbourhood_id": -1,
        "object_id": 1913795223,
        "region_id": 85688637,
        "wing_id": 1159160869
      }
    ],
    "wof:id": 1913795223,
    "wof:lastmodified": 1787988219,
    "wof:name": "correspondence: Harold M. Bixby, family circular letter",
    "wof:parent_id": 1159162825,
    "wof:placetype": "custom",
    "wof:placetype_alt": [
      "object"
    ],
    "wof:repo": "sfomuseum-data-collection",
    "wof:superseded_by": [],
    "wof:supersedes": []
  },
  "bbox": [
    -122.38647222518921,
    37.6161053594541,
    -122.38583385944366,
    37.61661101879963
  ],
  "geometry": {"type":"Polygon","coordinates":[[[-122.38647222518921,37.61631782178288],[-122.386434674263,37.61623283692423],[-122.38637566566466,37.61617759671399],[-122.38630056381224,37.6161308549656],[-122.38616108894348,37.6161053594541],[-122.38602161407469,37.6161308549656],[-122.38591432571411,37.61618609521055],[-122.38585531711577,37.61626683087935],[-122.38583385944366,37.61636881265146],[-122.38587141036987,37.61646654505181],[-122.38594114780425,37.61654303118856],[-122.38605380058287,37.61660252035167],[-122.38618254661559,37.61661101879963],[-122.3863059282303,37.61657277577607],[-122.3864185810089,37.61650903735973],[-122.3864668607712,37.61641130501523],[-122.38647222518921,37.61631782178288]]]}
}
