{
  "id": 1762690323,
  "type": "Feature",
  "properties": {
    "date:cessation_lower": "1984-01-01",
    "date:cessation_upper": "1984-12-31",
    "date:inception_lower": "1984-01-01",
    "date:inception_upper": "1984-12-31",
    "edtf:cessation": "1984",
    "edtf:inception": "1984",
    "geom:area": 2.475047457570636e-7,
    "geom:bbox": "-122.386472,37.616105,-122.385834,37.616611",
    "geom:latitude": 37.61635747477365,
    "geom:longitude": -122.38615540108617,
    "millsfield:airline_id": [
      1159283711
    ],
    "millsfield:category_id": 1511214223,
    "millsfield:collection_id": 1511214207,
    "millsfield:company_id": [
      1159287861
    ],
    "millsfield:images": [
      1762698301,
      1762698305,
      1762698307
    ],
    "millsfield:images_colors_refs": {
      "crayola": [
        {
          "hex": "#17806d"
        },
        {
          "hex": "#dbd7d2"
        },
        {
          "hex": "#cdc5c2"
        },
        {
          "hex": "#6dae81"
        },
        {
          "hex": "#1a4876"
        },
        {
          "hex": "#58427c"
        },
        {
          "hex": "#71bc78"
        }
      ],
      "css4": [
        {
          "hex": "#191970"
        },
        {
          "hex": "#663399"
        },
        {
          "hex": "#8fbc8f"
        },
        {
          "hex": "#d3d3d3"
        },
        {
          "hex": "#dcdcdc"
        },
        {
          "hex": "#483d8b"
        },
        {
          "hex": "#228b22"
        }
      ],
      "marekm4": [
        {
          "hex": "#e1ddcb"
        },
        {
          "hex": "#79b586"
        },
        {
          "hex": "#64518c"
        },
        {
          "hex": "#ccd5c0"
        },
        {
          "hex": "#6baf77"
        },
        {
          "hex": "#240d6c"
        },
        {
          "hex": "#cdd6bd"
        },
        {
          "hex": "#6cae77"
        },
        {
          "hex": "#291e65"
        },
        {
          "hex": "#2b1e69"
        },
        {
          "hex": "#19903a"
        },
        {
          "hex": "#7ab985"
        },
        {
          "hex": "#5d4b8d"
        }
      ]
    },
    "millsfield:images_texts": [
      "YAIR\nONTARIO\nTIMETABLE\nHORAIRE\nEffective Nov. 19, 1984\nEn vigueur le 19 nov., 1984\nNow serving/Nouvelle destination\nNorth Bay, Ontario\nAIR CANADA\nPartner in\nPartenaire de\nTM\nMC",
      "TORONTO\nFreq. / Dep./ Arr./\nFréq\nDép.\nFlight/ Stops/\nArr.\nVol\nEscales\nTo / A Cleveland\n1234\n8:20a 9:50a\n6\n2:30p 4:00p\n5:30p 7:00p\n1234\n7\n7:25p 8:55p\n8:25p 9:55p\n801\n837\n835\n821\n823\nTo / A Hartford / Springfield\nX67\n7:35a 9:05a\n800\nX6\n4:40p 6:10p\n814\nTo /À London\n1234\n8:20a 8:55a\n6\n9:00a 9:35a\nX67\n9:35a 10:10a\n6\n2:30p 3:05p\nX6\nX6\n2:50p\n3:25р\n5:05р\n5:40p\n5:30p\n6:05p\nX57\n5\n7\n457\nX6\n6:20p\n7:25р\n6:55p\n8:00p\n7:45р\n8:25p\n8:20p\n9:20p\n9:00p\n9:50p\n10:30p 11:00p\n801\n803\n807\n837\n813\n815\n835\n817\n821\n825\n823\n827\n829\nTo / A North Bay\nX67\n9:00a 9:55a\n67\n9:30a 11:10a\n804\n808\nTo /À Sarnia\nX67\n9:35a 10:45a\n807\n6\n7\n2:15р\n3:00p\n809\nX67\n3:10p\n839\nX67\n3:45р\n3:55p\n811\n6:20p\n4:30p\n7:30p\n817\n7\n6:20p\n6\n7:25р\n8:25p\n817/833\n8:35p\n821\nX6\n10:30p 11:30p\n829\nTo /Ă Sudbury\n67\n9:30a 10:30a\nX6\n2:15p 3:15p\nX6\n9:45р 10:45р\n808\n812\n826\nRes 925-2311\nRes\nArr/Dep 969-5551\nArr/Dep 969-5722\nFreq./ Dep./\nArr./\nFreq.\nDép.\nArr.\nFlight/\nStops/\nVol\nEscales\nFrom /De Cleveland\n1234\n7:10a 8:40a\nX67\n12:00n\n67\nX6\n4:30p\n1:30p\n7:55p\n6:00p\n9:25р\n804\n812\n836\n826\n0\n0\n0\n0\n0\n0\n1\n0\n0\n0\nFrom / De Hartford / Springfield\nX67\n9:35a 11: 15a\nX6\n6:40p\n8:20p\n843\n0\nFrom / De London\nX67\n6:45a 7:15a\n7:30a\n8:00a\nX57\nX6\n8:10a\n8:40a\n12:30p\n1:00p\n1:00p\n567\n1234\n47\nX6\n57\n3:50p\n1:30p\n5:30p\n4:20p\n6:00p\n7:30p\n6:35p\n8:00p\n8:55p\n9:25р\n9:40p 10:10p\n0\nC\n0\n0\n0\nFrom/De North Bay\n67\nX67\n11:30a 12:20p\n845\n4:20p\n5: 10p\n835\n0\nFrom / De Sarnia\nX7\nX6\n67\n7:00a 8:00a\n12:00n 1:00p\n3:20p\nX67\n4:25p\n4:20p\n5:00p\n5:10p\n5:45р\n802\n810\n814\n816\n822\n0\nFrom / De Sudbury\nX67\n67\n8:15a 9:15a\n10:45a 12:20p\n3:45p\n4:45р\n807\n845\n815\nFrequency / Fréquence\nX = Except/Sauf\n2\n= Tu / Ma\n1 = Mo/Lu\n3\n= We/ Me\nconnection / correspondance via: *London\n4 = Th/Je\n5 = Fr/Ve\n**Toronto\n6\n=\nSa / Sa\n7 = Su/Di\nГ\nPrinted in Canada\n2009.122.168\nImprimé au Canada",
      "Our Lowest Fares\nFor the businessman... Our round-trip excursion fares in selected markets offer\nsavings of 15-20 % from the regular economy fares. No messy rules to remember;\njust book a round-trip as early as possible, seats are limited.\nFor the 'pleasure traveller' ... Use the 'Super APEX fare for a two-week journey or\njust a weekend away. Simply reserve your seat and buy your ticket at least 7 days in\nadvance. Again, book early, as seats are limited. You can return as early as the first\nSunday after you start your trip\nNos tarifs super-reduits\nPour hommes et femmes d'affaires... nos tarifs excursions aller-retour applicables\nà certains marchés permettent des économies de 15-20% sur les tarifs economiques\nnormaux. Les conditions sont très simples. Il suffit de faire vos réservations le plus tot\npossible car le nombre de places est limité.\nÀ l'intention des passagers d'agrément .... Profitez du tarif super APEX pour un\nvoyage de deux semaines ou juste pour une fin de semaine. Il suffit de faire vos\nréservations et d'acheter votre billet au moins sept jours à l'avance. Mais réservez le\nplus tôt possible car le nombre de places est limité. Le retour peut avoir lieu des le\npremier dimanche suivant votre départ.\nAll fares are effective Nov. 19, 1984 and are in round-trip amounts.\nFares are subject to change. Applicable taxes extra.\nRound-trip\nexcursion\naller-retour\nFrom / De\nTo / À\nCleveland\nLondon, Ont.\nMontreal\nNorth Bay\n$233 U.S.\n$218 U.S.\nOttawa\nSudbury\nToronto\nHartford/\nSpringfield\nLondon, Ont.\nSarnia\nToronto\n$225 U.S.\n$130 U.S\n$205 U.S.\n$218 U.S.\n$184 U.S.\nLondon, Ont.\nCleveland\nHartford / Springfield\nMontreal\nNorth Bay\nOttawa\nSudbury\n$256\n$214\n$180\n$190\n$187\nToronto\nMontreal\nCleveland\nLondon, Ont.\nOttawa\n$291\n$214\n$121\nSarnia\nNorth Bay\nCleveland\nLondon, Ont.\nSarnia\nToronto\n$272\n$180\n$257\n$155\nOttawa\nCleveland\nLondon, Ont.\nMontreal\n$190\n$121\nSarnia\nToronto\nSarnia\nHartford / Springfield\n$158\n$272\nMontreal\nNorth Bay\n$257\nOttawa\nSudbury\n$264\nToronto\nSudbury\nCleveland\nLondon, Ont.\nSarnia\nToronto\nToronto\nCleveland\nHartford / Springfield\nLondon, Ont.\nNorth Bay\nOttawa\n$281\n$187\n$264\n$162\n$163\n$230\n-\n$155\n$158\nSarnia\nSudbury\n$162\n\"Super APEX\n$ 69 U.S.\n$127 U.S.\n$118 U.S.\n$122 U.S.\n$123 U.S.\n$ 80 U.S.\n$120 U.S.\n$128 U.S.\n$115 U.S.\n$ 86\n$150\n$109\n$\n99\nS\n99\n$102\n$ 56\n$159\n$109\n$ 72\n$115\n$148\n$ 99\n$140\n$ 85\n$153\n$ 99\n$ 72\n$105\n$ 90\n$160\n$115\n$140\n$105\n$144\n$ 63\n$154\n$102\n$144\n$ 88\n$100\n$144\nS56\n$ 85\n$ 90\n$\n63\n88\nTous les tarifs prennent effet le 19 novembre 1984 et s'appliquent aux trajets aller-retour.\nLes prix de billet sont sous réserve de changement. Taxes applicables en plus.\nAll fares shown in Canadian dollars except where noted.\nSauf indication contraire, tous les tarifs sont indiques en dollars canadiens.\nCLEVELAND\nRes 1-800-422-6232\nRes\nFreq. / Dep./\nArr./\nFréq.\nDep.\nArr.\nTo / A London\n1234\n7:10a\n7:45a\nX67\n67\n12:00n 12:35p\n4:30p\n5:05p\nX6\n7:55p\n8:30p\nFlight/\nVol\nStops/\nEscales\n804\n812\n836\n826\n0\n0\n0\nTo / A Montreal\n5\n12:00n 3:00p 812/834\n1*\nTo/A North Bay\n1234\n7:10a 9:55a\n804\n2\nArr/Dep 362-4623\nArr/Dép\nFreq. / Dep./\nArr./\nFréq.\nDép.\nArr.\nFlight/\nVol\nStops/\nEscales\nFrom / De London\n1234\n9:10a\n9:50a\n6\n5:20p\n1234\n6:20p\n4:00p\n7:00p\n8:15p\n8:55p\n7\n9:15p\n9:55p\n801\n837\n835\n821\n823\n0\n0\n0\n0\nFrom / De Montreal\n5\n1234\n2:55p\n7:00p\n849/835\n2*\n4:30p\n8:55p\n841/821\n7\n6:05p\n9:55p\n833/823\nFrom /De North Bay\n6\n11:30a 4:00p 845/837\n2**\nTo / A Ottawa\n7\n4:30p\n7:15p 836/830\n1*\nFrom / De Ottawa\n5\n3:45p\n1234\n5:20p\n7:00p 849/835\n8:55p 841/821\nTo / À Sudbury\nX67\n12:00n\n3:15p\nX6\n7:55p 10:45p\nTo / À Toronto\n1234\n7:10a\nX67\n12:00n\n67\n4:30p\nX6\n7:55p\n8:40a\n1:30p\n6:00p\n9:25p\n812\n826\nFrom /De Sudbury\n6\n10:45a\n4:00p 845/837\n3:45p\n7:00p 815/835\n3**\n2**\n804\n812\n836\n826\nFrom / De Toronto\n1234\n8:20a\n9:50a\n6\n2:30p\n4:00p\n5:30p\n1234\n7:25p\n7:00p\n8:55p\n7\n8:25p\n9:55p\n801\n837\n835\n821\n823\nHARTFORD/SPRINGFIELD\nFreq./ Dep./\nArr./\nFréq.\nDép.\nArr.\nFlight/ Stops/\nVol\nEscales\nTo / A London\nX67\n9:35a\n3:25p\n805/813\n123\n6:40p 11:00p\n843/829\n457\n6:40p\n9:50p\n843/827\n**\n**\n1**\nTo/A North Bay\nconsult with your Travel Agent\ncommuniquez avec votre agent de voyages\nTo / A Sarnia\nX67\n9:35a\n4:30p\n805/811\nX6\n6:40p 11:30p\n843/829\n**\n2\n**\nRes 1-800-422-6232\nRés\nFreq. / Dep./\nArr./\nFréq.\nDép.\nArr.\nFlight/\nStops/\nVol\nEscales\nFrom/A London\nX67\n6:45a\n9:05a\nX6\n3:50p\n6:10p\n800\n814\nFrom /De North Bay\n7\n11:30a 6:10p 845/814\n1**\nTo / À Sudbury\nX67\n9:35a\n3:15p\n805/812\nX6\n6:40p 10:45p\n843/826\nTo / A Toronto\nX67\n9:35a 11:15a\nX6\n6:40p\n8:20p\n805\n843\n**\n**\nFrom /De Sarnia\nX67 12:00n\n6:10p\n810/814\n7\n3:20p\n6:10p\n814\n2**\n2\nFrom/ De Sudbury\nconsult with your Travel Agent\ncommuniquez avec votre agent de voyages\nFrom / De Toronto\nX67\nX6\n7:35a\n9:05a\n4:40p\n6:10p\n800\n814\n0\nFrequency / Fréquence\nX = Except/Sauf\n2\n= Tu/Ma\n4 = Th/Je\n1 = Mo/Lu\n3\n= We/Me\n5 = Fr/Ve\nconnection / correspondance via: *London\n**Toronto\n6\n=\nSa / Sa\n7 =\nSu / Di"
    ],
    "millsfield:images_texts_ids": [
      1762698301,
      1762698305,
      1762698307
    ],
    "millsfield:primary_image": 1762698301,
    "millsfield:subcategory_id": 1511213425,
    "mz:is_current": 1,
    "sfomuseum:accession_number": "2009.122.168",
    "sfomuseum:airline": "Air Ontario",
    "sfomuseum:airline_id": [
      107
    ],
    "sfomuseum:category": "Scheduling / Ticketing",
    "sfomuseum:classification_id": 158,
    "sfomuseum:collection": "Aviation Archive",
    "sfomuseum:creditline": "Gift of the William Hough Collection",
    "sfomuseum:date": "1984",
    "sfomuseum:date_acquired": "2010-06-08",
    "sfomuseum:daterange_end": "1984-12-31",
    "sfomuseum:daterange_start": "1984-01-01",
    "sfomuseum:description": "Timetable issued by Air Ontario, effective November 19, 1984; seven pages; white, purple, and green cover with text announcing new service to North Bay, Ontario; in French and English.",
    "sfomuseum:dimensions": "8 x 4 inches (20.3 x 10.2 cm)",
    "sfomuseum:medium": "paper, ink",
    "sfomuseum:object_id": 103171,
    "sfomuseum:placetype": "object",
    "sfomuseum:publication": ": , 1984.",
    "sfomuseum:subcategory": "Timetable",
    "src:geom": "sfomuseum#undetermined",
    "wof:belongsto": [
      102527513,
      1159162825,
      102191575,
      85633793,
      102087579,
      85922583,
      85688637,
      1159160869
    ],
    "wof:country": "XY",
    "wof:created": 1641342972,
    "wof:depicts": [
      1159287861,
      1159283711
    ],
    "wof:geomhash": "c281b9d9eefc83b5710e64b9d646067d",
    "wof:hierarchy": [
      {
        "building_id": -1,
        "campus_id": 102527513,
        "collection_id": 1159162825,
        "concourse_id": 1159162825,
        "continent_id": 102191575,
        "country_id": 85633793,
        "county_id": 102087579,
        "custom_id": 1762690323,
        "locality_id": 85922583,
        "neighbourhood_id": -1,
        "object_id": 1762690323,
        "region_id": 85688637,
        "wing_id": 1159160869
      }
    ],
    "wof:id": 1762690323,
    "wof:lastmodified": 1787988197,
    "wof:name": "timetable: Air Ontario",
    "wof:parent_id": 1159162825,
    "wof:placetype": "custom",
    "wof:placetype_alt": [
      "object"
    ],
    "wof:repo": "sfomuseum-data-collection",
    "wof:superseded_by": [],
    "wof:supersedes": []
  },
  "bbox": [
    -122.38647222518921,
    37.6161053594541,
    -122.38583385944366,
    37.61661101879963
  ],
  "geometry": {"type":"Polygon","coordinates":[[[-122.38647222518921,37.61631782178288],[-122.386434674263,37.61623283692423],[-122.38637566566466,37.61617759671399],[-122.38630056381224,37.6161308549656],[-122.38616108894348,37.6161053594541],[-122.38602161407469,37.6161308549656],[-122.38591432571411,37.61618609521055],[-122.38585531711577,37.61626683087935],[-122.38583385944366,37.61636881265146],[-122.38587141036987,37.61646654505181],[-122.38594114780425,37.61654303118856],[-122.38605380058287,37.61660252035167],[-122.38618254661559,37.61661101879963],[-122.3863059282303,37.61657277577607],[-122.3864185810089,37.61650903735973],[-122.3864668607712,37.61641130501523],[-122.38647222518921,37.61631782178288]]]}
}
