{
  "id": 1913795925,
  "type": "Feature",
  "properties": {
    "date:cessation_lower": "1933-10-22",
    "date:cessation_upper": "1933-10-22",
    "date:inception_lower": "1933-10-22",
    "date:inception_upper": "1933-10-22",
    "edtf:cessation": "1933-10-22",
    "edtf:inception": "1933-10-22",
    "geom:area": 2.475047457570636e-7,
    "geom:bbox": "-122.386472,37.616105,-122.385834,37.616611",
    "geom:latitude": 37.61635747477365,
    "geom:longitude": -122.38615540108617,
    "millsfield:airline_id": [
      1159284991,
      1159285931
    ],
    "millsfield:category_id": 1511214251,
    "millsfield:collection_id": 1511214207,
    "millsfield:company_id": [
      1159286721
    ],
    "millsfield:images": [
      1913801225,
      1913801227,
      1913801231
    ],
    "millsfield:images_colors_refs": {
      "crayola": [
        {
          "hex": "#efdecd"
        },
        {
          "hex": "#9f8170"
        },
        {
          "hex": "#000000"
        },
        {
          "hex": "#414a4c"
        },
        {
          "hex": "#eceabe"
        },
        {
          "hex": "#efcdb8"
        }
      ],
      "css4": [
        {
          "hex": "#000000"
        },
        {
          "hex": "#f5deb3"
        },
        {
          "hex": "#2f4f4f"
        },
        {
          "hex": "#808080"
        }
      ],
      "marekm4": [
        {
          "hex": "#e5dac0"
        },
        {
          "hex": "#262014"
        },
        {
          "hex": "#9b8f70"
        },
        {
          "hex": "#332b18"
        },
        {
          "hex": "#262115"
        },
        {
          "hex": "#e4d8bd"
        },
        {
          "hex": "#e8ddc0"
        }
      ]
    },
    "millsfield:images_texts": [
      "33\nDibs\nour\nim Do\nALLAR\nSTEAMSHIP LINES\nto\nROUND\nAND\nTHE WORLD\nrecommand the\nfoccouring\nplan to P.Q.a.\nNow that ur hai\nthe Provisional quating\naguement syred than\nis no particular ruor\nabout getting the pumant\ncontracto fixed up Except\nfor the oders for new\nEquegment which eate\nplaced immediatre for\nthe delurry dats wil\nnot be under It months\nand toby that time ur\nstoned har all contracto\ndrawn. The only orkn",
      "immediate grogict is the hangar at\nShan ghai and 9 can arrange t\nframer that the ough the in of C. it\nom fenie contracto can not s2\nworked cut.\nThen for\nIm suggrating to\nMoyan that o should return to\nn.y. to consuet them at length\nand in detaie regardin, the form\nour premanent Contracts should take\nand also some vir important\ndetailo of policy and preconne.\nThe toplesk at tongkong suggest\nthat the\nworld like to hair me\nreturn, vin England and talk to\nImprise Quay\non the wa, afte\nI hair cleard unth Pa.a. So\nif this plan works out I showed\nor home by\nChastmas and ther\nin fannar a tile. return out he\nYou and cat \u0026 Hate bu wan\nof England and the Sueg, it.",
      "Of course n.y. may mot\nappror of this plea\nbut I have talked it\nale on cath granch\nand he thanks it is\nthe brat was to proerde.\nDont get your keat\nset on\nit\nbut thank\nmie end\nan so\nrecited on the prospet\nthat o can hardh\ncontans myne.\nLoto and lots of\nlov angre- from your\nvery\nown -\nHad\n2019.121.0758"
    ],
    "millsfield:images_texts_ids": [
      1913801225,
      1913801227,
      1913801231
    ],
    "millsfield:primary_image": 1913801225,
    "millsfield:subcategory_id": 1511213489,
    "mz:is_approximate": 1,
    "mz:is_current": 1,
    "sfomuseum:accession_number": "2019.121.0758 a c",
    "sfomuseum:airline": "Pan American Airways",
    "sfomuseum:airline_id": [
      685,
      1131
    ],
    "sfomuseum:category": "Employee Career History",
    "sfomuseum:classification_id": 195,
    "sfomuseum:collection": "Aviation Archive",
    "sfomuseum:creditline": "Collection of SFO Museum",
    "sfomuseum:date": "10/22/1933",
    "sfomuseum:date_acquired": "2019-11-22",
    "sfomuseum:daterange_end": "1933-10-22",
    "sfomuseum:daterange_start": "1933-10-22",
    "sfomuseum:description": "Handwritten letter from Harold M. Bixby to his wife, Debby Bixby, dated October 22, [1933], on stationery from Dollar Steamship Lines; includes update on status of permanent contracts; proposal to return to New York to speak with Pan American Airlines leadership and be at home for Christmas; mentions [Stokely W.] Morgan and [William] Grooch.",
    "sfomuseum:dimensions": "11 x 8 1/2 inches (27.9 x 21.6 cm)",
    "sfomuseum:medium": "paper, ink",
    "sfomuseum:object_id": 211106,
    "sfomuseum:placetype": "object",
    "sfomuseum:publication": ": , 10/22/1933.",
    "sfomuseum:subcategory": "Correspondence, Personal",
    "src:geom": "sfomuseum#undetermined",
    "wof:belongsto": [
      102527513,
      1159162825,
      102191575,
      85633793,
      102087579,
      85922583,
      85688637,
      1159160869
    ],
    "wof:country": "XY",
    "wof:created": 1714548933,
    "wof:depicts": [
      1159284991,
      1159285931,
      1159286721
    ],
    "wof:geomhash": "c281b9d9eefc83b5710e64b9d646067d",
    "wof:hierarchy": [
      {
        "building_id": -1,
        "campus_id": 102527513,
        "collection_id": 1159162825,
        "concourse_id": 1159162825,
        "continent_id": 102191575,
        "country_id": 85633793,
        "county_id": 102087579,
        "custom_id": 1913795925,
        "locality_id": 85922583,
        "neighbourhood_id": -1,
        "object_id": 1913795925,
        "region_id": 85688637,
        "wing_id": 1159160869
      }
    ],
    "wof:id": 1913795925,
    "wof:lastmodified": 1787988219,
    "wof:name": "correspondence: Harold M. Bixby to Debby Bixby",
    "wof:parent_id": 1159162825,
    "wof:placetype": "custom",
    "wof:placetype_alt": [
      "object"
    ],
    "wof:repo": "sfomuseum-data-collection",
    "wof:superseded_by": [],
    "wof:supersedes": []
  },
  "bbox": [
    -122.38647222518921,
    37.6161053594541,
    -122.38583385944366,
    37.61661101879963
  ],
  "geometry": {"type":"Polygon","coordinates":[[[-122.38647222518921,37.61631782178288],[-122.386434674263,37.61623283692423],[-122.38637566566466,37.61617759671399],[-122.38630056381224,37.6161308549656],[-122.38616108894348,37.6161053594541],[-122.38602161407469,37.6161308549656],[-122.38591432571411,37.61618609521055],[-122.38585531711577,37.61626683087935],[-122.38583385944366,37.61636881265146],[-122.38587141036987,37.61646654505181],[-122.38594114780425,37.61654303118856],[-122.38605380058287,37.61660252035167],[-122.38618254661559,37.61661101879963],[-122.3863059282303,37.61657277577607],[-122.3864185810089,37.61650903735973],[-122.3864668607712,37.61641130501523],[-122.38647222518921,37.61631782178288]]]}
}
