{
  "id": 1511951321,
  "type": "Feature",
  "properties": {
    "date:cessation_lower": "1955-01-01",
    "date:cessation_upper": "1955-12-31",
    "date:inception_lower": "1955-01-01",
    "date:inception_upper": "1955-12-31",
    "edtf:cessation": "1955~",
    "edtf:date": "1955~",
    "edtf:inception": "1955~",
    "geom:area": 0,
    "geom:bbox": "-122.386155,37.616357,-122.386155,37.616357",
    "geom:latitude": 37.616357,
    "geom:longitude": -122.386155,
    "iso:country": "XX",
    "millsfield:airline_id": [
      1159284989
    ],
    "millsfield:category_id": 1763416397,
    "millsfield:collection_id": 1511214207,
    "millsfield:company_id": [
      1159286839
    ],
    "millsfield:images": [
      1763388435
    ],
    "millsfield:images_colors_refs": {
      "crayola": [
        {
          "hex": "#414a4c"
        },
        {
          "hex": "#6dae81"
        },
        {
          "hex": "#bab86c"
        },
        {
          "hex": "#dbd7d2"
        },
        {
          "hex": "#a5694f"
        }
      ],
      "css4": [
        {
          "hex": "#d3d3d3"
        },
        {
          "hex": "#778899"
        },
        {
          "hex": "#a0522d"
        },
        {
          "hex": "#bdb76b"
        },
        {
          "hex": "#2f4f4f"
        }
      ],
      "marekm4": [
        {
          "hex": "#a46047"
        },
        {
          "hex": "#6c8da0"
        },
        {
          "hex": "#d1ac59"
        },
        {
          "hex": "#383632"
        },
        {
          "hex": "#ddd9cc"
        }
      ]
    },
    "millsfield:images_texts": [
      "THE SATURDAY EVENING POST\nSun-warmed beaches like Montego Bay, Jamaica, are waiting for you in the West Indies\n.. No snow, no cold rain, just the trade wind blowing every day-and fun-and rest!\nPlan now to\nESCAPE FROM WINTER\nto these SUNLIT ISLES\nBy Flying Clipper, the West Indies are now\nless than a day away from any point in the U.S.\n...New York to San Juan is only 8 hours.\nNEWYORK\nM-m-m! New hat, West Indies style? No, just the way the natives in Haiti carry\nbananas, baskets and many other wares to market. Wouldn't you like (left) to\ntaste the milk, right out of a fresh coconut, at St. Thomas, Virgin Islands?... At\nSan Juan (see map) you're only 45 minutes by Clipper from St. Thomas.\nBERMUDA \u0026\n@ NASSAU\nMIAMI\nhours\nSAN JUAN\nTropical luxury. The Dominican Republic's\nHotel Jaragua, at Ciudad Trujillo, is one of\nthe most modern winter resorts in the West\nIndies. Every room has a radio, telephone\nand bath... and besides the ocean-water\nswimming pool (above), there are tennis\ncourts, and an excellent golf course nearby.\nTO ALL SOUTH AMERICA\nSEE YOUR TRAVEL AGENT or the nearest\nPan American office for rates and reserva-\ntions to the West Indies not only from the\npoints shown above but also from\nNew\nOrleans, Houston and Los Angeles... Clip-\npers also fly on regular schedule to Europe,\nthe Near East, India, Africa, Alaska, Hawaii,\nNew Zealand, Australia and the Orient.\nAMONG\nTHE MILLIONS OF\nPASSENGERS WHO HAVE\nFLOWN ABROAD\nBY CLIPPER\nNorman Corwin\nMiriam Hopkins\nRoy Howard\nGeneral\nGeorge C. Marshall\nGeneral\nCarlos P. Romulo\nMrs. Franklin D.\nRoosevelt\nHarold E. Stassen\nMyron C. Taylor\nHarold Tittmann, Jr.\nJohn G. Winant\nFour centuries will look down on you at San Juan, P. R. In the\nbackground (above) is Puerto Rico's \"White House\"-\n-oldest\ngovernor's mansion under the U. S. flag! Built for the family\nof Ponce de Leon in 1523, it is one of the finest architectural\ngems in the whole Caribbean area... Sir Francis Drake tried\nto take the surrounding Fortaleza in 1595, but failed.\nToday you'll be fascinated by these remnants of Spain's\nancient glory, and by Puerto Rican embroidery and handicrafts.\nPAN AMERICAN WORLD AIRWAYS\nWORLD'S MOST EXPERIENCED AIRLINE\nThe System of the Hlying Clippers"
    ],
    "millsfield:images_texts_ids": [
      1763388435
    ],
    "millsfield:primary_image": 1763388435,
    "millsfield:subcategory_id": 1511213149,
    "mz:hierarchy_label": 1,
    "mz:is_current": 1,
    "sfomuseum:accession_number": "2001.038.164.106",
    "sfomuseum:airline": "Pan American World Airways",
    "sfomuseum:airline_id": [
      684
    ],
    "sfomuseum:category": "Promotional, Archive",
    "sfomuseum:classification_id": 6,
    "sfomuseum:collection": "Aviation Archive",
    "sfomuseum:creditline": "Gift of Barnaby Conrad III",
    "sfomuseum:date": "c. 1955",
    "sfomuseum:date_acquired": "2003-05-16",
    "sfomuseum:daterange_end": "1960-12-31",
    "sfomuseum:daterange_start": "1950-01-01",
    "sfomuseum:description": "Advertisement from undated issue of Saturday Evening Post promoting Pan American World Airways, titled “Plan now to escape from winter to these sunlit isles” with multiple color images depicting various tourist scenes in Jamaica, Dominican Republic, Puerto Rico, and West Indies.",
    "sfomuseum:dimensions": "14 x 10 1/2 inches (35.6 x 26.7 cm)",
    "sfomuseum:medium": "paper, ink",
    "sfomuseum:object_id": 122817,
    "sfomuseum:placetype": "object",
    "sfomuseum:publication": ": , c. 1955.",
    "sfomuseum:subcategory": "Advertisement, 2D",
    "sfomuseum:subject": "Pan Am promotional advertisement",
    "src:geom": "sfomuseum#undetermined",
    "wof:belongsto": [
      1511214205,
      102527513,
      102191575,
      85633793,
      1511213149,
      85922583,
      102087579,
      1511214277,
      1511214207,
      85688637
    ],
    "wof:breaches": [],
    "wof:country": "XX",
    "wof:created": 1618962246,
    "wof:depicts": [
      1159284989,
      1159286839
    ],
    "wof:geomhash": "30c8a918561c84bb2daa2b97fc7c5353",
    "wof:hierarchy": [
      {
        "arcade_id": 1511213149,
        "building_id": 1511214277,
        "campus_id": 102527513,
        "concourse_id": 1511214205,
        "continent_id": 102191575,
        "country_id": 85633793,
        "county_id": 102087579,
        "custom_id": 1511951321,
        "locality_id": 85922583,
        "neighbourhood_id": -1,
        "object_id": 1511951321,
        "region_id": 85688637,
        "venue_id": 1511951321,
        "wing_id": 1511214207
      }
    ],
    "wof:id": 1511951321,
    "wof:lastmodified": 1787988188,
    "wof:name": "advertisement: Pan American World Airways, Saturday Evening Post",
    "wof:parent_id": 1159162825,
    "wof:placetype": "custom",
    "wof:placetype_alt": [
      "object"
    ],
    "wof:repo": "sfomuseum-data-collection",
    "wof:superseded_by": [],
    "wof:supersedes": [],
    "wof:tags": []
  },
  "bbox": [
    -122.386155,
    37.616357,
    -122.386155,
    37.616357
  ],
  "geometry": {"type":"Point","coordinates":[-122.386155,37.616357]}
}
