{
  "id": 1762694303,
  "type": "Feature",
  "properties": {
    "date:cessation_lower": "1933-01-01",
    "date:cessation_upper": "1933-12-31",
    "date:inception_lower": "1933-01-01",
    "date:inception_upper": "1933-12-31",
    "edtf:cessation": "1933",
    "edtf:inception": "1933",
    "geom:area": 2.475047457570636e-7,
    "geom:bbox": "-122.386472,37.616105,-122.385834,37.616611",
    "geom:latitude": 37.61635747477365,
    "geom:longitude": -122.38615540108617,
    "millsfield:airline_id": [
      1159285395
    ],
    "millsfield:category_id": 1511214223,
    "millsfield:collection_id": 1511214207,
    "millsfield:company_id": [
      1159287531
    ],
    "millsfield:images": [
      1762698489,
      1763445783
    ],
    "millsfield:images_colors_refs": {
      "crayola": [
        {
          "hex": "#414a4c"
        },
        {
          "hex": "#ffae42"
        },
        {
          "hex": "#dbd7d2"
        },
        {
          "hex": "#cdc5c2"
        },
        {
          "hex": "#000000"
        }
      ],
      "css4": [
        {
          "hex": "#000000"
        },
        {
          "hex": "#c0c0c0"
        },
        {
          "hex": "#daa520"
        },
        {
          "hex": "#2f4f4f"
        },
        {
          "hex": "#d3d3d3"
        }
      ],
      "marekm4": [
        {
          "hex": "#1f1e1d"
        },
        {
          "hex": "#e0d7c0"
        },
        {
          "hex": "#232429"
        },
        {
          "hex": "#dbb010"
        },
        {
          "hex": "#cec5b7"
        }
      ]
    },
    "millsfield:images_texts": [
      "SHORTEST ROUTE COAST TO COAST\nTWA\nTWA\nTWA\nThe Lindbergh Line\nTRANSCONTINENTAL-\nIR. INC.\nNEW YORK\nSTE\nNEWARK\nPHILADELPHIA\nHARRISBURG\nPITTSBURGH\nCOLUMBUS\nFORT WAYNE\nCHICAGO\nDETROIT\nTOLEDO\nINDIANAPOLIS\nST. LOUIS\nSPRINGFIELD\nKANSAS CITY\nWICHITA\nTULSA\nOKLAHOMA CITY\nAMARILLO\nALBUQUERQUE\nWINSLOW\nLOS ANGELES\nBAKERSFIELD\nFRESNO\nSAN FRANCISCO\nDIRECT CONNECTIONS FOR:\nBoston • Washington • Cleveland\nAkron Cincinnati • Dallas\nDes Moines • Omaha Denver\nSan Diego • Portland Seattle\nSTANDARD AIR LINE OF THE WORLD",
      "- FASTEST SERVICE COAST TO COAST Table\nWESTBOUND READ DOWN\nAir\n(Subject to Change\nEASTBOUND READ UP\nFLIGHT 1\nFLIGHT 3\nMiles\nWithout Notice)\nFLIGHT 2\nFLIGHT 4\n9:30 AM ET\n8:10 PM ET\nO NEW YORK\nA 11:42 AM ET\nA 10:57 PM ET\nA 10:15 AM\n8:55 PM\n72 PHILADELPHIA\nL 10:58 AM\nL 10:13 PM\nL 10:20 AM\n9:05 PM\nPHILADELPHIA\nA 10:48 AM\nA 10:03 PM\nA 11:17 AM\nA 10:02 PM\n170 HARRISBURG\n9:56 AM\n9:11 PM\n11:27 AM\nL 10:12 PM\nHARRISBURG\nA\n9:46 AM\n9:01 PM\n1:05 PM\nA 11:50 PM\n341 PITTSBURGH\nPITTSBURGH\nL\n8:23 AM\n7:38 PM\n1:15 PM\n12:01 AM\nA\n8:13 AM\n7:28 PM\n2:48 PM\nA\n1:33 AM ET\n500 COLUMBUS, O.\n:58 PM ET\n1:43 AM ET\nCOLUMBUS, O.\nL\n6:53 AM ET\nL\n6:08 PM\n6:43 AM ET\n5:58 PM ET\n3:39\nPM\nCT\nA\n2:24 AM CT\n681 INDIANAPOLIS\n4:12 AM CT\n3:27 PM CT\n3:49 PM\n2:34 AM\nINDIANAPOLIS\nA\n3:17 PM\n6:02 PM\n4:47 AM\n914 ST. LOUIS, MO.\nST. LOUIS, MO\nL\n4:02 AM\n2:05 AM\n1:20 PM\n6:12 PM\n4:57 AM\nA\n1:55 AM\n1:10 PM\nA\n8:23 PM CT\nA\n7:08 AM\n1144 KANSAS CITY.MO: L\n12:01 AM\nL 11:15 AM CT\n8:45 AM CT\nKANSAS CITY. MO.\nA 11:15 PM CT\nA 10:35 AM\n1319\nWICHITA,\nKANS.\nL\n9:37 PM\nL 10:45 AM\nWICHITA, KANS.\n9:27 PM\n1:38 PM\n1625\nAMARILLO, TEX.\n6:51 PM\n2:03 PM CT\nAMARILLO, TEX\n6:41\nPM CT\n3:49 PM MT\n1922\nALBUQUERQUE\n3:07 PM MT\n3:59 PM\nA\n6:19 PM\n2160\nALBUQUERQUE\n2:57 PM\nWINSLOW, ARIZ.\n12:58 PM\n6:29 PM MT\nWINSLOW, ARIZ.\nA 12:48 PM MT\nA\n9:53 PM PT\n2626\nLOS ANGELES\nL\n8:00 AM PT\nOptional 36 hour passenger service with overnight hotel stop at Kansas City.\nINFORMATION CONCERNING CONNECTIONS-NOT GUARANTEED TO BE CORRECT\nAmerican Airways to and from Boston, Providence and Hartford connect at New York (Newark Airport)\nwith Flights 2 and 3.\nEastern Air Transport from Atlanta, Jacksonville and Southeastern points as well\nas Richmond, Washington and Baltimore connect at Philadelphia\n(Camden Airport) with Flight 3.\nLudington Airlines to and from Washington and Baltimore connect at Philadelphia with Flights 2 and 3\nPennsylvania Airlines to and from Washington connect at Pittsburgh with Flights 1, 2, 3 and 4. Pennsyl-\nvania Airlines to and from Akron and Cleveland (and via Trans-American Airlines to and from Toledo and\nDetroit) connect at Pittsburgh with Flights 1 and 4. Flight 1 connects at Columbus with American Air-\nways for Dayton, Cincinnati and Louisville.\nAmerican Airways to and from New Orleans, Jackson and\nMemphis connect at St. Louis with Flights 1, 2 and 3.\nFlight 3 connects at St. Louis with Flight 7 for\nSpringfield, Mo., Tulsa and Oklahoma City (and Flight 7 connects at Tulsa with other airlines for Texas\npoints and Mexico City).\nOvernight planes and trains to and from the Southwest, Denver and Omaha,\nconnect at Kansas City with Flights 1 and 4. American Airways to and from Omaha connects at Kansas\nCity with Flights 2 and 3.\nUnited States Airways to and from Denver, Topeka and Salina connect at\nKansas City with Flights 2 and 3.\nWestern Air Express to and from Cheyenne, Denver, Colorado Springs,\nPueblo, Trinidad, Santa Fe and El Paso connect with Flights 2 and 3 at Albuquerque.\nOvernight Santa Fe\ntrains to and from Grand Canyon, Prescott and Phoenix connect with Flights 2 and 3 at Winslow.\n- NEW YORK -CHICAGO\nTable\nWESTBOUND\n(Subject to Change Without Notice)\nEASTBOUND\nREAD DOWN\nAir\nMiles\n(Information concerning connections in-\nREAD UP\ncluded for convenience of travelers but\nFLIGHT 1-21\nnot guaranteed to be correct)\nFLIGHT 24-4\n9:30 AM ET\nNEW YORK (Newark Airport)\nA 10:57 PM ET\nA 10:15 AM\n72\nPHILADELPHIA (Camden Airport\nL 10:13 PM\nL 10:20 AM\nPHILADELPHIA (Camden Airport)\nA 10:03 PM\nA 11:17 AM\n170\nL\nHARRISBURG, PA. (Airport) . .\nL\n9:11 PM\n11:27 AM\nHARRISBURG, PA. (Airport)\n9:01 PM\n\u003c-•\n1:05 PM\n341\nPITTSBURGH (Municipal Airport\n7:38 PM\n1:15 PM\nPITTSBURGH (Municipal Airport)\n7:28 PM\n2:48 PM\n500\nCOLUMBUS, O. (Port Columbus).\n6:08 PM\n2:53 PM\nCOLUMBUS, O. (Port Columbus)\n5:15 PM ET\n2:59\nPM CT\n643\nFORT WAYNE (Municipal Airport)\nL\n3:10 PM CT\n3:09 PM\n4:15 PM CT\n785\nFORT WAYNE (Municipal Airport).\n3:05 PM\nCHICAGO (Municipal Airport)\nL\n2:00 PM\nCT\nPennsylvania Airlines from Washington connects at Pittsburgh with Flight 1.\nPenn-\nsylvania Airlines to and from Akron, Cleveland, and via Transamerican Airlines to and from\nToledo and\nDetroit, connects at Pittsburgh with Flights 1 and 4\nFlight 1 connects at\nColumbus with American Airways for Dayton, Cincinnati and Louisville\nFlights 21 and 24\nconnect at Chicago with United Air Lines to and from lowa City, Des Moines, Omaha, Lin-\ncoln, North Platte, Cheyenne, Salt Lake City, Boise, Portland, Seattle, Tacoma and Spokane\nNorthwest Airways from St. Paul, Minneapolis and Rochester connects at Chicago with\nFlight 24.\nASK ANY TWA AGENT FOR DETAILED SCHEDULES AND RATES ON CONNECTING SERVICES\nASK ANY TWA AGENT FOR DETAILED SCHEDULES AND RATES ON CONNECTING SERVICES\n- NEW YORK-PITTSBURGH\nWESTBOUND\nREAD DOWN\n(Eastern Standard Time)\nFLIGHT 1\nFLIGHT 3\nAir\nTable 3\nEASTBOUND\nREAD UP\nFLIGHT 2\nFLIGHT 4\nTHE\nMiles\nPITTSBURGHER\n9:30 AM\n8:10 PM\nL NEW YORK (Newark Airport)....\nA 11:42 AM 10:57 PM\n10:15\nAM\n8:55 PM\n72\nA PHILADELPHIA (Camden Airport)\nL 10:58 AM 10:13 PM\n10:20\nAM\n9:05 PM\nL PHILADELPHIA (Camden Airport\nA 10:48 AM 10:03 PM\n11:17\nAM\n10:02 PM\n170\nA HARRISBURG, PA. (Airport).\n9:56 AM\n9:11 PM\n11:27\n1:05\nAM\n10:12 PM\nL HARRISBURG, PA. (Airport)..\n9:46 AM\n9:01 PM\nPM\n11:50 PM\n341\nA PITTSBURGH (Municipal Airport).\n8:23 AM\n7:38 PM\nPennsylvania Airlines to and from Akron and Cleveland connect at Pittsburgh with\nFlights 1\nand 4.\nAt Cleveland, Pennsylvania Airlines makes a direct connection with\nTransamerican Airlines to and from Toledo and Detroit.\nAmerican Airways from Boston.\nProvidence and Hartford connects at Newark with Flight 3.\nFlight 2 connects at Newark\nwith American Airways for Hartford and Boston.\nASK ANY TWA AGENT FOR DETAILED SCHEDULES AND RATES ON CONNECTING SERVICES\nMEDFORD\nSACRAMENTO\nSAN FRANCISCO\nRENO\nSAN JOSE!\nFRESNO\nBAKERSFIELD\nLOS ANGELES\nTRANSCONTINENTAL \u0026 WESTERN AIR, INC.\nQVICTORIA\nSTACOMA\nSPOKANE\nShortest route coast to coast\nTO WINNIPEG\nOGREAT FALLS\nPORTLAND\n•GRAND FORKS\nTWA\nMONTREAL\nHELENA\nBUTTE\nTHE\nMANDAN\nBISMARK\nFARGO\nDULUTH\nLINDBERCH\nLINE\nWATERTOWN O\nBOSTON\nMINNEAPOLIS\nSIOUX FALLS\nSUFFARE TO\nELKO\nSALT LAKE CM\nPOCATELLO\nROCK SPRINGS\nDENVER\nDACHECTE D\nSIOUX CITY\nMADISON\nCHEYENNE\nNORTH PLATTEMAHA\nTOLEDO\n- TWI\nLINCOLN\nDOES MOOR CHICAGO\nCOLORADO SPRING\nKANSAS CITY?\nA ST. JOSEPH\nFORT WAYNE\nO SPRINGFIELD\nPITISBURGH\nCOLUMBUS\nHARRISBURG\nPUEBLO\nSALINA\nTERRE HAUTE\nINDIANAPOLIS\nO CINCINNATI\nWASHINGTON\nGRAND CANYON\nAS VEGAS\nWINSLOW\nSAN DIEGO\n*EL CENTRO\n•PHOENIX\nTUCSON\nDOUGLAS\nWICHITA\nTRINIDAD\nPONCA, CITY\nSPRINGFIELD\n1ST. LOUIS\nRICHMOND\nHOPEWELL\nNORFOLK\nALBUQUERQUE\nEVANSVILLE\nOSANTA FE\nTULSA\nWINSTON-SALEM O GREENSBORO\nAMARILLO\nOKLAHOMA CITY\nHIGH DOINT\nNASHVILLE\nORALEIGH,\nCHARLOTTE\nGREENVILLE O SPARTANBURG\nLITTLE ROCK\nCHATTANOOGA\nFLORENCEO\nWICHITA BALIC\nBIRMINGHAM\nATLANTA\nDALLAS O TEXARKANA\nMACON STON\nSAVANNAH\nMONROE\nBIG SPRING\nMONTGOMERY\nJACKSON\nABILENE\nFT. WORTH\nSHREVEPORT\nEL PASO\nSAN ANGELO\nWACO\nMOBILE\nJACKSONVILLE\nAUSTIN\nBEAUMONT\nBATON ROUGE\nHOUSTON\nO NEW ORLEANS\nDAYTONA BEACH\nSAN ANTONIO\nGALVESTON\nPILOTTOWN\nLORLANDO\nLEGEND\nRoutes operated bu TWA\nConnectina airline\nor\novernight rail journey\nOther connecting airlines\nCOPPLIC\nCHOIST\nMIAMI\nBROWNSVILLE\nNEW YORK\nO NASSAU\nCENTRAL AND SOUTH AMERICA\n2014.082"
    ],
    "millsfield:images_texts_ids": [
      1762698489,
      1763445783
    ],
    "millsfield:primary_image": 1762698489,
    "millsfield:subcategory_id": 1511213425,
    "mz:is_current": 1,
    "sfomuseum:accession_number": "2014.082.020",
    "sfomuseum:airline": "Transcontinental \u0026 Western Air",
    "sfomuseum:airline_id": [
      875
    ],
    "sfomuseum:category": "Scheduling / Ticketing",
    "sfomuseum:classification_id": 158,
    "sfomuseum:collection": "Aviation Archive",
    "sfomuseum:creditline": "Gift of Thomas G. Dragges",
    "sfomuseum:date": "1933",
    "sfomuseum:date_acquired": "2015-01-06",
    "sfomuseum:daterange_end": "1933-12-31",
    "sfomuseum:daterange_start": "1933-01-01",
    "sfomuseum:description": "Timetable issued by Transcontinental \u0026 Western Air (TWA), effective January 1, 1933; fold-out format; yellow and black cover with list of destinations and illustration of tri-motor aircraft in flight.",
    "sfomuseum:dimensions": "9 x 4 inches (22.9 x 10.2 cm)",
    "sfomuseum:medium": "paper, ink",
    "sfomuseum:object_id": 156404,
    "sfomuseum:placetype": "object",
    "sfomuseum:publication": ": , 1933.",
    "sfomuseum:subcategory": "Timetable",
    "src:geom": "sfomuseum#undetermined",
    "wof:belongsto": [
      102527513,
      1159162825,
      102191575,
      85633793,
      102087579,
      85922583,
      85688637,
      1159160869
    ],
    "wof:country": "XY",
    "wof:created": 1641344270,
    "wof:depicts": [
      1159285395,
      1159287531
    ],
    "wof:geomhash": "c281b9d9eefc83b5710e64b9d646067d",
    "wof:hierarchy": [
      {
        "building_id": -1,
        "campus_id": 102527513,
        "collection_id": 1159162825,
        "concourse_id": 1159162825,
        "continent_id": 102191575,
        "country_id": 85633793,
        "county_id": 102087579,
        "custom_id": 1762694303,
        "locality_id": 85922583,
        "neighbourhood_id": -1,
        "object_id": 1762694303,
        "region_id": 85688637,
        "wing_id": 1159160869
      }
    ],
    "wof:id": 1762694303,
    "wof:lastmodified": 1787988198,
    "wof:name": "timetable: Transcontinental \u0026 Western Air (TWA)",
    "wof:parent_id": 1159162825,
    "wof:placetype": "custom",
    "wof:placetype_alt": [
      "object"
    ],
    "wof:repo": "sfomuseum-data-collection",
    "wof:superseded_by": [],
    "wof:supersedes": []
  },
  "bbox": [
    -122.38647222518921,
    37.6161053594541,
    -122.38583385944366,
    37.61661101879963
  ],
  "geometry": {"type":"Polygon","coordinates":[[[-122.38647222518921,37.61631782178288],[-122.386434674263,37.61623283692423],[-122.38637566566466,37.61617759671399],[-122.38630056381224,37.6161308549656],[-122.38616108894348,37.6161053594541],[-122.38602161407469,37.6161308549656],[-122.38591432571411,37.61618609521055],[-122.38585531711577,37.61626683087935],[-122.38583385944366,37.61636881265146],[-122.38587141036987,37.61646654505181],[-122.38594114780425,37.61654303118856],[-122.38605380058287,37.61660252035167],[-122.38618254661559,37.61661101879963],[-122.3863059282303,37.61657277577607],[-122.3864185810089,37.61650903735973],[-122.3864668607712,37.61641130501523],[-122.38647222518921,37.61631782178288]]]}
}
