{
  "id": 1914489013,
  "type": "Feature",
  "properties": {
    "date:cessation_lower": "1993-01-01",
    "date:cessation_upper": "1993-12-31",
    "date:inception_lower": "1993-01-01",
    "date:inception_upper": "1993-12-31",
    "edtf:cessation": "1993",
    "edtf:inception": "1993",
    "geom:area": 2.475047457570636e-7,
    "geom:bbox": "-122.386472,37.616105,-122.385834,37.616611",
    "geom:latitude": 37.61635747477365,
    "geom:longitude": -122.38615540108617,
    "millsfield:aircraft_id": [
      1159289789
    ],
    "millsfield:airline_id": [
      1159284261
    ],
    "millsfield:category_id": 1762671311,
    "millsfield:collection_id": 1511214207,
    "millsfield:company_id": [
      1159293593,
      1159289759
    ],
    "millsfield:images": [
      1914489203,
      1914489205,
      1914489209,
      1914489211
    ],
    "millsfield:images_colors_refs": {
      "crayola": [
        {
          "hex": "#c46210"
        },
        {
          "hex": "#fddde6"
        },
        {
          "hex": "#1a4876"
        },
        {
          "hex": "#414a4c"
        },
        {
          "hex": "#58427c"
        },
        {
          "hex": "#dbd7d2"
        },
        {
          "hex": "#757575"
        },
        {
          "hex": "#efdecd"
        }
      ],
      "css4": [
        {
          "hex": "#b22222"
        },
        {
          "hex": "#191970"
        },
        {
          "hex": "#2f4f4f"
        },
        {
          "hex": "#dcdcdc"
        },
        {
          "hex": "#708090"
        },
        {
          "hex": "#d2691e"
        },
        {
          "hex": "#ff4500"
        }
      ],
      "marekm4": [
        {
          "hex": "#1f1e58"
        },
        {
          "hex": "#2b2b45"
        },
        {
          "hex": "#e8e6e4"
        },
        {
          "hex": "#20234b"
        },
        {
          "hex": "#5c6291"
        },
        {
          "hex": "#d93a15"
        },
        {
          "hex": "#e7e4e5"
        },
        {
          "hex": "#e6e3df"
        },
        {
          "hex": "#ce2e0e"
        },
        {
          "hex": "#d84213"
        },
        {
          "hex": "#e6e2e1"
        },
        {
          "hex": "#1d2060"
        },
        {
          "hex": "#66698e"
        }
      ]
    },
    "millsfield:images_texts": [
      "ak000\nOVERWING EXIT RIGHT HAND ILLUSTRATED\nILUSTRACTION DE LA SALIDA DE EMERGENCIA SOBRE EL ALA DERECHA\nILLUSTRATION DE LA SORTIE SUR L'AILE DROITE\nAUSGANG ÜBER DEM RECHTEN FLÜGEL ABGEBILDET\nLAND\nEVACUATION\nEvacuación en tierra\nEvacuation par terre\nLand-Evakuierung\nCONTROL\nDOOR EXITS\nPuertas de salida # *•\nPortes de sortie\nTürausgang\nROTATE DOOR HANDLE\nIN DIRECTION OF ARROW\nGire el asa de la puerta en dirección de la flecha\nTournez la poignée dans le sens de la flèche\nTürgriff in Richtung des Pfeiles drehen\n50l\n2471412.\nHI Hà Ha the 15 (ó 49000\nForward left-hand door illustrated\nIlustración de la puerta delantera del lado izquierdo\nIllustration de la porte avant gauche\nAbbildung des vorderen linksseitigen Ausganges\n*|4\nVentral exit\nSalida ventral\nKielausgänge\n47 E27\n#B9880\nN\nUSE VENTRAL EXIT\nONLY ON CREW COMMAND\nUse la salida ventral solamente\ncuando lo indique la tripulacior\ntilisez la comie ventrale sur\nl'ordre de l'équipage seulement\nKielausgang nur auf Anweisung\nder Bordbesatzung benützen\n\"Eto\nEMERG\nLuces indi\nIndication\nNotausgal\nIf there is a loss of\nnear the floor will c\nva une coubur\nou sur le sol vous\nrouges.\nIm Falle eines Stro\nrotem Licht geken\nEn caso de una pe\nen o cerca del pis",
      "TAKE-OFF AND\nLANDING\nDespegue y aterrizaje\nDécollage et atterrissage\nAbfing und Landung\n014+\nSEAT BACK IN UP POSITION\nRespaldo de su asiento en posición\nvertical\nSiège en position verticale\nRückenlehne senkrecht stellen\nFau.\n1274 ₴\n41412.\nLOCK TRAY IN UP POSITION\nPonga la bandeja hacia arriba y\nciérrela\nFixer la tablette en nosition verticale\nKlapptisch nach oben sicher\n41418.\nSTOW LUGGAGE UNDER SEAT\nColoque su equipaje debajo su asiento\nPlacez vos bagages sous le siège\nHandgepäck unter dem Sitz aufbewahren\n402€ 24200+41412.\nOVERHEAD BINS\nCompartimientos superiores\nCompartiment à bagages supérieur\nHandgepäckfächer\nUse caution when stowing and removing items from the overhead bins to\nprevent articles from falling.\nTenga cuidado al guardar y retirar los artículos de los compartimientos\nsuperiores, a fin de evitar la caída de éstos.\nManipulez tout bagage avec précaution lorsque vous le placez dans le\ncompartiment supérieur et l'en retirer afin de ne rien faire tomber.\nBeim Verstauen von Gegenständen und Herausnehmen derselben aus den\nHandgepäckfächern über den Sitzen vorsichtig vorgehen, damit nichts\nherunterfälit.\n0) 2|91\n79|8k0d\nBRACE POSITIONS\nPosiciones en caso de emergencia\nPositions en cas d'urgence\nPositionen zur Notlandung\n2L-+)\n***\nNO SMOKING\nNo fume\nVeuillez ne pas fumer\nNicht Rauchen\n30 2 7 1E\nNicht Rauchen:\nIn bestimmten Reihen der Kabinen\nwährend der gesamten Flugzeit\ninder dene\nWenn das \"No Smoking\" (Nicht\nRauchen) Schild eingeschaltet wird\nWenn Sauerstoff verwendet wird\n**+**\nLIFE\nChalecos salvavidas\nGilets de sauvetage\nSchwimmwesten\nNO SMOKING:\n• IN DESIGNATED SECTION OF\nEACH CABIN AT ANY TIME\nIN LAVATORY AT ANY TIME\nWHEN \"NO SMOKING\" LIGHT\nIS ON\nWHEN OXYGEN IS IN USE\nNo fume:\nEn las secciones designadas de cada\ncabina en ningún momento\nun os hanos\n•\nCuando la señal \"No Smoking\"\n(No fumar) aparezca\nCuando el oxígeno esté en uso\nVeuillez ne pas fumer:\n• Dans la section indiquée de chaque\ncabine en tout temps\nDans les lavabos en tout temns\nQuand la lumière \"No Smoking\"\n(Veuillez ne pas fumer) est allumée\nPendant l'utilisation de l'oxygène\nFLOTATION SEAT\nCUSHIONS\nCojines de flotación\nCoussins flotteurs\nSchwimmfähige Sitzkissen\n#* 73%\n71\n21 84)\n** FM\nPULL TAB AND\nREMOVE VEST FROM\nPACKAGE\nTire de la cinta y remueva\nel chaleco\nTirez la patte et retirez ell\ngilet de sauvetage du paquet\nZum Auspacken an der\nSchnur ziehen und Weste\naus der Packung entfernen\ntM 45 7.\nOXYGEN\nOxígeno\nOxygène\nSauerstoff\nAIRCRAFT, PULL TABS\nTO INFLATE\nDespués de salir del avión,\ntire de las cintas para inflar\nAprès avoir quitté l'avion,\ntirez les pattes pour gonfler\nNach Verlassen des\nFlugzeuges Schnüre ziehen\nzum Authlacen\n10101 4217.\nelle.\nSEAT BELTS\nCinturones de seguridad\nCeintures de sûreté\nSicherheitsgurte\nORAL INFLATION\nTubos para inflar con la\nboca\nTubes oraux pour gonfler\nRöhren zum Aufblasen\n10\nIF DARK PULL CENTER\nTAB TO ACTIVATE\nLIGHT\nSi está obscuro tire de la\ncinta del centro para\nactivar a intema\nS'il fait noir, tirez le cordon\ncentral pour allumer la\nlumière\nRet Dunke het schnuire\nziehen um Licht\neinzuschalten\n*******.\n4417\n\" E9\nKEEP SEAT BELTS\nFASTENED WHILE\nSEATED\nMientras esté sentado\nmantenga abrochado su\ncinturon\nAnenez vos celles\nquand assis\nBleiben Sie beim Sitzen\nangeschnallt\n******Fau.\n41118.\n#04 FRANTE.\nEXIT RO\nFederal Regul\nto assist crewr\ngency exit sea\nLocate th\nRecogniz\nCompreh\nAssess wl\npassenger\nFollow or\nStow or se\n(some wit\nAssess th\nslide after\nPass expe\nAssess, st\nIn addition to\nrequested to ic\nunable to perf\n1. The perso\nnanas and\nА. To reac\nexit ant\nB. To gras\nC. To nusi\nD. To lift\nTo rem\nTo reac\nTo mai\nTo stat\nThe perso\nThe perso\nemergene\ngraphic f\n4. The perso\napplicabl\ncontact le\n5. The perso\nshouted b\n6.\nThe perso\npassengel\n7. The perso\nA. A cono\nmight |\ntun clie\nB. An ind\nperfort\nPassengers arc\nthe implement\ngency exit anc\nyourself to a F\n0412 81202\nPRINTED IN",
      "EXIT ROW SEATING\nFederal Regulations require that passengers seated in a designated exit seat be able\nto assist crewmembers in the event of an emergency. If you are seated in an emer-\ngency exit seat you must be able to perform the following tasks.\n1. Locate the emergency exit;\n2. Recognize the emergency exit opening mechanism;\n3. Comprehend the instructions for operating the emergency exit;\n4. Operate the emergency exit;\n5. Assess whether opening the emergency exit will increase the hazards to which\npassengers may be exposed;\n6. Follow oral directions and hand signals given by a crewmember;\n7. Stow or secure the emergency exit door so it will not impede use of the exit\n(some window hatches that must be lifted weigh 35-80 Ibs.);\n8. Assess the condition of an escape slide, activate the slide, and stabilize the\nslide after deployment to assist others in getting off the slide;\n9. Pass expeditiously through the emergency exit; and\n10. Assess, select, and follow a safe path away from the emergency exit.\nIn addition to these tasks, passengers seated in an emergency exit seat are\nrequested to identify himself or herself to allow for reseating if he or she would be\nunable to perform one or more of the applicable functions because-\n1. The person lacks sufficient mobility, strength, or dexterity in both arms and\nhands and both legs:\nA. To reach upward, sideways, and downward to the location of emergency\nexit and exit-slide operating mechanisms;\nB. To grasp and push, pull, turn, or otherwise manipulate those mechanisms;\nC. To push, shove, pull, or otherwise open emergency exits;\nD. To lift out, hold, deposit on nearby seats, or maneuver over the seatbacks to\nthe next row objects the size and weight (35-80 Ibs.) of over-wing exit\ndoors;\nE. To remove obstructions similar in size and weight to over-wing exit doors;\nF. To reach the emergency exit expeditiously;\nG. To maintain balance while removing obstructions;\nH. To exit expeditiously;\nI. To stabilize an escape slide after deployment; or\nJ. To assist others in getting off an escape slide;\n2. The person is less than 15 years of age or lacks the capacity to perform all the\nfunctions listed here without the assistance of an adult companion;\n3. The person lacks the ability to read and understand instructions related to\nemergency evacuation provided by the airline in printed, handwritten, or\ngraphic form or the ability to understand oral crew commands in the English\nlanguage;\n4. The person lacks sufficient visual capacity to perform one or more of the\napplicable functions listed above without the assistance of visual aids beyond\ncontact lens or eyeglasses;\n5. The person lacks sufficient aural capacity to hear and understand instructions\nshouted by Flight Attendants, without assistance beyond a hearing aid;\n6. The person lacks the ability to adequately impart information orally to other\npassengers; or\n7. The person has:\nA. A condition or responsibilities, such as caring for small children, that\nmight prevent the person from performing one or more of the above listed\nfunctions; or\nB. An indiscernible condition that might cause the person harm if he or she\nperformed one or more of the applicable functions listed above.\nPassengers are required by Federal Regulations to comply with crewmembers in\nthe implementation of these restrictions. If you are seated adjacent to an emer-\ngency exit and cannot or do not want to perform these functions, please identify\nyourself to a Flight Attendant.\n0412 81202 CARD\nPRINTED IN U.S.A\n8/93\n2002•121.261",
      "B-727-200 Series\nPASSENGER SAFETY\nINFORMATION\nFOR YOUR SAFETY, PLEASE STUDY THIS CARD. THERE\nIS LITTLE LIKELIHOOD WE WILL ENCOUNTER A SITUA-\nTION REQUIRING EMERGENCY PREPARATIONS. HOW-\nEVER, IT IS A GOOD PRACTICE TO BE ACQUAINTED WITH\nTHE SAFETY FEATURES WE HAVE PROVIDED FOR YOU\nON THIS AIRCRAFT.\nPara su seguridad, favor estudiar esta tarjeta. La posibilidad de\nconfrontar una emergencia es mínima, sin embargo es provechoso\nestar familiarizado con las medidas de seguridad que se proveen para\nusted en el avión.\nPour votre sécurité, veuillez étudier cette carte. Il est peu probable que\nles circonstances exigent de recourir aux mesures de sécurité, mais il est\nbon d'en prendre connaissance.\nFür Ihre Sicherheit lesen Sie bitte diese Karte. Es ist sehr unwahr-\nscheinlich, daß wir diese Notfallsmaßnahmen je anwenden müssen.\nJedoch ist es zu empfehlen, daß Sie sich mit den Sicherheits-\nmaßnahmen vertraut machen, die sich an Bord dieser Maschine\nbefinden.\nPLEASE DO NOT REMOVE THIS CARD FROM\nAIRCRAFT\nPor favor no se lleve esta tarjeta del avión.\nVeuillez laisser cette carte à bord de l'avion.\nBitte, entfernen Sie diese Karte nicht vom Flugzeug.\nADELTA AIR LINES"
    ],
    "millsfield:images_texts_ids": [
      1914489203,
      1914489205,
      1914489209,
      1914489211
    ],
    "millsfield:primary_image": 1914489211,
    "millsfield:subcategory_id": 1511213703,
    "mz:is_approximate": 1,
    "mz:is_current": 1,
    "sfomuseum:accession_number": "2002.127.261",
    "sfomuseum:aircraft": "Boeing 727-200",
    "sfomuseum:aircraft_id": [
      194
    ],
    "sfomuseum:airline": "Delta Air Lines",
    "sfomuseum:airline_id": [
      355
    ],
    "sfomuseum:category": "Passenger Amenity, Archive",
    "sfomuseum:classification_id": 581,
    "sfomuseum:collection": "Aviation Archive",
    "sfomuseum:creditline": "Gift of Thomas G. Dragges",
    "sfomuseum:date": "1993",
    "sfomuseum:date_acquired": "2003-12-22",
    "sfomuseum:daterange_end": "1993-12-31",
    "sfomuseum:daterange_start": "1993-01-01",
    "sfomuseum:description": "Safety information card issued by Delta Air Lines for its Boeing 727-200 fleet; white double-sided multi-fold sheet with illustrations demonstrating inflight safety and emergency procedures; identification code: 0412 81202; revision date: 8/93.",
    "sfomuseum:dimensions": "8 1/2 x 4 inches (21.6 x 10.2 cm)",
    "sfomuseum:medium": "paper, ink",
    "sfomuseum:object_id": 68832,
    "sfomuseum:placetype": "object",
    "sfomuseum:publication": ": , 1993.",
    "sfomuseum:subcategory": "Safety Information Card",
    "src:geom": "sfomuseum#undetermined",
    "wof:belongsto": [
      102527513,
      1159162825,
      102191575,
      85633793,
      102087579,
      85922583,
      85688637,
      1159160869
    ],
    "wof:country": "XY",
    "wof:created": 1719905577,
    "wof:depicts": [
      1159289759,
      1159284261,
      1159289789,
      1159293593
    ],
    "wof:geomhash": "c281b9d9eefc83b5710e64b9d646067d",
    "wof:hierarchy": [
      {
        "building_id": -1,
        "campus_id": 102527513,
        "collection_id": 1159162825,
        "concourse_id": 1159162825,
        "continent_id": 102191575,
        "country_id": 85633793,
        "county_id": 102087579,
        "custom_id": 1914489013,
        "locality_id": 85922583,
        "neighbourhood_id": -1,
        "object_id": 1914489013,
        "region_id": 85688637,
        "wing_id": 1159160869
      }
    ],
    "wof:id": 1914489013,
    "wof:lastmodified": 1787988221,
    "wof:name": "safety information card: Delta Air Lines, Boeing 727-200",
    "wof:parent_id": 1159162825,
    "wof:placetype": "custom",
    "wof:placetype_alt": [
      "object"
    ],
    "wof:repo": "sfomuseum-data-collection",
    "wof:superseded_by": [],
    "wof:supersedes": []
  },
  "bbox": [
    -122.38647222518921,
    37.6161053594541,
    -122.38583385944366,
    37.61661101879963
  ],
  "geometry": {"type":"Polygon","coordinates":[[[-122.38647222518921,37.61631782178288],[-122.386434674263,37.61623283692423],[-122.38637566566466,37.61617759671399],[-122.38630056381224,37.6161308549656],[-122.38616108894348,37.6161053594541],[-122.38602161407469,37.6161308549656],[-122.38591432571411,37.61618609521055],[-122.38585531711577,37.61626683087935],[-122.38583385944366,37.61636881265146],[-122.38587141036987,37.61646654505181],[-122.38594114780425,37.61654303118856],[-122.38605380058287,37.61660252035167],[-122.38618254661559,37.61661101879963],[-122.3863059282303,37.61657277577607],[-122.3864185810089,37.61650903735973],[-122.3864668607712,37.61641130501523],[-122.38647222518921,37.61631782178288]]]}
}
