{
  "id": 1913795491,
  "type": "Feature",
  "properties": {
    "date:cessation_lower": "1935-07-01",
    "date:cessation_upper": "1935-07-01",
    "date:inception_lower": "1935-07-01",
    "date:inception_upper": "1935-07-01",
    "edtf:cessation": "1935-07-01",
    "edtf:inception": "1935-07-01",
    "geom:area": 2.475047457570636e-7,
    "geom:bbox": "-122.386472,37.616105,-122.385834,37.616611",
    "geom:latitude": 37.61635747477365,
    "geom:longitude": -122.38615540108617,
    "millsfield:airline_id": [
      1159284991
    ],
    "millsfield:category_id": 1511214251,
    "millsfield:collection_id": 1511214207,
    "millsfield:company_id": [
      1159286839
    ],
    "millsfield:images": [
      1913802181,
      1913802185
    ],
    "millsfield:images_colors_refs": {
      "crayola": [
        {
          "hex": "#bab86c"
        },
        {
          "hex": "#edd19c"
        },
        {
          "hex": "#6dae81"
        },
        {
          "hex": "#414a4c"
        }
      ],
      "css4": [
        {
          "hex": "#bdb76b"
        },
        {
          "hex": "#556b2f"
        },
        {
          "hex": "#eee8aa"
        },
        {
          "hex": "#f0e68c"
        },
        {
          "hex": "#3cb371"
        }
      ],
      "marekm4": [
        {
          "hex": "#a8a873"
        },
        {
          "hex": "#b8b474"
        },
        {
          "hex": "#5fa16c"
        },
        {
          "hex": "#65a366"
        },
        {
          "hex": "#e6d895"
        },
        {
          "hex": "#474726"
        },
        {
          "hex": "#4c4a29"
        },
        {
          "hex": "#e5d79e"
        }
      ]
    },
    "millsfield:images_texts": [
      "monday July!\nDearst Debs.\n- I am in Judge Rosi offici waiting\nfor a cale from\nQuezons Seeritary\nit looks as though no cale moned\nCome unte this\nafternoon\nas it is\nneak, noon\nnow.\nThere telepen\nmeal, as bad as the Chiness when it\nCome ti\napprintments - no organigation\nat all.\nYatuday I sprat the morning\nwith the boys\nIn boat and\nthe bach so the aftinoon cor\naceptio an invitation from a man\nnamed Bacharack to go summing in\nhis pool. Hi kao a\nbrautifue place\nand it was lots of fun. Us stages\nfor dunna and aftu\nale the excus\nWhen I got home abont len oclock\nwint right to brd,\nHair bira concerard abort morr\ntroute reportes in North China. Suppor\nthe report an greath regated but\nI'm dreadfuel, worried\nalont you.\nMu common sat trees me that\nIf things gut really bad you wile\nve and\n90 1o\npeace. Stile no\nKuling or some other\nlettes from you\nalthough two boat har\nthe last few days.\nOuts dear do",
      "ast quicks, if you thick thee is\ndanger at Feng and dont think\nalont cot of transportation on\nangotta consideration Except the\nsafe of youre\nand the jamie.\nknow you\n-wice be carfue and\nI rice try not to worry about you.\nFrom present indications I shoned\nbe beaung\nher abort the 20\" of\nJuly on around that dats...\nmust run\nalong now.\nlore to\njia lmost precion -\nyou\nNad\nso on st\nab\n20191210904"
    ],
    "millsfield:images_texts_ids": [
      1913802181,
      1913802185
    ],
    "millsfield:primary_image": 1913802181,
    "millsfield:subcategory_id": 1511213489,
    "mz:is_approximate": 1,
    "mz:is_current": 1,
    "sfomuseum:accession_number": "2019.121.0904",
    "sfomuseum:airline": "Pan American Airways",
    "sfomuseum:airline_id": [
      685
    ],
    "sfomuseum:category": "Employee Career History",
    "sfomuseum:classification_id": 195,
    "sfomuseum:collection": "Aviation Archive",
    "sfomuseum:creditline": "Collection of SFO Museum",
    "sfomuseum:date": "07/01/1935",
    "sfomuseum:date_acquired": "2019-11-22",
    "sfomuseum:daterange_end": "1935-07-01",
    "sfomuseum:daterange_start": "1935-07-01",
    "sfomuseum:description": "Handwritten letter from Harold M. Bixby to his wife, Debby Bixby, dated July 1, [1935]; includes description of events in Manila and Cavite, concerns for family’s safety in Peiping [Beijing]; mentions Judge [James] Ross.",
    "sfomuseum:dimensions": "13 x 8 1/2 inches (33 x 21.6 cm)",
    "sfomuseum:medium": "paper, ink",
    "sfomuseum:object_id": 211267,
    "sfomuseum:placetype": "object",
    "sfomuseum:publication": ": , 07/01/1935.",
    "sfomuseum:subcategory": "Correspondence, Personal",
    "src:geom": "sfomuseum#undetermined",
    "wof:belongsto": [
      102527513,
      1159162825,
      102191575,
      85633793,
      102087579,
      85922583,
      85688637,
      1159160869
    ],
    "wof:country": "XY",
    "wof:created": 1714548808,
    "wof:depicts": [
      1159286839,
      1159284991
    ],
    "wof:geomhash": "c281b9d9eefc83b5710e64b9d646067d",
    "wof:hierarchy": [
      {
        "building_id": -1,
        "campus_id": 102527513,
        "collection_id": 1159162825,
        "concourse_id": 1159162825,
        "continent_id": 102191575,
        "country_id": 85633793,
        "county_id": 102087579,
        "custom_id": 1913795491,
        "locality_id": 85922583,
        "neighbourhood_id": -1,
        "object_id": 1913795491,
        "region_id": 85688637,
        "wing_id": 1159160869
      }
    ],
    "wof:id": 1913795491,
    "wof:lastmodified": 1787988219,
    "wof:name": "correspondence: Harold M. Bixby to Debby Bixby",
    "wof:parent_id": 1159162825,
    "wof:placetype": "custom",
    "wof:placetype_alt": [
      "object"
    ],
    "wof:repo": "sfomuseum-data-collection",
    "wof:superseded_by": [],
    "wof:supersedes": []
  },
  "bbox": [
    -122.38647222518921,
    37.6161053594541,
    -122.38583385944366,
    37.61661101879963
  ],
  "geometry": {"type":"Polygon","coordinates":[[[-122.38647222518921,37.61631782178288],[-122.386434674263,37.61623283692423],[-122.38637566566466,37.61617759671399],[-122.38630056381224,37.6161308549656],[-122.38616108894348,37.6161053594541],[-122.38602161407469,37.6161308549656],[-122.38591432571411,37.61618609521055],[-122.38585531711577,37.61626683087935],[-122.38583385944366,37.61636881265146],[-122.38587141036987,37.61646654505181],[-122.38594114780425,37.61654303118856],[-122.38605380058287,37.61660252035167],[-122.38618254661559,37.61661101879963],[-122.3863059282303,37.61657277577607],[-122.3864185810089,37.61650903735973],[-122.3864668607712,37.61641130501523],[-122.38647222518921,37.61631782178288]]]}
}
