{
  "id": 1913795881,
  "type": "Feature",
  "properties": {
    "date:cessation_lower": "1933-12-06",
    "date:cessation_upper": "1933-12-06",
    "date:inception_lower": "1933-12-06",
    "date:inception_upper": "1933-12-06",
    "edtf:cessation": "1933-12-06",
    "edtf:inception": "1933-12-06",
    "geom:area": 2.475047457570636e-7,
    "geom:bbox": "-122.386472,37.616105,-122.385834,37.616611",
    "geom:latitude": 37.61635747477365,
    "geom:longitude": -122.38615540108617,
    "millsfield:airline_id": [
      1159284991,
      1159285931
    ],
    "millsfield:category_id": 1511214251,
    "millsfield:collection_id": 1511214207,
    "millsfield:company_id": [
      1159286721
    ],
    "millsfield:images": [
      1913801533
    ],
    "millsfield:images_colors_refs": {
      "crayola": [
        {
          "hex": "#714b23"
        },
        {
          "hex": "#edd19c"
        },
        {
          "hex": "#9f8170"
        }
      ],
      "css4": [
        {
          "hex": "#eee8aa"
        },
        {
          "hex": "#bdb76b"
        },
        {
          "hex": "#556b2f"
        }
      ],
      "marekm4": [
        {
          "hex": "#ebe2a6"
        },
        {
          "hex": "#5a5535"
        },
        {
          "hex": "#a19b6d"
        }
      ]
    },
    "millsfield:images_texts": [
      "6th December 1933.\nMrs. Hudson E. Bridge,\nRoute 2, Box 1004,\nClayton, MISSOURI,\nU.S. A.\nDear Irs. Bridge,\nPlease pardon the type written letter,\nmy excuse is that I am very busy and have had to write so\nmuch long hand recently that my right arm is giving me\nsome trouble.\nYour first letter reached me soon after\nDwight had arrived in Shanghai.\nI showed it to him and he\ntold me a day or two later that he had written to you. Your\nsecond letter of September 24th was forwarded to me in\nManila, and I thought when I received it that I would pro-\nbably see you in person before any letter which I wrote to\nyou would arrive.\nUnfortunately however, my affairs\nhere have taken a turn which have made it necessary for me to\ncancel my trip home, at least for the time being.\nI left\nManila on the afternoon of November 13th, and that morning\nhad the pheasure of welcoming to Manila John and Marjorie\nHoliday.\nMarjorie told me that when she passed through\nShangnai, Irom Japan to Manila, that she had called up Dwight,\nonly to learn that he was then on a tender bounde lor a\nboat which would take him to Bali; that is the latest news\nI have of your \"wandering boy\".\nI am sure you will be glad\nto know that he did some very\nexcellent work in Shanghai,\nnotably a full length portrait of Mrs. Chang, on of Judge\nPurdy, who presides over the American court of China, a por-\ntrait\no1 Edwin Cunningham, American Consul General at Shanghai,\nand several other portraits.\nIn all, I believe about ten.\nI was very sorry to see him leave here, because he could have\nsecured many other orders, but apparently Dwight wished to\ncarry out his original project to travel on around the world.\n1 hope to get away for home before the end\no1 December,\nand will be lookkig forward to seeing you and the\nother St.Iouis Bridges on my return.\nr intratid in\nVery sincerely,\ncours 9 was so disgusted with Dwift that 9\ncored hair shot him\ntent this no un tiling\nMrs B. so.\n8080.1"
    ],
    "millsfield:images_texts_ids": [
      1913801533
    ],
    "millsfield:primary_image": 1913801533,
    "millsfield:subcategory_id": 1511213489,
    "mz:is_approximate": 1,
    "mz:is_current": 1,
    "sfomuseum:accession_number": "2019.121.0803",
    "sfomuseum:airline": "Pan American Airways",
    "sfomuseum:airline_id": [
      685,
      1131
    ],
    "sfomuseum:category": "Employee Career History",
    "sfomuseum:classification_id": 195,
    "sfomuseum:collection": "Aviation Archive",
    "sfomuseum:creditline": "Collection of SFO Museum",
    "sfomuseum:date": "12/06/1933",
    "sfomuseum:date_acquired": "2019-11-22",
    "sfomuseum:daterange_end": "1933-12-06",
    "sfomuseum:daterange_start": "1933-12-06",
    "sfomuseum:description": "Typewritten letter from Harold M. Bixby to Mrs. Hudson E. Bridge, dated December 6, 1933; copy sent to Debby Bixby; includes greetings to Dwight Bridge’s mother.",
    "sfomuseum:dimensions": "11 x 8 1/2 inches (27.9 x 21.6 cm)",
    "sfomuseum:medium": "paper, ink",
    "sfomuseum:object_id": 211151,
    "sfomuseum:placetype": "object",
    "sfomuseum:publication": ": , 12/06/1933.",
    "sfomuseum:subcategory": "Correspondence, Personal",
    "src:geom": "sfomuseum#undetermined",
    "wof:belongsto": [
      102527513,
      1159162825,
      102191575,
      85633793,
      102087579,
      85922583,
      85688637,
      1159160869
    ],
    "wof:country": "XY",
    "wof:created": 1714548921,
    "wof:depicts": [
      1159284991,
      1159285931,
      1159286721
    ],
    "wof:geomhash": "c281b9d9eefc83b5710e64b9d646067d",
    "wof:hierarchy": [
      {
        "building_id": -1,
        "campus_id": 102527513,
        "collection_id": 1159162825,
        "concourse_id": 1159162825,
        "continent_id": 102191575,
        "country_id": 85633793,
        "county_id": 102087579,
        "custom_id": 1913795881,
        "locality_id": 85922583,
        "neighbourhood_id": -1,
        "object_id": 1913795881,
        "region_id": 85688637,
        "wing_id": 1159160869
      }
    ],
    "wof:id": 1913795881,
    "wof:lastmodified": 1787988219,
    "wof:name": "correspondence: Harold M. Bixby to Mrs. Hudson E. Bridge",
    "wof:parent_id": 1159162825,
    "wof:placetype": "custom",
    "wof:placetype_alt": [
      "object"
    ],
    "wof:repo": "sfomuseum-data-collection",
    "wof:superseded_by": [],
    "wof:supersedes": []
  },
  "bbox": [
    -122.38647222518921,
    37.6161053594541,
    -122.38583385944366,
    37.61661101879963
  ],
  "geometry": {"type":"Polygon","coordinates":[[[-122.38647222518921,37.61631782178288],[-122.386434674263,37.61623283692423],[-122.38637566566466,37.61617759671399],[-122.38630056381224,37.6161308549656],[-122.38616108894348,37.6161053594541],[-122.38602161407469,37.6161308549656],[-122.38591432571411,37.61618609521055],[-122.38585531711577,37.61626683087935],[-122.38583385944366,37.61636881265146],[-122.38587141036987,37.61646654505181],[-122.38594114780425,37.61654303118856],[-122.38605380058287,37.61660252035167],[-122.38618254661559,37.61661101879963],[-122.3863059282303,37.61657277577607],[-122.3864185810089,37.61650903735973],[-122.3864668607712,37.61641130501523],[-122.38647222518921,37.61631782178288]]]}
}
