{
  "id": 1913928281,
  "type": "Feature",
  "properties": {
    "date:cessation_lower": "1970-12-01",
    "date:cessation_upper": "1970-12-31",
    "date:inception_lower": "1970-09-01",
    "date:inception_upper": "1970-09-30",
    "edtf:cessation": "1970-12",
    "edtf:inception": "1970-09",
    "geom:area": 2.475047457570636e-7,
    "geom:bbox": "-122.386472,37.616105,-122.385834,37.616611",
    "geom:latitude": 37.61635747477365,
    "geom:longitude": -122.38615540108617,
    "millsfield:airline_id": [
      1159285413
    ],
    "millsfield:category_id": 1762671311,
    "millsfield:collection_id": 1511214207,
    "millsfield:company_id": [
      1159288779
    ],
    "millsfield:images": [
      1914011693,
      1914011695,
      1914011697
    ],
    "millsfield:images_colors_refs": {
      "crayola": [
        {
          "hex": "#9c7c38"
        },
        {
          "hex": "#714b23"
        },
        {
          "hex": "#85754e"
        },
        {
          "hex": "#e7c697"
        },
        {
          "hex": "#a5694f"
        },
        {
          "hex": "#cd9575"
        },
        {
          "hex": "#000000"
        },
        {
          "hex": "#deaa88"
        }
      ],
      "css4": [
        {
          "hex": "#8b4513"
        },
        {
          "hex": "#2f4f4f"
        },
        {
          "hex": "#000000"
        },
        {
          "hex": "#deb887"
        },
        {
          "hex": "#f0e68c"
        },
        {
          "hex": "#bdb76b"
        },
        {
          "hex": "#a0522d"
        }
      ],
      "marekm4": [
        {
          "hex": "#71502a"
        },
        {
          "hex": "#422a17"
        },
        {
          "hex": "#391e0f"
        },
        {
          "hex": "#edcf8b"
        },
        {
          "hex": "#986f45"
        },
        {
          "hex": "#eece88"
        },
        {
          "hex": "#e1b972"
        },
        {
          "hex": "#937041"
        },
        {
          "hex": "#957246"
        },
        {
          "hex": "#cba569"
        },
        {
          "hex": "#ebce89"
        },
        {
          "hex": "#e5bb73"
        }
      ]
    },
    "millsfield:images_texts": [
      ".......",
      "From the\nCheese Board\nBe our guest and select\nyour favorite natural\ncheese and cracker\ncombination served with\ngrapes. Today's cheeses\nare sharp cheddar, baby\ngouda and Danish bleu\ncheese.\nCocktails\nUnited's Very Dry\nBeefeater Martini\nUnited's Very Dry\nSmirnoff Vodka Martini\nManhattan\nScrewdriver\nBloody Mary\nWhiskey Sour\nDry Sack Sherry\nDomestic Beer\nSpirits\nOld Forester Bourbon\nCutty Sark's 12 Year Old\nScotch\nDewar's White Label\nScotch\nCanadian Club\nJack Daniels Tennessee\nWhiskey\nBeefeater Gin\nSmirnoff Vodka\nBacardi Rum\nWines\nPaul Masson Cabernet\nSauvignon\nAlmaden Pinot Blanc -\nVintage 1978\nAlmaden Brut\nChampagne\nLiqueurs\nCreme de Menthe\nCourvoisier Cognac VSOP\nBenedictine and Brandy\nDrambuie\nKahlua\nGrand Marnier\nAmaretto di Saronno\nSoft Beverages\nTomato Juice\nCoca'Cola\nperrier\nMinors Cannot Be Served Alcohol.\nSalad\nOffering\nA selection of greens and\ngarnishes to start. The\nChef has personally\nselected either a spinach\nleaf, romaine or bib lettuce\nsalad for your meal today,\nand offers a choice of\ndressing.\nJavanese\nCatalina\nYour\nChoice\nRoast Strip Sirloin of\nBeef, au jus\nWe start with USDA\nChoice sirloin of beef, rub\nit with herbs and spices,\nthen roast it with its\nnatural juices. This\nfavorite will be carved at\nyour seat... for the perfect\naccompaniment try our\nmild horseradish sauce.\nWhole Green Beans\nTomato Provencale\nThe Chef's Specialty\nDouble-Cut\nBarbecued Pork Chop\nThis center cut pork chop\nhas been marinated and\nbaked in a tangy barbecue\nsauce. Served with Italian-\ncut green beans and a corn\nsouffle with cream sauce.\nOur Lighter Air Fare\nA piping hot bowl of hearty\nsoup along with our salad\nis popular with many\npassengers. It is\nsatisfying, but not quite as\nfilling as our more\nelaborate entrees. Just\nask for today's selection.\nOven Warmed Specialty\nBreads with Butter\nDesserts\nNew York Style Cheese\nCake with Sliced\nStrawberries\nFresh Fruit and Assorted\nCheese Basket\nCappuccino\nThis recent addition to our\ninflight fare features piping hot\ncoffee with brandy, chocolate\nand whipped cream topping.\nBeverages\nMaxwell House Coffee\nTea\nMilk\nSanka®\nIt has been our pleasure to\nprepare this repast for your\nenjoyment.\nLyle Cool\nLyell Cook, Executive Chef,\nUnited Airlines Flight Kitchen at Detroit.\nMember, Michigan's Chef de Cuisine\nAssociation;\nAmerican Culinary Federation.\nPlease accept our apology if, due to\nprevious passenger selections, your\nchoice is not available.\nDTW\nL/D21",
      "Glory-of-Bengal\nConus Bengalensis\nIndian Ocean\nLike several hundred other\nConus species, the rare Glory-\nof-Bengal can deliver a toxic\nsting from harpoon-like teeth\ncarried in its proboscis. Some\nhuman deaths have resulted\nfrom the sting of some South\nSea species.\nThe beguiling shape and\nrich coloration of its shell\nmakes this one of the most\nhighly valued family of snails\nfor collectors.\nVenus Comb\nMurex Pecten\nTropical Western Pacific\nCherished as a collector's\nitem from very early days for\ndelicacy of its spines and\nperfection of form.\nThis striking shell, though\nnot rare, has been sought\nafter in the West as The\nComb-of-Venus and in the\nEast as The-Comb-of-Allah.\nThe spines may also have\na \"snowshoe\" effect support-\ning the Murex on soft-sedi-\nment bottoms.\nAlabaster Murex\nMurex Alabaster\nPhilippines to Taiwan\nThis very rare and much\ncoveted Murex is decorated\nwith fluted frills of unusual\ndelicacy.\nScarcely known since its\ndiscovery on a Philippine\nbeach in the 1830's until\nAsian fishermen began haul-\ning them up in their nets in\nthe 1960's.\nCarrier Shell\nXenophora Pallidula\nTropical Western Pacific\nThese moderately large (2 to\n3 inches) snails begin with a\nsimple clean shell. Then they\ncement dead material, such\nas rocks and shells, to their\nown shells until they resem-\nble a pile of debris... a form\nof camouflage.\nThe upper specimen also\nhas a substantial piece of\ncoral which grows naturally\non the already attached dead\nshells.\nON THE COVER:\nPaper Nautilus\nArgonauta Nodusa\nTropical Western Pacific\nThe Argonauta Nodusa\n(named for the Argonauts who\nsailed on the ship Argo to find\nthe Golden Fleece) produce\nvery handsome, fragile, thin,\nshell-like structures.\nThey are not true shells.\nThe Paper Nautilus is the egg\ncase of an animal resembling\nthe octopus.\nThe female constructs the\ncase with special tentacles\nand the eggs incubate within.\nThese \"shells\" can reach\nten inches in length and un-\nbroken specimens are highly\nprized.\nABOUT THE ARTIST\nHELEN de WERD lives on a quiet piece of desert\nnear Palm Springs, California. A self-taught\nartist whose formal training was in photography,\nstage design and dance, Helen has been paint-\ning about fifteen years, working primarily with\npalette knife and oil on canvas for larger pieces,\nbut has developed a technique for finely de-\ntailed smaller works of oil on plastic. A fine Arts\ngraduate of Mills College in Oakland, California,\nshe has exhibited at The Maxwell Galleries and\nThe Pantechnicon in California, at Cabell-\nMassey, Lusara Ltd., and The Houston Galleries\nin Texas, and at Canyon Gallery in New Mexico.\nShe is represented in a dozen states and two\nforeign countries.\nMs. de Werd has painted this seashell series exclu-\nsively for United Airlines. 12\" x 18\" full color litho-\ngraph prints are available from the Strathmore\nCompany, P.O. Box 391, Geneva, Illinois 60134,\nshipped postpaid. Please send check or money order\nin the amount of $6.00 for any one print, or $10.00\nfor the complete set of five.\nUNITED AIRLINES\nW24.047.038"
    ],
    "millsfield:images_texts_ids": [
      1914011693,
      1914011695,
      1914011697
    ],
    "millsfield:primary_image": 1914011693,
    "millsfield:subcategory_id": 1511213567,
    "mz:is_approximate": 1,
    "mz:is_current": 1,
    "sfomuseum:accession_number": "2024.047.038",
    "sfomuseum:airline": "United Airlines",
    "sfomuseum:airline_id": [
      883
    ],
    "sfomuseum:artist": "Helen de Werd",
    "sfomuseum:category": "Passenger Amenity, Archive",
    "sfomuseum:classification_id": 242,
    "sfomuseum:collection": "Aviation Archive",
    "sfomuseum:creditline": "Gift of Kathleen McNamara",
    "sfomuseum:date": "late 1970s",
    "sfomuseum:date_acquired": "2024-07-11",
    "sfomuseum:daterange_end": "1979-12-31",
    "sfomuseum:daterange_start": "1977-01-01",
    "sfomuseum:description": "Menu issued by United Airlines; color reproduction of painting of Paper Nautilus shells on cover; menu number: DTW L/D21-1; undated.",
    "sfomuseum:dimensions": "11 x 7 1/2 inches (27.9 x 19.1 cm)",
    "sfomuseum:medium": "paper, ink",
    "sfomuseum:object_id": 245216,
    "sfomuseum:placetype": "object",
    "sfomuseum:publication": ": , late 1970s.",
    "sfomuseum:subcategory": "Menu",
    "src:geom": "sfomuseum#undetermined",
    "wof:belongsto": [
      102527513,
      1159162825,
      102191575,
      85633793,
      102087579,
      85922583,
      85688637,
      1159160869
    ],
    "wof:country": "XY",
    "wof:created": 1715650049,
    "wof:depicts": [
      1159285413,
      1159288779
    ],
    "wof:geomhash": "c281b9d9eefc83b5710e64b9d646067d",
    "wof:hierarchy": [
      {
        "building_id": -1,
        "campus_id": 102527513,
        "collection_id": 1159162825,
        "concourse_id": 1159162825,
        "continent_id": 102191575,
        "country_id": 85633793,
        "county_id": 102087579,
        "custom_id": 1913928281,
        "locality_id": 85922583,
        "neighbourhood_id": -1,
        "object_id": 1913928281,
        "region_id": 85688637,
        "wing_id": 1159160869
      }
    ],
    "wof:id": 1913928281,
    "wof:lastmodified": 1787988220,
    "wof:name": "menu: United Airlines",
    "wof:parent_id": 1159162825,
    "wof:placetype": "custom",
    "wof:placetype_alt": [
      "object"
    ],
    "wof:repo": "sfomuseum-data-collection",
    "wof:superseded_by": [],
    "wof:supersedes": []
  },
  "bbox": [
    -122.38647222518921,
    37.6161053594541,
    -122.38583385944366,
    37.61661101879963
  ],
  "geometry": {"type":"Polygon","coordinates":[[[-122.38647222518921,37.61631782178288],[-122.386434674263,37.61623283692423],[-122.38637566566466,37.61617759671399],[-122.38630056381224,37.6161308549656],[-122.38616108894348,37.6161053594541],[-122.38602161407469,37.6161308549656],[-122.38591432571411,37.61618609521055],[-122.38585531711577,37.61626683087935],[-122.38583385944366,37.61636881265146],[-122.38587141036987,37.61646654505181],[-122.38594114780425,37.61654303118856],[-122.38605380058287,37.61660252035167],[-122.38618254661559,37.61661101879963],[-122.3863059282303,37.61657277577607],[-122.3864185810089,37.61650903735973],[-122.3864668607712,37.61641130501523],[-122.38647222518921,37.61631782178288]]]}
}
