{
  "id": 1762832733,
  "type": "Feature",
  "properties": {
    "date:cessation_lower": "1940-01-01",
    "date:cessation_upper": "1949-12-31",
    "date:inception_lower": "1940-01-01",
    "date:inception_upper": "1949-12-31",
    "edtf:cessation": "194X",
    "edtf:inception": "194X",
    "geom:area": 2.475047457570636e-7,
    "geom:bbox": "-122.386472,37.616105,-122.385834,37.616611",
    "geom:latitude": 37.61635747477365,
    "geom:longitude": -122.38615540108617,
    "millsfield:category_id": 1511214227,
    "millsfield:collection_id": 1511214203,
    "millsfield:exhibition_ids": [
      1495157223,
      1729859089
    ],
    "millsfield:images": [
      1762896295,
      1762896297
    ],
    "millsfield:images_colors_refs": {
      "crayola": [
        {
          "hex": "#414a4c"
        },
        {
          "hex": "#e7c697"
        },
        {
          "hex": "#bab86c"
        },
        {
          "hex": "#2e5894"
        },
        {
          "hex": "#dbd7d2"
        },
        {
          "hex": "#1a4876"
        }
      ],
      "css4": [
        {
          "hex": "#bdb76b"
        },
        {
          "hex": "#008080"
        },
        {
          "hex": "#dcdcdc"
        },
        {
          "hex": "#d2b48c"
        },
        {
          "hex": "#2f4f4f"
        }
      ],
      "marekm4": [
        {
          "hex": "#d2c4a4"
        },
        {
          "hex": "#1c4758"
        },
        {
          "hex": "#256684"
        },
        {
          "hex": "#22444e"
        },
        {
          "hex": "#e1dbcf"
        },
        {
          "hex": "#c1a872"
        },
        {
          "hex": "#bda46f"
        }
      ]
    },
    "millsfield:images_texts": [
      "I0\n7\n10\n9\n8\nPRATT \u0026 WHITNEY AIRCRAFT\nTWIN WACO\nHORSEPOWER CURRECTION FOR\nCARBURETOR AIR TEMPERATURE VARIATION\nNote: ADD correction if carburetor air scoop\ntemperature is BELOW standard.\nSUBTRACT correction if carburetor air\nscoop temperature is ABOVE standard.\nSTANDARD ALTITUDE TEMPERATURES\n1000 3METERS4\n60\n15\n10\n40\nSTAND\nTEMP\n-100\n0\n-10\nS.L.\n5 1000 10 FEET 15\n- 20\n20\nHORSE POWER CORRECTION\nCARB. AIR TEMP. DIFF.\nHORSEPOWER\nRANGE\nOF\n°C\n9\n5\n18\n27\n36\n45\n10\n15\n20\n25\n300-350\n350-400\n400-450\n450-500\n500-550\n550-600\n600-650\n650-700\n700-750\n750-800\n800-850\n850\n9\nO\n91\n950\n•11\n1000-1050\n1050-111\nOO\n1100-1150\n1150-1200\n6\n8\n11\n14\n3\n7\n1\n1\n1\nO\n1\n3\n16\n15\n18\n2\n1\n7\n20\n2:\n3\n54\n30\n17\n20\n22\n25\n2\n7\n25\n6\n6\n7\n7\n7\n8\n8\n1\n1\n1\n27\n33\n3!\n1\n1\n1\n1\n9\n1\n1\n1\n1\n2\n3\n4\n5\n6\n7\n8\n8\n1\n9\n20\n2\n1\n5\n6\n8\n1\n9\n20\n20\n22\n24\n21\n5\n2\n7\n29\n3\n32\n2!\n9\n3\n33\n35\n2:\n3\n24\n25\n27\n21\n8\n9\n31\n8\n41\n6\n41\n8\nS\n4,\n2\n44\n3\n6\nC\n5\nBREMO HUNDREDS\nP\u0026WA\n1945ml\nPC-10",
      "PRATT \u0026 WHITNEY AIRCRAF\nTWIN WASP 2SDU\n20\nAUTOMATIC RICH - LOW\nARISATIO\n1100\nALTITUDE IN THOUSANDS OF FEET\n500\n*\u0026 WA\n1945\nPC-10\n9\n8\n7\n6\n5\nPRATT\nAND\nWHITNEY AIRCRAFT\nCRUISING POWER CALCULATOR\nINSTRUCTIONS\nUse the curve below to determine the most\neconomical RPM for the desired brake horse-\npower.\nHold calculator so that pressure of fingers\non slide through opening will keep the slide\nfirmly against indexing edge at left of case.\nSet observed altitude on diagonal top edge\nhorizontally opposite horsepower desired.\nAt\nintersection of diagonal top edge and desired\nRPM, read necessary manifold pressure.\nCorrect horsepower for carburetor air scoop\ntemperature (not mixture temperature) accord-\ning to tables on reverse side.\n1000\n900\nSMER\n11.\n800\nQ.\nI\n700\n600\n500\n15\n16\n17\n18\n19\n20\n2l\n22\nRPM HUNDREDS\n23\n24\n25\n26\n27"
    ],
    "millsfield:images_texts_ids": [
      1762896295,
      1762896297
    ],
    "millsfield:on_view": 0,
    "millsfield:primary_image": 1762896297,
    "millsfield:subcategory_id": 1511213329,
    "mz:is_current": 1,
    "sfomuseum:accession_number": "2012.149.0738",
    "sfomuseum:category": "Equipment",
    "sfomuseum:classification_id": 107,
    "sfomuseum:collection": "Aviation Museum",
    "sfomuseum:creditline": "Gift of the Captain John B. Russell Family",
    "sfomuseum:date": "1940s",
    "sfomuseum:date_acquired": "2013-05-31",
    "sfomuseum:daterange_end": "1949-12-31",
    "sfomuseum:daterange_start": "1940-01-01",
    "sfomuseum:description": "Cruising power calculator issued by Pratt \u0026 Whitney for Twin Wasp 2SD11-G; table in clear sleeve.",
    "sfomuseum:dimensions": "6 x 3 1/2 inches (15.2 x 8.9 cm)",
    "sfomuseum:exhibition_ids": [
      1496
    ],
    "sfomuseum:medium": "paper, ink",
    "sfomuseum:object_id": 137522,
    "sfomuseum:placetype": "object",
    "sfomuseum:publication": ": , 1940s.",
    "sfomuseum:subcategory": "Navigational Device",
    "src:geom": "sfomuseum#undetermined",
    "wof:belongsto": [
      102527513,
      1159162825,
      102191575,
      85633793,
      102087579,
      85922583,
      85688637,
      1159160869
    ],
    "wof:country": "XY",
    "wof:created": 1642730544,
    "wof:geomhash": "c281b9d9eefc83b5710e64b9d646067d",
    "wof:hierarchy": [
      {
        "building_id": -1,
        "campus_id": 102527513,
        "collection_id": 1159162825,
        "concourse_id": 1159162825,
        "continent_id": 102191575,
        "country_id": 85633793,
        "county_id": 102087579,
        "custom_id": 1762832733,
        "locality_id": 85922583,
        "neighbourhood_id": -1,
        "object_id": 1762832733,
        "region_id": 85688637,
        "wing_id": 1159160869
      }
    ],
    "wof:id": 1762832733,
    "wof:lastmodified": 1787988202,
    "wof:name": "cruising power calculator: Pratt \u0026 Whitney",
    "wof:parent_id": 1159162825,
    "wof:placetype": "custom",
    "wof:placetype_alt": [
      "object"
    ],
    "wof:repo": "sfomuseum-data-collection",
    "wof:superseded_by": [],
    "wof:supersedes": []
  },
  "bbox": [
    -122.38647222518921,
    37.6161053594541,
    -122.38583385944366,
    37.61661101879963
  ],
  "geometry": {"type":"Polygon","coordinates":[[[-122.38647222518921,37.61631782178288],[-122.386434674263,37.61623283692423],[-122.38637566566466,37.61617759671399],[-122.38630056381224,37.6161308549656],[-122.38616108894348,37.6161053594541],[-122.38602161407469,37.6161308549656],[-122.38591432571411,37.61618609521055],[-122.38585531711577,37.61626683087935],[-122.38583385944366,37.61636881265146],[-122.38587141036987,37.61646654505181],[-122.38594114780425,37.61654303118856],[-122.38605380058287,37.61660252035167],[-122.38618254661559,37.61661101879963],[-122.3863059282303,37.61657277577607],[-122.3864185810089,37.61650903735973],[-122.3864668607712,37.61641130501523],[-122.38647222518921,37.61631782178288]]]}
}
