{
  "id": 1913871939,
  "type": "Feature",
  "properties": {
    "date:cessation_lower": "1970-01-01",
    "date:cessation_upper": "1970-12-31",
    "date:inception_lower": "1970-01-01",
    "date:inception_upper": "1970-12-31",
    "edtf:cessation": "1970~",
    "edtf:inception": "1970~",
    "geom:area": 2.475047457570636e-7,
    "geom:bbox": "-122.386472,37.616105,-122.385834,37.616611",
    "geom:latitude": 37.61635747477365,
    "geom:longitude": -122.38615540108617,
    "millsfield:aircraft_id": [
      1159291223
    ],
    "millsfield:airline_id": [
      1159283623
    ],
    "millsfield:category_id": 1762671311,
    "millsfield:collection_id": 1511214207,
    "millsfield:company_id": [],
    "millsfield:images": [
      1913872171,
      1913872173
    ],
    "millsfield:images_colors_refs": {
      "crayola": [
        {
          "hex": "#c46210"
        },
        {
          "hex": "#6699cc"
        },
        {
          "hex": "#b0b7c6"
        },
        {
          "hex": "#efdecd"
        },
        {
          "hex": "#1a4876"
        },
        {
          "hex": "#324ab2"
        }
      ],
      "css4": [
        {
          "hex": "#ff4500"
        },
        {
          "hex": "#c0c0c0"
        },
        {
          "hex": "#778899"
        },
        {
          "hex": "#191970"
        },
        {
          "hex": "#faebd7"
        },
        {
          "hex": "#483d8b"
        }
      ],
      "marekm4": [
        {
          "hex": "#1a2a97"
        },
        {
          "hex": "#f04c09"
        },
        {
          "hex": "#7989bd"
        },
        {
          "hex": "#afb7cb"
        },
        {
          "hex": "#0b1574"
        },
        {
          "hex": "#141b68"
        },
        {
          "hex": "#ebe8d5"
        },
        {
          "hex": "#3849a9"
        }
      ]
    },
    "millsfield:images_texts": [
      "Safety Features\nMedidas de Seguridad\nDC-9-15\nair florida\nairflorida ar\nThere is little likelihood we will encounter a situation requiring emergency preparations but it is a\ngood practice to be acquainted with the safety features we have provided for you on this airplane.\nHay pocas probabilidades de que nos encontremos en una situación que requiera preparativos de\nemergencia.\nNo obstante,\nqueremos familiarizarlo con los dispositivos de seguridad que, para su\nprotección, hemos instalado en este avión.\nLife raft locations. *\nThis aircraft is provisioned\nwith flotation seat cushions\non all flights; however, on\nflight\nsegments\ninvolved\nwith\nextended\noverwater\noperation as required in the\nFederal Aviation Regula-\ntions, life preservers along\nwith\nlife rafts and other\noverwater\nequipment are\nprovided\nas\nstandard\nsafety precaution.\nEste avión esta equipado\ncon cojines flotantes para\ntodos nuestros vuelos. Sin\nembargo,\npara\naquellos\nvuelos que incluyan rutas\nsobre agua por larga distan\ncia, segun ha sido definido\nen las Regulaciones.\nFeder-\nales de Aviacion, salvavidas,\nasi como balsas y otros\nequipos para el agua son\nproveidos como precaución\nrutinaria de seguridad.\nLIFE\nVESTS\nSAL VAVIDAS\nLife vests, when carried, are located\nunder your seat.\nSalvavidas, cuando están a bordo, se\nencuentran bajo su asiento.\nWW\nD\n20000000000000\n00000000000\nArrows show exit locations.\nWindows\nDoors\nTail\nLas flechas indican el lugar\nde las salidas\nVentanilla Puerta\nCola",
      "1\n2\nCabin Doors\nRotate handle, pull door in\nand swing outward.\nPuerta de la Cabina\nMueva la palanca hacia la\nderecha y hacia\nadentro y\nempuje la puerta para abrirla.\n,3\nEXIT\nSeat Belts\nlike\nMorenoue casin chile yoe\nin the\nbelt\ncabin\nsign\nwhile\nis\noff.\nWe\nsuggest,\nhowever,\nkeep\nthat\nyou\nyour seat belt fastened\nwhile in your seat. Of course,\nseat\nbelts\nmust\nbe fastened\nany time\nthe\nseat belt sign\nis on.\nCinturones de Seguridad\nUsted puede andar libremente\npor la cabina siempre que la\nsenal para los\ncinturones\nseguridad este apagada.\nSin\ncubargo, re aconse amos cue\nmantenga\nel\ncinturon\nde\nseguridad abrochado mientras\neste\nsentado.\nlos\nPor\nsupuesto.\ncinturones\ndeben\nabrochados\nen\nser\ncualquier\nmomento en que se encienda\nla senal.\nEscape Slide\nJump and slide, Do not hold\nsides.\nCanal de Escape\nSalte\ndeslicese,\naguante\nde\nNo\nse\nlos\nlados.\nEmergency Position\nRemove sh oes, eyeglasses and\nsharp objects from pockets.\nTake position shown holding\nknees.\nPosicion de Emergencia\nQuitese los zapatos, espejuelos\ny objetos afilados o\ncon\npuntas de sus bolsillos. Tome\nlas posicion que se ilustra\naguantando sus rodillas.\nOxygen\nIf required, masks will be\nautomatically presented from\na compartment in overhead\nrack.\nOxigeno\nSi es requerido, las mascaras\nde oxigeno estaran disponible\nautomaticamente\ndesde\nel\ncompartimento immediatamente\narriba de los asientos de los\npasajeros.\nWindow Exits\nPull handle, pull window in,\ndrop in vacant seat ahead or\nbehind.\nVentanillas de Salida\nHale la agarradera, hale la\nventanilla\nhacia\nadentro,\npongala en el proximo asiento\nvacante.\n4\nWindow\nExit\nStep out one leg first, then\nhead and shoulders.\nVentanillas de Salida\nSaque una pierna primero,\ndespues\nla cabeza y los\nhombros.\nOxygen Mask\nPull\nuntil\npin is released.\nUnfold hose\nand bag from\nmask. Don as shown, Do not\nsmoke.\nMascaras de Oxigeno\nHale hasta que el broche se\nsafe.\nEstire las mangera y\nbolsa de la mascara.\nHaga\ncomo se ensena en la figura.\nNo fume."
    ],
    "millsfield:images_texts_ids": [
      1913872171,
      1913872173
    ],
    "millsfield:primary_image": 1913872171,
    "millsfield:subcategory_id": 1511213703,
    "mz:is_approximate": 1,
    "mz:is_current": 1,
    "sfomuseum:accession_number": "2002.127.030",
    "sfomuseum:aircraft": "Douglas DC-9",
    "sfomuseum:aircraft_id": [
      848
    ],
    "sfomuseum:airline": "Air Florida",
    "sfomuseum:airline_id": [
      68
    ],
    "sfomuseum:category": "Passenger Amenity, Archive",
    "sfomuseum:classification_id": 581,
    "sfomuseum:collection": "Aviation Archive",
    "sfomuseum:creditline": "Gift of Thomas G. Dragges",
    "sfomuseum:date": "c. 1970",
    "sfomuseum:date_acquired": "2003-12-22",
    "sfomuseum:daterange_end": "1975-12-31",
    "sfomuseum:daterange_start": "1965-01-01",
    "sfomuseum:description": "Safety information card issued by Air Florida for the Douglas DC-9-15 fleet; white and blue double-sided card with illustrations depicting inflight safety and emergency procedures; no identification code; no revision date.",
    "sfomuseum:dimensions": "11 1/4 x 5 3/4 inches (28.6 x 14.6 cm)",
    "sfomuseum:medium": "paper, ink",
    "sfomuseum:object_id": 68299,
    "sfomuseum:placetype": "object",
    "sfomuseum:publication": ": , c. 1970.",
    "sfomuseum:subcategory": "Safety Information Card",
    "src:geom": "sfomuseum#undetermined",
    "wof:belongsto": [
      102527513,
      1159162825,
      102191575,
      85633793,
      102087579,
      85922583,
      85688637,
      1159160869
    ],
    "wof:country": "XY",
    "wof:created": 1715153557,
    "wof:depicts": [
      1159283623,
      1159291223
    ],
    "wof:geomhash": "c281b9d9eefc83b5710e64b9d646067d",
    "wof:hierarchy": [
      {
        "building_id": -1,
        "campus_id": 102527513,
        "collection_id": 1159162825,
        "concourse_id": 1159162825,
        "continent_id": 102191575,
        "country_id": 85633793,
        "county_id": 102087579,
        "custom_id": 1913871939,
        "locality_id": 85922583,
        "neighbourhood_id": -1,
        "object_id": 1913871939,
        "region_id": 85688637,
        "wing_id": 1159160869
      }
    ],
    "wof:id": 1913871939,
    "wof:lastmodified": 1787988220,
    "wof:name": "safety information card: Air Florida, Douglas DC-9-15",
    "wof:parent_id": 1159162825,
    "wof:placetype": "custom",
    "wof:placetype_alt": [
      "object"
    ],
    "wof:repo": "sfomuseum-data-collection",
    "wof:superseded_by": [],
    "wof:supersedes": []
  },
  "bbox": [
    -122.38647222518921,
    37.6161053594541,
    -122.38583385944366,
    37.61661101879963
  ],
  "geometry": {"type":"Polygon","coordinates":[[[-122.38647222518921,37.61631782178288],[-122.386434674263,37.61623283692423],[-122.38637566566466,37.61617759671399],[-122.38630056381224,37.6161308549656],[-122.38616108894348,37.6161053594541],[-122.38602161407469,37.6161308549656],[-122.38591432571411,37.61618609521055],[-122.38585531711577,37.61626683087935],[-122.38583385944366,37.61636881265146],[-122.38587141036987,37.61646654505181],[-122.38594114780425,37.61654303118856],[-122.38605380058287,37.61660252035167],[-122.38618254661559,37.61661101879963],[-122.3863059282303,37.61657277577607],[-122.3864185810089,37.61650903735973],[-122.3864668607712,37.61641130501523],[-122.38647222518921,37.61631782178288]]]}
}
