{
  "id": 1779696879,
  "type": "Feature",
  "properties": {
    "date:cessation_lower": "1975-01-01",
    "date:cessation_upper": "1975-12-31",
    "date:inception_lower": "1975-01-01",
    "date:inception_upper": "1975-12-31",
    "edtf:cessation": "1975~",
    "edtf:inception": "1975~",
    "geom:area": 2.475047457570636e-7,
    "geom:bbox": "-122.386472,37.616105,-122.385834,37.616611",
    "geom:latitude": 37.61635747477365,
    "geom:longitude": -122.38615540108617,
    "millsfield:airline_id": [
      1159284989
    ],
    "millsfield:category_id": 1762671311,
    "millsfield:collection_id": 1511214207,
    "millsfield:company_id": [
      1159286839
    ],
    "millsfield:images": [
      1863469823,
      1863469825,
      1863469829
    ],
    "millsfield:images_colors_refs": {
      "crayola": [
        {
          "hex": "#9c7c38"
        },
        {
          "hex": "#414a4c"
        },
        {
          "hex": "#efdecd"
        },
        {
          "hex": "#bab86c"
        },
        {
          "hex": "#6dae81"
        },
        {
          "hex": "#714b23"
        },
        {
          "hex": "#dbd7d2"
        }
      ],
      "css4": [
        {
          "hex": "#5f9ea0"
        },
        {
          "hex": "#808000"
        },
        {
          "hex": "#2f4f4f"
        },
        {
          "hex": "#faebd7"
        },
        {
          "hex": "#d3d3d3"
        },
        {
          "hex": "#cd853f"
        },
        {
          "hex": "#556b2f"
        },
        {
          "hex": "#bdb76b"
        }
      ],
      "marekm4": [
        {
          "hex": "#f2e7cd"
        },
        {
          "hex": "#39503b"
        },
        {
          "hex": "#54492c"
        },
        {
          "hex": "#6c9e99"
        },
        {
          "hex": "#dbdfc6"
        },
        {
          "hex": "#8f7013"
        },
        {
          "hex": "#ab9549"
        },
        {
          "hex": "#b4ac58"
        },
        {
          "hex": "#ece6cd"
        }
      ]
    },
    "millsfield:images_texts": [
      "SKETCHED BY J. SMITH \u0026 SONS, BROOKLYN, L.I.\nEntered according in act of Congross in the yin 1956 Cy A Cursin in the Clock Offin of the Bitint Court of Name Your\nCLIPPER SHIP «OCKAN EXPRESS'\nOUTWARD BOUND, \"DISCHARGING THE PILOT.\"\nLITH. \u0026 PUB. BY CURRIER \u0026 IVES, 152 NASSAU ST., N.Y.\nON STONE BY C. PARSONS",
      "CLIPPER SHIP \"OCEAN EXPRESS\"\nThe front cover of this menu is a reproduction of an authentic Currier \u0026 Ives clipper ship print.\nCurrier \u0026 Ives, known as the \"Printmakers of America\", graphically preserved the glorious clipper\nship era in a magnificent series of clipper ship prints. This print, one of a series, is being reproduced\nthrough the courtesy of The Mariners Museum, Newport News, Virginia.\nAmerica, as a nation and a people, practically sprang from the sea. In the years 1850 to 1875,\nthe swift and graceful clipper ships were the dominant masters of the sea. They brought unprece-\ndented growth and prosperity to the United States. The clipper ship \"Ocean Express\" was built by\nD. O. Curtis in Medford, Massachusetts in 1855. She was employed in the lucrative tea and opium\ntrade from China and the frenzied, record-breaking voyages around Cape Horn. Under favorable\nwinds this ship was capable of the remarkable feat of 330 miles a day. Speed from the very earliest\ndays had been bound inextricably with trade, and now it became a topic of great interest, much\nexcitement and many wagers.\nThe decline of the \"Ocean Express\" is attributed to the collapse of the gold boom in California,\nthe extensive use of steamships and the disruptive effects of the Civil War. Discovery and exploita-\ntion of the West succeeded in luring American men from the sea of their heritage, inland to a new\nway of life.\nLike Pan Am's modern Clippers* of the air, the early clipper ships traveled the lanes of com-\nmerce to all the far places of the world... to Japan ... to Australia... and, in the days of the\ngreat gold rush, from America's east coast, around Cape Horn, South America, to California.\nOur current equipment... the Clipper fleet of the Twentieth Century... consists of the finest\ncommercial aircraft ever developed-aircraft that have helped us establish an unparalleled record\nfor safety, speed and service.\n*CLIPPER TRADE MARK-REG US PAT OFFICE-COPYRIGHT 1966 PAN AMERICAN WORLD AIRWAYS INC\nLITHO IN USA -8739-0393\n2000.058.0589"
    ],
    "millsfield:images_texts_ids": [
      1863469823,
      1863469829
    ],
    "millsfield:primary_image": 1863469823,
    "millsfield:subcategory_id": 1511213567,
    "mz:is_approximate": 1,
    "mz:is_current": 1,
    "sfomuseum:accession_number": "2000.058.0589",
    "sfomuseum:airline": "Pan American World Airways",
    "sfomuseum:airline_id": [
      684
    ],
    "sfomuseum:category": "Passenger Amenity, Archive",
    "sfomuseum:classification_id": 242,
    "sfomuseum:collection": "Aviation Archive",
    "sfomuseum:creditline": "Gift of the Pan Am Association",
    "sfomuseum:date": "c. 1975",
    "sfomuseum:date_acquired": "2000-12-14",
    "sfomuseum:daterange_end": "1980-12-31",
    "sfomuseum:daterange_start": "1970-01-01",
    "sfomuseum:description": "Menu cover issued by Pan American World Airways; bi-fold menu with color reproduction of print titled “Clipper Ship ‘Ocean Express’\"; no menu insert.",
    "sfomuseum:dimensions": "10 x 21 1/4 inches (25.4 x 54 cm)",
    "sfomuseum:medium": "paper, ink",
    "sfomuseum:object_id": 51707,
    "sfomuseum:placetype": "object",
    "sfomuseum:publication": ": , c. 1975.",
    "sfomuseum:series": "Currier \u0026 Ives Clipper Ships",
    "sfomuseum:subcategory": "Menu",
    "src:geom": "sfomuseum#undetermined",
    "wof:belongsto": [
      102527513,
      1159162825,
      102191575,
      85633793,
      102087579,
      85922583,
      85688637,
      1159160869
    ],
    "wof:country": "XY",
    "wof:created": 1655539410,
    "wof:depicts": [
      1159286839,
      1159284989
    ],
    "wof:geomhash": "c281b9d9eefc83b5710e64b9d646067d",
    "wof:hierarchy": [
      {
        "building_id": -1,
        "campus_id": 102527513,
        "collection_id": 1159162825,
        "concourse_id": 1159162825,
        "continent_id": 102191575,
        "country_id": 85633793,
        "county_id": 102087579,
        "custom_id": 1779696879,
        "locality_id": 85922583,
        "neighbourhood_id": -1,
        "object_id": 1779696879,
        "region_id": 85688637,
        "wing_id": 1159160869
      }
    ],
    "wof:id": 1779696879,
    "wof:lastmodified": 1787988209,
    "wof:name": "menu cover: Pan American World Airways",
    "wof:parent_id": 1159162825,
    "wof:placetype": "custom",
    "wof:placetype_alt": [
      "object"
    ],
    "wof:repo": "sfomuseum-data-collection",
    "wof:superseded_by": [],
    "wof:supersedes": []
  },
  "bbox": [
    -122.38647222518921,
    37.6161053594541,
    -122.38583385944366,
    37.61661101879963
  ],
  "geometry": {"type":"Polygon","coordinates":[[[-122.38647222518921,37.61631782178288],[-122.386434674263,37.61623283692423],[-122.38637566566466,37.61617759671399],[-122.38630056381224,37.6161308549656],[-122.38616108894348,37.6161053594541],[-122.38602161407469,37.6161308549656],[-122.38591432571411,37.61618609521055],[-122.38585531711577,37.61626683087935],[-122.38583385944366,37.61636881265146],[-122.38587141036987,37.61646654505181],[-122.38594114780425,37.61654303118856],[-122.38605380058287,37.61660252035167],[-122.38618254661559,37.61661101879963],[-122.3863059282303,37.61657277577607],[-122.3864185810089,37.61650903735973],[-122.3864668607712,37.61641130501523],[-122.38647222518921,37.61631782178288]]]}
}
