{
  "id": 1762693945,
  "type": "Feature",
  "properties": {
    "date:cessation_lower": "1956-01-01",
    "date:cessation_upper": "1956-12-31",
    "date:inception_lower": "1956-01-01",
    "date:inception_upper": "1956-12-31",
    "edtf:cessation": "1956",
    "edtf:inception": "1956",
    "geom:area": 2.475047457570636e-7,
    "geom:bbox": "-122.386472,37.616105,-122.385834,37.616611",
    "geom:latitude": 37.61635747477365,
    "geom:longitude": -122.38615540108617,
    "millsfield:airline_id": [
      1159283485
    ],
    "millsfield:category_id": 1511214223,
    "millsfield:collection_id": 1511214207,
    "millsfield:company_id": [
      1159287357
    ],
    "millsfield:images": [
      1762698521,
      1762698523,
      1762698525
    ],
    "millsfield:images_colors_refs": {
      "crayola": [
        {
          "hex": "#cd4a4c"
        },
        {
          "hex": "#1a4876"
        },
        {
          "hex": "#414a4c"
        },
        {
          "hex": "#4a646c"
        },
        {
          "hex": "#000000"
        },
        {
          "hex": "#efdecd"
        },
        {
          "hex": "#ff2b2b"
        }
      ],
      "css4": [
        {
          "hex": "#b22222"
        },
        {
          "hex": "#191970"
        },
        {
          "hex": "#dcdcdc"
        },
        {
          "hex": "#000000"
        },
        {
          "hex": "#708090"
        }
      ],
      "marekm4": [
        {
          "hex": "#c73923"
        },
        {
          "hex": "#d62a09"
        },
        {
          "hex": "#111031"
        },
        {
          "hex": "#161d45"
        },
        {
          "hex": "#e8e3d3"
        },
        {
          "hex": "#132a5a"
        },
        {
          "hex": "#e6e2d0"
        },
        {
          "hex": "#d23119"
        },
        {
          "hex": "#536d8b"
        },
        {
          "hex": "#e8e1d1"
        }
      ]
    },
    "millsfield:images_texts": [
      "EFFECTIVE FROM 1ST OCTOBER\nAden\nAirways\nAL AN ASSOCIATE OF B.O.A.C.\n7 141\nTIMETABLE",
      "-AVIATION\nBP\nSHELL\nSERVICE\n-at your service\nworld wide with the latest\nand best equipment:\nmanned by the most\nexpenienced crews-\nShelf and BP\nAviation Service",
      "30\n25\nUK, Europe, USA\nAgaba\nKuwait\n• JEDDAH\nMuscat\nDuggam°\nPORT SUDAN.\nWest Africa, UK,\nEurope, USA\n• KHARTOUM\nASMARA\n10\nAMARAN ISLAND\nQATN\nBEIHAN\nSA'ID OOGURAF\nATAO\nNISAB\nDJIBOUTI\nERBERA\n• o\nDIRE DAWA O\nHARGEISA\nADDIS ABABA\nPakistan and India m\nMOGADISHU\nNAIROBI\nEast, Central and\nSouth Africa\n30€\n35฿\nMombasa 9\n40€\n45\nAden-\nAirways\nROUTES\n50\n55E\nSTATION\nADDIS-ABABA\nADEN\nAMMAN\nASMARA\nBEIRUT\nBERBERA\nCAIRO\nDJIBOUTI\nGHURAF\nHARGEISA\nJEDDAH\nJERUSALEM\nKAMARAN\nKHARTOUM\nLONDON\nMOGADISHU\nMUKALLA\nNAIROBI\nNEW YORK\nPORT SUDAN\nQATN\nROME\nMUKEIRAS\nATAQ\nBEIHAN\nNISAB\nRAUDHA\nRIYAN\nSAID\nBURAO\nADEN AIRWAYS LTD\nAGENTS AND BOOKING OFFICES\nADDRESS\nADEN\nAIRWAYS Ltd.,\n25, Haile Sellassie Avenue, P.O.B. 596.\nADEN\nAIRWAYS Ltd., Headquarters Khormaksar, or\n2/4 Esplanade Road, Crater.\nARAB AIRWAYS (JERUSALEM) Ltd., Salt Road.\nADEN AIRWAYS Ltd., 170, Avenue Haile Sellassie\nKARNAK S.A.L., Rue Allenby, P.O.B. 146.\nMITCHELL COTTS \u0026 Co. (M.E.) Ltd.,\nBRITISH OVERSEAS AIRWAYS CORPORATION.,\nAirways House, 1 Sharia Bustan.\nL. SAVON \u0026 RIES., P.O. Box 125\nGULAMALI ISMAIL ABDUREHMAN.\nADEN AIRWAYS Ltd.\nSADDIK \u0026 MOHAMED ATTAR \u0026 Co.,\nKing Abdelaziz Street.\nARAB AIRWAYS., Nablus Road.\nCOMMISSIONER OF KAMARAN.\nBRITISH OVERSEAS AIRWAYS CORPORATION.,\nWingate Avenue.\nBRITISH OVERSEAS AIRWAYS CORPORATION.,\nAirways Terminal, Buckingham Palace Road S.W.1.,\nMITCHELL COTTS \u0026 Co. (E.A.) Ltd.,\nCorso Vittorio Emanuale III.\nGULAMALI ISMAIL ABDUREHMAN.\nEAST AFRICAN AIRWAYS CORPORATION., Sadler Street\nBRITISH OVERSEAS AIRWAYS CORPORATION,\n342, Madison Avenue, N.Y.17.\nSUDAN AIRWAYS.\nBaasher Building, Commissioner's Road-Port Sudan.\nGULAMALI ISMAIL ABDUREHMAN.\nBRITISH EUROPEAN AIRWAYS\nHotel Ouirinale. Via Nazionale. 68.\nHON. A. J. HASSANALI., Aden\nMOHAMED A. R. BAGAMAL., Crater, Aden.\nALI MOHAMED DAIBAN., Crater, Aden.\nSALEH A. KARIM TALEB., Crater, Aden.\nSALEH OBEID BAHAJ., Crater ,Aden.\nGULAMALI ISMAIL ABDUREHMAN., Crater, Aden.\nAHMED ABUBAKER BANAFA., Crater, Aden.\nMOHAMED HINDI\nTEL.\nTELEGR\n1766\nAdenair\n2224\n2411\n783\n928/5161\n6641\n9273\n71\n25250\n25256\nThru Diibouti\nExchange\nAdenair\nTransair\nAdenair\nKarnak\nAdenair\nSpeedbird\n408\n3171-5\nAdenair\nAdenair\nAdenair\nAttarco\nor Adenair\nTransair\nAdenair\nSpeedbird\nVIC 2323\nSpeedbird\nThru\nMogadishu\nExchange\nAdenair\n25814\nMurray Hill\n78900\n2140\nAdenair\nAirservice\nSpeedbird\nSudanair\n489111\nAdenair\nBealine\nAdenair\nHindi\nTHE INFORMATION CONTAINED IN THIS TIMETABLE IS SUBJECT TO ALTERATIONS WITHOUT NOTICE\n60E"
    ],
    "millsfield:images_texts_ids": [
      1762698521,
      1762698523,
      1762698525
    ],
    "millsfield:primary_image": 1762698521,
    "millsfield:subcategory_id": 1511213425,
    "mz:is_current": 1,
    "sfomuseum:accession_number": "2014.084.0001",
    "sfomuseum:airline": "Aden Airways",
    "sfomuseum:airline_id": [
      7
    ],
    "sfomuseum:category": "Scheduling / Ticketing",
    "sfomuseum:classification_id": 158,
    "sfomuseum:collection": "Aviation Archive",
    "sfomuseum:creditline": "Gift of Thomas G. Dragges",
    "sfomuseum:date": "1956",
    "sfomuseum:date_acquired": "2015-07-02",
    "sfomuseum:daterange_end": "1956-12-31",
    "sfomuseum:daterange_start": "1956-01-01",
    "sfomuseum:description": "Timetable issued by Aden Airways, effective October 1, 1956; folded multipage booklet; orange, white and blue cover with white shapes and text “Aden Airways / A subsidiary of BOAC”.",
    "sfomuseum:dimensions": "8 1/4 x 3 1/2 inches (21 x 8.9 cm)",
    "sfomuseum:medium": "paper, ink, metal",
    "sfomuseum:object_id": 156426,
    "sfomuseum:placetype": "object",
    "sfomuseum:publication": ": , 1956.",
    "sfomuseum:subcategory": "Timetable",
    "src:geom": "sfomuseum#undetermined",
    "wof:belongsto": [
      102527513,
      1159162825,
      102191575,
      85633793,
      102087579,
      85922583,
      85688637,
      1159160869
    ],
    "wof:country": "XY",
    "wof:created": 1641344146,
    "wof:depicts": [
      1159283485,
      1159287357
    ],
    "wof:geomhash": "c281b9d9eefc83b5710e64b9d646067d",
    "wof:hierarchy": [
      {
        "building_id": -1,
        "campus_id": 102527513,
        "collection_id": 1159162825,
        "concourse_id": 1159162825,
        "continent_id": 102191575,
        "country_id": 85633793,
        "county_id": 102087579,
        "custom_id": 1762693945,
        "locality_id": 85922583,
        "neighbourhood_id": -1,
        "object_id": 1762693945,
        "region_id": 85688637,
        "wing_id": 1159160869
      }
    ],
    "wof:id": 1762693945,
    "wof:lastmodified": 1787988198,
    "wof:name": "timetable: Aden Airways",
    "wof:parent_id": 1159162825,
    "wof:placetype": "custom",
    "wof:placetype_alt": [
      "object"
    ],
    "wof:repo": "sfomuseum-data-collection",
    "wof:superseded_by": [],
    "wof:supersedes": []
  },
  "bbox": [
    -122.38647222518921,
    37.6161053594541,
    -122.38583385944366,
    37.61661101879963
  ],
  "geometry": {"type":"Polygon","coordinates":[[[-122.38647222518921,37.61631782178288],[-122.386434674263,37.61623283692423],[-122.38637566566466,37.61617759671399],[-122.38630056381224,37.6161308549656],[-122.38616108894348,37.6161053594541],[-122.38602161407469,37.6161308549656],[-122.38591432571411,37.61618609521055],[-122.38585531711577,37.61626683087935],[-122.38583385944366,37.61636881265146],[-122.38587141036987,37.61646654505181],[-122.38594114780425,37.61654303118856],[-122.38605380058287,37.61660252035167],[-122.38618254661559,37.61661101879963],[-122.3863059282303,37.61657277577607],[-122.3864185810089,37.61650903735973],[-122.3864668607712,37.61641130501523],[-122.38647222518921,37.61631782178288]]]}
}
