{
  "id": 1913662805,
  "type": "Feature",
  "properties": {
    "date:cessation_lower": "1988-01-01",
    "date:cessation_upper": "1988-12-31",
    "date:inception_lower": "1988-01-01",
    "date:inception_upper": "1988-12-31",
    "edtf:cessation": "1988~",
    "edtf:inception": "1988~",
    "geom:area": 0,
    "geom:bbox": "-122.370943,37.617990,-122.370943,37.617990",
    "geom:latitude": 37.61799,
    "geom:longitude": -122.370943,
    "iso:country": "US",
    "millsfield:airport_id": [
      102527513
    ],
    "millsfield:category_id": 1511214209,
    "millsfield:collection_id": 1511214207,
    "millsfield:images": [
      1913663525
    ],
    "millsfield:images_colors_refs": {
      "crayola": [
        {
          "hex": "#dd9475"
        },
        {
          "hex": "#a57164"
        },
        {
          "hex": "#9f8170"
        },
        {
          "hex": "#000000"
        },
        {
          "hex": "#d98695"
        }
      ],
      "css4": [
        {
          "hex": "#000000"
        },
        {
          "hex": "#808080"
        },
        {
          "hex": "#bc8f8f"
        },
        {
          "hex": "#e9967a"
        }
      ],
      "marekm4": [
        {
          "hex": "#956b6e"
        },
        {
          "hex": "#b99097"
        },
        {
          "hex": "#dc936a"
        },
        {
          "hex": "#9f7887"
        },
        {
          "hex": "#291d22"
        }
      ]
    },
    "millsfield:images_texts": [
      "186 - 87\n86-87\nFY86-87\n- 149-01\nREPORT. 22. FM 04 7/86-57\nPOST 22 FY96-87\nIN A\nкарикТ 23 FM 05 7У %-57\n194-51\nPERAT 23 FMOB F/16-57\n1148Ls1\nREPORT 23 FM \"I\n15/86-87\nRAM 1) MILD 2M 04\nREPORT 43 Part I\nTM05 Fy86-87\nREPORT 43 PAT IL\nFM 05 FY 86-87\n077/166.s7\nREP 08, 1486-17\nRa 2tt22\nREPOT 137 2 P/26-81\nREPoRT 45\nREPORT 43 Part\nFY 86 - 87\n341 x0z\nN9IS\n1ЙО\n3SV37d\nSAS\nASL-41\nY- 1456-57\nAT 45 M881 FM 04\nFH 12\nF4-1986-87 -\nREPORT A03\nFM o/\nFy 86-87\nА-o3\nF4- 1956-51\nA- 13\n118-87 PM 06\nFY Y - 87* A 13\nTH 08\nRene A-13 FY 86-87\nTH- 09\n74 - 1986/87\nRepents AR\nТР 06 А-22\nTY SL- 17\n* 0 127\nFY 86-84-\nREPORT AlB\nFM 11\n1984-87\nf1104"
    ],
    "millsfield:images_texts_ids": [
      1913663525
    ],
    "millsfield:primary_image": 1913663525,
    "millsfield:subcategory_id": 1511213401,
    "mz:is_approximate": 1,
    "mz:is_current": 1,
    "sfomuseum:accession_number": "2011.068.342.022",
    "sfomuseum:airport": "San Francisco International Airport",
    "sfomuseum:airport_id": [
      121
    ],
    "sfomuseum:category": "Photograph",
    "sfomuseum:classification_id": 146,
    "sfomuseum:collection": "Aviation Archive",
    "sfomuseum:creditline": "Collection of SFO Museum",
    "sfomuseum:date": "c. 1988",
    "sfomuseum:date_acquired": "2011-06-21",
    "sfomuseum:daterange_end": "1993-12-31",
    "sfomuseum:daterange_start": "1983-01-01",
    "sfomuseum:description": "Set of 55 color slides depicting various personnel departments at San Francisco International Airport, including law enforcement, business and finance, engineering, accounting and payroll, and planning and construction.",
    "sfomuseum:dimensions": "2 x 2 inches (5.1 x 5.1 cm)",
    "sfomuseum:medium": "slide",
    "sfomuseum:object_id": 132877,
    "sfomuseum:placetype": "object",
    "sfomuseum:publication": ": , c. 1988.",
    "sfomuseum:subcategory": "Slide",
    "src:geom": "sfomuseum#derived",
    "src:geom_derived_from": [
      102527513
    ],
    "wof:belongsto": [
      102527513,
      1159162825,
      102191575,
      85633793,
      102087579,
      85922583,
      85688637,
      1159160869,
      554784711,
      102085387
    ],
    "wof:country": "US",
    "wof:created": 1713252560,
    "wof:depicts": [
      102527513
    ],
    "wof:geomhash": "bf40c3bc435019ba74db5659992d9e04",
    "wof:hierarchy": [
      {
        "building_id": -1,
        "campus_id": 102527513,
        "collection_id": 1159162825,
        "concourse_id": 1159162825,
        "continent_id": 102191575,
        "country_id": 85633793,
        "county_id": 102087579,
        "custom_id": 1913662805,
        "locality_id": 85922583,
        "neighbourhood_id": -1,
        "object_id": 1913662805,
        "region_id": 85688637,
        "wing_id": 1159160869
      },
      {
        "campus_id": 102527513,
        "continent_id": 102191575,
        "country_id": 85633793,
        "county_id": 102087579,
        "custom_id": 1913662805,
        "locality_id": 85922583,
        "object_id": 1913662805,
        "postalcode_id": 554784711,
        "region_id": 85688637
      },
      {
        "campus_id": 102527513,
        "continent_id": 102191575,
        "country_id": 85633793,
        "county_id": 102085387,
        "custom_id": 1913662805,
        "object_id": 1913662805,
        "region_id": 85688637
      }
    ],
    "wof:id": 1913662805,
    "wof:lastmodified": 1787988218,
    "wof:name": "slide: San Francisco International Airport (SFO), personnel",
    "wof:parent_id": 1159162825,
    "wof:placetype": "custom",
    "wof:placetype_alt": [
      "object"
    ],
    "wof:repo": "sfomuseum-data-collection",
    "wof:superseded_by": [],
    "wof:supersedes": []
  },
  "bbox": [
    -122.370943,
    37.61799,
    -122.370943,
    37.61799
  ],
  "geometry": {"type":"MultiPoint","coordinates":[[-122.370943,37.61799]]}
}
