{
  "id": 1763195735,
  "type": "Feature",
  "properties": {
    "date:cessation_lower": "1950-01-01",
    "date:cessation_upper": "1950-12-31",
    "date:inception_lower": "1950-01-01",
    "date:inception_upper": "1950-12-31",
    "edtf:cessation": "1950",
    "edtf:inception": "1950",
    "geom:area": 2.475047457570636e-7,
    "geom:bbox": "-122.386472,37.616105,-122.385834,37.616611",
    "geom:latitude": 37.61635747477365,
    "geom:longitude": -122.38615540108617,
    "millsfield:airline_id": [
      1159286287
    ],
    "millsfield:category_id": 1511214223,
    "millsfield:collection_id": 1511214207,
    "millsfield:company_id": [],
    "millsfield:images": [
      1763196159
    ],
    "millsfield:images_colors_refs": {
      "crayola": [
        {
          "hex": "#414a4c"
        },
        {
          "hex": "#efcdb8"
        },
        {
          "hex": "#9f8170"
        }
      ],
      "css4": [
        {
          "hex": "#f5deb3"
        },
        {
          "hex": "#808080"
        },
        {
          "hex": "#2f4f4f"
        }
      ],
      "marekm4": [
        {
          "hex": "#e2d2b8"
        },
        {
          "hex": "#3c3c32"
        },
        {
          "hex": "#938b76"
        }
      ]
    },
    "millsfield:images_texts": [
      "READ DOWN\n700\nAM\n600\nAM\n122\nAM\n15\n7:35\n7:53\n8:24\n8:59\n7:00\n8:12\n10:23\n10:42\n10:59\nAM AM\nAM\nCUMBERLAND\nDOVER\nDUNKIRK\nASTON\nHARISKURG\nPITTSBURGH\nWHEELING\n532\nAM\n402\nAM\n120\nAM\n9:13\n---\n10:00\n602\nAM\n704\nAM\n10:25\n77=45\n19.01\n29\n13\n12:22\n135\n2:08\n12:28\n19.49\n2:44\ntoona\n989m88\n14.\n.10\n: coco\n20\n10.80\n702\nAM\n128\nPM\n604\nPM\n11:5C\n2:00\n13.\n3-3919\n2:30\n2:48\n3:19\n4:25\nS:46\n3:18\n5:54\nPM\n606\n708\n534\nPM\nPM\nPM\nOnly\n4.35\n5:58\n6.19\n17.9\n12.95\n14.60\n16.85\nala\n3..:\n800000000\n80888000828\nPR8R\nFara\n28\n40\n32.\n• 9K808\n.60\n98\n25\n15\n404\n706\n104\nPM\nPM\nPM\n6:05\n5:50\n7:10\nh.9g\nALL AMERICAN AIRWAYS\nCOMPLETE SCHEDULES\nALL FLIGHTS DAILY\n401\nEASTERN STANDARD TIME\nAM\n701\nAM\nCINCINNATI\nPARKERSBURG/MARIETTA\nWHCeLING\nAr PITTSBURGH\n33333\nPITTSBURGH.\nFRANKLIN\nOIL CITY\nADFORD\nJAMESTOWN\nDUNKIRK/FREDONIA\n233233\n:30\nJOHNSTOWN\nREAD UP\n301\n501\n101\n601\n603\n403\n353\n215\n305\n205\n605\n105\n607\n707\n307\nAM\nPM\nAM\nAM\nAM\nPM\nPM\nPM\nPM\nPM\nPM\nPM\nPM\nPM\nPM\nPM\nPM\nPM\n12:23\n7:53\nT0.30\n10:00\n30\n9:29\n9:53\n4:44\n10:26\n8:59\n9:23\n6:44\n6.14\nSCRANTON\n9:04\n8:37\n80Y\n6:50\n9:56\n7.2\n1:2\n8:32\n9:05\nALTOONA\nLANCASTER\nLv\nCONNELLSVILLE/UNIONTOWN\nCUMBERLAND\nHAGERSTOWN\nAT BAL MORE\nAr WASHINGTON\n9:04\n8•20\n7:54\n7:30\n9:37\n333\n23233\nWASHINGTON\nEASTON /CAMBRIDGE\nARAL\nGEORGETOWN\nGEORGETOWN\nDOVER\nL BOYALLE\nA. PHILADELPHIA\nA ATLANTIC\n8:44\n3232323\n1:44\n1:15\n1:35\n3:04\n9.45\n2:25\n4:28\n4:05\n4.01\nPM PM PM\n6:59\n6.40\n6:15\nPM\n7:47\n7:29\n7:09\n6:40\n9:46\n9:20\nPM\nPM\nAM\nAM AM\nAM\nAM\nAM AM\nADD ONE (1) HOUR FOR EASTERN DAYLIGHT SAVING TIME\n45\nReho\nbott\ndel.\nonle\n2.50\n3.50\n12.10\n14.35\n18.25\nConn\n.75\nville\nLand\n8988888\nDor-\nver\nDun.\n18 20\n29.20\nkirk\n22.40\n5.90\n31.70\n9.40\n23.30\n14.90\n17.60\n92.75\n28.50\n15.00\n15.85\n24.60\n15.40\n250\n3100\n13.20\n24.10\n20.10\n28.35\n5.70\n16.60\n8889:8894804\n898\n15.60\n8.20\n13.00\n31.\n28.05\nINFANTS FREE, CHILDREN UNDER 12-ONE-HALF FARE\nAND\nMill-\nLock\nBETWEEN\nburg\n17,90\n10.55\n23.10\n6.65\n20.60\n28.10\nEas-\nton\n21\n.60\n.80\n4.85\nWILMINGTON\n20.90\n9.50\nWILLIAMSPORT\n12.00\n8.80\nWHEELING\nWASHINGION\n5.70\nSCRANTON/WILKES-BARRE\n6.90\n.00\nREHOBOTH\n18.40\n3.30\n9.50\nO On\n17.00\nPAD SOORID\n12.35\nNEW ARK/NEW\nYORK\nMILL VILLE\nGeo-\nroc.\nHag-\ntown\ners-\ntown\nHar-\nFEma\n80894\nburg\nJames\ntown\n22.60\n22.05\nJohns\ntown\n7.50\n93.90-\n8.50\n18.\n11.20\n8.60\n30.30\nLon-\n.75\n26.\n.60\n19.10\n50.\n21.60\n18.201\n17.65\n19.40\n10.701\n11 00\n• oi\n11.40\n30\n60\n.50\n13.90\n65\n14.50\n5.30\n27.35\nThe Routes of\nALL\nAMERICAN\nAIRWAYS\nBUFFALO O\nDUNKIRK\nJAMESTOWN\nBRADFORD\nFRANKLIN\nOIL\nCITY\nCLEARFIELD\nSTATE\nCOLLEGE LOCK HAVEN\nWILLIAMSPORT\nWILKES-BARRE\nSCRANTON\nPHILIPSBURG\nNEW O YORK\nPITTSBURGH\nJOHNSTOWN\nNEWARK\nALTOONA\nHARRISBURG\nLANCASTER\nPHILADELPHIA\nWHEELING\nATLANTIC\nCITY\nCINCINNATI\nPARKERSBURG\nMARIETTA\nCONNELLSVILLE-UNIONTOWN\nWILMINGTON\nBALTIMORE\nDOVER\nOOCEAN CITY\nCUMBERLAND\nHAGERSTOWN\nMILLVILLE-\nWASHINGTON\nEASTON-CAMBRIDGE\nWILDWOOD-\nSALISBURY\nMAY\nGEORGETOWN\nCAPE\nREHOBOTH\nBEACH"
    ],
    "millsfield:images_texts_ids": [
      1763196159
    ],
    "millsfield:primary_image": 1763196159,
    "millsfield:subcategory_id": 1511213425,
    "mz:is_current": 1,
    "sfomuseum:accession_number": "2005.132.054",
    "sfomuseum:airline": "All American Airways",
    "sfomuseum:airline_id": [
      1298
    ],
    "sfomuseum:category": "Scheduling / Ticketing",
    "sfomuseum:classification_id": 158,
    "sfomuseum:collection": "Aviation Archive",
    "sfomuseum:creditline": "Gift of the William Hough Collection",
    "sfomuseum:date": "1950",
    "sfomuseum:date_acquired": "2006-12-05",
    "sfomuseum:daterange_end": "1950-12-31",
    "sfomuseum:daterange_start": "1950-01-01",
    "sfomuseum:description": "Timetable issued by All American Airways, effective June 1, 1950; three page double-sided fold-out; off-white and green cover with  illustration of people on a beach with a city in the background and list of destinations.",
    "sfomuseum:dimensions": "9 x 4 inches (22.9 x 10.2 cm)",
    "sfomuseum:medium": "paper, ink",
    "sfomuseum:object_id": 97557,
    "sfomuseum:placetype": "object",
    "sfomuseum:publication": ": , 1950.",
    "sfomuseum:subcategory": "Timetable",
    "src:geom": "sfomuseum#undetermined",
    "wof:belongsto": [
      102527513,
      1159162825,
      102191575,
      85633793,
      102087579,
      85922583,
      85688637,
      1159160869
    ],
    "wof:country": "XY",
    "wof:created": 1646383448,
    "wof:depicts": [
      1159286287
    ],
    "wof:geomhash": "c281b9d9eefc83b5710e64b9d646067d",
    "wof:hierarchy": [
      {
        "building_id": -1,
        "campus_id": 102527513,
        "collection_id": 1159162825,
        "concourse_id": 1159162825,
        "continent_id": 102191575,
        "country_id": 85633793,
        "county_id": 102087579,
        "custom_id": 1763195735,
        "locality_id": 85922583,
        "neighbourhood_id": -1,
        "object_id": 1763195735,
        "region_id": 85688637,
        "wing_id": 1159160869
      }
    ],
    "wof:id": 1763195735,
    "wof:lastmodified": 1787988205,
    "wof:name": "timetable: All American Airways",
    "wof:parent_id": 1159162825,
    "wof:placetype": "custom",
    "wof:placetype_alt": [
      "object"
    ],
    "wof:repo": "sfomuseum-data-collection",
    "wof:superseded_by": [],
    "wof:supersedes": []
  },
  "bbox": [
    -122.38647222518921,
    37.6161053594541,
    -122.38583385944366,
    37.61661101879963
  ],
  "geometry": {"type":"Polygon","coordinates":[[[-122.38647222518921,37.61631782178288],[-122.386434674263,37.61623283692423],[-122.38637566566466,37.61617759671399],[-122.38630056381224,37.6161308549656],[-122.38616108894348,37.6161053594541],[-122.38602161407469,37.6161308549656],[-122.38591432571411,37.61618609521055],[-122.38585531711577,37.61626683087935],[-122.38583385944366,37.61636881265146],[-122.38587141036987,37.61646654505181],[-122.38594114780425,37.61654303118856],[-122.38605380058287,37.61660252035167],[-122.38618254661559,37.61661101879963],[-122.3863059282303,37.61657277577607],[-122.3864185810089,37.61650903735973],[-122.3864668607712,37.61641130501523],[-122.38647222518921,37.61631782178288]]]}
}
