{
  "id": 1511910187,
  "type": "Feature",
  "properties": {
    "date:cessation_lower": "1930-01-01",
    "date:cessation_upper": "1930-12-31",
    "date:inception_lower": "1930-01-01",
    "date:inception_upper": "1930-12-31",
    "edtf:cessation": "1930",
    "edtf:date": "1930",
    "edtf:inception": "1930",
    "geom:area": 0,
    "geom:bbox": "-122.391953,37.624731,-122.391953,37.624731",
    "geom:latitude": 37.624731,
    "geom:longitude": -122.391953,
    "iso:country": "US",
    "millsfield:airport_id": [
      1360695653
    ],
    "millsfield:category_id": 1511214239,
    "millsfield:collection_id": 1511214207,
    "millsfield:images": [
      1527849073
    ],
    "millsfield:images_colors_refs": {
      "crayola": [
        {
          "hex": "#6e5160"
        },
        {
          "hex": "#dbd7d2"
        }
      ],
      "css4": [
        {
          "hex": "#d3d3d3"
        },
        {
          "hex": "#696969"
        }
      ],
      "marekm4": [
        {
          "hex": "#dfd7c6"
        },
        {
          "hex": "#645e5e"
        }
      ]
    },
    "millsfield:images_texts": [
      "A -534.40\nThis copy reterred to Chief \u0026 substantiated by him\nJune 23,1930. (W.H. Ohmen \u0026 L.J. Archer present.)\n1\n2\n4\n5\n6\n7\n8\n9\n10\n11\n12\n13\n14\n15\n16\n17\n18\n19\n20\n21\n22\n23\n24\n25\n26\n27\n28\n29\n30\n31\nTHIS\nAGREeMENT Made and entered into this.\nday\nJane, 1930, by and between MILLS ESTATE INCORPORAZED, \u0026 COrpOra-\ntion duly organized and existing under and by virtue of the 1ame\nof the State of California, and hereinatter called the party of\nthe tiret part, and CITY AND COUNTY OF SAN PRANCISCO, a muntelpel\ncorporation duly organized and existing undor and by virtue of the\nlova of the State of California, and hereinatter called the party\nof the second part;\nWITNESSETH: That the party of the firet part is the\nover of that certain lot and treet of land situate, lying and\nbeing in the County of San Mateo, State of Califomla, bounded\nand deserted as followe, to wit:\nCOMMENCING at the Section corner common to Sections\nSectiona 27 and 34 of said Township, 154.40 feet to\nthe true point of beginning of this deseription;\nrunning thenee South 89058*30\" Fast, along safa\nsection 1ine,\n5125,60 feet to the seetion corner\ncommon to Seetions 26, 27, 34, and 35 or said Town-\nship;\nthence East, along the section line common to seld\nSeet lons 26 and 35, 1320.00 Leot to the westerly 1ine\nof the easterly one-half of the northwest one-quarter\nof Bala Section 35, sold westerly line being also the\nwesterly 1ine of the property now or formerly owned\nby waterfront and Tideland Company:\nsoutherly 1ine of the property of sald Waterfront and\nFideland Company:\nthence mast, along said southerly line, 1320.00 feet\nto the westerly line of the Southeast one-quarter of\nsaid Section 35, said last mentioned westerly 1ine\nbeing also the westerly line of the property of said\nWaterfront and 2ideland Company;\n1."
    ],
    "millsfield:images_texts_ids": [
      1527849073
    ],
    "millsfield:primary_image": 1527849073,
    "millsfield:subcategory_id": 1511213147,
    "mz:hierarchy_label": 1,
    "mz:is_approximate": 1,
    "mz:is_current": 1,
    "sfomuseum:accession_number": "2000.018.070",
    "sfomuseum:airport": "Mills Field Municipal Airport of San Francisco",
    "sfomuseum:airport_id": [
      162
    ],
    "sfomuseum:category": "Company Record / Document",
    "sfomuseum:classification_id": 5,
    "sfomuseum:collection": "Aviation Archive",
    "sfomuseum:creditline": "Collection of SFO Museum",
    "sfomuseum:date": "1930",
    "sfomuseum:date_acquired": "1999-06-30",
    "sfomuseum:daterange_end": "1930-12-31",
    "sfomuseum:daterange_start": "1930-01-01",
    "sfomuseum:description": "Draft of agreement A-534.40 between Mills Estate Incorporated and City and County of San Francisco for purchase of property by city of San Francisco for airport site, typed with handwritten preface, “This copy referred to Chief \u0026 substantiated by him June 23, 1930 (W. H. Ohmen \u0026 L. J. Archer present)”; 10 pages, stapled.",
    "sfomuseum:dimensions": "13 x 8 1/2 inches (33 x 21.6 cm)",
    "sfomuseum:media_ids": [
      1527849073
    ],
    "sfomuseum:medium": "paper, metal, ink",
    "sfomuseum:object_id": 50686,
    "sfomuseum:placetype": "object",
    "sfomuseum:primary_media_id": 1527849073,
    "sfomuseum:publication": ": , 1930.",
    "sfomuseum:subcategory": "Administrative Record",
    "src:geom": "sfomuseum#derived",
    "src:geom_derived_from": [
      1360695653
    ],
    "wof:belongsto": [
      102527513,
      102191575,
      85633793,
      85922583,
      102087579,
      85688637,
      1159162825,
      1159160869,
      1360695653,
      554784711,
      102085387
    ],
    "wof:breaches": [],
    "wof:country": "US",
    "wof:created": 1579906675,
    "wof:depicts": [
      1360695653
    ],
    "wof:geomhash": "3abf1c04b00c12d6593e9cd3c35f0056",
    "wof:hierarchy": [
      {
        "building_id": -1,
        "campus_id": 102527513,
        "collection_id": 1159162825,
        "concourse_id": 1159162825,
        "continent_id": 102191575,
        "country_id": 85633793,
        "county_id": 102087579,
        "custom_id": 1511910187,
        "locality_id": 85922583,
        "neighbourhood_id": -1,
        "object_id": 1511910187,
        "region_id": 85688637,
        "wing_id": 1159160869
      },
      {
        "campus_id": 1360695653,
        "continent_id": 102191575,
        "country_id": 85633793,
        "county_id": 102087579,
        "custom_id": 1511910187,
        "locality_id": 85922583,
        "object_id": 1511910187,
        "postalcode_id": 554784711,
        "region_id": 85688637
      },
      {
        "campus_id": 1360695653,
        "continent_id": 102191575,
        "country_id": 85633793,
        "county_id": 102085387,
        "custom_id": 1511910187,
        "object_id": 1511910187,
        "region_id": 85688637
      }
    ],
    "wof:id": 1511910187,
    "wof:lastmodified": 1787988176,
    "wof:name": "agreement draft: City and County of San Francisco, Mills Estate Incorporated",
    "wof:parent_id": 1159162825,
    "wof:placetype": "custom",
    "wof:placetype_alt": [
      "object"
    ],
    "wof:repo": "sfomuseum-data-collection",
    "wof:superseded_by": [],
    "wof:supersedes": [],
    "wof:tags": []
  },
  "bbox": [
    -122.391953,
    37.624731,
    -122.391953,
    37.624731
  ],
  "geometry": {"type":"MultiPoint","coordinates":[[-122.391953,37.624731]]}
}
