{
  "id": 1914590239,
  "type": "Feature",
  "properties": {
    "date:cessation_lower": "1960-01-01",
    "date:cessation_upper": "1969-12-31",
    "date:inception_lower": "1960-01-01",
    "date:inception_upper": "1969-12-31",
    "edtf:cessation": "196X",
    "edtf:inception": "196X",
    "geom:area": 2.475047457570636e-7,
    "geom:bbox": "-122.386472,37.616105,-122.385834,37.616611",
    "geom:latitude": 37.61635747477365,
    "geom:longitude": -122.38615540108617,
    "millsfield:aircraft_id": [
      1159289653
    ],
    "millsfield:airline_id": [
      1159285183,
      1159285187
    ],
    "millsfield:category_id": 1762671311,
    "millsfield:collection_id": 1511214207,
    "millsfield:company_id": [
      1159293593
    ],
    "millsfield:images": [
      1914590381,
      1914590383
    ],
    "millsfield:images_colors_refs": {
      "crayola": [
        {
          "hex": "#000000"
        },
        {
          "hex": "#efcdb8"
        },
        {
          "hex": "#414a4c"
        },
        {
          "hex": "#ff2b2b"
        },
        {
          "hex": "#9f8170"
        }
      ],
      "css4": [
        {
          "hex": "#808080"
        },
        {
          "hex": "#ff4500"
        },
        {
          "hex": "#000000"
        },
        {
          "hex": "#f5deb3"
        },
        {
          "hex": "#2f4f4f"
        }
      ],
      "marekm4": [
        {
          "hex": "#9a8d76"
        },
        {
          "hex": "#dc2909"
        },
        {
          "hex": "#e2d0b0"
        },
        {
          "hex": "#e22f08"
        },
        {
          "hex": "#e3d0ae"
        },
        {
          "hex": "#2f332c"
        },
        {
          "hex": "#1a2026"
        }
      ]
    },
    "millsfield:images_texts": [
      "e25171 100\nVIR U\nVEILIGHEID\nINSTRUKSIES\nin geval van nood\nSUID-AFRIKAANSE\nLUGDIENS SE\nBOEING 707\n- STRATOSTRALER",
      "EMERGENCY EXITS\nEmergency exit doors and win-\ndows are clearly marked. There\nare two exit doors at each end of\nthe aircraft, and two exit windows\nover each wing.\nThis is how to open the exits over\nthe wings:\n1. Lower flap above window\n2. Pull handle above window\ndown\n3. Hold exit with both hands\nLift and pull exit inwards\nExit\nFire Extinguisher\nFirst Aid Outfits\nPortable Oxygen Apparatus\nAxe\nLife Rafts in Ceiling\nPOSITION\nFOR\nIMPACT\nYou will have at least 30 seconds warning of the need to\n'Brace for Impact'. In preparation for this, adjust your\nseat to the upright position and fasten your seat belt\nAt the order 'Brace for Impact' fold your arms and\npossible and rest your head firmly on your\nIf available, hold\na pillow and/or blanket in\nfront of your head to cushion the impact.\n•Remain in this position until the aircraft has come to rest\nas more than one impact is possible.\nEVACUATION SLIDES\nSouth African Airways' Boeing Stratojets are provided\nwith emergency evacuation slides which will allow rapid\ndisembarkation to the ground when steps are not readily\navailable.\nShould such an occasion arise, you will be\nable to make a quick, safe exit by using the evacuation\nslides.\nThese slides,\nwhich operate on the same principle as a\nchildren's slide, automatically inflate and are located\nat the entry doors at each end of the aircraft. You will\nreceive instructions for the use of these slides from a\ncrew member. The thing to remember is not to crowd\nthe exit. When your turn comes, fold your arms and\nmake a small jump that will land you on the slide in a\nseated position.\nFinally,\nwhen you have safely reached the ground,\nmove away from the base of the slide quickly so that\nyou are not in the way of others\nfollowing.\nLadies' high-heel shoes\nmust be removed before\nusing the slide so as\nto prevent damage\nto the slide.\nAND\nAT\nSEA\nThe following information is provided to let you know\nwhat would happen and what you should do in the event\nof an emergency water landing, or — to use Airline\nparlance — a Ditching.\nIT'S BEST TO KNOW THE DRILL\n- even ship's\npassengers learn their boat drill. Familiarity with the\nsimple routine makes for confidence in the event of an\nemergency, which, we repeat, is most unlikely ever to\nLet's imagine that we are about to make a water\nlanding...\nINTERNATIONAL LAND - AIR - SEA RESCUE is\nalready on its way. At the first sign of trouble, your air-\ncraft Captain radioed for assistance. Every ship, aircraft\nand shore station within hundreds of miles knows our\nposition and what we intend to do. Even now, help is on\nthe way. The highly efficient international land-air-sea\nrescue procedure - involving aircraft, ships and fast\nrescue craft - has swung into action.\nWe are in constant touch by radio with our control\nstation.\nThe next step is for passengers and crew to\nprepare for the actual water landing. Remember, your\n707 airliner is structurally designed to withstand a landing\nat sea. In addition, its wing fuel tanks are airtight; it will\nstay afloat for many hours. Every item of modern safety\nequipment is provided, including six \"twenty-five-man\"\nliferafts. These self-inflating liferafts contain food, water\nand other necessities to ensure the least possible dis-\ncomfort while awaiting rescue.\nThe information in this leaflet is provided by South\nAfrican Airways as part of its continuing programme\nof air safety. It need hardly be said that it is unlikely\nin the extreme that you will need to use it. South African\nAirways' maintenance schedules and elaborate systems\nof check and counter-check are second to none: the\nBoeing itself is the most thoroughly flight-tested airliner\never to enter commercial service. Your safety is our\nfirst consideration.\nC.T.P.LTD.\ndO\nNJ"
    ],
    "millsfield:images_texts_ids": [
      1914590381,
      1914590383
    ],
    "millsfield:primary_image": 1914590381,
    "millsfield:subcategory_id": 1511213703,
    "mz:is_approximate": 1,
    "mz:is_current": 1,
    "sfomuseum:accession_number": "2002.127.532",
    "sfomuseum:aircraft": "Boeing 707",
    "sfomuseum:aircraft_id": [
      133
    ],
    "sfomuseum:airline": "South African Airways (SAA)",
    "sfomuseum:airline_id": [
      773,
      774
    ],
    "sfomuseum:category": "Passenger Amenity, Archive",
    "sfomuseum:classification_id": 581,
    "sfomuseum:collection": "Aviation Archive",
    "sfomuseum:creditline": "Gift of Thomas G. Dragges",
    "sfomuseum:date": "1960s",
    "sfomuseum:date_acquired": "2003-12-22",
    "sfomuseum:daterange_end": "1969-12-31",
    "sfomuseum:daterange_start": "1960-01-01",
    "sfomuseum:description": "Safety information card issued by South African Airways for the Boeing 707 fleet; double-sided multii-fold card with illustrations depicting inflight safety and emergency procedures; no identification code; no revision date.",
    "sfomuseum:dimensions": "10 x 3 3/4 inches (25.4 x 9.5 cm)",
    "sfomuseum:medium": "paper, ink",
    "sfomuseum:object_id": 69573,
    "sfomuseum:placetype": "object",
    "sfomuseum:publication": ": , 1960s.",
    "sfomuseum:subcategory": "Safety Information Card",
    "src:geom": "sfomuseum#undetermined",
    "wof:belongsto": [
      102527513,
      1159162825,
      102191575,
      85633793,
      102087579,
      85922583,
      85688637,
      1159160869
    ],
    "wof:country": "XY",
    "wof:created": 1720769579,
    "wof:depicts": [
      1159285183,
      1159285187,
      1159289653,
      1159293593
    ],
    "wof:geomhash": "c281b9d9eefc83b5710e64b9d646067d",
    "wof:hierarchy": [
      {
        "building_id": -1,
        "campus_id": 102527513,
        "collection_id": 1159162825,
        "concourse_id": 1159162825,
        "continent_id": 102191575,
        "country_id": 85633793,
        "county_id": 102087579,
        "custom_id": 1914590239,
        "locality_id": 85922583,
        "neighbourhood_id": -1,
        "object_id": 1914590239,
        "region_id": 85688637,
        "wing_id": 1159160869
      }
    ],
    "wof:id": 1914590239,
    "wof:lastmodified": 1787988221,
    "wof:name": "safety information card: South African Airways, Boeing 707",
    "wof:parent_id": 1159162825,
    "wof:placetype": "custom",
    "wof:placetype_alt": [
      "object"
    ],
    "wof:repo": "sfomuseum-data-collection",
    "wof:superseded_by": [],
    "wof:supersedes": []
  },
  "bbox": [
    -122.38647222518921,
    37.6161053594541,
    -122.38583385944366,
    37.61661101879963
  ],
  "geometry": {"type":"Polygon","coordinates":[[[-122.38647222518921,37.61631782178288],[-122.386434674263,37.61623283692423],[-122.38637566566466,37.61617759671399],[-122.38630056381224,37.6161308549656],[-122.38616108894348,37.6161053594541],[-122.38602161407469,37.6161308549656],[-122.38591432571411,37.61618609521055],[-122.38585531711577,37.61626683087935],[-122.38583385944366,37.61636881265146],[-122.38587141036987,37.61646654505181],[-122.38594114780425,37.61654303118856],[-122.38605380058287,37.61660252035167],[-122.38618254661559,37.61661101879963],[-122.3863059282303,37.61657277577607],[-122.3864185810089,37.61650903735973],[-122.3864668607712,37.61641130501523],[-122.38647222518921,37.61631782178288]]]}
}
