{
  "id": 1511935887,
  "type": "Feature",
  "properties": {
    "date:cessation_lower": "1947-01-01",
    "date:cessation_upper": "1947-12-31",
    "date:inception_lower": "1947-01-01",
    "date:inception_upper": "1947-12-31",
    "edtf:cessation": "1947",
    "edtf:date": "1947",
    "edtf:inception": "1947",
    "geom:area": 0,
    "geom:bbox": "-122.386155,37.616357,-122.386155,37.616357",
    "geom:latitude": 37.616357,
    "geom:longitude": -122.386155,
    "iso:country": "XX",
    "millsfield:airline_id": [
      1159283849
    ],
    "millsfield:category_id": 1511214223,
    "millsfield:collection_id": 1511214207,
    "millsfield:company_id": [
      1360700619
    ],
    "millsfield:images": [
      1527819405,
      1527836277
    ],
    "millsfield:images_colors_refs": {
      "crayola": [
        {
          "hex": "#ffffff"
        },
        {
          "hex": "#414a4c"
        },
        {
          "hex": "#2e5894"
        },
        {
          "hex": "#757575"
        },
        {
          "hex": "#cdc5c2"
        },
        {
          "hex": "#1a4876"
        }
      ],
      "css4": [
        {
          "hex": "#708090"
        },
        {
          "hex": "#2f4f4f"
        },
        {
          "hex": "#483d8b"
        },
        {
          "hex": "#c0c0c0"
        },
        {
          "hex": "#191970"
        },
        {
          "hex": "#f5f5f5"
        }
      ],
      "marekm4": [
        {
          "hex": "#324593"
        },
        {
          "hex": "#d4cbb4"
        },
        {
          "hex": "#3a3e4f"
        },
        {
          "hex": "#06105c"
        },
        {
          "hex": "#f6f6f4"
        },
        {
          "hex": "#717685"
        }
      ]
    },
    "millsfield:images_texts": [
      "The Southern Route\nComplete\nWESTBOUND TRANSCONTINENTAL\nSchedules\nWESTBOUND-READ DOWN\nAll Flights Daily Unless Otherwise Indicated\nBoston.\n(EST)\nProvidence.\n*(X)\nSpringfield-Wi\nHartford..\nNew Haven\nBridgeport\n8.0\n8.23\nNew York.\n(EST)\n9.05 ....\n9.50 11.00_11.05\n12.05\nThe Southern Ronte\nComplete WESTBOUND TRANSCONTINENTAL\nSchedules\n347\nEx. Sun\n*12.00\n. 05\nTABLE 1\n449\n341\n749\n339\nEx. Sat. Ex. Sat.\n743\nWESTBOUND-READ DOWN\nEx. Sat.\n337\nAll Flights Daily Unless Otherwise Indicated\n4.00\n*6.00\npm\n7.55\n(EST)\n. Boston\nProvidence\n7.25\n8.51\nSpringfield-Westfield\n. Hartford\nNew Haver\n7.05\nBridgeport\n9.36\n11.05\n(EST)\n. New York\nMayan\n719\n713\n507\n701\n795\n115\nNew York.\n(EST)\n10.15 *11.30 *11.40 *12.35\n10.00\n11.59\n\u003c 11.20\n(EST)\n. New York\nNewark.\n*7.25\n18.05\n. Newark\nPhiladelphia\n8.00\n8.15\n10.10\n10.10\n10.40\n11.00\nPhiladelphia\nPhiladelphia.\n*10.30 *10.30\nBaltimore.\nWashington.\n10.00\n1U.4\nWashington.\n*7.00\n8.30\n9.10\n9.35\n8.40\n9.05\n*10.36\n*12\n35\n40\n10.20\n10.50\n10.45\n11.15\n12.10\nLynchburg\nRoanoke.:\nvia\n9.48\n10.23\nvia\nCin-\nGREETE\n•nuadelpnia\nBaltimore\nWashington\nWashington\nLynchburg\nBristol\nGIn-\nJohnson City Tri-City\ncin-\ncin-\nKingsport\n11.37\nnati\nnati\nEf. 10/16\n. Roanoke\nVia\nVia\nBrISTOl\nTri-City- Johnson City\nChi-\nKingsport\nKnoxville\n(EST)\n*12.34\n1.43\nwashyte\nNashville\n(CST)\n11.04\n12.41\n12.56\n11.05\nMemphis\nMemphis\nLittle Rock\nTexarkana\n34333232\n1.10*11.25\n10.\n8.39\n8.51\n12.59\n2.34\n3.07\n· 3.200\n10.02\n1.30\nEff. 10/16\n11:12\n*4.25\n11T1I1II\n(EST)\nKnoxville\nDisc. After 10/16\n1.20\ncago\ncago\n(CST)\nNashville\nNashville\nSF. 10/16\nMemphis\nMemphis\nLittle Rock\nTexarkana\nTulsa\n3.25\n...Tulsa\n*3.55\n17.80\n... Usa\nOklahoma City\nOklahoma City\nUklanoma cit\nOklahoma Cit\nFt. Worth....\nDallas.\n7.30\n8.45\nFrom\n12.\n12.40\n*5.0 :\n9.0\n3.10\n7.50\n9.05\n9.30\n12.45\nDallas\n73.60\nFt.\nWorth\n12.55\n1.05\nFt. Worth\nAnitana\nBig Spring.\n(cST)\nEl Paso...\n(MST)\n1.05\n• 50\n)isc. After 10/15\n9.50\n1.15\nDallas\nFt. Worth\n9.30\nAbilene\n(CST)\nBig Spring\nEl Paso\nDouglas\n*5.\nMexico\n11.28\n12.04\n11.35\n*7.30\n*12.16\n(MST)\n*11.55\nEl Paso\nTucson\n(MST)\nSan Diego\nLos Angeles\n• (PST)\nSan Francisco\n(PST)\n....\n*6.55\n7.30\n9.05\n9.55\n2.14\nDouglas\n, Tucson\n6.55\n8.30\n9.00 *10.53\n2.10\n7.10\n(MST)\nPhoenix\n7.50\n(PSI\nSan Diego\nU8.\n9.40\n8.50\n6.30\n9.25\n12.10\n11.50\n10.40\n12.15\n4.37\n7.45\n5.30\nLos Angeles\nU8.37\nU11.59\n8.00\nU8.20\n4.20\nU9.20| U1.20\nOakland\nU4.10 U4.10\n9.55\nU5.2U\nU 4.10\nT12.10\nW12\nW2.00\nU3.37\nU8.37\n4.50\n(PST)\nSan Francisco\n1 Engine Flagship (D\n—Meal served at no additionated At Lines, parture rom aWeste\nHern Air Lins, 5 Star Flagship (DC-6).\npm\nYest Bastern Standard Time\nCST-\nEs anonel and air Are, To.\nMiSt-Mountain standard time\nU-Unlted Air Lines, Inc.\nfrom this stati\ncd a a fratern At line, or depart eal served to Boarding Passengers only.\n5 Star Hanship D\n•-Operates daily. Effective 10/16.\n70\nSAN FRANCISCO\nDAILY DAYLIGHT FIVE-STAR SERVICE\nThe Golden Gate\nAND OAKLAND\nLeave\nNEW YORK\n12:35 p.m.\nArrive\nWASHINGTON 2:05 p.m. • SAN FRANCISCO\nLeave TULSA\n5:55 p.m.\n9:55 p.m.\nAlso A new morning flight from Dallas-Fort Worth via El Paso and Phoenix, with afternoon arrival in Oakland and San Francisco. See Flight 359\nAMERICAN AIRLINES\nFrom Market... to Market\nON WINGS\nAMERICAN AIRLINES AIRfreight speeds modern Merchandising\nCall, Wire, Write your nearest A. A. Sales Office for Schedules, Rates and Information\nEXAMPLES OF\nPASSENGER FARES ON PAGE 25\nAMERICAN AIRLINES",
      "EFFECTIVE SEPTEMBER 28, 1947\nAMERICAN\nAIRLINES\nAMERICAN AIRLINES INC. AMERICAN OVERSEAS AIRLINES, INC\na MER CAN AIRLINES DE MEXICO, SA.\nCOMPLETE SYSTEM SCHEDULES\nAVA\nNOW...\nFAST, Thru, 5*\nFlights...To and From\nSan Francisco\nsee Tables\nI and 2\n* DC-6\nROUTE OF THE Flagships"
    ],
    "millsfield:images_texts_ids": [
      1527819405,
      1527836277
    ],
    "millsfield:primary_image": 1527836277,
    "millsfield:subcategory_id": 1511213425,
    "mz:hierarchy_label": 1,
    "mz:is_current": 1,
    "sfomuseum:accession_number": "2005.132.007.005",
    "sfomuseum:airline": "American Airlines",
    "sfomuseum:airline_id": [
      169
    ],
    "sfomuseum:category": "Scheduling / Ticketing",
    "sfomuseum:classification_id": 158,
    "sfomuseum:collection": "Aviation Archive",
    "sfomuseum:creditline": "Gift of the William Hough Collection",
    "sfomuseum:date": "1947",
    "sfomuseum:date_acquired": "2006-12-05",
    "sfomuseum:daterange_end": "1947-12-31",
    "sfomuseum:daterange_start": "1947-01-01",
    "sfomuseum:description": "System timetable issued by American Airlines, effective September 28, 1947; 27-page fold-out; blue and white cover with illustration of the Bay Bridge and text promoting service to San Francisco.",
    "sfomuseum:dimensions": "9 x 4 inches (22.9 x 10.2 cm)",
    "sfomuseum:media_ids": [
      1527836277,
      1527819405
    ],
    "sfomuseum:medium": "paper, ink",
    "sfomuseum:object_id": 97574,
    "sfomuseum:placetype": "object",
    "sfomuseum:primary_media_id": 1527836277,
    "sfomuseum:publication": ": , 1947.",
    "sfomuseum:subcategory": "Timetable",
    "src:geom": "sfomuseum#undetermined",
    "wof:belongsto": [
      1511214223,
      102527513,
      102191575,
      85633793,
      1511213425,
      85922583,
      102087579,
      1511214277,
      1511214207,
      85688637
    ],
    "wof:breaches": [],
    "wof:country": "XX",
    "wof:created": 1579906668,
    "wof:depicts": [
      1360700619,
      1159283849
    ],
    "wof:geomhash": "30c8a918561c84bb2daa2b97fc7c5353",
    "wof:hierarchy": [
      {
        "arcade_id": 1511213425,
        "building_id": 1511214277,
        "campus_id": 102527513,
        "concourse_id": 1511214223,
        "continent_id": 102191575,
        "country_id": 85633793,
        "county_id": 102087579,
        "custom_id": 1511935887,
        "locality_id": 85922583,
        "neighbourhood_id": -1,
        "object_id": 1511935887,
        "region_id": 85688637,
        "venue_id": 1511935887,
        "wing_id": 1511214207
      }
    ],
    "wof:id": 1511935887,
    "wof:lastmodified": 1787988182,
    "wof:name": "timetable: American Airlines",
    "wof:parent_id": 1159162825,
    "wof:placetype": "custom",
    "wof:placetype_alt": [
      "object"
    ],
    "wof:repo": "sfomuseum-data-collection",
    "wof:superseded_by": [],
    "wof:supersedes": [],
    "wof:tags": []
  },
  "bbox": [
    -122.386155,
    37.616357,
    -122.386155,
    37.616357
  ],
  "geometry": {"type":"Point","coordinates":[-122.386155,37.616357]}
}
