{
  "id": 1913796557,
  "type": "Feature",
  "properties": {
    "date:cessation_lower": "1933-03-13",
    "date:cessation_upper": "1933-03-13",
    "date:inception_lower": "1933-03-13",
    "date:inception_upper": "1933-03-13",
    "edtf:cessation": "1933-03-13",
    "edtf:inception": "1933-03-13",
    "geom:area": 2.475047457570636e-7,
    "geom:bbox": "-122.386472,37.616105,-122.385834,37.616611",
    "geom:latitude": 37.61635747477365,
    "geom:longitude": -122.38615540108617,
    "millsfield:airline_id": [
      1159284991,
      1159285931
    ],
    "millsfield:category_id": 1511214251,
    "millsfield:collection_id": 1511214207,
    "millsfield:company_id": [
      1159286721
    ],
    "millsfield:images": [
      1913800233,
      1913800235,
      1913800237,
      1913800241
    ],
    "millsfield:images_colors_refs": {
      "crayola": [
        {
          "hex": "#fae7b5"
        },
        {
          "hex": "#efcdb8"
        },
        {
          "hex": "#fdd9b5"
        },
        {
          "hex": "#000000"
        },
        {
          "hex": "#414a4c"
        },
        {
          "hex": "#9f8170"
        }
      ],
      "css4": [
        {
          "hex": "#2f4f4f"
        },
        {
          "hex": "#bdb76b"
        },
        {
          "hex": "#f5deb3"
        },
        {
          "hex": "#000000"
        }
      ],
      "marekm4": [
        {
          "hex": "#2d2a18"
        },
        {
          "hex": "#2c2919"
        },
        {
          "hex": "#f1dfad"
        },
        {
          "hex": "#a4986f"
        },
        {
          "hex": "#a3986e"
        },
        {
          "hex": "#292211"
        },
        {
          "hex": "#ecdcad"
        },
        {
          "hex": "#312b16"
        },
        {
          "hex": "#eedead"
        },
        {
          "hex": "#eddcac"
        }
      ]
    },
    "millsfield:images_texts": [
      "133\nCATHAY\nHOTEL\nCABLE ADDRESS\nCATHOTEL*\nGain\nnonday\nSHANGHAI, CHINA -\nnch 1342\nDearest Debs.\n9 am distressa abont\nthe boat sailings - there\napparant, is no shep from\nmch. 7 to much 28th sailing to\nthe re.S. and Im afraid\nyou wie gre latro so\nrarce, that you wise think\nI have mot wrain. wree\nit frat cant to holord-\nex cant that\nI'm young to\nwrits a litte bit Every\nday now and hop that\notter schedules\nsomeon or\nmay\nor wrong as pablond\nby the P.O.\nIts a\nbrantfue\nday out for the",
      "first time in ten damp the\nsun is shining - wise go\nbut a lute latu an\ntaker a walke. Am\nwaiting again for an answor\nto seggrations\nwhich\ntor hour made to ng.\nHad dinari last night\nwich a Mr. Lewis - hi\nFrancs. and some priver\nof their try nice part,\neir had dinner at a\nRuerian plack. One man\ncoas\ntribes funny. the\ntold that old\nstory about\nthe smase boy looking at\nthe elephant and saying\nto his mockr\n\"Aint he\n\"\na big son of moth sai\nWhene upon the",
      "CATHAY\nHOTEL\nCABLE ADDRESS\nCATHOTEL*\nSHANGHAI, CHINA\nvery\nstrash,\n\"How many.\ntimes hair\n9 told\nyou\nnot to\nsay\n\"aint\"\nSom one ilos got one\nOff that was good too.\nThe origin of the\nCharleston dana - a\nScotchman is front of\na pay toilet.\n= Saturday\nsor the grigh\ntor dad a lot of fur -\nnot\nworky so hard now and\nam quetr gay.",
      "must wind this up\nnow and go out side.\nits too nier to stay\nin doors.\nare my lon to you\ndearnt dear bre.\nHad\nmad to sal\n20A"
    ],
    "millsfield:images_texts_ids": [
      1913800233,
      1913800235,
      1913800237,
      1913800241
    ],
    "millsfield:primary_image": 1913800233,
    "millsfield:subcategory_id": 1511213489,
    "mz:is_approximate": 1,
    "mz:is_current": 1,
    "sfomuseum:accession_number": "2019.121.0602 a b",
    "sfomuseum:airline": "Pan American Airways",
    "sfomuseum:airline_id": [
      685,
      1131
    ],
    "sfomuseum:category": "Employee Career History",
    "sfomuseum:classification_id": 195,
    "sfomuseum:collection": "Aviation Archive",
    "sfomuseum:creditline": "Collection of SFO Museum",
    "sfomuseum:date": "03/13/1933",
    "sfomuseum:date_acquired": "2019-11-22",
    "sfomuseum:daterange_end": "1933-03-13",
    "sfomuseum:daterange_start": "1933-03-13",
    "sfomuseum:description": "Handwritten letter from Harold M. Bixby to his wife, Debby Bixby, dated Monday, March 13, [1933], on stationery from the Cathay Hotel in Shanghai; includes brief description of party for Colonel John Jouett and his family; mentions Mr. Lewis.",
    "sfomuseum:dimensions": "8 1/4 x 5 1/4 inches (21 x 13.3 cm)",
    "sfomuseum:medium": "paper, ink",
    "sfomuseum:object_id": 210877,
    "sfomuseum:placetype": "object",
    "sfomuseum:publication": ": , 03/13/1933.",
    "sfomuseum:subcategory": "Correspondence, Personal",
    "src:geom": "sfomuseum#undetermined",
    "wof:belongsto": [
      102527513,
      1159162825,
      102191575,
      85633793,
      102087579,
      85922583,
      85688637,
      1159160869
    ],
    "wof:country": "XY",
    "wof:created": 1714549129,
    "wof:depicts": [
      1159284991,
      1159285931,
      1159286721
    ],
    "wof:geomhash": "c281b9d9eefc83b5710e64b9d646067d",
    "wof:hierarchy": [
      {
        "building_id": -1,
        "campus_id": 102527513,
        "collection_id": 1159162825,
        "concourse_id": 1159162825,
        "continent_id": 102191575,
        "country_id": 85633793,
        "county_id": 102087579,
        "custom_id": 1913796557,
        "locality_id": 85922583,
        "neighbourhood_id": -1,
        "object_id": 1913796557,
        "region_id": 85688637,
        "wing_id": 1159160869
      }
    ],
    "wof:id": 1913796557,
    "wof:lastmodified": 1787988220,
    "wof:name": "correspondence: Harold M. Bixby to Debby Bixby",
    "wof:parent_id": 1159162825,
    "wof:placetype": "custom",
    "wof:placetype_alt": [
      "object"
    ],
    "wof:repo": "sfomuseum-data-collection",
    "wof:superseded_by": [],
    "wof:supersedes": []
  },
  "bbox": [
    -122.38647222518921,
    37.6161053594541,
    -122.38583385944366,
    37.61661101879963
  ],
  "geometry": {"type":"Polygon","coordinates":[[[-122.38647222518921,37.61631782178288],[-122.386434674263,37.61623283692423],[-122.38637566566466,37.61617759671399],[-122.38630056381224,37.6161308549656],[-122.38616108894348,37.6161053594541],[-122.38602161407469,37.6161308549656],[-122.38591432571411,37.61618609521055],[-122.38585531711577,37.61626683087935],[-122.38583385944366,37.61636881265146],[-122.38587141036987,37.61646654505181],[-122.38594114780425,37.61654303118856],[-122.38605380058287,37.61660252035167],[-122.38618254661559,37.61661101879963],[-122.3863059282303,37.61657277577607],[-122.3864185810089,37.61650903735973],[-122.3864668607712,37.61641130501523],[-122.38647222518921,37.61631782178288]]]}
}
