{
  "id": 1511944949,
  "type": "Feature",
  "properties": {
    "date:cessation_lower": "1962-01-01",
    "date:cessation_upper": "1962-12-31",
    "date:inception_lower": "1962-01-01",
    "date:inception_upper": "1962-12-31",
    "edtf:cessation": "1962",
    "edtf:date": "1962",
    "edtf:inception": "1962",
    "geom:area": 0,
    "geom:bbox": "-122.370943,37.617990,-122.370943,37.617990",
    "geom:latitude": 37.61799,
    "geom:longitude": -122.370943,
    "iso:country": "US",
    "millsfield:airport_id": [
      102527513
    ],
    "millsfield:category_id": 1511214209,
    "millsfield:collection_id": 1511214207,
    "millsfield:images": [
      1527823051
    ],
    "millsfield:images_colors_refs": {
      "crayola": [
        {
          "hex": "#dbd7d2"
        },
        {
          "hex": "#414a4c"
        }
      ],
      "css4": [
        {
          "hex": "#d3d3d3"
        },
        {
          "hex": "#2f4f4f"
        }
      ],
      "marekm4": [
        {
          "hex": "#292929"
        },
        {
          "hex": "#d6d6d6"
        }
      ]
    },
    "millsfield:images_texts": [
      "For\nPOSTTION\n1 Against\nBOND SO 1962 This at\nAID\npublic.\n20\nGOVERNOR\nVOTE FOR ONE\n20-A\nEDMUND G. (PAT\nBrown\nCalifornia\n2.A\nWINSTONF\nMoore\nPublic Relations\nDemocratic\n13\nOSITION\nFor 2 Against\nTHE VETERANS BOND ACT OF 1962.\nFor 3 Against\nYES\nATTION\n4\nNO\nphysically handicapped persons of low\nTION\nFor 5 Agaihst\nFATE PARK\nAND\nRECREATION\nundred pry t\nPROPOSTTION\nYES 6\nNO\nYES\nNO\n, Core on no bonded\ninternational Airport.\n5\nLIEUTENANT GOVERNOR\nVOTE FOR ONE\nSECRETARY OF STATE\nVOTE FOR ONE\nCONTROLLER\nVOTE FOR ONE\n10\nTREASURER\nVOTE FOR ONE\n11\n12\n13\nATTORNEY GENERAL\nVOTE FOR ONE\n14\nMember State\nBoard of\nEqualization\nis District\nVOTE FOR ONE\n3-A\nTOHN C.\nStuart\nCost Analyst\nDemocratic\n4.A\nGLENN M.\nAnderson\nDemocratic\n5.A\nHAROLD BRAININ\nTreskunoff\nWaiter\nDemocratic\n6-A\nWILLIAM B.\nMcKesson\nor Los Ang its County\n7-A\nFRANK\nZawacki\nDemocratic\n8-A\nLewis\nLawyer\nDemocratic\n9-A\nALAN\nCranston\nBetts\nFe of California\nStatemocratie\nSTANTRY\nMosk\n14-A\nReilly\nIncumbent\nNomanstit\nYES\nB\nPublic Welfare Bonds,\nNO\n19 2. To Sars\nbasiness of the Public Wellare Depart\nYES\n15\n16\nUNITED STATES SENATOR\nVOTE FOR ONE\nRepresentativ\n5th District\nVOTE FOR ON\n15-A\nGreen\nEconomist\nDemocratin\n16-A C\nRICHARD\nRichards\nState Senator\nDemocratic\nShelley\nDemocratic"
    ],
    "millsfield:images_texts_ids": [
      1527823051
    ],
    "millsfield:primary_image": 1527823051,
    "millsfield:subcategory_id": 1511213801,
    "mz:hierarchy_label": 1,
    "mz:is_approximate": 1,
    "mz:is_current": 1,
    "sfomuseum:accession_number": "2011.032.0766",
    "sfomuseum:airport": "San Francisco International Airport",
    "sfomuseum:airport_id": [
      121
    ],
    "sfomuseum:artist": "Marshall Moxom",
    "sfomuseum:category": "Photograph",
    "sfomuseum:classification_id": 518,
    "sfomuseum:collection": "Aviation Archive",
    "sfomuseum:creditline": "Collection of SFO Museum",
    "sfomuseum:date": "1962",
    "sfomuseum:date_acquired": "2011-03-02",
    "sfomuseum:daterange_end": "1962-12-31",
    "sfomuseum:daterange_start": "1962-01-01",
    "sfomuseum:description": "Black and white photographic negative depicting close-up view of voting machine levers, with cards identifying positions and candidates, San Francisco International Airport (SFO), May 4, 1962.",
    "sfomuseum:dimensions": "4 x 5 inches (10.2 x 12.7 cm)",
    "sfomuseum:media_ids": [
      1527823051
    ],
    "sfomuseum:medium": "negative",
    "sfomuseum:object_id": 114797,
    "sfomuseum:placetype": "object",
    "sfomuseum:primary_media_id": 1527823051,
    "sfomuseum:publication": ": , 1962.",
    "sfomuseum:subcategory": "Negative",
    "src:geom": "sfomuseum#derived",
    "src:geom_derived_from": [
      102527513
    ],
    "wof:belongsto": [
      102527513,
      102191575,
      85633793,
      85922583,
      102087579,
      85688637,
      1159162825,
      1159160869,
      554784711,
      102085387
    ],
    "wof:breaches": [],
    "wof:country": "US",
    "wof:created": 1579906655,
    "wof:depicts": [
      102527513
    ],
    "wof:geomhash": "bf40c3bc435019ba74db5659992d9e04",
    "wof:hierarchy": [
      {
        "building_id": -1,
        "campus_id": 102527513,
        "collection_id": 1159162825,
        "concourse_id": 1159162825,
        "continent_id": 102191575,
        "country_id": 85633793,
        "county_id": 102087579,
        "custom_id": 1511944949,
        "locality_id": 85922583,
        "neighbourhood_id": -1,
        "object_id": 1511944949,
        "region_id": 85688637,
        "wing_id": 1159160869
      },
      {
        "campus_id": 102527513,
        "continent_id": 102191575,
        "country_id": 85633793,
        "county_id": 102087579,
        "custom_id": 1511944949,
        "locality_id": 85922583,
        "object_id": 1511944949,
        "postalcode_id": 554784711,
        "region_id": 85688637
      },
      {
        "campus_id": 102527513,
        "continent_id": 102191575,
        "country_id": 85633793,
        "county_id": 102085387,
        "custom_id": 1511944949,
        "object_id": 1511944949,
        "region_id": 85688637
      }
    ],
    "wof:id": 1511944949,
    "wof:lastmodified": 1787988186,
    "wof:name": "negative: San Francisco International Airport (SFO), voting machine",
    "wof:parent_id": 1159162825,
    "wof:placetype": "custom",
    "wof:placetype_alt": [
      "object"
    ],
    "wof:repo": "sfomuseum-data-collection",
    "wof:superseded_by": [],
    "wof:supersedes": [],
    "wof:tags": []
  },
  "bbox": [
    -122.370943,
    37.61799,
    -122.370943,
    37.61799
  ],
  "geometry": {"type":"MultiPoint","coordinates":[[-122.370943,37.61799]]}
}
