{
  "id": 1762687283,
  "type": "Feature",
  "properties": {
    "date:cessation_lower": "1983-01-01",
    "date:cessation_upper": "1983-12-31",
    "date:inception_lower": "1983-01-01",
    "date:inception_upper": "1983-12-31",
    "edtf:cessation": "1983",
    "edtf:inception": "1983",
    "geom:area": 2.475047457570636e-7,
    "geom:bbox": "-122.386472,37.616105,-122.385834,37.616611",
    "geom:latitude": 37.61635747477365,
    "geom:longitude": -122.38615540108617,
    "millsfield:airline_id": [
      1159284489
    ],
    "millsfield:category_id": 1511214223,
    "millsfield:collection_id": 1511214207,
    "millsfield:company_id": [
      1159287913
    ],
    "millsfield:images": [
      1762697279,
      1762698037
    ],
    "millsfield:images_colors_refs": {
      "crayola": [
        {
          "hex": "#9f8170"
        },
        {
          "hex": "#414a4c"
        },
        {
          "hex": "#9c2542"
        },
        {
          "hex": "#dbd7d2"
        }
      ],
      "css4": [
        {
          "hex": "#bc8f8f"
        },
        {
          "hex": "#dcdcdc"
        },
        {
          "hex": "#2f4f4f"
        },
        {
          "hex": "#b22222"
        },
        {
          "hex": "#191970"
        }
      ],
      "marekm4": [
        {
          "hex": "#151545"
        },
        {
          "hex": "#dfe2d3"
        },
        {
          "hex": "#ad946e"
        },
        {
          "hex": "#393132"
        },
        {
          "hex": "#bd1712"
        },
        {
          "hex": "#e0dcda"
        }
      ]
    },
    "millsfield:images_texts": [
      "HAWAÏAN AİN\nTIMETABLE\nTIMETABLE 218\nEFFECTIVE APR. 24, 1983\nFree California\nand Interisland\ntrips!\nJOIN\nTRAVELI\nPLUS\nA bonus\nflight program for\nfrequent flyers.\nAsk your travel agent.",
      "Leave\nArrive\nFROM: HONOLULU\n401/705* (1)\nFROM:\nKONA\n6:57\n8:17\n8:21\n10:10\n9:55\n10:47\n11:32\n11:17\n12:16\n1:16\n1:32\n3:06\n2:52\n5:25\n5:10\n6:41\n5:43\n7:58\n107/145(1)\n257*(1)\n297(1)\n307/151(1)\n457(2)\n207/241(1)\n407(1)\n547/201(1)\n705*(2)\nFROM:\nMOLOKAI\n7:38\n9:15\n9:55\n209*/257* (1)\n10:31\n109*/245(1)\n11:53\n1:16\n129*/457(1)\n2:55\n4:18\n5:10\n737* /407*(1)\n6:41\n727*/201(1)\nFROM:\nLANAI\n735* / 705* (1)\n619*\n297\n65/\n*\nFri/Sun only\nExcept Fri/Sun\nDash 7 aircraft\n(1) 1 Stop\n(2) 2 Stop\nLight Face Type - AM\nBold Face Type - PM\nRIL\n24,\n983\nTO HONOLULU\nLeave\nArrive\nFlight No.\n7:00\n9:05\n9:28\n9:28\n10:50\n1:20\n3:45\n4:50\n6:25\n8:05\n901\n241\n201\n401\n701\n6:57\n8:17\n10:10\n10:47\n11:17\n1:32\n2:52\n5:25\n5:43\n7:33\nFROM: KAUAI\n107\n307\nF\n207\n407\n547\n607\n152\n358\n312\n318\n36*\n204\n458\n452\n712*\n558\n846\n608\n646\n746*\n209*\n109*\n729*\n737*\n727*\n735*\n145\n445*\n245\n141\n151\n729*(1)\n25*\n305\n457\n345\n545\n737* (1)\n205\n557\n727*(1)\n65\n731*\n405\n645\n705*\n745*\n35*\n805\nAL\nLL\nHT\nTO MOLOKAI\nArrive\nFlight No.\nHO\nNOLULU\n7:23\n100*\n8:53\n192*\n10:28\n718*\n2:53\n728*\nHILO\n8:53\n11:36\n11:36\n2:53\n901/192*(1)\n141/729*(1)\n297/729*(2)\n241/728* (1)\nONA\nШ\n107/192* (1)\n257*/718*(1)\n297/729*(1)\n457/737*(1)\n207/728* (1)\n445*/192* (1)\n245/718* (1)\n729*\n737*\n727*\n152/192*\n358/718*\n2:53\n458/728*\nTO\n• LANAI\nLeave\nArrive\nFlight No.\nFROM: HONOLULU\n† 5:15\n5:43\n734*\nFROM: HILO\n+ 1:20\n5:43\n241/734* (1)\nFROM: KONA\n+ 2:52\n5:43\n407/734* (1)\nFROM: KAUAI\nt 3:59\n5:43\n846/734* (1)\nFROM: MOLOKAI\n† 4:18\n5:43\n727* /734* (1)\nFROM: MAUI\n+ 4:18\n5:43\n65/734* (1)\nTO MAUI (Kahului)\nLeave\nArrive\nFlight No.\nFROM: HONOLULU\n6:10\n6:50\n6:37\n7:25\n106\n146*\n7:55\n8:22\n8:30\n9:30\n8:57\n152\n10:05\n9:57\n246\n358\n10:32\n10:05\n11:03\n306\n718*(1)\n10:50\n11:17\n11:15\n26\n11:42\n312\n11:50\n12:15\n12:17\n318\n12:50\n36*\n12:25\n12:52\n346\n12:50\n204\n1:30\n1:17\n48*\n2:00\n2:05\n2:30\n2:27\n2:40\n3:30\n458\n728* (1)\n3:15\n3:07\n3:42\n206\n452\nШ\nPT\nAS\nTH\nRWIS\nШ\nTO MAUI CONT.\nLeave\nArrive Flight No.\nFROM: HONOLULU\n3:34\n3:50\n4:01\n4:30\n4:25\n66\n4:50\n4:57\n712*\n5:17\n558\n5:30\n6:40\n6:05\n846\n706*\n7:23\n7:07\n212\n8:15\n7:58\n34*\n8:42\n646\nFROM: HILO\n9:05\n9:33\n9:28\n10:33\n3:45\n4:25\n141\n297(1)\n731*\nFROM: KONA\n10:10\n10:33\n11:17 11:40\n297\n5:43\n6:16\n457\n705*\nFROM: MOLOKAI\n7:38\n8:57\n209* / 246(1)\n9:15\n10:32\n109*/306(1)\n10:43\n11:53\n11:03\n718*\n1:17\n729*/ 204(1)\n3:10\n2:55\n3:30\n4:01\n728*\n737*/66(1)\n4:18\n6:05\n727*/706*(1)\nFROM: LANAI\n+ 6:15\n7:58\n735*/34* (1)\nFROM: KAUAI\n7:04\n7:04\n8:22\n152(1)\n8:39\n8:57\n152/246(1)\n8:39\n9:57\n358(1)\n10:32\n10:10\n11:08\n358/306(1)\n196*\n10:19\n11:42\n312(1)\n10:54\n12:17\n11:20\n12:50\n318(1)\n36*(1)\n12:04\n1:09\n1:17\n204(1)\n2:27\n458(1)\n1:59\n1:59\n3:07\n452/206(1)\n3:42\n452(1)\n3:00\n3:24\n4:25\n712*(1)\n4:57\n3:59\n5:17\n558(1)\n3:59\n5:49\n6:05\n846(1)\n846/706* (1)\n7:07\n608/212(1)\n5:49\n7:58\n608/34* (1)\n6:59\n8:42 646(1)\nTO HILO\nLeave\nArrive Flight No.\nFROM: HONOLULU\n6:00\n7:55\n6:40\n8:00\n9:08\n602\n152(1)\n10:05\n8:40\n102\n12:28\n306/312(1)\n10:50\n11:15\n12:28\n26/312(1)\n2:00\n12:28\n312(1)\n3:00\n2:40\n4:28\n202*\n206/452(1)\n3:15\n5:15\n4:28\n452(1)\n5:30\n5:55\n6:40\n7:51\n302\n706*/212(1)\n7:51\n212(1)\nALL FLIGHTS BY DC-9 FAN\nJETS EXCEPT WHERE NOTED\nH\nTO HILO CONT.\nLeave\nArrive\nFlight No.\nFROM: KAUAI\n7:04\n9:08\n7:04\n8:40\n152(2)\n152/102(1)\n10:10\n10:19\n12:28\n196*/312(1)\n12:28\n312(2)\n1:09\n3:00\n4:28\n458/202*(1)\n1:59\n452(2)\n3:24\n3:59\n5:55\n558/302(1)\n5:49\n5:55\n846/302(1)\n7:51\n608/212(2)\nFROM:\nMOLOKAI\n10:43\n12:28\n718*/312(1)\n3:10\n4:28\n728*/452(1)\n4:18\n5:55\n727*/302(1)\nFROM: MAUI\n8:40\n12:00\n9:08\n4:00\n12:28\n152\n4:28\n312\n452\n7:23\n7:51\n212\nTO KONA\nLeave\nArrive Flight No.\nFROM: HONOLULU\n6:00\n7:10\n6:33\n7:58\n308\n76*\n8:30\n10:45\n9:30\n10:45\n246/358(1)\n358(1)\n9:45\n10:50\n10:18\n508\n11:50\n1:01\n26/318(1)\n2:00\n1:01\n318(1)\n2:33\n408\n3:34\n3:50\n5:28\n66/712*(1)\n4:30\n5:28\n712(1)\n6:40\n5:03\n208\n7:13\n608\nFROM:\nKAUAI\n7:04\n8:39\n8:39\n10:10\n10:19\n10:54\n1:09\n1:59\n3:00\n3:24\n5:49\n152/358(2)\n358(2)\n358/508(1)\n196*/318(1)\n312/318(2)\n318(2)\n458/408(1)\n452/712* (2)\n712*(2)\n558/208(1)\n608(1)\nFROM\n7:38\n10:43\n11:53\n2:55\n3:10\n4:18\n209*/508(1)\n718* 318(1)\n729*/408(1)\n737*/208(1)\n728*/ 712* (1)\n727*/608(1)\nFROM:\n10:22\n12:38\n4:55\n358\n318\n712*\nFROM: HILO\n9:28\n9:51\n297\nRESPONSIBILITY FOR\nDEPARTURES, ARRIVALS,\nCONNECTIONS\nHawaiian Airlines, Inc. will not be\nresponsible for damages resulting\nfrom the failure to depart or ar-\nrive at times stated in this time-\ntable, nor for errors herein, nor\nfor failure to make connections\nwith planes of other lines or of\nthis Company. Schedules subject\nto change\nwithout notice."
    ],
    "millsfield:images_texts_ids": [
      1762697279,
      1762698037
    ],
    "millsfield:primary_image": 1762697279,
    "millsfield:subcategory_id": 1511213425,
    "mz:is_current": 1,
    "sfomuseum:accession_number": "2011.126.017.005",
    "sfomuseum:airline": "Hawaiian Airlines",
    "sfomuseum:airline_id": [
      457
    ],
    "sfomuseum:category": "Scheduling / Ticketing",
    "sfomuseum:classification_id": 158,
    "sfomuseum:collection": "Aviation Archive",
    "sfomuseum:creditline": "Gift of the Paul H. Kowalewski Collection",
    "sfomuseum:date": "1983",
    "sfomuseum:date_acquired": "2011-12-22",
    "sfomuseum:daterange_end": "1983-12-31",
    "sfomuseum:daterange_start": "1983-01-01",
    "sfomuseum:description": "Timetable issued by Hawaiian Air, effective April 24, 1983; tan cover with red and purple text promoting the Travel Plus frequent flyer program.",
    "sfomuseum:dimensions": "9 x 4 inches (22.9 x 10.2 cm)",
    "sfomuseum:medium": "Paper, ink",
    "sfomuseum:object_id": 121666,
    "sfomuseum:placetype": "object",
    "sfomuseum:publication": ": , 1983.",
    "sfomuseum:subcategory": "Timetable",
    "src:geom": "sfomuseum#undetermined",
    "wof:belongsto": [
      102527513,
      1159162825,
      102191575,
      85633793,
      102087579,
      85922583,
      85688637,
      1159160869
    ],
    "wof:country": "XY",
    "wof:created": 1641341916,
    "wof:depicts": [
      1159287913,
      1159284489
    ],
    "wof:geomhash": "c281b9d9eefc83b5710e64b9d646067d",
    "wof:hierarchy": [
      {
        "building_id": -1,
        "campus_id": 102527513,
        "collection_id": 1159162825,
        "concourse_id": 1159162825,
        "continent_id": 102191575,
        "country_id": 85633793,
        "county_id": 102087579,
        "custom_id": 1762687283,
        "locality_id": 85922583,
        "neighbourhood_id": -1,
        "object_id": 1762687283,
        "region_id": 85688637,
        "wing_id": 1159160869
      }
    ],
    "wof:id": 1762687283,
    "wof:lastmodified": 1787988195,
    "wof:name": "timetable: Hawaiian Air",
    "wof:parent_id": 1159162825,
    "wof:placetype": "custom",
    "wof:placetype_alt": [
      "object"
    ],
    "wof:repo": "sfomuseum-data-collection",
    "wof:superseded_by": [],
    "wof:supersedes": []
  },
  "bbox": [
    -122.38647222518921,
    37.6161053594541,
    -122.38583385944366,
    37.61661101879963
  ],
  "geometry": {"type":"Polygon","coordinates":[[[-122.38647222518921,37.61631782178288],[-122.386434674263,37.61623283692423],[-122.38637566566466,37.61617759671399],[-122.38630056381224,37.6161308549656],[-122.38616108894348,37.6161053594541],[-122.38602161407469,37.6161308549656],[-122.38591432571411,37.61618609521055],[-122.38585531711577,37.61626683087935],[-122.38583385944366,37.61636881265146],[-122.38587141036987,37.61646654505181],[-122.38594114780425,37.61654303118856],[-122.38605380058287,37.61660252035167],[-122.38618254661559,37.61661101879963],[-122.3863059282303,37.61657277577607],[-122.3864185810089,37.61650903735973],[-122.3864668607712,37.61641130501523],[-122.38647222518921,37.61631782178288]]]}
}
