{
  "id": 1511933081,
  "type": "Feature",
  "properties": {
    "date:cessation_lower": "1979-01-01",
    "date:cessation_upper": "1979-12-31",
    "date:inception_lower": "1979-01-01",
    "date:inception_upper": "1979-12-31",
    "edtf:cessation": "1979",
    "edtf:date": "1979",
    "edtf:inception": "1979",
    "geom:area": 0,
    "geom:bbox": "-122.386155,37.616357,-122.386155,37.616357",
    "geom:latitude": 37.616357,
    "geom:longitude": -122.386155,
    "iso:country": "XX",
    "millsfield:airline_id": [
      1159283895
    ],
    "millsfield:category_id": 1511214223,
    "millsfield:collection_id": 1511214207,
    "millsfield:company_id": [
      1159288465
    ],
    "millsfield:images": [
      1527837385,
      1527848413
    ],
    "millsfield:images_colors_refs": {
      "crayola": [
        {
          "hex": "#fddde6"
        },
        {
          "hex": "#1164b4"
        },
        {
          "hex": "#000000"
        }
      ],
      "css4": [
        {
          "hex": "#0000cd"
        },
        {
          "hex": "#000000"
        },
        {
          "hex": "#faf0e6"
        },
        {
          "hex": "#4169e1"
        }
      ],
      "marekm4": [
        {
          "hex": "#0739b9"
        },
        {
          "hex": "#f3f1e3"
        },
        {
          "hex": "#181618"
        },
        {
          "hex": "#090a0b"
        },
        {
          "hex": "#f6f2e7"
        },
        {
          "hex": "#0355c5"
        }
      ]
    },
    "millsfield:images_texts": [
      "Flight Schedule\nEffective February 1, 1979.\napolb\nairways, inc.",
      "Santa Barbara to:\nOakland\nFlight\nDepart\nMon.-Thurs.\n421\n6:30am\n423\n425\n11:30am\n3:15pm\nFri.\n421\n6:30am\n423\n11:30am\n425\n427\n3:15pm\n7:30pm\nSat.\n421\n6:30am\n423\n11:30am\nSun.\n423\n11:30am\n425\n427\n3:15pm\n7:30pm\nArrive\n8:15am+\n12:55pm\n5:00pm+\n8:15am+\n12:55pm\n5:00pm+\n8:55pm\n8:15am+\n12:55pm\n12:55pm\n5:00pm+\n8:55pm\nSacramento\nMon.-Fri.\n513\n7:05am\n515\n12:45pm\n517\n5:30pm\nSat.\nSun.\n561\n7:25am\n515\n12:45pm\n517\n5:30pm\n571\n11:00am\n573\n3:00pm\n575\n7:00pm\n8:40am\n2:20pm\n7:05pm\n9:00am\n2:20pm\n7:05pm\n12:35pm*\n4:35pm*\n8:35pm*\nSan Jose\nMon.Fri.\n311\n6:45am\n313\n315\n10:00am\n1:15pm\n317\n319\n4:30pm\n7:45pm\nSat.\n365\n8:00am\n367\n11:30am\n317\n4:30pm\nSun.\n313\n10:00am\n315\n317\n1:15pm\n4:30pm\n319\n7:45pm\n8:00am\n11:15am\n2:30pm\n5:45pm\n9:00pm\n9:15am.\n12:45pm\n5:45pm\n11:15am\n2:30pm\n5:45pm\n9:00pm\nSanta Maria\nMon.-Fri.\n421\n6:30am\n425\n3:15pm\nSat.\n421\n6:30am\nSun.\n425\n3:15pm\n6:55am\n3:40pm\n6:55am\n3:40pm\nLas Vegas\nMon.-Fri.\n711** 7:30am\n713\n11:20am\n715\n7:20pm\nSat.\nSun.\n713\n11:20am\n713\n11:20am\n777\n715\n3:30pm\n7:20pm\n9:00am\n12:50pm\n8:50pm\n12:50pm\n12:50pm\n5:00pm\n8:50pm\nSan Jose to:\nSanta Darbara\nFlight\nDepart\nArrive\nMon.-Fri.\n312\n8:25am\n9:40am\n314\n11:40am\n12:55pm\n316\n2:55pm\n318\n6:10pm\n4:10pm\n7:25pm\n320\n9:25pm\n10:40pm\nSat.\n366\n9:40am\n10:55am\n368\n1:10pm\n2:25pm\n318\n6:10pm\n7:25pm\nSun.\n314\n11:40am\n12:55pm\n316\n2:55pm\n4:10pm\n318\n320\n6:10pm\n7:25pm\n9:25pm\n10:40pm\nSacramento to:\nSanta Barbara\nMon.-Fri.\n514\n9:05am\n516\n3:30pm\n518\n7:30pm\nSat.\nSun.\n562\n9:25am\n516\n518\n3:30pm\n7:30pm\n572\n574\n1:00pm\n5:00pm\n576\n9:00pm\n10:35am\n5:00pm\n9:00pm\n10:55am\n5:00pm\n9:00pm\n2:30pm*\n6:30pm*\n10:30pm*\nOakland to:\nSanta Barbara\nMon.-Thurs.\n422\n8:55am\n424\n426\n1:15pm\n5:20pm\nFri.\n422\n8:55am\n424\n1:15pm\n426\n5:20pm\n428\n9:15pm\nSat.\n422\n8:55am\n424\n1:15pm\nSun.\n424\n426\n1:15pm\n428\n5:20pm\n9:15pm\n10:40am+\n2:40pm\n7:05pm+\n10:40am+\n2:40pm\n7:05pm+\n10:40pm\n10:40am+\n2:40pm\n2:40pm\n7:05pm+\n10:40pm\nSanta Maria\nMon.-Fri. 422\n8:55am\n426\n5:20pm\nSat.\nSun.\n422\n8:55am\n426\n5:20pm\n10:05am\n6:30pm\n10:05am\n6:30pm\nLas Vegas to:\nSanta Barbara\nFlight\nDepart\nMon.-Fri.\n712\n9:30am\n714\n716\n1:20pm\n9:20pm\nSat.\nSun.\n714\n1:20pm\n714\n778\n1:20pm\n5:30pm\n716\n9:20pm\nArrive\n11:00am\n2:50pm\n10:50pm\n2:50pm\n2:50pm\n7:00pm\n10:50pm\nSanta Maria\nMon.-Fri. 714/425\n1:20pm\nSun. 714/425\n1:20pm\n3:40pm\n3:40pm\nSanta Maria to:\nOakland\nMon.-Fri.\n421\n7:05am\n425\n3:50pm\nSat.\n421\n7:05am\nSun.\n425\n3:50pm\n8:15am\n5:00pm\n8:15am\n5:00pm\nSanta Barbara\nMon.-Fri.\n422\n10:15am\n426\n6:40pm\n10:40am\n7:05pm\nSat. 422\n10:15am\n10:40am\nSun.\n426\n0:40pm\n7:05pm\nLas Vegas\nMon.-Fri. 422/713\n10:15am\n426/715\n6:40pm\nSat. 422/713 10:15am\nSun. 426/715 6:40pm\n12:50pm\n8:50pm\n12:50pm\n8:50pm\n+ via Santa Maria\n* effective March 1, 1979\n** Monday, Thursday, Friday only"
    ],
    "millsfield:images_texts_ids": [
      1527837385,
      1527848413
    ],
    "millsfield:primary_image": 1527837385,
    "millsfield:subcategory_id": 1511213425,
    "mz:hierarchy_label": 1,
    "mz:is_current": 1,
    "sfomuseum:accession_number": "2008.108.122",
    "sfomuseum:airline": "Apollo Airways",
    "sfomuseum:airline_id": [
      190
    ],
    "sfomuseum:category": "Scheduling / Ticketing",
    "sfomuseum:classification_id": 158,
    "sfomuseum:collection": "Aviation Archive",
    "sfomuseum:creditline": "Gift of the William Hough Collection",
    "sfomuseum:date": "1979",
    "sfomuseum:date_acquired": "2008-11-10",
    "sfomuseum:daterange_end": "1979-12-31",
    "sfomuseum:daterange_start": "1979-01-01",
    "sfomuseum:description": "Timetable issued by Apollo Airways, effective February 1, 1979; three page double-sided fold-out with a white and blue cover.",
    "sfomuseum:dimensions": "9 x 4 inches (22.9 x 10.2 cm)",
    "sfomuseum:media_ids": [
      1527837385,
      1527848413
    ],
    "sfomuseum:medium": "paper, ink",
    "sfomuseum:object_id": 93503,
    "sfomuseum:placetype": "object",
    "sfomuseum:primary_media_id": 1527837385,
    "sfomuseum:publication": ": , 1979.",
    "sfomuseum:subcategory": "Timetable",
    "sfomuseum:subject": "Airlines -- Commercial -- Apollo Airways",
    "src:geom": "sfomuseum#undetermined",
    "wof:belongsto": [
      1511214223,
      102527513,
      102191575,
      85633793,
      1511213425,
      85922583,
      102087579,
      1511214277,
      1511214207,
      85688637
    ],
    "wof:breaches": [],
    "wof:country": "XX",
    "wof:created": 1579906672,
    "wof:depicts": [
      1159288465,
      1159283895
    ],
    "wof:geomhash": "30c8a918561c84bb2daa2b97fc7c5353",
    "wof:hierarchy": [
      {
        "arcade_id": 1511213425,
        "building_id": 1511214277,
        "campus_id": 102527513,
        "concourse_id": 1511214223,
        "continent_id": 102191575,
        "country_id": 85633793,
        "county_id": 102087579,
        "custom_id": 1511933081,
        "locality_id": 85922583,
        "neighbourhood_id": -1,
        "object_id": 1511933081,
        "region_id": 85688637,
        "venue_id": 1511933081,
        "wing_id": 1511214207
      }
    ],
    "wof:id": 1511933081,
    "wof:lastmodified": 1787988181,
    "wof:name": "timetable: Apollo Airways",
    "wof:parent_id": 1159162825,
    "wof:placetype": "custom",
    "wof:placetype_alt": [
      "object"
    ],
    "wof:repo": "sfomuseum-data-collection",
    "wof:superseded_by": [],
    "wof:supersedes": [],
    "wof:tags": []
  },
  "bbox": [
    -122.386155,
    37.616357,
    -122.386155,
    37.616357
  ],
  "geometry": {"type":"Point","coordinates":[-122.386155,37.616357]}
}
