{
  "id": 1762689401,
  "type": "Feature",
  "properties": {
    "date:cessation_lower": "1981-01-01",
    "date:cessation_upper": "1981-12-31",
    "date:inception_lower": "1981-01-01",
    "date:inception_upper": "1981-12-31",
    "edtf:cessation": "1981",
    "edtf:inception": "1981",
    "geom:area": 2.475047457570636e-7,
    "geom:bbox": "-122.386472,37.616105,-122.385834,37.616611",
    "geom:latitude": 37.61635747477365,
    "geom:longitude": -122.38615540108617,
    "millsfield:airline_id": [
      1159283531
    ],
    "millsfield:category_id": 1511214223,
    "millsfield:collection_id": 1511214207,
    "millsfield:company_id": [
      1159287703
    ],
    "millsfield:images": [
      1762698563,
      1762698565
    ],
    "millsfield:images_colors_refs": {
      "crayola": [
        {
          "hex": "#ffffff"
        },
        {
          "hex": "#2e5894"
        },
        {
          "hex": "#6699cc"
        }
      ],
      "css4": [
        {
          "hex": "#f5f5f5"
        },
        {
          "hex": "#fffaf0"
        },
        {
          "hex": "#5f9ea0"
        },
        {
          "hex": "#483d8b"
        },
        {
          "hex": "#4682b4"
        }
      ],
      "marekm4": [
        {
          "hex": "#6e8fbf"
        },
        {
          "hex": "#fbfcf3"
        },
        {
          "hex": "#f6f9f8"
        },
        {
          "hex": "#1b4592"
        },
        {
          "hex": "#3562a8"
        }
      ]
    },
    "millsfield:images_texts": [
      "AEROLINEAS\nARGENTINAS\nFLIGHT\nSCHEDULE",
      "SOUTHBOUND\nFREQUENCY\nFLIGHT\nCLASS\nAIRCRAFT\nMONTREAL\nNEW YORK\nLv\nAr\nLv\nLOS ANGELES-\nAr\nLv\nMIAMI\nMEXICO\nAr\nLV\nAr\nLv\nCARACAS-\nLV\nBOGOTA\nGUAYAQUIL\nLIMA\nRIO DE JANEIRO\nCORDOBA\nAr\nLv\nROSARIO\nAr\nBUENOS AIRES\nNORTHBOUND\nFREQUENCY\nFLIGHT\nCLASS\nAIRCRAFT\nBUENOS AIRES\nROSARIO\nCORDOBA\nLv\nAr\nLv\nAr\nLv\nRIO DE JANEIRO\nLV\nLIMA\nAr\nLv\nGUAYAQUIL\nBOGOTA\nCARACAS\nMEXICO\nAr\nLv\nAr\nLv\nAr\nLv\nMIAMI\nAr\nLv\nLOS ANGELES\nNEW YORK\nMONTREAL\nAr\nLv\nAr\nLv\nAr\n333\nFIY\n747\nMONDAY\n385\nF/YE\n747\n1830\n2125\n2255\n0900\n1030\n1325\nTUE\n0005\n0510\n0640\n1255\n1425\n2055\nMON\nMONDAY\n314\n284\nF/Y\nFIY\n747\n707\n2100\n0830\n2215\n2345\n1400\n0545\n0715\n0940\nTUE\nMON\n285\nF/Y\n707\nTUE\n315\nF/Y\n747\n1830\n2125\n2255\n1600\n0830\n1000\n2330\nMON\n1110\nWED\nTUESDAY\n316\n384\nFIY\nF/Y\n747\n747\n2100\n2745\n1000\n2315\n1220\n1350\n1805\n1935\nWEDNESDAY\n317\n385\nF/Y\n747\nFIY\n747\n1830\n2125\n2255\n0845\n1015\n1055\nTHU\nWED\n334\nF/Y\n747.\n1900\n2140\n2310\n0530\n0700\n-0515\n2125\n0925\nWED\nTUE\nTHU\nTHURSDAY\n335\n285\nFIY\n747\nF/Y\n707\n0005\n0900\n0510\n0640\n1255\n1425\n1900\n2030\n2055\nWED\n2325\nTHU\nTHURSDAY\n310\nF/Y\n284\nF/Y\n747\n707\n2300\n0830\n1400\n0535\n0705\n0930\n1600\n2330\nTHU\n326\nF/Y\n747\n2100\n2340\n0110\nFRI\nTHU\n0850\n1005\n1135\nSAT\nEFFECTIVE: DECEMBER 11, 1981\nFRI\n311\nF/Y\n747\n385\nF/Y\n747\n1830\nSATURDAY\n327\nPlYi\n747\n1530\n1700\n1830\n345\n707\nSUN\n311\n747\n1830\n0005\n2125\n2255\n0900\n2125\n2255\n0510\n0640\n1225\n1325\n1445\n1545\n1255\n1425\n0600\n0730\n0910\nSAT\n2055\nSAT\n1025\nSUN\n2310\nSAT\n0910\nMON\nEFFECTIVE: DECEMBER 11, 1981\nFRIDAY\n384\nFIY\n747\n1000\nSAT\n310\nSUN\n344\nF/Y\n707\n1000\n747\n2300\n332\nF/Y\n747\n1900\n384\nF/Y\n747\n1000\n2140\n2310\n1220\n1350\n1220\n1350\n1400\n1500\n1635\n1735\n1805\n1935\n1805\n1935\n2050\n0535\n0705\n0515\n0645\n2125\n2125\n0930\n0910\nFRI\nFRI\nSUN\nMON\nSUN\nCARGO\nTUE\nFRI*\n431\n441\n320-C\n320-C\n707\n707\n1040\n1330\n1500\n1030\nAr\nNYC\nLv\n1315\n1445\nAr\nMIA\nLV\n0200\nWED\n0145 Ar BUE\nSAT\n* Bi-weekly\nCARGO\nMON THU*\n430\n440\n320-C 320-C\n707\n707\n1900\n2300\n2120\n2220\nLv BUE\n, SAO\n2310\n0010\nAr RIO\nLv\n0730\nAr Nyc\nTUE\nFRI\n*Bi-weekly\nFREE BAGGAGE ALLOWANCE\nFIRST CLASS\n2 checked bags—the sum of the three dimensions\nof each bag cannot exceed 62 inches or 70 Ibs.\n1 carry on bag-Must fit under seat and its size\ncannot exceed 16\" x 10\" × 8\".\nECONOMY CLASS\n2 checked bags—the sum of the three dimensions\nof one bag cannot exceed 62 inches or 70 Ibs. The\ntotal dimensions of the second bag cannot exceed\n44 inches or 70 Ibs. The total dimensions of two\nbags added together cannot exceed 106 inches.\n1 carry on bag— Must fit under seat and its size\ncannot exceed 16\" x 10\" × 8\".\nIf paying 50% of adult fare, they will receive same\nfree allowance as adult. If paying 10% of adult fare,\nthey will receive 1 checked bag (first class or coach)\nwith dimensions not exceeding 39 inches plus a\ncollapsible stroller. Infants carried free will not\nreceive a free baggage allowance.\nThe following articles can be substituted for one\npiece of baggage at 55 inches for purposes of\ncalculating your baggage allowance regardless of\nthe actual dimensions but will still be part of your\n—One sleeping bag or bedroll\n—One pair of snow skis with one pair of boots\n—One knapsack or back pack\n—One golf bag and one pair shoes\n-One duffle bag\nBAGGAGE ALLOWANCE\n30\" + 20\" + 12\" = 62 INCHES\n20\" + 14\" + 10\" = 44 INCHES\n50 CMS\n20 in.\n30 in.\n76 CMS\n12 in.→\n30 CMS\n14 in\n35 CMS\nIMPORTANT: The maximum\nweight of each bag cannot\nexceed 70 Ibs.\n• 10 in. a\n\\25 CMS\n20 in.\n50 CMS"
    ],
    "millsfield:images_texts_ids": [
      1762698563,
      1762698565
    ],
    "millsfield:primary_image": 1762698563,
    "millsfield:subcategory_id": 1511213425,
    "mz:is_current": 1,
    "sfomuseum:accession_number": "2014.084.0015",
    "sfomuseum:airline": "Aerolineas Argentinas",
    "sfomuseum:airline_id": [
      27
    ],
    "sfomuseum:category": "Scheduling / Ticketing",
    "sfomuseum:classification_id": 158,
    "sfomuseum:collection": "Aviation Archive",
    "sfomuseum:creditline": "Gift of Thomas G. Dragges",
    "sfomuseum:date": "1981",
    "sfomuseum:date_acquired": "2015-07-02",
    "sfomuseum:daterange_end": "1981-12-31",
    "sfomuseum:daterange_start": "1981-01-01",
    "sfomuseum:description": "Timetable issued by Aerolineas Argentinas, effective December 11, 1981; fold-out format; white and blue cover with duotone photographic image of Boeing 747 in flight.",
    "sfomuseum:dimensions": "9 x 4 inches (22.9 x 10.2 cm)",
    "sfomuseum:medium": "paper, ink",
    "sfomuseum:object_id": 156440,
    "sfomuseum:placetype": "object",
    "sfomuseum:publication": ": , 1981.",
    "sfomuseum:subcategory": "Timetable",
    "src:geom": "sfomuseum#undetermined",
    "wof:belongsto": [
      102527513,
      1159162825,
      102191575,
      85633793,
      102087579,
      85922583,
      85688637,
      1159160869
    ],
    "wof:country": "XY",
    "wof:created": 1641342643,
    "wof:depicts": [
      1159283531,
      1159287703
    ],
    "wof:geomhash": "c281b9d9eefc83b5710e64b9d646067d",
    "wof:hierarchy": [
      {
        "building_id": -1,
        "campus_id": 102527513,
        "collection_id": 1159162825,
        "concourse_id": 1159162825,
        "continent_id": 102191575,
        "country_id": 85633793,
        "county_id": 102087579,
        "custom_id": 1762689401,
        "locality_id": 85922583,
        "neighbourhood_id": -1,
        "object_id": 1762689401,
        "region_id": 85688637,
        "wing_id": 1159160869
      }
    ],
    "wof:id": 1762689401,
    "wof:lastmodified": 1787988196,
    "wof:name": "timetable: Aerolineas Argentinas",
    "wof:parent_id": 1159162825,
    "wof:placetype": "custom",
    "wof:placetype_alt": [
      "object"
    ],
    "wof:repo": "sfomuseum-data-collection",
    "wof:superseded_by": [],
    "wof:supersedes": []
  },
  "bbox": [
    -122.38647222518921,
    37.6161053594541,
    -122.38583385944366,
    37.61661101879963
  ],
  "geometry": {"type":"Polygon","coordinates":[[[-122.38647222518921,37.61631782178288],[-122.386434674263,37.61623283692423],[-122.38637566566466,37.61617759671399],[-122.38630056381224,37.6161308549656],[-122.38616108894348,37.6161053594541],[-122.38602161407469,37.6161308549656],[-122.38591432571411,37.61618609521055],[-122.38585531711577,37.61626683087935],[-122.38583385944366,37.61636881265146],[-122.38587141036987,37.61646654505181],[-122.38594114780425,37.61654303118856],[-122.38605380058287,37.61660252035167],[-122.38618254661559,37.61661101879963],[-122.3863059282303,37.61657277577607],[-122.3864185810089,37.61650903735973],[-122.3864668607712,37.61641130501523],[-122.38647222518921,37.61631782178288]]]}
}
