{
  "id": 1511939423,
  "type": "Feature",
  "properties": {
    "date:cessation_lower": "1983-01-01",
    "date:cessation_upper": "1983-12-31",
    "date:inception_lower": "1983-01-01",
    "date:inception_upper": "1983-12-31",
    "edtf:cessation": "1983",
    "edtf:date": "1983",
    "edtf:inception": "1983",
    "geom:area": 0,
    "geom:bbox": "-122.386155,37.616357,-122.386155,37.616357",
    "geom:latitude": 37.616357,
    "geom:longitude": -122.386155,
    "iso:country": "XX",
    "millsfield:airline_id": [
      1159284965
    ],
    "millsfield:category_id": 1511214223,
    "millsfield:collection_id": 1511214207,
    "millsfield:company_id": [
      1159288849
    ],
    "millsfield:images": [
      1527854705,
      1527854707,
      1527854709
    ],
    "millsfield:images_colors_refs": {
      "crayola": [
        {
          "hex": "#9c2542"
        },
        {
          "hex": "#2e5894"
        },
        {
          "hex": "#3bb08f"
        },
        {
          "hex": "#cdc5c2"
        },
        {
          "hex": "#fddde6"
        },
        {
          "hex": "#414a4c"
        },
        {
          "hex": "#cd4a4c"
        }
      ],
      "css4": [
        {
          "hex": "#b22222"
        },
        {
          "hex": "#faf0e6"
        },
        {
          "hex": "#c0c0c0"
        },
        {
          "hex": "#4682b4"
        },
        {
          "hex": "#5f9ea0"
        },
        {
          "hex": "#2f4f4f"
        },
        {
          "hex": "#483d8b"
        }
      ],
      "marekm4": [
        {
          "hex": "#ba2321"
        },
        {
          "hex": "#bf3632"
        },
        {
          "hex": "#4f8da3"
        },
        {
          "hex": "#293e49"
        },
        {
          "hex": "#375f8f"
        },
        {
          "hex": "#c8c6bb"
        },
        {
          "hex": "#518d9d"
        },
        {
          "hex": "#312f2b"
        },
        {
          "hex": "#2a3c44"
        },
        {
          "hex": "#eae9e6"
        },
        {
          "hex": "#cdcdc1"
        },
        {
          "hex": "#3e5e8b"
        }
      ]
    },
    "millsfield:images_texts": [
      "OPAN AM\n®\nSystem Timerable\nElfective February 1: 1984\nIntroducing\nPanAm/Pacific Express\nNew Jet Service To\nSpokane Washington\nNew 737-200 Jets\nJoin The Pacific Express Fleet",
      "Earn Pan Am WorldPasss\nMileage from 22 Cities in\nthe West...to the World.\nSookane\nPortland\n• Redmand Bene\nBoise\nKlamath\nRedding\nno Lake Tahoe\nSaciamen o\nStockton\nModesto\nOakland\nSan Francisco\nSan Jose\nMonterey Salinas\nVegas\nFresno\nSanta Barbara\nPalm Springs\nLos Angr\nCall Your Travel Agent",
      "EXPRESS FARE SUMMARY\nEffective February 1, 1984\nAll fares are one-way or round-trip and include 8% Transportation Tax. All fares\nand schedules are subject to change without notice.\nCity Pair\nK*\nBE7**\nV***\nBakersfield\n-Boise\n-Chico\n- Fresno\n- Klamath Falls\n- Monterey/Salinas\n- Portland\n-Redding\n-Redmond/Bend\n-Sacramento\n-Santa Barbara\nBoise\n-Chico\n- Fresno\n- Klamath Falls\n—Las Vegas\n- Los Angeles\n— Medford\n- Monterey/Salinas\n-Palm Springs\n-Portland\n-Redding\n- Redmond/Bend\n-Reno/Lake Tahoe\n-Sacramento\n-San Francisco\n—Santa Barbara\n- Spokane\nChico\n- Los Angeles\n- Medford\n—Palm Springs\n-Portland\n- Redmond/Bend\n-Sacramento\n-San Francisco\n-Santa Barbara\nFresno\n-Klamath Falls\n-Las Vegas\n- Los Angeles\n- Monterey/Salinas\n-Palm Springs\n-Redding\n- Redmond/Bend\n-Reno/Lake Tahoe\n-Sacramento\n—San Francisco\n-Spokane\nKlamath Falls -Los Angeles\n- Monterey/Salinas\n- Palm Springs\n-Portland\n-Redding\n-Redmond/Bend\n-Reno/Lake Tahoe\n-Sacramento\n-San Francisco\n—Santa Barbara\nLas Vegas\n-Los Angeles\n- Medford\n- Monterey/Salinas\n—Palm Springs\n-Portland\n-Redmond/Bend\n—Reno/Lake Tahoe\n-San Francisco\n—Spokane\n163.\n132.\n62.\n154.\n100.\n160.\n131.\n154.\n96\n58.\n158.\n149.\n158.\n158.\n154.\n139.\n139.\n169\n95\n153.\n147.\n99.\n125.\n134.\n182.\n89.\n119\n143\n120\n149.\n109.\n54.\n75.\n132.\n139.\n85.\n60.\n87.\n95.\n105.\n142.\n75.\n69.\n60.\n177.\n140.\n130.\n152.\n92\n58.\n58.\n140\n130.\n104.\n147.\n60.\n162.\n115.\n85.\n142\n162\n84.\n85.\n189.\n269.\n218.\n102.\n255.\n165.\n264.\n216.\n255.\n158.\n96.\n260.\n246.\n260.\n260.\n254.\n229.\n229.\n279.\n157.\n253.\n243.\n163.\n206.\n221.\n299.\n147.\n196.\n235.\n197.\n246.\n181.\n88.\n124.\n218.\n229.\n140\n99\n144.\n157.\n173\n234.\n124.\n114.\n99.\n293.\n231.\n215.\n251.\n152.\n96.\n96.\n230.\n215.\n171.\n243.\n99.\n267.\n191.\n140.\n234.\n267.\n139.\n141.\n312.\n127.\n92.\n43.\n108.\n70\n121.\n92\n108.\n75.\n29\n110\n109.\n110.\n79.\n124.\n97.\n119.\n119.\n80.\n107.\n103.\n79.\n100.\n109.\n127.\n79.\n99.\n100.\n84.\n104.\n77.\n27.\n55.\n92\n97.\n70.\n50.\n61.\n75\n75\n100.\n38.\n49.\n44.\n135\n119\n91.\n107\n82\n29\n29\n98\n91.\n83.\n103.\n30.\n113.\n81.\n43.\n109.\n113.\n65\n60.\n149.\n4\nCity Pair\nLos Angeles\n-Modesto\n-Monterey/Salinas\n-Palm Springs\n- Portland\n-Redding\n-Redmond/Bend\n- Reno/Lake Tahoe\n-Sacramento\n-San Francisco\n-Spokane\n—Stockton\nMedford\n-Palm Springs\n-Portland\n-Redmond/Bend\n-Sacramento\n-San Francisco\nModesto\nMonterey/\nSalinas\n—Stockton\n-Palm Springs\n-Portland\n-Redding\nRedmond/Bend\n-Sacramento\n-San Francisco\n-Santa Barbara\n-Spokane\nOakland\n-Palm Springs\n-San Jose\nPalm Springs -Portland\n-Redding\nRedmond/Bend\n-Reno/Lake Tahoe\n-Sacramento\n-San Francisco\n-San Jose\n-Spokane\nPortland\n-Redding\n-Redmond/Bend\n-Reno/Lake Tahoe\n-Sacramento\n-San Francisco\n-Santa Barbara\n-Spokane\n-Stockton\n•Redmond/Bend\n-San Francisco\n-Santa Barbara\n-Spokane\n-Reno/Lake Tahoe\n-Sacramento\n-San Francisco\n—Santa Barbara\n-Spokane\n-Stockton\nReno/\n-Spokane\nLake Tahoe\nSacramento\nK*\n89\n91.\n60.\n150.\n135.\n149.\n89\n89\n84.\n175.\n89.\n173.\n79.\n58.\n109\n99.\n34.\n100.\n145.\n99\n120\n52.\n49.\n87\n167.\n95\n33.\n165\n143\n160\n131.\n115.\n95.\n89\n199\n109\n79.\n109.\n150\n119\n153\n89.\n143.\n76\n85.\n129.\n179.\n153\n109\n109.\n153\n126.\n109.\n149.\nBE7*\n147.\n150\n99\n248.\n223\n246.\n147\n147\n139\n289.\n147.\n286.\n130.\n96.\n181.\n163.\n56.\n165.\n239\n163.\n197\n86\n81.\n144.\n275.\n157\n54.\n272\n235\n264.\n216.\n190.\n157.\n147.\n328.\n180\n130.\n180.\n248\n196\n253\n147.\n235.\n125\n140\n213.\n296.\n253\n181.\n180\n253\n208.\n181.\n246.\nV***\n69\n71.\n30.\n109.\n99.\n119.\n69\n69\n42.\n135.\n69.\n125.\n40.\n41.\n77.\n50.\n23.\n70.\n115.\n69.\n84.\n42.\n25\n61.\n114.\n75.\n23.\n125.\n100.\n111.\n92.\n95.\n75.\n69.\n159\n89\n69\n89\n130\n89\n121.\n69\n100.\n52\n65\n109\n149.\n107\n77\n89\n107.\n88.\n77.\n119\n-San Francisco\n-Santa Barbara\n-Spokane\nSan Francisco-Santa Barbara\n—Spokane\n39.\n101.\n177.\n91.\n159.\n65.\n166.\n292.\n150.\n262.\n29.\n79.\n124.\n71.\n119.\nSanta Barbara-Spokane\n177\n293.\n127.\nK= Economy Fare.\n** BE=Economy Round-Trip Excursion Fare. Seven day advance purchase required, fully refundable.\n***V= Economy One-Way Fare. Fully refundable. Seats are limited.\nChildren's Fare is 50% of K Fare\n5"
    ],
    "millsfield:images_texts_ids": [
      1527854705,
      1527854707,
      1527854709
    ],
    "millsfield:primary_image": 1527854705,
    "millsfield:subcategory_id": 1511213425,
    "mz:hierarchy_label": 1,
    "mz:is_current": 1,
    "sfomuseum:accession_number": "2003.105.082.003",
    "sfomuseum:airline": "Pacific Express",
    "sfomuseum:airline_id": [
      674
    ],
    "sfomuseum:category": "Scheduling / Ticketing",
    "sfomuseum:classification_id": 158,
    "sfomuseum:collection": "Aviation Archive",
    "sfomuseum:creditline": "Gift of Craig Lynes",
    "sfomuseum:date": "1983",
    "sfomuseum:date_acquired": "2003-12-29",
    "sfomuseum:daterange_end": "1983-12-31",
    "sfomuseum:daterange_start": "1983-01-01",
    "sfomuseum:description": "System timetable issued by Pacific Express, effective September 7, 1983; 31-page schedule; color photographic image of mountain with text announcing new non-stop jet service routes.",
    "sfomuseum:dimensions": "9 x 4 inches (22.9 x 10.2 cm)",
    "sfomuseum:media_ids": [
      1527854705,
      1527854707,
      1527854709
    ],
    "sfomuseum:medium": "paper, ink",
    "sfomuseum:object_id": 100257,
    "sfomuseum:placetype": "object",
    "sfomuseum:primary_media_id": 1527854705,
    "sfomuseum:publication": ": , 1983.",
    "sfomuseum:subcategory": "Timetable",
    "src:geom": "sfomuseum#undetermined",
    "wof:belongsto": [
      1511214223,
      102527513,
      102191575,
      85633793,
      1511213425,
      85922583,
      102087579,
      1511214277,
      1511214207,
      85688637
    ],
    "wof:breaches": [],
    "wof:country": "XX",
    "wof:created": 1579906662,
    "wof:depicts": [
      1159284965,
      1159288849
    ],
    "wof:geomhash": "30c8a918561c84bb2daa2b97fc7c5353",
    "wof:hierarchy": [
      {
        "arcade_id": 1511213425,
        "building_id": 1511214277,
        "campus_id": 102527513,
        "concourse_id": 1511214223,
        "continent_id": 102191575,
        "country_id": 85633793,
        "county_id": 102087579,
        "custom_id": 1511939423,
        "locality_id": 85922583,
        "neighbourhood_id": -1,
        "object_id": 1511939423,
        "region_id": 85688637,
        "venue_id": 1511939423,
        "wing_id": 1511214207
      }
    ],
    "wof:id": 1511939423,
    "wof:lastmodified": 1787988184,
    "wof:name": "timetable: Pacific Express",
    "wof:parent_id": 1159162825,
    "wof:placetype": "custom",
    "wof:placetype_alt": [
      "object"
    ],
    "wof:repo": "sfomuseum-data-collection",
    "wof:superseded_by": [],
    "wof:supersedes": [],
    "wof:tags": []
  },
  "bbox": [
    -122.386155,
    37.616357,
    -122.386155,
    37.616357
  ],
  "geometry": {"type":"Point","coordinates":[-122.386155,37.616357]}
}
