{
  "id": 2015174155,
  "type": "Feature",
  "properties": {
    "date:cessation_lower": "2011-01-01",
    "date:cessation_upper": "2011-12-31",
    "date:inception_lower": "2011-01-01",
    "date:inception_upper": "2011-12-31",
    "edtf:cessation": "2011",
    "edtf:inception": "2011",
    "geom:area": 2.475047457570636e-7,
    "geom:bbox": "-122.386472,37.616105,-122.385834,37.616611",
    "geom:latitude": 37.61635747477365,
    "geom:longitude": -122.38615540108617,
    "millsfield:aircraft_id": [
      1159289425
    ],
    "millsfield:airline_id": [
      1159285639
    ],
    "millsfield:category_id": 1762671311,
    "millsfield:collection_id": 1511214207,
    "millsfield:company_id": [
      1159293829
    ],
    "millsfield:images": [
      2015174737
    ],
    "millsfield:images_texts": [
      "AIRBUS A340-500 - AIRCRAFT COLOR STRIP IDENTFIER - AIRBUS A340-500\n\u0026 THAI\nFor your safety\nAirbus A340-500\nZu Ihrer Sicherheit\nPara su seguridad\nPour votre sécurité\nДля вашей безопасности\nDo not use\nBitte nicht benutzen\nNo usar\nNe pas utiliser\nНе использовать\nNo Smoking\nFasten Seat Belt\nRauchen verboten\nNo Fumar\nInterdit de fumer\nНе курить\nBitte anschnallen\nAbróchese el Cinturón de Seguridad\nAttachez votre centure\nЗастегнуть ремень безопасности\nBefore Take-Off and Landing\nFasten seat belt\n2\nVor Start und Landung\nAntes de despegue y aterrizaje\nAvant le décollage et l'atterrissage\nПеред взлетом и посадкой\nPull on strap to tighten\n3\nRelease seat belt\nBKKOTTG / Issue No.5 / Effective: 28 APR 11\nDo not remove from aircraft tones\n1·12 Nich vom Flage entere No Retirar del Avión Ne pas emporter ce document hors de l'avion He покидайте самолёт"
    ],
    "millsfield:images_texts_ids": [
      2015174737
    ],
    "millsfield:primary_image": 2015174737,
    "millsfield:subcategory_id": 1511213703,
    "mz:is_approximate": 1,
    "mz:is_current": 1,
    "sfomuseum:accession_number": "2020.052.267",
    "sfomuseum:aircraft": "Airbus A340",
    "sfomuseum:aircraft_id": [
      32
    ],
    "sfomuseum:airline": "Thai Airways",
    "sfomuseum:airline_id": [
      992
    ],
    "sfomuseum:category": "Passenger Amenity, Archive",
    "sfomuseum:classification_id": 581,
    "sfomuseum:collection": "Aviation Archive",
    "sfomuseum:creditline": "Gift of The David Kliman Collection",
    "sfomuseum:date": "2011",
    "sfomuseum:date_acquired": "2020-10-26",
    "sfomuseum:daterange_end": "2011-12-31",
    "sfomuseum:daterange_start": "2011-01-01",
    "sfomuseum:description": "Safety information card issued by Thai Airways for its Airbus A340-500 fleet; double-sided bi-fold card with illustrations demonstrating inflight safety and emergency procedures; identification code: BKKOTTG Issue no. 5; revision date: 28 APR 11.",
    "sfomuseum:dimensions": "10 1/2 x 6 1/4 inches (26.7 x 15.9 cm)",
    "sfomuseum:medium": "paper, ink",
    "sfomuseum:object_id": 218079,
    "sfomuseum:placetype": "object",
    "sfomuseum:publication": ": , 2011.",
    "sfomuseum:subcategory": "Safety Information Card",
    "src:geom": "sfomuseum#undetermined",
    "wof:belongsto": [
      102527513,
      1159162825,
      102191575,
      85633793,
      102087579,
      85922583,
      85688637,
      1159160869
    ],
    "wof:country": "XY",
    "wof:created": 1775077238,
    "wof:depicts": [
      1159289425,
      1159293829,
      1159285639
    ],
    "wof:geomhash": "c281b9d9eefc83b5710e64b9d646067d",
    "wof:hierarchy": [
      {
        "building_id": -1,
        "campus_id": 102527513,
        "collection_id": 1159162825,
        "concourse_id": 1159162825,
        "continent_id": 102191575,
        "country_id": 85633793,
        "county_id": 102087579,
        "custom_id": 2015174155,
        "locality_id": 85922583,
        "neighbourhood_id": -1,
        "object_id": 2015174155,
        "region_id": 85688637,
        "wing_id": 1159160869
      }
    ],
    "wof:id": 2015174155,
    "wof:lastmodified": 1775115227,
    "wof:name": "safety information card: Thai Airways, Airbus A340-500",
    "wof:parent_id": 1159162825,
    "wof:placetype": "custom",
    "wof:placetype_alt": [
      "object"
    ],
    "wof:repo": "sfomuseum-data-collection",
    "wof:superseded_by": [],
    "wof:supersedes": []
  },
  "bbox": [
    -122.38647222518921,
    37.6161053594541,
    -122.38583385944366,
    37.61661101879963
  ],
  "geometry": {"type":"Polygon","coordinates":[[[-122.38647222518921,37.61631782178288],[-122.386434674263,37.61623283692423],[-122.38637566566466,37.61617759671399],[-122.38630056381224,37.6161308549656],[-122.38616108894348,37.6161053594541],[-122.38602161407469,37.6161308549656],[-122.38591432571411,37.61618609521055],[-122.38585531711577,37.61626683087935],[-122.38583385944366,37.61636881265146],[-122.38587141036987,37.61646654505181],[-122.38594114780425,37.61654303118856],[-122.38605380058287,37.61660252035167],[-122.38618254661559,37.61661101879963],[-122.3863059282303,37.61657277577607],[-122.3864185810089,37.61650903735973],[-122.3864668607712,37.61641130501523],[-122.38647222518921,37.61631782178288]]]}
}
