{
  "id": 1762687201,
  "type": "Feature",
  "properties": {
    "date:cessation_lower": "1940-01-01",
    "date:cessation_upper": "1940-12-31",
    "date:inception_lower": "1940-01-01",
    "date:inception_upper": "1940-12-31",
    "edtf:cessation": "1940",
    "edtf:inception": "1940",
    "geom:area": 2.475047457570636e-7,
    "geom:bbox": "-122.386472,37.616105,-122.385834,37.616611",
    "geom:latitude": 37.61635747477365,
    "geom:longitude": -122.38615540108617,
    "millsfield:airline_id": [
      1159284993
    ],
    "millsfield:category_id": 1511214223,
    "millsfield:collection_id": 1511214207,
    "millsfield:company_id": [
      1159288567
    ],
    "millsfield:images": [
      1762698057,
      1762698059
    ],
    "millsfield:images_colors_refs": {
      "crayola": [
        {
          "hex": "#87a96b"
        },
        {
          "hex": "#dbd7d2"
        },
        {
          "hex": "#cdc5c2"
        },
        {
          "hex": "#8a795d"
        },
        {
          "hex": "#714b23"
        },
        {
          "hex": "#85754e"
        },
        {
          "hex": "#414a4c"
        },
        {
          "hex": "#319177"
        }
      ],
      "css4": [
        {
          "hex": "#696969"
        },
        {
          "hex": "#6b8e23"
        },
        {
          "hex": "#2f4f4f"
        },
        {
          "hex": "#556b2f"
        },
        {
          "hex": "#2e8b57"
        },
        {
          "hex": "#d3d3d3"
        },
        {
          "hex": "#808080"
        },
        {
          "hex": "#c0c0c0"
        },
        {
          "hex": "#8fbc8f"
        }
      ],
      "marekm4": [
        {
          "hex": "#439648"
        },
        {
          "hex": "#896c6d"
        },
        {
          "hex": "#8b6767"
        },
        {
          "hex": "#dad9c9"
        },
        {
          "hex": "#522827"
        },
        {
          "hex": "#92a275"
        },
        {
          "hex": "#624342"
        },
        {
          "hex": "#579144"
        },
        {
          "hex": "#c7c3b5"
        }
      ]
    },
    "millsfield:images_texts": [
      "THE PANAGRA ROUTE\n3½ DAYS TO BUENOS AIRES\nHEW YOR:\nTO\nCHICAGO\nTO SAN FRANCISCO\nAND LOS ANGELES\nBROWNSVNLE\nMEXICO\nSouth America.\nBELEM\n-GUAYAQUIL\nLIMA\nRECIFE\nLA PAZ\nMARICA\nSAO PROLO\nRIO DE JANEIRO\nBRAZIL\nASUNCION\nFREQUENT FAST\nDELUXE SERVICE\n- 3 Services weekly\neach way\n**• 4th Additional weekly\nService each way\nSANTIAGO\nCORDOBA\nBUENOS AIRE\nPANAMA\nCOLOMBIA\nECUADOR\nPERU\nBOLIVIA\nCHILE\nARGENTINA\nGRACE\nPAA\nPAN AMERICAN-GRACE\nAIRWAYS",
      "EXPRESS TIME TABLE OF THE PANAGRA ROUTE TO SOUTH AMERICA\nSOUTHBOUND\nMo. We.\nFri.\n9:00pm\n6:45pm\nTu. Th.\nSat.\n5:45am\nTu.Th.\nSat.\n6:45am\nEx. Sat.\n9:10am\nEx. Sun.\n4:40pm\nTu.Th.\nSat.\n3:30am\nTh.Sa.\nMon.\n4:40pm\n1:15pm\nMo\nTue.\nTh.Sat.\n7:00am 10:45am\n10:45am\n11:05am 11:05am\n1:50pm\n1:50pm.\n10:40am\n5:10pm\n5:10pm\nMon.\n10:55am\nWed.\nFri.Su.\n6:00am\n7:00am\n1:45pm\n2:40pm\n8:20am\n9:20am.\n3:50pm\n4:40pm\n5:10pm\n9:35am 10:35am\nWed.\n9:40am\n9:50am 10:50am\n10:50am\n11:20am 12:20am\n12:50pm\n3:20pm\n1:50pm\n4:20pm\nThu.\nSa.Mo.\n5:30am\n5:30am\n8:45am\n8:45am\n10:55am\nSat.\nMo.Th.\n|10:55am\nSa.Mo.\n11:20am\n11:20am 11:15am\n12:55pm\n12:55pm\n1:10pm\n2:15pm\n3:35pm\n5:25pm\nTu.Fr.\n7:30am\n8:40am\nLv SALTA, Argentina\nTucuman, Argentina\n1:40pm\nAntofagasta, Chile.\n5:40pm\n5901\nAr SANTIAGO, Chile\nMo.Fr.\nSu.Tu.\n8:15am\n8:15am\n9:50am\n9:50am\n11:50am 10:55am\n11:50am\n2:15pml 1:25pml\n2:15pm\nMiles\n0\nLV N. Y\nLv CHICAGO\nAr MIAMI\nLv MIAMI.\nLv BROWNSVILLE\nLv LOS ANGELES.\nAr CRISTOBAL\nAr BALBOA.\nLv CRISTOBAL\nAr BALBOA\nLv BALBOA\nAr CALI\n3378\nLv CALI, Colombia\nQuito, Ecuador\nEsmeraldas, Ecuador\nManta, Ecuador.\nSalinas, Ecuador\nAr GUAYAQUIL, Ecuador\n4169\nLv GUAYAQUIL, Ecuador\nCuenca, Ecuador\nAr Loja, Ecuador.\nLv Talara, Peru\nChiclayo, Peru\nAr LIMA,\nPeru\n5620\nLv LIMA, Peru.\nArequipa, Peru\nAr Arica, Chile..\nLv Arica, Chile\nAr La Paz, Bolivia\nLv La Paz, Bolivia\nOruro, Bolivia\nUyuni, Bolivia\nAr SALTA, Argentina\nEST Ar\nAr\nLv\nLv\nNORTHBOUND\nMo. We.\nFri.\n6:00am\n6:00am\nTu. Th.\n9:00pm\nSun.\n9:30pm\nAr\nAr\nAr\nSun.\n6:20pm\nTu.Th.\n8:15pm\nEx. Sat.\n4:30pm\nAr\nWe.Fr.\nMo.\n4:55pm\nMo.\nWed.Sat Ex. Fri.\n10:00am 10:00am\nLv\nLv\nSu.\n12:00\nTu.Th.\nLv\n2:05pm\nSun.\nTu.Th.\nAr 10:05am\n10:05am\nLv\n9:45am\nFri.\n4:15pm\n9:45am\nAr\n9:15am\nLv\n9:15am\n6:00am\n6:00am\n1:00pm\nSat.\nMo. We.\nAr\nLv\n3:45pm\nFri.\n3:45pm 12:45pm\nLv\n1:45pm\n1:45pm 10:45am\nLv\n9:40am\nLv\n8:30am\n7:45am\nLN 12:20pm 12:20pm\n7:00am\nWed.\nAr 12:05pm 12:05pm 12:15pm\n11:00am\nLv SANTIAGO, Chile.\nMendoza, Argentina\nCordoba, Argentina\n6771 Ar BUENOS AIRES, Arg.\nEffective December 1, 1940 (subject to change without notice)\nLv\nLv 10:45am 10:45am\nLv\nLv\n9:15am\n9:15am\n6:30am\n6:30gm\nAr\nFri.\nSu. Tu.\nLv\n5:00pm\n5:00pm\n60MT Lv\n2:00pm\n1:30pm\n2:00pm\nAr\nFr.Su.\n1:30pm\nTu.Fr.\nSun.\n1:15pm\nLv\n1:15pm\n1:15pm\n11:50am 11:50am\nAr\nLv\n11:35am\nLv\n10:40am\nLv\n9:20am\n7:00am\nMo.Th.\nAr\n5:35pm\nLV\n4:30pm\nLv\n10:50am\nLv\n6:00am\nTh.Sa.\nMo.Fr.\nAr\n3:30pm\n3:30pm\nLv\n2:15pm\n2:15pm\nLv 12:00\n2:05pm 12:00\n9:00am 11:00am| 9:00am\nHERE ARE SOME TYPICAL RATES...\nLEAVE\nNEW YORK\nNEW YORK\nFrom\nBrownsville\nCristobal\nOne Way\nOne Way\nTO-BUENOS AIRES.... $570..\n..$477..\nCALI..\n237\n67\nLA PAZ\n496.\n332.\nLIMA.\n395.\n232\nQUITO.\n294\n132\nSANTIAGO.\n523\n402\nRound Trip Reduction 20% off the Return Fare\nLos Angeles\nOne Way\n..$630..\n307.\n558\n457.\n357\n585.\nMiami\nOne Way\n. $550.\n206.\n470.\n370.\n266.\n498.\nSAN FRANCISCO\nLOS ANGELES\nLEAVE\nMIAMI\nMIAMİ\nBROWNSVILLE\nBALBOA\nRISTOBAL\nI DAY\nCOLOMBIA\nESMERALDA:\nMANTA\nSALINAS A\nCALI\nQUITO\nGUAYAQUIL\nCUENCA\nLOJA\nTALARA,\nCHICLAYO\n2 DAYS\nPERU\nLIMA\nAREQUIPLA DAZ\nARACA\nORURO\n3 DAYS\nARGENTINA\nSALTA\n3 DAYS\nSANTIAGO\n32 DAYS\nBUENOS AIRES\nCORDOBA\nMENDOZA\nSANTIAGO\nBUENOS\nAIRES\nPAN AMERICAN - GRACE\nAIRWAYS Pucke\nPAN\nAMERICAN AIRWAYS SYSTEM my"
    ],
    "millsfield:images_texts_ids": [
      1762698057,
      1762698059
    ],
    "millsfield:primary_image": 1762698057,
    "millsfield:subcategory_id": 1511213425,
    "mz:is_current": 1,
    "sfomuseum:accession_number": "2005.148.001",
    "sfomuseum:airline": "Panagra (Pan American-Grace Airways)",
    "sfomuseum:airline_id": [
      687
    ],
    "sfomuseum:category": "Scheduling / Ticketing",
    "sfomuseum:classification_id": 158,
    "sfomuseum:collection": "Aviation Archive",
    "sfomuseum:creditline": "Gift of Charles Booth",
    "sfomuseum:date": "1940",
    "sfomuseum:daterange_end": "1940-12-31",
    "sfomuseum:daterange_start": "1940-01-01",
    "sfomuseum:description": "Timetable issued by Panagra (Pan American-Grace Airways); light brown, green, and black cover with route map; promotes “Panagra Route, 3 1/2 days to Buenos Aires”.",
    "sfomuseum:dimensions": "9 x 4 inches (22.9 x 10.2 cm)",
    "sfomuseum:medium": "paper, ink",
    "sfomuseum:object_id": 78536,
    "sfomuseum:placetype": "object",
    "sfomuseum:publication": ": , 1940.",
    "sfomuseum:subcategory": "Timetable",
    "src:geom": "sfomuseum#undetermined",
    "wof:belongsto": [
      102527513,
      1159162825,
      102191575,
      85633793,
      102087579,
      85922583,
      85688637,
      1159160869
    ],
    "wof:country": "XY",
    "wof:created": 1641341884,
    "wof:depicts": [
      1159284993,
      1159288567
    ],
    "wof:geomhash": "c281b9d9eefc83b5710e64b9d646067d",
    "wof:hierarchy": [
      {
        "building_id": -1,
        "campus_id": 102527513,
        "collection_id": 1159162825,
        "concourse_id": 1159162825,
        "continent_id": 102191575,
        "country_id": 85633793,
        "county_id": 102087579,
        "custom_id": 1762687201,
        "locality_id": 85922583,
        "neighbourhood_id": -1,
        "object_id": 1762687201,
        "region_id": 85688637,
        "wing_id": 1159160869
      }
    ],
    "wof:id": 1762687201,
    "wof:lastmodified": 1787988195,
    "wof:name": "timetable: Panagra (Pan American-Grace Airways)",
    "wof:parent_id": 1159162825,
    "wof:placetype": "custom",
    "wof:placetype_alt": [
      "object"
    ],
    "wof:repo": "sfomuseum-data-collection",
    "wof:superseded_by": [],
    "wof:supersedes": []
  },
  "bbox": [
    -122.38647222518921,
    37.6161053594541,
    -122.38583385944366,
    37.61661101879963
  ],
  "geometry": {"type":"Polygon","coordinates":[[[-122.38647222518921,37.61631782178288],[-122.386434674263,37.61623283692423],[-122.38637566566466,37.61617759671399],[-122.38630056381224,37.6161308549656],[-122.38616108894348,37.6161053594541],[-122.38602161407469,37.6161308549656],[-122.38591432571411,37.61618609521055],[-122.38585531711577,37.61626683087935],[-122.38583385944366,37.61636881265146],[-122.38587141036987,37.61646654505181],[-122.38594114780425,37.61654303118856],[-122.38605380058287,37.61660252035167],[-122.38618254661559,37.61661101879963],[-122.3863059282303,37.61657277577607],[-122.3864185810089,37.61650903735973],[-122.3864668607712,37.61641130501523],[-122.38647222518921,37.61631782178288]]]}
}
