{
  "id": 1511928195,
  "type": "Feature",
  "properties": {
    "date:cessation_lower": "1978-01-01",
    "date:cessation_upper": "1978-12-31",
    "date:inception_lower": "1978-01-01",
    "date:inception_upper": "1978-12-31",
    "edtf:cessation": "1978",
    "edtf:date": "1978",
    "edtf:inception": "1978",
    "geom:area": 0,
    "geom:bbox": "-122.386155,37.616357,-122.386155,37.616357",
    "geom:latitude": 37.616357,
    "geom:longitude": -122.386155,
    "iso:country": "XX",
    "millsfield:airline_id": [
      1159285393
    ],
    "millsfield:category_id": 1511214223,
    "millsfield:collection_id": 1511214207,
    "millsfield:company_id": [
      1159287531
    ],
    "millsfield:images": [
      1527835561
    ],
    "millsfield:images_colors_refs": {
      "crayola": [
        {
          "hex": "#ff2b2b"
        },
        {
          "hex": "#58427c"
        },
        {
          "hex": "#ffffff"
        },
        {
          "hex": "#414a4c"
        }
      ],
      "css4": [
        {
          "hex": "#fdf5e6"
        },
        {
          "hex": "#2f4f4f"
        },
        {
          "hex": "#b22222"
        },
        {
          "hex": "#708090"
        }
      ],
      "marekm4": [
        {
          "hex": "#5d638e"
        },
        {
          "hex": "#d43114"
        },
        {
          "hex": "#f9f6ea"
        },
        {
          "hex": "#3e4264"
        }
      ]
    },
    "millsfield:images_texts": [
      "Washington/Baltimore\nTWAR\nQuick-way Timetable\nWashington Reservations: 659-1000\nBaltimore Reservations: 301-768-6300\nEFFECTIVE OCTOBER 29, 1978\nLeave\nArrive Flight No.\nStops or Via Freq.\nService\nTo Albuquerque,\nN.M.\nN 710a\nN 800a\nN 1011a\nN 200p\nN 400p\n10 10a\n1208p\n136p\n618p\n744p\n123\n291/193\n183/243\n217\n449\nOne-stop\nChicago\nChicago\nTwo-stop\nOne-stop\nEx Su\nDaily\nDaily\nDaily\nDaily\n835a\n1015a\n1105a\n1210p\nN 315p\n536p\nN 523p\nN 728p\n168\n900/290\n442\n440\nOne-stop\nChicago\nOne-stop\nTwo-stop\nDaily\nEx Sa\nEx Sa\nDaily\nN 800a\nN 315p\nN 400p\n109p\n859p\n859p\n291/303\n373\n449/373\nChicago\nThree-stop\nChicago\nDaily\nEx Sa\nDaily\n730a\n101p\n310p\nN 315p\nN 847p\nN 1000p\n322/168\n346/36\n412/184\nChicago\nChicago\nKansas City\nDaily\nEx Sa\nEx Sa\nD 620p\n1140a† 890/AF912 Paris\nDaily 99 *\n915a\nD 340p AF911/891 Paris\nEx Su * *\nFrom Albuquerque,\nN.M.\nWhen in Albuquerque,\ncall 243-8611\nTo Amarillo, Texas\nFrom Amarillo,\nTexas\nWhen in Amarillo,\ncall 376-6326\nTo Amsterdam,\nNeth. O\nFrom Amsterdam,\nNeth.Đ\nWhen in Amsterdam,\ncall 236876\nTo Athens,\nGreece\nFrom Athens,\nGreece\nWhen in Athens,\ncall 3226451\nTo Bahrain O\nFrom Bahrain O\nWhen in Bahrain,\nCall 53315\nTo Barcelona,\nSpain\nEffective October 29. 1978\nSchedules Shown in Local Time\n• Hilton International\n* Night Coach Fares Apply\nD 445p\nD 620p\n705a\n1145at 14/880\n345pt 890/840\nD 340p 901/891\nNew York\nRome\nRome\nDaily\nDaily\nD 445p\n530pt 14/880\nConsult your TWA Ticket Office.\nD 445p\n940at 14/904\nNew York\nNew York\n§ Music\n* Change of Airport - Free\nShuttle Bus Service between\nLaGuardia and Kennedy"
    ],
    "millsfield:images_texts_ids": [
      1527835561
    ],
    "millsfield:primary_image": 1527835561,
    "millsfield:subcategory_id": 1511213425,
    "mz:hierarchy_label": 1,
    "mz:is_current": 1,
    "sfomuseum:accession_number": "2006.059.229",
    "sfomuseum:airline": "TWA (Trans World Airlines)",
    "sfomuseum:airline_id": [
      874
    ],
    "sfomuseum:category": "Scheduling / Ticketing",
    "sfomuseum:classification_id": 158,
    "sfomuseum:collection": "Aviation Archive",
    "sfomuseum:creditline": "Gift of the Paul Edward Fair Estate",
    "sfomuseum:date": "1978",
    "sfomuseum:date_acquired": "2006-10-19",
    "sfomuseum:daterange_end": "1978-12-31",
    "sfomuseum:daterange_start": "1978-01-01",
    "sfomuseum:description": "Quick-way timetable for Washington / Baltimore area issued by TWA (Trans World Airlines), effective October 29, 1978.",
    "sfomuseum:dimensions": "9 x 4 inches (22.9 x 10.2 cm)",
    "sfomuseum:media_ids": [
      1527835561
    ],
    "sfomuseum:medium": "paper, ink",
    "sfomuseum:object_id": 81465,
    "sfomuseum:placetype": "object",
    "sfomuseum:primary_media_id": 1527835561,
    "sfomuseum:publication": ": , 1978.",
    "sfomuseum:subcategory": "Timetable",
    "sfomuseum:subject": "Airlines -- timetables",
    "src:geom": "sfomuseum#undetermined",
    "wof:belongsto": [
      1511214223,
      102527513,
      102191575,
      85633793,
      1511213425,
      85922583,
      102087579,
      1511214277,
      1511214207,
      85688637
    ],
    "wof:breaches": [],
    "wof:country": "XX",
    "wof:created": 1579906666,
    "wof:depicts": [
      1159285393,
      1159287531
    ],
    "wof:geomhash": "30c8a918561c84bb2daa2b97fc7c5353",
    "wof:hierarchy": [
      {
        "arcade_id": 1511213425,
        "building_id": 1511214277,
        "campus_id": 102527513,
        "concourse_id": 1511214223,
        "continent_id": 102191575,
        "country_id": 85633793,
        "county_id": 102087579,
        "custom_id": 1511928195,
        "locality_id": 85922583,
        "neighbourhood_id": -1,
        "object_id": 1511928195,
        "region_id": 85688637,
        "venue_id": 1511928195,
        "wing_id": 1511214207
      }
    ],
    "wof:id": 1511928195,
    "wof:lastmodified": 1787988179,
    "wof:name": "timetable: TWA (Trans World Airlines), Washington / Baltimore",
    "wof:parent_id": 1159162825,
    "wof:placetype": "custom",
    "wof:placetype_alt": [
      "object"
    ],
    "wof:repo": "sfomuseum-data-collection",
    "wof:superseded_by": [],
    "wof:supersedes": [],
    "wof:tags": []
  },
  "bbox": [
    -122.386155,
    37.616357,
    -122.386155,
    37.616357
  ],
  "geometry": {"type":"Point","coordinates":[-122.386155,37.616357]}
}
