{
  "id": 1913796121,
  "type": "Feature",
  "properties": {
    "date:cessation_lower": "1933-03-28",
    "date:cessation_upper": "1933-03-28",
    "date:inception_lower": "1933-03-28",
    "date:inception_upper": "1933-03-28",
    "edtf:cessation": "1933-03-28",
    "edtf:inception": "1933-03-28",
    "geom:area": 2.475047457570636e-7,
    "geom:bbox": "-122.386472,37.616105,-122.385834,37.616611",
    "geom:latitude": 37.61635747477365,
    "geom:longitude": -122.38615540108617,
    "millsfield:airline_id": [
      1159284991,
      1159285931
    ],
    "millsfield:category_id": 1511214251,
    "millsfield:collection_id": 1511214207,
    "millsfield:company_id": [
      1159286721
    ],
    "millsfield:images": [
      1913800345,
      1913800349,
      1913800351,
      1913800353,
      1913800355,
      1913800357
    ],
    "millsfield:images_colors_refs": {
      "crayola": [
        {
          "hex": "#9f8170"
        },
        {
          "hex": "#414a4c"
        },
        {
          "hex": "#edd19c"
        },
        {
          "hex": "#000000"
        },
        {
          "hex": "#bab86c"
        }
      ],
      "css4": [
        {
          "hex": "#000000"
        },
        {
          "hex": "#f5deb3"
        },
        {
          "hex": "#eee8aa"
        },
        {
          "hex": "#bc8f8f"
        },
        {
          "hex": "#bdb76b"
        }
      ],
      "marekm4": [
        {
          "hex": "#a2976e"
        },
        {
          "hex": "#a1966f"
        },
        {
          "hex": "#eddca8"
        },
        {
          "hex": "#2a2717"
        },
        {
          "hex": "#282213"
        },
        {
          "hex": "#eddca7"
        },
        {
          "hex": "#292214"
        },
        {
          "hex": "#ebd9a7"
        },
        {
          "hex": "#eddba8"
        },
        {
          "hex": "#ecdbab"
        },
        {
          "hex": "#b6a572"
        },
        {
          "hex": "#ebdbaa"
        },
        {
          "hex": "#a5986e"
        },
        {
          "hex": "#2b291a"
        },
        {
          "hex": "#a3976e"
        },
        {
          "hex": "#282114"
        },
        {
          "hex": "#282617"
        }
      ]
    },
    "millsfield:images_texts": [
      "33\nCATHAY\nHOTEL\nCABLE ADDRESS\nCATHOTEL\"\nSHANGHAI, CHINA\nJueaday\n3/28\nDearest Debo-\nLast night ur worked\nuntie late - Polin Bawle\nAnd I then us wint to a\nmovie - Sacondhand top -\nmat so good and coming\nback to the Hotse us -\nthat is Pawley and 9\ntalked to Frank hour of\nUntra Air Transport untie\n1:20.\nof court hour is\na competitor o\nPawleys but\nthey arz trying to git along\nand not do angthing\nto\nmess up curation in china",
      "hour is figuring witk the\nChisin on a facton. We\nis a viry strangs typr\nand I hardl, kenow what\nto make of him ke\nhas trairled ale ovnr the\nwale and had dealings\nin Geraia. Finland, Turkey-\nBrazie, Pru rec. utc. Nr\nuzars a monoele\n- though\nborn in gowa - end\nthats something- n'est ce pas\nJonight 2 am haverf\nPolin Paule\nand Ir Tai\ngraie managie ef\nC.N.AC.\nfor dennci and the mori\nand then ws fo to the\nBost office for an anagrction\nwhich in\nmot accortrd unte 11:30 Om\n1.062",
      "CATHAY\nHOTEL\nBama\nCABLE ADDRESS\nCATHOTEL\"\nSHANGHAI, CHINA\nOur proporals are taking\ndefinite form\nnow and\nur shoved be busy on\nContracts very soon. t\nthink us stand a ver\ngood chaner of gattin\nkörything Pan am want\nin China and at the\nsame time\nguis the chines\nthe brat an strack in the\nwald, or at least the equat\nto any.\nSto really worth\nwhile Debs, this job -\nyou free as though your\nforts are em portant. you\narz dealing with somithing\nwhich vitale, conerras the",
      "liors of 100.000,000 prople.\nThat work while is mit it.\nDo buttre kan standing\naround a brokerage offici\nAnd tapering the thought\nthat Stral is due for a\nrin or decline. I really\nfree as though 9 wor\nsitting in on big wored\naffairs- dealing wet the\nreconstruction of a nation.\nIts grand Deto. and it in\nPossible only beaur of your\nAtttude and Coopration.\nI coned nt carry on except\nwork your\nactur help on\nbusinen afaus at home sad\nwick ite knowlegs that\nyou appror of my work\nand ars weing to make\nthe mecisa saerfeis.\n06206",
      "CATHAY\nHOTEL\nPane mi\nCABLE ADDRESS\nCATHOTEL*\nSHANGHAI, CHINA\nI fee so sorry for back\nBawley and\ngroze. they an\njust sunk\nafter very maid\nfrom home brcaus their\nwes writh about mocke lout\ntheir troubles And all that\nis wrong at home. Of courte\nI realigs that when you tay\nthat the Childrin are wile\nand that you are happy-\nsuch is not always the\ncase - and dont think\nYour attitude is mot\nappreciated.\nYou must\nwant to br\nkept informed and fin sure\nyou world cable me if\nanything strous - real trious",
      "happened to you or any of\nthe kids.\nBut Drabs darling angle\nyou ars marerous in your\ncourage and your paleogh,\nof le. We ant going to be\nviry happy and o can\nhardly wait to burg you\nout here - you ee just\nadors it all.\nAle my loo to you\nalways and always -\nHad:\nstaireroo\nade\n- AND\nBaD tsuali\n2019\n1.0620 c"
    ],
    "millsfield:images_texts_ids": [
      1913800345,
      1913800349,
      1913800351,
      1913800353,
      1913800355,
      1913800357
    ],
    "millsfield:primary_image": 1913800345,
    "millsfield:subcategory_id": 1511213489,
    "mz:is_approximate": 1,
    "mz:is_current": 1,
    "sfomuseum:accession_number": "2019.121.0620 a c",
    "sfomuseum:airline": "Pan American Airways",
    "sfomuseum:airline_id": [
      685,
      1131
    ],
    "sfomuseum:category": "Employee Career History",
    "sfomuseum:classification_id": 195,
    "sfomuseum:collection": "Aviation Archive",
    "sfomuseum:creditline": "Collection of SFO Museum",
    "sfomuseum:date": "03/28/1933",
    "sfomuseum:date_acquired": "2019-11-22",
    "sfomuseum:daterange_end": "1933-03-28",
    "sfomuseum:daterange_start": "1933-03-28",
    "sfomuseum:description": "Handwritten letter from Harold M. Bixby to his wife, Debby Bixby, dated Tuesday, March 28, [1933], on stationery from Cathay Hotel, Shanghai; includes description of meeting with [William] Pawley and Frank [Francis] Love from United Air Transport, as well as an update on the negotiations and his thoughts on his work; mentions [Max] Polin and Mr. Tai.",
    "sfomuseum:dimensions": "8 1/4 x 5 1/4 inches (21 x 13.3 cm)",
    "sfomuseum:medium": "paper, ink",
    "sfomuseum:object_id": 210895,
    "sfomuseum:placetype": "object",
    "sfomuseum:publication": ": , 03/28/1933.",
    "sfomuseum:subcategory": "Correspondence, Personal",
    "src:geom": "sfomuseum#undetermined",
    "wof:belongsto": [
      102527513,
      1159162825,
      102191575,
      85633793,
      102087579,
      85922583,
      85688637,
      1159160869
    ],
    "wof:country": "XY",
    "wof:created": 1714548991,
    "wof:depicts": [
      1159285931,
      1159286721,
      1159284991
    ],
    "wof:geomhash": "c281b9d9eefc83b5710e64b9d646067d",
    "wof:hierarchy": [
      {
        "building_id": -1,
        "campus_id": 102527513,
        "collection_id": 1159162825,
        "concourse_id": 1159162825,
        "continent_id": 102191575,
        "country_id": 85633793,
        "county_id": 102087579,
        "custom_id": 1913796121,
        "locality_id": 85922583,
        "neighbourhood_id": -1,
        "object_id": 1913796121,
        "region_id": 85688637,
        "wing_id": 1159160869
      }
    ],
    "wof:id": 1913796121,
    "wof:lastmodified": 1787988219,
    "wof:name": "correspondence: Harold M. Bixby to Debby Bixby",
    "wof:parent_id": 1159162825,
    "wof:placetype": "custom",
    "wof:placetype_alt": [
      "object"
    ],
    "wof:repo": "sfomuseum-data-collection",
    "wof:superseded_by": [],
    "wof:supersedes": []
  },
  "bbox": [
    -122.38647222518921,
    37.6161053594541,
    -122.38583385944366,
    37.61661101879963
  ],
  "geometry": {"type":"Polygon","coordinates":[[[-122.38647222518921,37.61631782178288],[-122.386434674263,37.61623283692423],[-122.38637566566466,37.61617759671399],[-122.38630056381224,37.6161308549656],[-122.38616108894348,37.6161053594541],[-122.38602161407469,37.6161308549656],[-122.38591432571411,37.61618609521055],[-122.38585531711577,37.61626683087935],[-122.38583385944366,37.61636881265146],[-122.38587141036987,37.61646654505181],[-122.38594114780425,37.61654303118856],[-122.38605380058287,37.61660252035167],[-122.38618254661559,37.61661101879963],[-122.3863059282303,37.61657277577607],[-122.3864185810089,37.61650903735973],[-122.3864668607712,37.61641130501523],[-122.38647222518921,37.61631782178288]]]}
}
