{
  "id": 1763195393,
  "type": "Feature",
  "properties": {
    "date:cessation_lower": "1981-01-01",
    "date:cessation_upper": "1981-12-31",
    "date:inception_lower": "1981-01-01",
    "date:inception_upper": "1981-12-31",
    "edtf:cessation": "1981",
    "edtf:inception": "1981",
    "geom:area": 2.475047457570636e-7,
    "geom:bbox": "-122.386472,37.616105,-122.385834,37.616611",
    "geom:latitude": 37.61635747477365,
    "geom:longitude": -122.38615540108617,
    "millsfield:airline_id": [
      1159283919
    ],
    "millsfield:category_id": 1511214223,
    "millsfield:collection_id": 1511214207,
    "millsfield:company_id": [
      1159288525
    ],
    "millsfield:images": [
      1763196459
    ],
    "millsfield:images_colors_refs": {
      "crayola": [
        {
          "hex": "#9f8170"
        },
        {
          "hex": "#eceabe"
        },
        {
          "hex": "#714b23"
        },
        {
          "hex": "#c46210"
        }
      ],
      "css4": [
        {
          "hex": "#bdb76b"
        },
        {
          "hex": "#2f4f4f"
        },
        {
          "hex": "#d2691e"
        },
        {
          "hex": "#f5deb3"
        }
      ],
      "marekm4": [
        {
          "hex": "#a69066"
        },
        {
          "hex": "#d36519"
        },
        {
          "hex": "#eee5bc"
        },
        {
          "hex": "#3e2913"
        }
      ]
    },
    "millsfield:images_texts": [
      "cen\nairway\nSPECIALIZING IN SERVICE TO...\nLAKE TAHOE, CALIFORNIA\nand ASPEN, COLORADO\nAUGUST 1, 1981\nSYSTEM TIMETABLE\nFreq.\nLeave\nArrive\nFlight\nStops\nFrom: ASPEN/SNOWMASS, CO.\nReservations:\nAspen Snowmass 303-925-3400\nOther Colo. Cities: 800-332-1332\nAir Freight: 303-925-7181\nTo DENVER, CO.\nAugust 1 through September 7, 1981\nDaily\n825a\n900a\n410\nDaily\n935a\n101a\n416\nDaily\n1110a\n1145a\n424\nDaily\n1245p\n120p\n428\nDaily\n200p\n235p\n434\nDaily\n430p\n505p\n444\nDaily\n545p\n620p\n448\nTO DENVER, CO.\nSeptember 8 through November 24, 1981\nDaily\n745a\n820a\n410\nDaily\n935a\n1010a\n416\nDaily\n1200n\n1235p\n428\nDaily\n305p\n340p\n440\nDaily\n530p\n605p\n448\nFrom: BURBANK, CA.\nReservations:\nBurbank: 213-840-8871\nLos Angeles: (213) 646-1100\nAir Freight: (213) 841-7432\nTo LAKE TAHOE, CA\nDaily\n1155\nDaily\n500p\nDaily\n640p\nTo LOS ANGELES, CA\nDaily\n1155a\nDaily\n500p\n200p\n710p\n800p\n1215p\n520p\n812\n826\n828\n0 x Sat\n812\n826\nFrom: LAKE TAHOE, CA.\nReservations: 800-525-0256\nAir Freight: 916-554-0850\nTO BURBANK, CA.\nDaily\n1010a\n1215p\nDaily\n310p\n515p\nDaily\n745p\n950p\nTO LOS ANGELES, CA\nDaily\n1010a\n1135a\nDaily\n310p\n435p\nDaily\n745p\n910p\nTO SAN FRANCISCO, CA.\nDaily\n905a\n1000a\nDaily\n1140a\n1235p\nDaily\n445p\n540p\n811\n823\n817\n0 x SAT\n811\n823\n817\n0 x Sat\n520\n522\n526\nFreq.\nLeave\nArrive\nFlight\nStops\nFrom: DENVER, CO.\nReservations:\nDenver 398-3744\nOther Colo. Cities: 800-332-1332\nAir Freight: 303-398-2150\nTo ASPEN/ SNOWMASS, CO.\nAugust 1 through September 7, 1981\nDaily\n835a\n915a\n411\nDaily\n1000a\n1040a\n419\nDaily\n1120a\n1200n\n425\nDaily\n100p\n140p\n431\nDaily\n320p\n400p\n439\nDaily\n435p\n515p\n445\nDaily\n730p\n810p\n455\nTo: ASPEN/SNOWMASS, CO.\nSeptember 8 through November 24, 1981\nDaily\n840a\n920a\n411\nDaily\n1105a\n1145a\n425\nDaily\n100p\n140p\n431\nDaily\n435p\n515p\n445\nDaily\n630p•\n705p\n451\nFrom: LOS ANGELES, CA.\nReservations: (213) 646-1100\nOther Calit. Cities: (800) 525-0256\nAir Freight: (213) 646-1105\nTo LAKE TAHOE, CA.\nDaily\n1235p\nDaily\n545p\n200p\n812\n710p\n826\nFrom: SAN FRANCISCO, CA\nReservations: 415-761-8300\nOther Calif. Cities: (800) 525-0256\nAir Freight: (415) 877-0363\nTO LAKE TAHOE, CA\nDaily\n1025a\nDaily\n145p\nDaily\n715p\n1120a\n240p\n810p\n521\n533\n527\nFrom: WEST YELLOWSTONE, MT\ng Restition Beo-520-07504001\nTo SALT LAKE CITY, UT.\nDaily\n310p\n415p\n15\nFrom: SALT LAKE CITY, UT.\nReservations: 800-525-0256\nTo WEST YELLOWSTONE, MT.\nAugust 1 through September 15, 1981\nDaily\n155p\n300p\n10"
    ],
    "millsfield:images_texts_ids": [
      1763196459
    ],
    "millsfield:primary_image": 1763196459,
    "millsfield:subcategory_id": 1511213425,
    "mz:is_current": 1,
    "sfomuseum:accession_number": "2014.084.0297",
    "sfomuseum:airline": "Aspen Airways",
    "sfomuseum:airline_id": [
      201
    ],
    "sfomuseum:category": "Scheduling / Ticketing",
    "sfomuseum:classification_id": 158,
    "sfomuseum:collection": "Aviation Archive",
    "sfomuseum:creditline": "Gift of Thomas G. Dragges",
    "sfomuseum:date": "1981",
    "sfomuseum:date_acquired": "2015-07-02",
    "sfomuseum:daterange_end": "1981-12-31",
    "sfomuseum:daterange_start": "1981-01-01",
    "sfomuseum:description": "System timetable issued by Aspen Airways, effective August 1, 1981; off-white and orange single-sided sheet with airline servicemark at top.",
    "sfomuseum:dimensions": "9 x 4 inches (22.9 x 10.2 cm)",
    "sfomuseum:medium": "paper, ink",
    "sfomuseum:object_id": 156790,
    "sfomuseum:placetype": "object",
    "sfomuseum:publication": ": , 1981.",
    "sfomuseum:subcategory": "Timetable",
    "src:geom": "sfomuseum#undetermined",
    "wof:belongsto": [
      102527513,
      1159162825,
      102191575,
      85633793,
      102087579,
      85922583,
      85688637,
      1159160869
    ],
    "wof:country": "XY",
    "wof:created": 1646383359,
    "wof:depicts": [
      1159283919,
      1159288525
    ],
    "wof:geomhash": "c281b9d9eefc83b5710e64b9d646067d",
    "wof:hierarchy": [
      {
        "building_id": -1,
        "campus_id": 102527513,
        "collection_id": 1159162825,
        "concourse_id": 1159162825,
        "continent_id": 102191575,
        "country_id": 85633793,
        "county_id": 102087579,
        "custom_id": 1763195393,
        "locality_id": 85922583,
        "neighbourhood_id": -1,
        "object_id": 1763195393,
        "region_id": 85688637,
        "wing_id": 1159160869
      }
    ],
    "wof:id": 1763195393,
    "wof:lastmodified": 1787988205,
    "wof:name": "timetable: Aspen Airways",
    "wof:parent_id": 1159162825,
    "wof:placetype": "custom",
    "wof:placetype_alt": [
      "object"
    ],
    "wof:repo": "sfomuseum-data-collection",
    "wof:superseded_by": [],
    "wof:supersedes": []
  },
  "bbox": [
    -122.38647222518921,
    37.6161053594541,
    -122.38583385944366,
    37.61661101879963
  ],
  "geometry": {"type":"Polygon","coordinates":[[[-122.38647222518921,37.61631782178288],[-122.386434674263,37.61623283692423],[-122.38637566566466,37.61617759671399],[-122.38630056381224,37.6161308549656],[-122.38616108894348,37.6161053594541],[-122.38602161407469,37.6161308549656],[-122.38591432571411,37.61618609521055],[-122.38585531711577,37.61626683087935],[-122.38583385944366,37.61636881265146],[-122.38587141036987,37.61646654505181],[-122.38594114780425,37.61654303118856],[-122.38605380058287,37.61660252035167],[-122.38618254661559,37.61661101879963],[-122.3863059282303,37.61657277577607],[-122.3864185810089,37.61650903735973],[-122.3864668607712,37.61641130501523],[-122.38647222518921,37.61631782178288]]]}
}
