{
  "id": 1762684057,
  "type": "Feature",
  "properties": {
    "date:cessation_lower": "1950-09-24",
    "date:cessation_upper": "1950-09-24",
    "date:inception_lower": "1950-09-24",
    "date:inception_upper": "1950-09-24",
    "edtf:cessation": "1950-09-24",
    "edtf:inception": "1950-09-24",
    "geom:area": 2.475047457570636e-7,
    "geom:bbox": "-122.386472,37.616105,-122.385834,37.616611",
    "geom:latitude": 37.61635747477365,
    "geom:longitude": -122.38615540108617,
    "millsfield:airline_id": [
      1762973287
    ],
    "millsfield:category_id": 1511214223,
    "millsfield:collection_id": 1511214207,
    "millsfield:company_id": [
      1159288193
    ],
    "millsfield:images": [
      1762702401
    ],
    "millsfield:images_colors_refs": {
      "crayola": [
        {
          "hex": "#efdecd"
        },
        {
          "hex": "#9c2542"
        }
      ],
      "css4": [
        {
          "hex": "#dcdcdc"
        },
        {
          "hex": "#a52a2a"
        }
      ],
      "marekm4": [
        {
          "hex": "#9c282c"
        },
        {
          "hex": "#eae3d4"
        }
      ]
    },
    "millsfield:images_texts": [
      "FRONTIER AIRLINES\nSERVING THE ROCKY MOUNTAIN EMPIRE\nEffective September 24, 1950\nLight numerals indicate A.M. time. Bold numerals indicate P.M. time\nDouglas DC-3 equipment on all flights\nPM\nBILLINGS - DENVER \u0026 SALT LAKE CITY\nYIA WYOMING POINTS\nREAD DOWN\nAM\nALL FLIGHTS DAILY\nMountain Standard Time\nMont.\nPM\nPM\n.Ar11:16\n....\n3:00\n3:36\n4:00\n4:23\n4:59\n5:46\n6:01\nAM\n8:00\nLv...\n8:36 Lv..\nCody,\nPowell,\nLove! l\nWyo.\n(1)\n....Lv 10:44\nAM\n11:59\n11:27\n9:00\nLv..\n9:23\nLv..\n10:04\n10:48\nry orlaniu\n...LY 10:18\n9:52\n.Lv 9:18\n8:20\n11:03\n0:40\n10:06\nRock\nRawlins,\nSprings, Wy\nWyo.\nRawlins, Wyo\nLaramie,\nWyo\nnevenne\nGreeley,\nColo.\nDenver, Colo.\n6:01\n12:41\nRock Springs, Wyo.\n:26\n2:24\n. Vernal,\nUtah.\nSalt Lake City, Utah\n(1)\nServed by\nPowell Municipal Airport from where ground transp\nServed\nd by Gerton Municipal Airport from where ground\n5:10\nYou Buy Round Trip\nReturn Ticket When\nYou Save 10% on\nSALT LAKE CITY - GRAND JUNCTION - DENVER\nROCK SPRINGS • CHEYENNE\nALL FLIGHTS DAILY\nMountain Standard Time\n= =3\nREAD DOWN\n72\nAM\nAM\nPM\n7:00\n5:10\n6:35\n4-1\nAM\n7:20\nAM\n73\n5:05\n6:37\n333:\n... Salt Lake City, Utah\nVernal. uran\nRock\nRiverton\n.Casper,\nRawlins,\nramie\ncheyenn\ncreeley\nProvo\n• Grand\nPrice,\nUtah\nlurction, Cold\nMontrose\n.. | Delta, Colo.\nGunnison,\nColo.\n12:32\n12:41\n4:27\n5:13\n$5:36\nPM\nPM\n10:124\n10:42\n11:12\n11:58\n$12:21\n$1:06\nPM\n÷ ÷÷\n9:31\nPM\n1:53 Ar.\nPM\nPueblo, Colo\n... Denver, Colo\n9:30\n9:00\n8:11\n₺7:52\n9:15 ÷7:00\nAM\nAM\n07\n10:25\n3.12\n2:45\n2:15\n1:26\n‡12:15\nPM\nPM\n19\nDENVER \u0026 SALT LAKE CITY - ALBUQUERQUE - PHOENIX\nGRAND JUNCTION • DURANGO\nREAD DOWN\n17\nPM\nPM\nAM\nALL FLIGHIS DAILTI\nMountain Standard Time\nBEAR UP\n16\n10\nAM\n14\nAM\n244370080\n127i\n1800m808\n10:20\nAM\n7:30 L\n8:06\n333333322·323332\nDenver, Colo.\ncolorado Springs, Coll\nPueblo, Colo.\n..Alamosa,\nColo. I.\nMonte Vista, Colo.\nSalt Looko, tya Utah\n...Provo,\n.... Price, Utah\nGrand Junction, Colo.\nCortez, Colo.\nFarmington,\n23333232333ž\n33\n. Lv\n1:06\n10:50\n10.51\n9:48\nGallup, N. M\nAlbuquerque, N. M..\nWinslow\n....Flagstaff,\nAMIT\nAriz\n. Prescott, Ariz.\n....Phoenix, Ariz.\n8:30\n7:23-\n7:10\n7.15\n6:10\n:38\n4940\n(a)\n2015.167.380"
    ],
    "millsfield:images_texts_ids": [
      1762702401
    ],
    "millsfield:primary_image": 1762702401,
    "millsfield:subcategory_id": 1511213425,
    "mz:is_current": 1,
    "sfomuseum:accession_number": "2015.167.380",
    "sfomuseum:airline": "Frontier Airlines",
    "sfomuseum:airline_id": [
      1503
    ],
    "sfomuseum:category": "Scheduling / Ticketing",
    "sfomuseum:classification_id": 158,
    "sfomuseum:collection": "Aviation Archive",
    "sfomuseum:creditline": "Gift of Thomas G. Dragges",
    "sfomuseum:date": "09/24/1950",
    "sfomuseum:date_acquired": "2016-07-06",
    "sfomuseum:daterange_end": "1950-09-24",
    "sfomuseum:daterange_start": "1950-09-24",
    "sfomuseum:description": "Timetable issued by Frontier Airlines, effective September 24, 1950; multi-fold single page; white and red cover with illustration of a route map from Montana to Texas. ",
    "sfomuseum:dimensions": "10 x 4 inches (25.4 x 10.2 cm)",
    "sfomuseum:medium": "paper, ink",
    "sfomuseum:object_id": 174361,
    "sfomuseum:placetype": "object",
    "sfomuseum:publication": ": , 1950.",
    "sfomuseum:subcategory": "Timetable",
    "src:geom": "sfomuseum#undetermined",
    "wof:belongsto": [
      102527513,
      1159162825,
      102191575,
      85633793,
      102087579,
      85922583,
      85688637,
      1159160869
    ],
    "wof:country": "XY",
    "wof:created": 1641340868,
    "wof:depicts": [
      1159284401,
      1159288193,
      1762973287
    ],
    "wof:geomhash": "c281b9d9eefc83b5710e64b9d646067d",
    "wof:hierarchy": [
      {
        "building_id": -1,
        "campus_id": 102527513,
        "collection_id": 1159162825,
        "concourse_id": 1159162825,
        "continent_id": 102191575,
        "country_id": 85633793,
        "county_id": 102087579,
        "custom_id": 1762684057,
        "locality_id": 85922583,
        "neighbourhood_id": -1,
        "object_id": 1762684057,
        "region_id": 85688637,
        "wing_id": 1159160869
      }
    ],
    "wof:id": 1762684057,
    "wof:lastmodified": 1787988194,
    "wof:name": "timetable: Frontier Airlines",
    "wof:parent_id": 1159162825,
    "wof:placetype": "custom",
    "wof:placetype_alt": [
      "object"
    ],
    "wof:repo": "sfomuseum-data-collection",
    "wof:superseded_by": [],
    "wof:supersedes": []
  },
  "bbox": [
    -122.38647222518921,
    37.6161053594541,
    -122.38583385944366,
    37.61661101879963
  ],
  "geometry": {"type":"Polygon","coordinates":[[[-122.38647222518921,37.61631782178288],[-122.386434674263,37.61623283692423],[-122.38637566566466,37.61617759671399],[-122.38630056381224,37.6161308549656],[-122.38616108894348,37.6161053594541],[-122.38602161407469,37.6161308549656],[-122.38591432571411,37.61618609521055],[-122.38585531711577,37.61626683087935],[-122.38583385944366,37.61636881265146],[-122.38587141036987,37.61646654505181],[-122.38594114780425,37.61654303118856],[-122.38605380058287,37.61660252035167],[-122.38618254661559,37.61661101879963],[-122.3863059282303,37.61657277577607],[-122.3864185810089,37.61650903735973],[-122.3864668607712,37.61641130501523],[-122.38647222518921,37.61631782178288]]]}
}
