{
  "id": 1762831991,
  "type": "Feature",
  "properties": {
    "date:cessation_lower": "1943-01-01",
    "date:cessation_upper": "1943-12-31",
    "date:inception_lower": "1943-01-01",
    "date:inception_upper": "1943-12-31",
    "edtf:cessation": "1943~",
    "edtf:inception": "1943~",
    "geom:area": 2.475047457570636e-7,
    "geom:bbox": "-122.386472,37.616105,-122.385834,37.616611",
    "geom:latitude": 37.61635747477365,
    "geom:longitude": -122.38615540108617,
    "millsfield:airline_id": [
      1159285393
    ],
    "millsfield:category_id": 1511214239,
    "millsfield:collection_id": 1511214207,
    "millsfield:company_id": [
      1159287531
    ],
    "millsfield:images": [
      1762895059,
      1762895063
    ],
    "millsfield:images_colors_refs": {
      "crayola": [
        {
          "hex": "#cdc5c2"
        },
        {
          "hex": "#000000"
        },
        {
          "hex": "#414a4c"
        },
        {
          "hex": "#9f8170"
        }
      ],
      "css4": [
        {
          "hex": "#000000"
        },
        {
          "hex": "#2f4f4f"
        },
        {
          "hex": "#d3d3d3"
        },
        {
          "hex": "#808080"
        },
        {
          "hex": "#c0c0c0"
        }
      ],
      "marekm4": [
        {
          "hex": "#3c3a33"
        },
        {
          "hex": "#dacfb6"
        },
        {
          "hex": "#a09172"
        },
        {
          "hex": "#d1c8af"
        },
        {
          "hex": "#131314"
        }
      ]
    },
    "millsfield:images_texts": [
      "Esso",
      "JANUARY\nSMIWTFS\n12\n-\n-\n13 14 15\n1319?\nI2LZ\n24\n25 28 27 28 29 30 31\nMAT\nSMTWT FS\n2 34 5 8\n3 14 15\n22\n28 23\nSEPTEMBER\nSMTWIFS\n12 13\n15 15\n17 18\n19 20 21\n22 13 24:25\n26 21 28 23 38\nJANUARY\nSMTWIFS\n5\n2\n15\n19 20 21\n22\n23 21 25 26 27 28 23\n30 31\nMAT\n5 M\nBER\n1948\nS M\nFEBRUARY\nWIFS\n121314\n16.17 18 18 28 21\n22 23 24 25 16 27 28\n29\nMARCH\nSMIRIES\n111\n1 1 1181112\n13\n18 15 18 17 18-1818\n21 22 27 14 25 26 27\n28 29 18 31\nJUNE\nSMIWTFS\nSMIWIES\n1 25 25\nPRIL\nEMINTEE\n111\n1 1 118\n14 15 18 17\n2221\n1222024\n23 19 38\n60ST\nBIES\n1511\n11 12 13 14\n19 19 21\n28 27 28\n27 28 23 38\nOCTOBER\nNOVEMBER\nEMINIES\nDECEMBER\nSMINTEE\n11\n192\n25 15 27\n11101\n1518 17 18\nI3 11\n1111145\n11 18 11\n24 25 29 17\n11\n1949\nAPREL\n1 MI\nWILL\nFEBRUE\nSMIWI\nF\nS M\n41\n1811 12\n1318\n16 172\n1114.15\n28 21 22 23 24 25.25\n2121 2122\n11455.15\n1625 28 77 28 28 38\n11 28\n17 18.13\nJUNE\nM TWTFS\nS N\nAUGUST\nVIES\nHELL\n10.11\n14 15.18\n22 21 21.25\n111\n1425.28\n181338\n2711152877\n1301l\nOVEMBER\nTS\nOCTOBER\nF S\nM\nEsso\nAviation Handbook\nSEPUL\nM\nPresented wish the Compliments of\n25 Broad Street\nESSO EXPORT CORPORATION\nAVIATION DEPARTMENT\nNew York 4, N. Y., US.A."
    ],
    "millsfield:images_texts_ids": [
      1762895059,
      1762895063
    ],
    "millsfield:primary_image": 1762895059,
    "millsfield:subcategory_id": 1511213693,
    "mz:is_current": 1,
    "sfomuseum:accession_number": "2006.025.003",
    "sfomuseum:airline": "TWA (Trans World Airlines)",
    "sfomuseum:airline_id": [
      874
    ],
    "sfomuseum:category": "Company Record / Document",
    "sfomuseum:classification_id": 468,
    "sfomuseum:collection": "Aviation Archive",
    "sfomuseum:creditline": "Gift of Denis Neumann",
    "sfomuseum:date": "c. 1943",
    "sfomuseum:date_acquired": "2006-05-31",
    "sfomuseum:daterange_end": "1948-12-31",
    "sfomuseum:daterange_start": "1938-01-01",
    "sfomuseum:description": "Handbook with textured black leather cover and Esso name flanked by wing logo in gold; contents include listing and description of aviation products, marketers, conversion and navigational charts, atlas and handwritten entries in ink by user.",
    "sfomuseum:dimensions": "6 x 4 x 1/4 inches (15.2 x 10.2 x .6 cm)",
    "sfomuseum:maker": "Esso Export Corporation",
    "sfomuseum:medium": "leather, paper, ink",
    "sfomuseum:object_id": 79989,
    "sfomuseum:placetype": "object",
    "sfomuseum:publication": "New York: TWA Master Executive Council, c. 1943.",
    "sfomuseum:publisher": "TWA Master Executive Council",
    "sfomuseum:publisher_location": "New York",
    "sfomuseum:subcategory": "Manual, Training",
    "src:geom": "sfomuseum#undetermined",
    "wof:belongsto": [
      102527513,
      1159162825,
      102191575,
      85633793,
      102087579,
      85922583,
      85688637,
      1159160869
    ],
    "wof:country": "XY",
    "wof:created": 1642730355,
    "wof:depicts": [
      1159287531,
      1159285393
    ],
    "wof:geomhash": "c281b9d9eefc83b5710e64b9d646067d",
    "wof:hierarchy": [
      {
        "building_id": -1,
        "campus_id": 102527513,
        "collection_id": 1159162825,
        "concourse_id": 1159162825,
        "continent_id": 102191575,
        "country_id": 85633793,
        "county_id": 102087579,
        "custom_id": 1762831991,
        "locality_id": 85922583,
        "neighbourhood_id": -1,
        "object_id": 1762831991,
        "region_id": 85688637,
        "wing_id": 1159160869
      }
    ],
    "wof:id": 1762831991,
    "wof:lastmodified": 1787988202,
    "wof:name": "aviation handbook: Esso",
    "wof:parent_id": 1159162825,
    "wof:placetype": "custom",
    "wof:placetype_alt": [
      "object"
    ],
    "wof:repo": "sfomuseum-data-collection",
    "wof:superseded_by": [],
    "wof:supersedes": []
  },
  "bbox": [
    -122.38647222518921,
    37.6161053594541,
    -122.38583385944366,
    37.61661101879963
  ],
  "geometry": {"type":"Polygon","coordinates":[[[-122.38647222518921,37.61631782178288],[-122.386434674263,37.61623283692423],[-122.38637566566466,37.61617759671399],[-122.38630056381224,37.6161308549656],[-122.38616108894348,37.6161053594541],[-122.38602161407469,37.6161308549656],[-122.38591432571411,37.61618609521055],[-122.38585531711577,37.61626683087935],[-122.38583385944366,37.61636881265146],[-122.38587141036987,37.61646654505181],[-122.38594114780425,37.61654303118856],[-122.38605380058287,37.61660252035167],[-122.38618254661559,37.61661101879963],[-122.3863059282303,37.61657277577607],[-122.3864185810089,37.61650903735973],[-122.3864668607712,37.61641130501523],[-122.38647222518921,37.61631782178288]]]}
}
