{
  "id": 1511942953,
  "type": "Feature",
  "properties": {
    "date:cessation_lower": "1996-01-01",
    "date:cessation_upper": "1996-12-31",
    "date:inception_lower": "1996-01-01",
    "date:inception_upper": "1996-12-31",
    "edtf:cessation": "1996",
    "edtf:date": "1996",
    "edtf:inception": "1996",
    "geom:area": 0,
    "geom:bbox": "-122.386155,37.616357,-122.386155,37.616357",
    "geom:latitude": 37.616357,
    "geom:longitude": -122.386155,
    "iso:country": "XX",
    "millsfield:airline_id": [
      1159284711
    ],
    "millsfield:category_id": 1762671311,
    "millsfield:collection_id": 1511214207,
    "millsfield:company_id": [
      1159288215
    ],
    "millsfield:images": [
      1527844949,
      1527844951
    ],
    "millsfield:images_colors_refs": {
      "crayola": [
        {
          "hex": "#c46210"
        },
        {
          "hex": "#000000"
        },
        {
          "hex": "#ffffff"
        },
        {
          "hex": "#414a4c"
        },
        {
          "hex": "#ffae42"
        },
        {
          "hex": "#fddde6"
        }
      ],
      "css4": [
        {
          "hex": "#f4a460"
        },
        {
          "hex": "#000000"
        },
        {
          "hex": "#2f4f4f"
        },
        {
          "hex": "#fffaf0"
        },
        {
          "hex": "#faf0e6"
        },
        {
          "hex": "#d2691e"
        }
      ],
      "marekm4": [
        {
          "hex": "#2b1c1b"
        },
        {
          "hex": "#ca6522"
        },
        {
          "hex": "#faf8ef"
        },
        {
          "hex": "#515051"
        },
        {
          "hex": "#e9b342"
        },
        {
          "hex": "#f8f3e2"
        }
      ]
    },
    "millsfield:images_texts": [
      "Lufthansa First Class\nMenu\n8ZA",
      "Für Passagiere, die ein leichtes Frühstück\nvorziehen oder länger schlafen möchten,\nnalten wir bis zu 45 Minuten vor der Landung\nein kleines Frühstück bereit.\nWe offer a Continental Breakfast\nup to 45 minutes before landing\nto accommodate passengers who prefer\na light Breakfast or additional sleep.\nOfrecemos un desayuno continental\nhacta dh minic antoc del atomizair\npara complacer a los pasajeros que prefieren\nun desayuno ligero o dormir más.\n6 121F003-C\nFrühstücksbuffet\nChampagner\nFrischer Orangensaft\nFrischer Fruchtsalat\nNaturjoghurt, Getreideflocken,\nMüsli und frische Milch\nmit Sonnenblumenkernen,\nWalnüssen und Dörrobst\nBagel, Brötchen,\nMuffins, Croissants und Plundergebäck\nmit Rahmkäse, Butter,\nDiätmargarine, Konfitüre und Honig\nTomatenomelett\nKartoffelpuffer mit Würstchen und Tomate\nAufschnitt\noder\nKleines Frühstück*\nFrischer Orangensaft\nBagel, Brötchen,\nMuffins, Croissants und Plundergebäck\nmit Rahmkäse, Butter,\nDiätmargarine, Konfitüre und Honig\nMilder Hochlandkaffee aus Kolumbien\nTeel\n* Unser kleines Frühstück kann auch\nam Vorabend beim Flugbegleiter\nbestellt werden.\nBreakfast Buffet\nChampagne\nFresh Orange Juice\nFresh Fruit Salad\nPlain Yogurt, Cereal,\nMuesli and fresh Milk\naccompanied by Sunflower Seeds,\nWalnuts and Dried Fruit\nBagels, Rolls,\nMuffins, Croissants and Danish Pastry\nwith Cream Cheese, Butter,\nDiet Margarine, Jam and Honey\nTomato Omelette\nPotato Pancakes with Sausage and Tomato\nA variety of Cold Cuts\nor\nContinental Breakfast*\nFresh Orange Juice\nBagels, Rolls,\nMuffins, Croissants and Danish Pastry\nwith Cream Cheese, Butter,\nDiet Margarine, Jam and Honey\nMild Coffee from the Highlands of Colombia\nTea\n* Our Continental Breakfast may be ordered\nthe previous evening. Please contact your\nFlight Attendant.\nBuffet de Desayuno\nChampagne\nJugo fresco de naranja\nEnsalada de fruta fresca\nYogur natural, cereal,\nMuesli y leche fresca\nacompañados con semillas de girasol,\nnueces y fruta seca\n«Bagels», panecillos,\n«Muffins», Croissants y pasteles,\nservidos con queso crema, mantequilla,\nmargarina de dieta, mermelada y miel\nTortilla de tomate\nPancakes de papa con salchicha y tomate\nUna variedad de fiambres\nDesayuno Continental*\nJugo fresco de naranja\n«Bagels», panecillos,\n«Muffins», Croissants y pasteles,\nservidos con queso crema, mantequilla,\nmargarina de dieta, mermelada y miel\nCafé suave de altura de Colombia\nTé\n* Nuestro desayuno continental puede ser\nordenado la noche anterior. Por favor avise\na su asistente de vuelo.\n121-003.6"
    ],
    "millsfield:images_texts_ids": [
      1527844949,
      1527844951
    ],
    "millsfield:primary_image": 1527844949,
    "millsfield:subcategory_id": 1511213567,
    "mz:hierarchy_label": 1,
    "mz:is_current": 1,
    "sfomuseum:accession_number": "2010.194.036",
    "sfomuseum:airline": "Lufthansa",
    "sfomuseum:airline_id": [
      560
    ],
    "sfomuseum:category": "Passenger Amenity, Archive",
    "sfomuseum:classification_id": 242,
    "sfomuseum:collection": "Aviation Archive",
    "sfomuseum:creditline": "Gift of Hans and Margret Steuck",
    "sfomuseum:date": "1996",
    "sfomuseum:date_acquired": "2010-11-29",
    "sfomuseum:daterange_end": "1996-12-31",
    "sfomuseum:daterange_start": "1996-01-01",
    "sfomuseum:description": "Menu issued by Lufthansa; white cover with color photographic image of berries and sauce; dinner and breakfast menu items include sauerbraten, salmon fillet, and muesli; menu number: 121F003-C; class: first; date: 5/96-6/96.",
    "sfomuseum:dimensions": "11 3/4 x 8 1/4 inches (29.8 x 21 cm)",
    "sfomuseum:media_ids": [
      1527844949,
      1527844951
    ],
    "sfomuseum:medium": "paper, ink, metal",
    "sfomuseum:object_id": 110420,
    "sfomuseum:placetype": "object",
    "sfomuseum:primary_media_id": 1527844949,
    "sfomuseum:publication": ": , 1996.",
    "sfomuseum:subcategory": "Menu",
    "src:geom": "sfomuseum#undetermined",
    "wof:belongsto": [
      1159162825,
      102527513,
      102191575,
      85633793,
      85922583,
      102087579,
      1159160869,
      85688637
    ],
    "wof:breaches": [],
    "wof:country": "XX",
    "wof:created": 1579906662,
    "wof:depicts": [
      1159284711,
      1159288215
    ],
    "wof:geomhash": "30c8a918561c84bb2daa2b97fc7c5353",
    "wof:hierarchy": [
      {
        "building_id": -1,
        "campus_id": 102527513,
        "concourse_id": 1159162825,
        "continent_id": 102191575,
        "country_id": 85633793,
        "county_id": 102087579,
        "custom_id": 1511942953,
        "locality_id": 85922583,
        "neighbourhood_id": -1,
        "object_id": 1511942953,
        "region_id": 85688637,
        "venue_id": 1511942953,
        "wing_id": 1159160869
      }
    ],
    "wof:id": 1511942953,
    "wof:lastmodified": 1787988185,
    "wof:name": "menu: Lufthansa, First Class",
    "wof:parent_id": 1159162825,
    "wof:placetype": "custom",
    "wof:placetype_alt": [
      "object"
    ],
    "wof:repo": "sfomuseum-data-collection",
    "wof:superseded_by": [],
    "wof:supersedes": [],
    "wof:tags": []
  },
  "bbox": [
    -122.386155,
    37.616357,
    -122.386155,
    37.616357
  ],
  "geometry": {"type":"Point","coordinates":[-122.386155,37.616357]}
}
