{
  "id": 1511957387,
  "type": "Feature",
  "properties": {
    "date:cessation_lower": "1986-01-01",
    "date:cessation_upper": "1986-12-31",
    "date:inception_lower": "1986-01-01",
    "date:inception_upper": "1986-12-31",
    "edtf:cessation": "1986",
    "edtf:date": "1986",
    "edtf:deprecated": "2026-04-02",
    "edtf:inception": "1986",
    "geom:area": 0,
    "geom:bbox": "-122.370943,37.617990,-122.370943,37.617990",
    "geom:latitude": 37.61799,
    "geom:longitude": -122.370943,
    "iso:country": "US",
    "mz:hierarchy_label": 1,
    "mz:is_approximate": 1,
    "mz:is_current": 0,
    "sfomuseum:placetype": "object",
    "src:geom": "sfomuseum#derived",
    "src:geom_derived_from": [
      102527513
    ],
    "wof:belongsto": [],
    "wof:breaches": [],
    "wof:country": "US",
    "wof:created": 1618962265,
    "wof:depicts": [
      102527513
    ],
    "wof:geomhash": "bf40c3bc435019ba74db5659992d9e04",
    "wof:hierarchy": [
      {
        "custom_id": 1511957387,
        "object_id": 1511957387
      }
    ],
    "wof:id": 1511957387,
    "wof:lastmodified": 1775155789,
    "wof:name": "This record has been deprecated.",
    "wof:parent_id": -1,
    "wof:placetype": "custom",
    "wof:placetype_alt": [
      "object"
    ],
    "wof:repo": "sfomuseum-data-collection",
    "wof:superseded_by": [],
    "wof:supersedes": [],
    "wof:tags": []
  },
  "bbox": [
    -122.370943,
    37.61799,
    -122.370943,
    37.61799
  ],
  "geometry": {"type":"MultiPoint","coordinates":[[-122.370943,37.61799]]}
}
