{
  "id": 1763195573,
  "type": "Feature",
  "properties": {
    "date:cessation_lower": "1968-01-01",
    "date:cessation_upper": "1968-12-31",
    "date:inception_lower": "1968-01-01",
    "date:inception_upper": "1968-12-31",
    "edtf:cessation": "1968",
    "edtf:inception": "1968",
    "geom:area": 2.475047457570636e-7,
    "geom:bbox": "-122.386472,37.616105,-122.385834,37.616611",
    "geom:latitude": 37.61635747477365,
    "geom:longitude": -122.38615540108617,
    "millsfield:airline_id": [
      1159285391
    ],
    "millsfield:category_id": 1511214223,
    "millsfield:collection_id": 1511214207,
    "millsfield:company_id": [
      1159286977
    ],
    "millsfield:images": [
      1763196251,
      1763196253,
      1763196257
    ],
    "millsfield:images_colors_refs": {
      "crayola": [
        {
          "hex": "#9f8170"
        },
        {
          "hex": "#414a4c"
        },
        {
          "hex": "#efdecd"
        },
        {
          "hex": "#ff2b2b"
        },
        {
          "hex": "#714b23"
        },
        {
          "hex": "#efcdb8"
        }
      ],
      "css4": [
        {
          "hex": "#2f4f4f"
        },
        {
          "hex": "#f5deb3"
        },
        {
          "hex": "#800000"
        },
        {
          "hex": "#556b2f"
        },
        {
          "hex": "#808080"
        },
        {
          "hex": "#ff4500"
        }
      ],
      "marekm4": [
        {
          "hex": "#efd5bd"
        },
        {
          "hex": "#f32812"
        },
        {
          "hex": "#e92f1d"
        },
        {
          "hex": "#4e1f15"
        },
        {
          "hex": "#a1936e"
        },
        {
          "hex": "#444340"
        },
        {
          "hex": "#eadcc3"
        },
        {
          "hex": "#e8dbb8"
        },
        {
          "hex": "#4a2f16"
        }
      ]
    },
    "millsfield:images_texts": [
      "THY\nYAZ TARİFESİ\nSUMMER TIMETABLE\nI NİSAN 1968 DEN İTİBAREN UYGULANACAKTIR\n(Effective from Ist April 1968)\nTÜRK HAVA YOLLARI\nTURKISH AIRLINES\nIATA",
      "AMSTERDAM\nFRANKFURT\nBRUKSEL - Brussels\nVİYANA - Wien\nMUNIH - München\nFARIS\nZORİH - Zürich\nROMA - Rome\nISTANBUL\nBANDIRMA\nBURSA\nIZMIR\nATINA - Athens\nANKARA\nAFYON\nTRABZON\nSAMSUN\nERZURUM\nERZINCAN\n,SiVAS\nVAN\nELAZIG\nMALATYA BATMAN\nDIYARBAKIR\nKAYSERI\nADANA\nANTALYA\nBEYRUT - Beirut\nLEFKOSE • Nicosia -\nTEL-AVIV",
      "3\n5\nF\nY (T)\nF - 27\nVISC\nDC - 9\nC-9\nBG\nİŞARETLER - SYMBOLS\nPAZARTESİ - Monday\nSALI - Tuesday\nÇARŞAMBA - Wednesday\nPERSEMBE - Thursday\nCUMA - Friday\nCUMARTESİ - Saturday\nPAZAR - Sunday\nHERGÜN - Daily\nPAZAR HARİÇ HERGÜN - Weekdays\nBİRİNCİ SINIF - First Class\nTURİST SINIFI - Tourist Class\nB SINIFI - B Class\nUÇUŞ No. - Flight No.\nFAIRCHILD - FOKKER\nVISCOUNT - 794\nDOUGLAS - DC- 9\nCORONADO-990\nBOEING - 727\nCARAVELLE\nKALKIŞ - Departure\nVARIŞ - Arrival\nKAHVALTI - Breakfast\nSERİNLETİCİ - Refreshment\nTAKVİYELİ SERİNLETİCİ - Snack\nYEMEK - Meal\nOTOBÜS SERVİSİ SAĞLANMIŞTIR\nGround Transportation is Provided\nBİLET SATIŞ BÜROSU - Booking Office\nGİDİŞ ÜCRETİ - One Way\nGİDİŞ DÖNÜŞ ÜCRETİ - Round Trip\nİRTİBATLI SEFER - Connecting Flight\nBUtun saatler mahallidir - All times shown are local time:\nİÇİNDEKİLER - CONTENTS\nAVRUPA HATLARI\nEuropean Routes ( Westbound )\nAVRUPA HATLARI\nEuropean Routes (Easbound)\nBEYRUT ( Beirut )\nLEFKOŞE ( Nicosia )\nATİNA ( Athens)\nTEL - AVİV\nİSTANBUL - ANKARA - İSTANBUL\nİSTANBUL - İZMİR - İSTANBUL\nISTANBUL - BURSA - İSTANBUL\nISTANBUL - BANDIRMA - ISTANBUL\nISTANBUL - ANKARA - AFYON - ANTALYA\nISTANBUL - ANKARA - ADANA\nISTANBUL - ANKARA - SAMSUN - TRÅBZON\nISTANBUL - ANKARA - SİVAS - ERZİNCAN - ERZURUM\nİSTANBUL - ANKARA - KAYSERİ - ELÅZIĞ\nANKARA - IZMİR - ANKARA\nISTANBUL - ANKARA - MALATYA- D •BAKIR - BATMAN - VAN\nTHY Yurt dışı yolcu ücretleri\nTHY International passanger fares\nTHY Yurt içi yolcu ücretleri\nTHY Domestic passanger fares\nTHY Yurt İçi kargo ücretleri\nTHY Domestic cargo rates\nTHY Otobüs Servisleri ve ücretleri\nTHY Bus Services and fares\nYolcular için genel bilgi\nGeneral information for passengers\nTHY Büro ve genel satis acenteler\nTHY sales offices and generalsales agencies\nTakvim - calendar\n3\nTABLO\nSAYFA\nPage\n2\n4\n5\n6\n9\n10\n11\n12\n13\n14\n15\n16\n4 - 5\n6 -7\n8\n8\n9\n9\n10\n11\n12\n12\n13\n14\n15\n16\n17\n17\n18\n19-37\n38-40\n41-46\n47\n48-49\n50-52\n55"
    ],
    "millsfield:images_texts_ids": [
      1763196251,
      1763196253,
      1763196257
    ],
    "millsfield:primary_image": 1763196251,
    "millsfield:subcategory_id": 1511213425,
    "mz:is_current": 1,
    "sfomuseum:accession_number": "2012.173.440",
    "sfomuseum:airline": "Turkish Airlines",
    "sfomuseum:airline_id": [
      873
    ],
    "sfomuseum:category": "Scheduling / Ticketing",
    "sfomuseum:classification_id": 158,
    "sfomuseum:collection": "Aviation Archive",
    "sfomuseum:creditline": "Gift of Willard F. Keeney",
    "sfomuseum:date": "1968",
    "sfomuseum:date_acquired": "2013-03-28",
    "sfomuseum:daterange_end": "1968-12-31",
    "sfomuseum:daterange_start": "1968-01-01",
    "sfomuseum:description": "Timetable issued by Turkish Airlines, effective April 1, 1968, summer service; red cover with white lettering and Turkish Airlines logo; includes route map; in English and Turkish.",
    "sfomuseum:dimensions": "6 1/2 x 3 3/4 inches (16.5 x 9.5 cm)",
    "sfomuseum:medium": "paper, ink",
    "sfomuseum:object_id": 141544,
    "sfomuseum:placetype": "object",
    "sfomuseum:publication": ": , 1968.",
    "sfomuseum:subcategory": "Timetable",
    "src:geom": "sfomuseum#undetermined",
    "wof:belongsto": [
      102527513,
      1159162825,
      102191575,
      85633793,
      102087579,
      85922583,
      85688637,
      1159160869
    ],
    "wof:country": "XY",
    "wof:created": 1646383405,
    "wof:depicts": [
      1159285391,
      1159286977
    ],
    "wof:geomhash": "c281b9d9eefc83b5710e64b9d646067d",
    "wof:hierarchy": [
      {
        "building_id": -1,
        "campus_id": 102527513,
        "collection_id": 1159162825,
        "concourse_id": 1159162825,
        "continent_id": 102191575,
        "country_id": 85633793,
        "county_id": 102087579,
        "custom_id": 1763195573,
        "locality_id": 85922583,
        "neighbourhood_id": -1,
        "object_id": 1763195573,
        "region_id": 85688637,
        "wing_id": 1159160869
      }
    ],
    "wof:id": 1763195573,
    "wof:lastmodified": 1787988205,
    "wof:name": "timetable: Turkish Airlines, summer schedule",
    "wof:parent_id": 1159162825,
    "wof:placetype": "custom",
    "wof:placetype_alt": [
      "object"
    ],
    "wof:repo": "sfomuseum-data-collection",
    "wof:superseded_by": [],
    "wof:supersedes": []
  },
  "bbox": [
    -122.38647222518921,
    37.6161053594541,
    -122.38583385944366,
    37.61661101879963
  ],
  "geometry": {"type":"Polygon","coordinates":[[[-122.38647222518921,37.61631782178288],[-122.386434674263,37.61623283692423],[-122.38637566566466,37.61617759671399],[-122.38630056381224,37.6161308549656],[-122.38616108894348,37.6161053594541],[-122.38602161407469,37.6161308549656],[-122.38591432571411,37.61618609521055],[-122.38585531711577,37.61626683087935],[-122.38583385944366,37.61636881265146],[-122.38587141036987,37.61646654505181],[-122.38594114780425,37.61654303118856],[-122.38605380058287,37.61660252035167],[-122.38618254661559,37.61661101879963],[-122.3863059282303,37.61657277577607],[-122.3864185810089,37.61650903735973],[-122.3864668607712,37.61641130501523],[-122.38647222518921,37.61631782178288]]]}
}
