{
  "id": 1511910071,
  "type": "Feature",
  "properties": {
    "date:cessation_lower": "1926-01-01",
    "date:cessation_upper": "1926-12-31",
    "date:inception_lower": "1926-01-01",
    "date:inception_upper": "1926-12-31",
    "edtf:cessation": "1926",
    "edtf:date": "1926",
    "edtf:inception": "1926",
    "geom:area": 0,
    "geom:bbox": "-122.391953,37.624731,-122.391953,37.624731",
    "geom:latitude": 37.624731,
    "geom:longitude": -122.391953,
    "iso:country": "US",
    "millsfield:airport_id": [
      1360695653
    ],
    "millsfield:category_id": 1511214239,
    "millsfield:collection_id": 1511214207,
    "millsfield:images": [
      1527856765
    ],
    "millsfield:images_colors_refs": {
      "crayola": [
        {
          "hex": "#414a4c"
        },
        {
          "hex": "#dbd7d2"
        }
      ],
      "css4": [
        {
          "hex": "#2f4f4f"
        },
        {
          "hex": "#d3d3d3"
        }
      ],
      "marekm4": [
        {
          "hex": "#4a4a3d"
        },
        {
          "hex": "#ddd8bf"
        }
      ]
    },
    "millsfield:images_texts": [
      "September 20,1926\nMr. Joseph J.Phillips\nRight of Way\nAgent\nCity \u0026 County of San Francisco\nSan Francisco, California\nDear Sir:-\nIn accordance with your request for a price on our\nland situated at Millbrae,\nwe beg leave to submit the following,\nproviding satisfactory financial terms can be arranged.\nWe will deliver this land to the City and County of\nSan Francisco to be used as a Municipal Air Port, for the sum\nof $1500. per acre, the area included in this agreement to be\nall of our land lying between the Pacific Gas and Electric\nCompany's High Tension Transmission Line Easement and our\neasement for cord purposes sixty ere in water,\na right-of-way\neasement for road\nalong the\nnorthwesterly and southeasterly boundaries.\nWe also agree that if satisfactory arrangements cannot\nbe made with the West Coast Porcelain Company for the use of\ntheir spur;, to include sufficient land for a spur track from\nthe present Southern Pacific Railroad to the proposed field\nat the price per acre mentioned above.\nIn the event that the City and County of San Francisco\ncould not make the full payment at this timethat the City and\nwe would consider\na proportion of deferred payments, provided\nCounty of San Francisco paid 6% interest on the deferred payments\nand ail taxes levied against the property.\nVery truly yours,\nBAYSIDE COMPANY\nBy.\nSecretary\nMale. sty\n1100\nSay el\nFrancisco\n337.76\n322. 6\n660.36.\nacu-\n3700 NAh."
    ],
    "millsfield:images_texts_ids": [
      1527856765
    ],
    "millsfield:primary_image": 1527856765,
    "millsfield:subcategory_id": 1511213483,
    "mz:hierarchy_label": 1,
    "mz:is_approximate": 1,
    "mz:is_current": 1,
    "sfomuseum:accession_number": "2000.018.018",
    "sfomuseum:airport": "Mills Field Municipal Airport of San Francisco",
    "sfomuseum:airport_id": [
      162
    ],
    "sfomuseum:category": "Company Record / Document",
    "sfomuseum:classification_id": 190,
    "sfomuseum:collection": "Aviation Archive",
    "sfomuseum:creditline": "Collection of SFO Museum",
    "sfomuseum:date": "1926",
    "sfomuseum:date_acquired": "1999-06-30",
    "sfomuseum:daterange_end": "1926-12-31",
    "sfomuseum:daterange_start": "1926-01-01",
    "sfomuseum:description": "Correspondence from Bayside Company to Joseph J. Phillips, Right of Way Agent, City and County of San Francisco, dated September 20, 1926, concerning offer of land for proposed airport for $1500.00 per acre; typewritten page.",
    "sfomuseum:dimensions": "11 x 8 inches (27.9 x 20.3 cm)",
    "sfomuseum:media_ids": [
      1527856765
    ],
    "sfomuseum:medium": "paper, ink",
    "sfomuseum:object_id": 50625,
    "sfomuseum:placetype": "object",
    "sfomuseum:primary_media_id": 1527856765,
    "sfomuseum:publication": ": , 1926.",
    "sfomuseum:subcategory": "Correspondence, Company",
    "src:geom": "sfomuseum#derived",
    "src:geom_derived_from": [
      1360695653
    ],
    "wof:belongsto": [
      102527513,
      102191575,
      85633793,
      85922583,
      102087579,
      85688637,
      1159162825,
      1159160869,
      1360695653,
      554784711,
      102085387
    ],
    "wof:breaches": [],
    "wof:country": "US",
    "wof:created": 1579906670,
    "wof:depicts": [
      1360695653
    ],
    "wof:geomhash": "3abf1c04b00c12d6593e9cd3c35f0056",
    "wof:hierarchy": [
      {
        "building_id": -1,
        "campus_id": 102527513,
        "collection_id": 1159162825,
        "concourse_id": 1159162825,
        "continent_id": 102191575,
        "country_id": 85633793,
        "county_id": 102087579,
        "custom_id": 1511910071,
        "locality_id": 85922583,
        "neighbourhood_id": -1,
        "object_id": 1511910071,
        "region_id": 85688637,
        "wing_id": 1159160869
      },
      {
        "campus_id": 1360695653,
        "continent_id": 102191575,
        "country_id": 85633793,
        "county_id": 102087579,
        "custom_id": 1511910071,
        "locality_id": 85922583,
        "object_id": 1511910071,
        "postalcode_id": 554784711,
        "region_id": 85688637
      },
      {
        "campus_id": 1360695653,
        "continent_id": 102191575,
        "country_id": 85633793,
        "county_id": 102085387,
        "custom_id": 1511910071,
        "object_id": 1511910071,
        "region_id": 85688637
      }
    ],
    "wof:id": 1511910071,
    "wof:lastmodified": 1787988176,
    "wof:name": "correspondence: Bayside Company, Joseph J. Phillips, proposed airport site",
    "wof:parent_id": 1159162825,
    "wof:placetype": "custom",
    "wof:placetype_alt": [
      "object"
    ],
    "wof:repo": "sfomuseum-data-collection",
    "wof:superseded_by": [],
    "wof:supersedes": [],
    "wof:tags": []
  },
  "bbox": [
    -122.391953,
    37.624731,
    -122.391953,
    37.624731
  ],
  "geometry": {"type":"MultiPoint","coordinates":[[-122.391953,37.624731]]}
}
