{
  "id": 1511913587,
  "type": "Feature",
  "properties": {
    "date:cessation_lower": "1974-01-01",
    "date:cessation_upper": "1974-12-31",
    "date:inception_lower": "1961-01-01",
    "date:inception_upper": "1961-12-31",
    "edtf:cessation": "1974",
    "edtf:date": "1961",
    "edtf:deprecated": "2026-04-02",
    "edtf:inception": "1961",
    "geom:area": 0,
    "geom:bbox": "-122.386155,37.616357,-122.386155,37.616357",
    "geom:latitude": 37.616357,
    "geom:longitude": -122.386155,
    "iso:country": "XX",
    "mz:hierarchy_label": 1,
    "mz:is_current": 0,
    "sfomuseum:placetype": "object",
    "src:geom": "sfomuseum#undetermined",
    "wof:belongsto": [],
    "wof:breaches": [],
    "wof:country": "XX",
    "wof:created": 1618962233,
    "wof:geomhash": "30c8a918561c84bb2daa2b97fc7c5353",
    "wof:hierarchy": [
      {
        "custom_id": 1511913587,
        "object_id": 1511913587
      }
    ],
    "wof:id": 1511913587,
    "wof:lastmodified": 1775155438,
    "wof:name": "This record has been deprecated.",
    "wof:parent_id": -1,
    "wof:placetype": "custom",
    "wof:placetype_alt": [
      "object"
    ],
    "wof:repo": "sfomuseum-data-collection",
    "wof:superseded_by": [],
    "wof:supersedes": [],
    "wof:tags": []
  },
  "bbox": [
    -122.386155,
    37.616357,
    -122.386155,
    37.616357
  ],
  "geometry": {"type":"Point","coordinates":[-122.386155,37.616357]}
}
