{
  "id": 1511909629,
  "type": "Feature",
  "properties": {
    "date:cessation_lower": "1979-01-01",
    "date:cessation_upper": "1979-12-31",
    "date:inception_lower": "1979-01-01",
    "date:inception_upper": "1979-12-31",
    "edtf:cessation": "1979",
    "edtf:date": "1979",
    "edtf:inception": "1979",
    "geom:area": 0,
    "geom:bbox": "-122.386155,37.616357,-122.386155,37.616357",
    "geom:latitude": 37.616357,
    "geom:longitude": -122.386155,
    "iso:country": "US",
    "millsfield:airline_id": [
      1159285413
    ],
    "millsfield:category_id": 1511214223,
    "millsfield:collection_id": 1511214207,
    "millsfield:company_id": [
      1159288779
    ],
    "millsfield:images": [
      1527838669
    ],
    "millsfield:images_colors_refs": {
      "crayola": [
        {
          "hex": "#324ab2"
        },
        {
          "hex": "#ff2b2b"
        },
        {
          "hex": "#6699cc"
        },
        {
          "hex": "#714b23"
        },
        {
          "hex": "#efdecd"
        }
      ],
      "css4": [
        {
          "hex": "#556b2f"
        },
        {
          "hex": "#faebd7"
        },
        {
          "hex": "#4169e1"
        },
        {
          "hex": "#b22222"
        },
        {
          "hex": "#6495ed"
        }
      ],
      "marekm4": [
        {
          "hex": "#ece8dd"
        },
        {
          "hex": "#6f8bd0"
        },
        {
          "hex": "#1949c5"
        },
        {
          "hex": "#3e3614"
        },
        {
          "hex": "#cb1516"
        }
      ]
    },
    "millsfield:images_texts": [
      "UJ UnITED AIRLInES\nWELCOMES YOU BACK TO THE\nFRIENDLY SKIES\nCHICAGO\nEFFECTIVE JUNE 8\nLeave\nArrive\nFlight Service Via\nTo Akron, Ohio/\nCanton, Ohio. (EDT)\n8:40a (O) 10:48a\n11:56a (O)\n2:04p\n2:15p (0)\n5:10p\n4:55p (0)\n7:03p\n9:05p (0) 11:09p\n370\n875\n848\n552\n784\nFrom Akron, Ohio/\nCanton, Ohio. (EDT)\n535-5792\n453-8201\n7:25a\n7:33a (0)\n11:25a\n431\n11:35a (0)\n12:35p\n2:45p\n1:40p (0)\n8:00p\n2:58p (0)\n8:12p (0)\n817\nTo Allentown /Bethlehem /\nEaston, Penn. (EDT)\n6:45a (O) 9:18a\n8:40a (0)\n2:08p\n748\n270 / 620\n2:30p (0)\n5:10p\n316\n8:00p (O) 10:41p\n702\n0080\nFrom Allentown / Bethlehem /\nEaston, Penn. (EDT)\n8:05a\n10:00a\n9:02a (O)\n485\n215-821-7870\n10:54a (O)\n279\n2:55p\n951 / 233\n7:30p\n5:39p (0)\n8:28p (0)\n795\nCle\nTo Bakersfield, Cal. (PDT)\n10:10a (0)\n1:22p\n03 / 854 § 7 X•La\n6:45p (0) 10:29p\n115 / 894\nFrom Bakersfield, Cal. (PDT)\n6:35a\n1:30p (0) |\n827 / 100\n395-3131\n§ X• Lax\n1:45p 10:05p (0)\n854 / 110\n§ 7X• Lax\n10:55p\n6:05a (0)\n894 / 118\n§ 7=* Lax\nTo Baltimore, Md. (EDT)\n6:50a (0)\n9:30a\n170\n1:10p (0)\n3:49p\n338\n• O\n0\n2:35p (0)\n5:14p\n5:15p (0)\n7:54p\n394\n374\n8:00p (0) 10:40p\n786\nFrom Baltimore, Md. (EDT)\n8:05a\n9:00a (0)\n11:15a\n766-7600\n• 0\n2:10p\n4:50p\n7:30p\n5:44p (0)\n1=\n8:22p (O)\n9:05p\n9:53p (0)\nTo Boise, Id. (MDT)\n10:00a (O) 12:25p\n315\n12:55p (0)\n4:41p\n277\n1:05p (0)\n5:20p\n463 / 533\n6:45p (0)\n9:10p\n585\nxxxx\nFrom Boise,\nId. (MDT)\n• Den\n342-2781\n9:15a\n1:20p (0)\n316\n2:55p\n6:59p (0)\n300\n4:20p\n9:57p (0)\n970 / 916 S\n7 X •Den\n8:25p\n5:07a (0)\n446 / 670\nDen\nTo Boston,\nMass. (EDT)\n6:45a (0) (\n9:50a\n156\n8:45a (O) 11:50a\n474\n11:45a (O)\n2:50p\n366\n2:30p (O)\n5:38p\n224\n4:59p (O)\n8:09p\n8:05p (O) 11:12p\n152\n454\nFrom Boston, Mass. (EDT)\n7:45a\n9:12a (0)\n375\n482-7900\n7X\n10:45a\n12:09p (O)\n159\n1:25p\n2:51p (0)\n471\n4:00p\n5:30p (0)\n145\n7:00p\n8:30p (O)\n9:00p\n265\n10:20p (0)\n443\n500000\n•00000\nLeave\nArrive\nFlight\nTo Buffalo, /\nNiagara Falls N.Y. (EDT)\n6:45a (0)\n9:09a\n2:15p (O)\n4:34p\n5:25p (0)\n7:44p\n9:29p (0) 11:47p\n330\n276\n200\n652\nFrom Buffalo, /\nNiagara Falls N.Y. (EDT)\n7:00a\n11:47a\n7:26a (0)\n551\n12:15p (0)\n171\n5:12p\n5:40p (0)\n419\n9:50p\n10:20p (O)\n683\nTo Cedar Rapids/\nlowa City, la. (CDT)\n8:30a (0)\n9:20a\n10:15a (0) 11:07a\n12:55p (0)\n1:44p\n3:50p (0) 4:41p\n6:45p (0) 7:36p\n9:50p (O) 10:38p\n483\n673\n217\n493\n937\n847\nFrom Cedar Rapids/\nlowa City, la. (CDT)\n6:55a\n10:05a\n7:40a (O)\n370\n12:40p\n10:52a(0)\n924\n2:30p\n1:27p (0)\n708\n3:00p\n4:11p (O)\n806\n3:48p (0)\n834\n6:05p\n6:56p (0)\n794\nX6 11:15p\n11:57p (0)\n790\nTo Charleston, W.V. (EDT)\nX7\n7:00a (O) 10:52a\n774 / 785\nAbove Disc. Jun. 15\nX6 8:50a (O)\n1:45p\n416 / 883\nAbove Disc. Jun. 15\n11:50a (O)\n5:15p (O)\n4:16p\n612 / 677\n9:13p\n408 / 821\nAbove Disc. Jun.\n15\nFrom Charleston, W.V. (EDT)\nX7\n8:20a\n10:37a (0) |\n972 / 775\nAbove Disc. Jun.\n16\nx/ 11:35a\n3:00p (0)\n303 / 765\nAbove Disc. Jun. 15\n1:55p\n5:39p (0)\nX6\n2:20p\n392 / 233\n4:40p (O)\n747\nAbove Disc. Jun. 15\n11:00p\n12:20a (O)\n758\nTo Cleveland, O. (EDT)\n5:45a (0)\n7:45a\n266\n7:00a (0)\n9:09a\n158\n8:40a (0) 10:47a\n270\n11:40a (0)\n1:45p\n304\n2:25p (0)\n4:32p\n100\n4:59p (0)\n7:06p\n104\n8:05p (O) 10:12p\n150\n11:00p (O)\n1:01a\n876\nFrom Cleveland, O. (EDT)\n7:35a\n7:40a (0)\n8:45a\n9:02a (0)\n125\n103\n10:10a\n10:20a (0)\n879\n11:55a\n12:07p (0)\n2:45p\n2:57p (0)\n573\n129\n5:30p\n8:10p\n5:46p (0)\n157\n8:28p (0)\n133\n12:15a\n12:20a (0)\n758\nTo Columbus, O. (EDT)\n7:25a (0)\n9:30a\n684\n2:25p (O)\n4:28p\n204\n7:56p (O) 10:00p\n300\nFrom Columbus, O. (EDT)\n9:05a\n9:14a (O)\n2:50D\n3:00p (O)\n315\n349\n8:40p\n8:48p (0)\n847\nService\nVia\n856-2900\n0000\n364-2481\n1-800-323-8711\nPit\nY=\nPit\n28\n343-8981\nPit\nPit\n...\n356-1311\n•\n•.••\n228-4751"
    ],
    "millsfield:images_texts_ids": [
      1527838669
    ],
    "millsfield:primary_image": 1527838669,
    "millsfield:subcategory_id": 1511213425,
    "mz:hierarchy_label": 1,
    "mz:is_current": 1,
    "sfomuseum:accession_number": "1999.047.412",
    "sfomuseum:airline": "United Airlines",
    "sfomuseum:airline_id": [
      883
    ],
    "sfomuseum:category": "Scheduling / Ticketing",
    "sfomuseum:classification_id": 158,
    "sfomuseum:collection": "Aviation Archive",
    "sfomuseum:continent": "North America",
    "sfomuseum:country": "United States",
    "sfomuseum:creditline": "Gift of United Airlines Archives",
    "sfomuseum:date": "1979",
    "sfomuseum:date_acquired": "2000-05-11",
    "sfomuseum:daterange_end": "1979-12-31",
    "sfomuseum:daterange_start": "1979-01-01",
    "sfomuseum:description": "City timetable issued by United Airlines for service to and from Chicago, effective June 8, 1979; tri-fold format.",
    "sfomuseum:dimensions": "9 x 4 inches (22.9 x 10.2 cm)",
    "sfomuseum:media_ids": [
      1527838669
    ],
    "sfomuseum:medium": "paper, ink",
    "sfomuseum:object_id": 49758,
    "sfomuseum:placetype": "object",
    "sfomuseum:primary_media_id": 1527838669,
    "sfomuseum:publication": ": , 1979.",
    "sfomuseum:subcategory": "Timetable",
    "src:geom": "sfomuseum#undetermined",
    "wof:belongsto": [
      1511214223,
      102527513,
      102191575,
      85633793,
      1511213425,
      85922583,
      102087579,
      1511214277,
      1511214207,
      85688637,
      136253057
    ],
    "wof:breaches": [],
    "wof:country": "US",
    "wof:created": 1579906676,
    "wof:depicts": [
      1159288779,
      1159285413
    ],
    "wof:geomhash": "30c8a918561c84bb2daa2b97fc7c5353",
    "wof:hierarchy": [
      {
        "arcade_id": 1511213425,
        "building_id": 1511214277,
        "campus_id": 102527513,
        "concourse_id": 1511214223,
        "continent_id": 102191575,
        "country_id": 85633793,
        "county_id": 102087579,
        "custom_id": 1511909629,
        "locality_id": 85922583,
        "neighbourhood_id": -1,
        "object_id": 1511909629,
        "region_id": 85688637,
        "venue_id": 1511909629,
        "wing_id": 1511214207
      },
      {
        "continent_id": 102191575,
        "country_id": 85633793,
        "custom_id": 1511909629,
        "empire_id": 136253057,
        "object_id": 1511909629,
        "venue_id": 1511909629
      }
    ],
    "wof:id": 1511909629,
    "wof:lastmodified": 1787988176,
    "wof:name": "timetable: United Airlines, Chicago",
    "wof:parent_id": 1159162825,
    "wof:placetype": "custom",
    "wof:placetype_alt": [
      "object"
    ],
    "wof:repo": "sfomuseum-data-collection",
    "wof:superseded_by": [],
    "wof:supersedes": [],
    "wof:tags": []
  },
  "bbox": [
    -122.386155,
    37.616357,
    -122.386155,
    37.616357
  ],
  "geometry": {"type":"Point","coordinates":[-122.386155,37.616357]}
}
