{
  "id": 1511909677,
  "type": "Feature",
  "properties": {
    "date:cessation_lower": "1980-01-01",
    "date:cessation_upper": "1980-12-31",
    "date:inception_lower": "1980-01-01",
    "date:inception_upper": "1980-12-31",
    "edtf:cessation": "1980",
    "edtf:date": "1980",
    "edtf:inception": "1980",
    "geom:area": 0,
    "geom:bbox": "-122.386155,37.616357,-122.386155,37.616357",
    "geom:latitude": 37.616357,
    "geom:longitude": -122.386155,
    "iso:country": "US",
    "millsfield:airline_id": [
      1159285413
    ],
    "millsfield:category_id": 1511214223,
    "millsfield:collection_id": 1511214207,
    "millsfield:company_id": [
      1159288779
    ],
    "millsfield:images": [
      1527838773
    ],
    "millsfield:images_colors_refs": {
      "crayola": [
        {
          "hex": "#9c2542"
        },
        {
          "hex": "#dbd7d2"
        },
        {
          "hex": "#324ab2"
        }
      ],
      "css4": [
        {
          "hex": "#b22222"
        },
        {
          "hex": "#d3d3d3"
        },
        {
          "hex": "#483d8b"
        }
      ],
      "marekm4": [
        {
          "hex": "#e2dbc8"
        },
        {
          "hex": "#c21417"
        },
        {
          "hex": "#1e3ea8"
        }
      ]
    },
    "millsfield:images_texts": [
      "UJ\nUNITED AIRLINES\nChicago\nEFFECTIVE JUNE 13, 1980\nLeave\nArrive\nFlight Service Via\nTo Akron, Ohio/\nCanton, Ohio. (EDT)\n8:50a (O) 11:01a\n2:20p (0)\n4:31p\n8:05p (0) 10:09p\n370\n134\n552\nFrom Akron, Ohio/\nCanton, Ohio. (EDT)\n7:00a\n7:11a (0)\n481\nAbove Eff. Jul. 2\n7:05a\n7:13a (0)\n431\nAbove Disc. Jul. 2\n11:47a\n12:00n (0)\n593\n5:20p\n5:35p (0)\n817\nTo Allentown /Bethlehem/\nEaston, Penn. (EDT)\n6:35a (0)\n9:15a\n12:35p (0)\n3:12p\n748\n980\n6:25p (0)\n9:03p\n812\nFrom Allentown /Bethlehem /\nEaston, Penn. (EDT)\n8:15a\n9:10a (0)\n10:00a\n307\n11:00a (O)\n3:48p\n279\n4:45p (0)\n980\nTo Baltimore, Md. (EDT)\n7:30a (0) 10:10a\n136\n11:55a (0)\n2:36p\n338\n2:25p (0) 5:04p\n5:15p (O) 7:53p\n766\n374\n8:00p (0) 10:40p\n108\nFrom Baltimore, Md. (EDT)\n8:00a\n8:54a (0)\n11:10a\n12:02p (0)\n123\n107\n2:10p\n3:00p (0)\n669\n4:35p\n5:27p (0)\n949\n4:35p\nAbove Eff. Aug. 1\n5:31p (0)\n429\nAbove Disc. Aug. 1\n7:30p\n8:22p (O)\n805\nTo Boise, Id. (MDT)\n7:00a (0) 11:57a\n249\nAbove Disc. Jul. 2\n7:00a (0) 11:57a\n235 / 249\nAbove Eff. Jul. 2\n10:25a (0)\n1:00p (0)\n2:06p\n375 / 741\n3:25p\n6:35p (0)\n9:00p\n831\n289\n6:40p (0) 10:37p\n461 / 625\nFrom Boise, Id. (MDT)\n6:45a\n9:00a\n10:45a (0)\n910\n4:10p (0)\n346 / 240 §\n3:00p\n7:04p (0)\n300\nThe friendly skies\n535-5792\n453-8201\n215-821-7870\n*x\n766-7600\n•\n2X•\n7=\no800\n0\n0\n2\n7 X Oma\n2X\n2X •Den\n342-2781\nUNITED AIRLINES\nLeave\nArrive\nFlight\nService Via\nTo Boston, Mass. (EDT)\n6:40a (0)\n9:49a\n158\n8:50a (O) 11:55a\n474\n11:35a (0)\n2:42p\n366\nAbove Disc. Jul. 2\n11:55a (0)\n3:02p\n366\nAbove Eff. Jul. 2\n2:35p (0)\n5:45p\n140\n5:00p (0)\n8:08p\n200\n8:05p (0) 11:14p\n128\nFrom Boston, Mass. (EDT)\n7:35a\n10:45a\n9:02a (0)\n143\n12:09p (0)\n711\n10:50a\nAbove Disc. Jul. 2\n12:14p (0)\n711\nAbove Eff. Jul. 2\n1:34p\n4:00p\n3:00p (0)\n471\n5:30p (0)\n419\n6:50p\n8:20p (0)\n137\n9:10p\n10:30p (0)\n443\nTo Buffalo, /\nNiagara Falls N.Y. (EDT)\n8:30a (0) 10:53a\n2:15p (0)\n4:36p\n330\n416\n2:25p (0\n6:26p\n122 /\n4:55p (0)\n8:23p\n126 /\n'88\n7:55p (0) 10:17p\n278\nFrom Buffalo, /\nNiagara Falls N.Y. (EDT)\n8:50a\n9:15a (0)\n11:44a\n211\n12:15p (0)\n447\n3:25p\n5:54p (0)\n872 / 921\n5:15p\n5:46p (0)\n299\nX6\n5:20p\nAbove Disc. Jul. 2\n5:48p (0)\n299\nAbove Eff. Jul. 2\nTo Cedar Rapids/\nlowa City, la. (CDT)\n8:30a (0),\n9:19a\n483\n3:50p (0)\n4:41p\n349\nAbove Disc. Jul. 2\n3:50p (0)\n4:41 p\n323\nAbove Eff. Jul. 2\nFrom Cedar Rapids/\nlowa City, la. (CDT)\n9:57a\n10:45a (O)\n5:46p\n924\n6:35p (O)\n662\nAbove Eff. Jul. 2\n5:50p\n6:40p (0)\n586\nAbove Disc. Jul. 2\nTo Cleveland, O. (EDT)\n8:40a (0) 10:49a\n112\n11:30a (0)\n1:37p\n304\n2:25p (0\n5:05p (0\n4:34p\n7:12p\n122\n240\n8:00p (0) 10:08p\n150\nY=0\n482-7900\n0\n7X\n• Dtv\n0\n856-2900\n=\nRor\nY=\n364-2481\n1-800-323-8711\n00000\n• •\n•••"
    ],
    "millsfield:images_texts_ids": [
      1527838773
    ],
    "millsfield:primary_image": 1527838773,
    "millsfield:subcategory_id": 1511213425,
    "mz:hierarchy_label": 1,
    "mz:is_current": 1,
    "sfomuseum:accession_number": "1999.047.431",
    "sfomuseum:airline": "United Airlines",
    "sfomuseum:airline_id": [
      883
    ],
    "sfomuseum:category": "Scheduling / Ticketing",
    "sfomuseum:classification_id": 158,
    "sfomuseum:collection": "Aviation Archive",
    "sfomuseum:continent": "North America",
    "sfomuseum:country": "United States",
    "sfomuseum:creditline": "Gift of United Airlines Archives",
    "sfomuseum:date": "1980",
    "sfomuseum:date_acquired": "2000-05-11",
    "sfomuseum:daterange_end": "1980-12-31",
    "sfomuseum:daterange_start": "1980-01-01",
    "sfomuseum:description": "City timetable issued by United Airlines for service to and from Chicago, effective June 13, 1980; tri-fold format.",
    "sfomuseum:dimensions": "9 x 4 inches (22.9 x 10.2 cm)",
    "sfomuseum:media_ids": [
      1527838773
    ],
    "sfomuseum:medium": "paper, ink",
    "sfomuseum:object_id": 49783,
    "sfomuseum:placetype": "object",
    "sfomuseum:primary_media_id": 1527838773,
    "sfomuseum:publication": ": , 1980.",
    "sfomuseum:subcategory": "Timetable",
    "src:geom": "sfomuseum#undetermined",
    "wof:belongsto": [
      102191575,
      85633793,
      136253057,
      1511214223,
      102527513,
      1511213425,
      85922583,
      102087579,
      1511214277,
      1511214207,
      85688637
    ],
    "wof:breaches": [],
    "wof:country": "US",
    "wof:created": 1579906676,
    "wof:depicts": [
      1159285413,
      1159288779
    ],
    "wof:geomhash": "30c8a918561c84bb2daa2b97fc7c5353",
    "wof:hierarchy": [
      {
        "continent_id": 102191575,
        "country_id": 85633793,
        "custom_id": 1511909677,
        "empire_id": 136253057,
        "object_id": 1511909677,
        "venue_id": 1511909677
      },
      {
        "arcade_id": 1511213425,
        "building_id": 1511214277,
        "campus_id": 102527513,
        "concourse_id": 1511214223,
        "continent_id": 102191575,
        "country_id": 85633793,
        "county_id": 102087579,
        "custom_id": 1511909677,
        "locality_id": 85922583,
        "neighbourhood_id": -1,
        "object_id": 1511909677,
        "region_id": 85688637,
        "venue_id": 1511909677,
        "wing_id": 1511214207
      }
    ],
    "wof:id": 1511909677,
    "wof:lastmodified": 1787988176,
    "wof:name": "timetable: United Airlines, Chicago",
    "wof:parent_id": 1159162825,
    "wof:placetype": "custom",
    "wof:placetype_alt": [
      "object"
    ],
    "wof:repo": "sfomuseum-data-collection",
    "wof:superseded_by": [],
    "wof:supersedes": [],
    "wof:tags": []
  },
  "bbox": [
    -122.386155,
    37.616357,
    -122.386155,
    37.616357
  ],
  "geometry": {"type":"Point","coordinates":[-122.386155,37.616357]}
}
