{
  "id": 1762684647,
  "type": "Feature",
  "properties": {
    "date:cessation_lower": "1954-01-01",
    "date:cessation_upper": "1954-12-31",
    "date:inception_lower": "1954-01-01",
    "date:inception_upper": "1954-12-31",
    "edtf:cessation": "1954",
    "edtf:inception": "1954",
    "geom:area": 2.475047457570636e-7,
    "geom:bbox": "-122.386472,37.616105,-122.385834,37.616611",
    "geom:latitude": 37.61635747477365,
    "geom:longitude": -122.38615540108617,
    "millsfield:aircraft_id": [
      1159290431
    ],
    "millsfield:airline_id": [
      1159285785
    ],
    "millsfield:category_id": 1511214223,
    "millsfield:collection_id": 1511214207,
    "millsfield:company_id": [
      1159290427
    ],
    "millsfield:images": [
      1762697299,
      1762698029
    ],
    "millsfield:images_colors_refs": {
      "crayola": [
        {
          "hex": "#dbd7d2"
        },
        {
          "hex": "#000000"
        },
        {
          "hex": "#c0448f"
        },
        {
          "hex": "#1164b4"
        },
        {
          "hex": "#324ab2"
        },
        {
          "hex": "#8fd400"
        },
        {
          "hex": "#fddde6"
        },
        {
          "hex": "#8e4585"
        },
        {
          "hex": "#414a4c"
        },
        {
          "hex": "#ceff1d"
        }
      ],
      "css4": [
        {
          "hex": "#9acd32"
        },
        {
          "hex": "#d3d3d3"
        },
        {
          "hex": "#000000"
        },
        {
          "hex": "#2f4f4f"
        },
        {
          "hex": "#f5f5dc"
        },
        {
          "hex": "#c71585"
        },
        {
          "hex": "#daa520"
        },
        {
          "hex": "#4169e1"
        }
      ],
      "marekm4": [
        {
          "hex": "#191413"
        },
        {
          "hex": "#4e4949"
        },
        {
          "hex": "#a32389"
        },
        {
          "hex": "#1351b4"
        },
        {
          "hex": "#e1d7c3"
        },
        {
          "hex": "#2356bb"
        },
        {
          "hex": "#b3b721"
        },
        {
          "hex": "#faf1da"
        },
        {
          "hex": "#d1d11b"
        },
        {
          "hex": "#c5378d"
        }
      ]
    },
    "millsfield:images_texts": [
      "SCHEDULES EFFECTIVE FEB. 2, 1954\nFly the Pacific via\nJAPAN\nAIR LINES\nROUTES, SCHEDULES, FARES\nNOW!\nSan Francisco\nAND\nHonolulu\nVIA WAKE ISLAND TO\nTokyo\nAND\nOkinawa\nTwice weekly de luxe service\naboard Japan Air Lines' new\nDC-6B\n\"Pacific Courier\"\nJAL \"PACIFIC COURIER\" SERVICE, EQUIPMENT",
      "now...fly the Pacific as Japan's \"personal guest\"\nHere's the new kind of Pacific air travel you've been waiting for-\ndependability, speed, plus all the courtesy, thoughtfulness, and\npersonal attention today's airline traveler should be entitled to!\nCLUB LOUNGE SPACIOUSNESS\nJapan Air Lines \"Couriers\" are the only\nairliners flying the Pacific limited to 38\nEach passenger enjoys more room\nto move around. to stretch out.\nYour chair\nis deep-cushioned, and it's fully-reclining\nfor practically \"bedroom\" comfort.\n(Berths\nmay be arranged for, at\nslight additional cost.)\nSTEP ABOARD, AND\nYOU'RE \"IN JAPAN\"\nNow vou begin enjoving the hospitality\nand fun of your destination even before you\nleave the\nGolden Gate!\nThere's Oriental\ndecor to\nthe mood for\nthis new flight experience. There's restful\nmusic at mealtimes to highlight the unique \"lounge\"\natmosphere of your new JAL DC-6B.\nwhat food!\nFull-course American meals,\nplanned by famous chefs. But Japan Air Lines adds\na new treat as well exotic Japanese delicacies and\na chance to try your skill with chopsticks!\nBar\nservice\nis\ncomplimentary.\nThroughout the flight, you may\norder your choice of finest Ameri-\ncan and Japanese wines,\nPiggness, Yours, Courner\ncham-\niqueurs.\nbrandies,\ncellar\"\nYour\nis unmatched on\nthe Pacific.\nREAL PERSONAL\nATTENTION\nAt last, Japan Air Lines offers\nthe trans Pacific air traveler all\nthe service and personal atten-\ntion formerly enjoyed only on luxury oceanliners.\nBilingual Japanese hostesses cater to your indi-\nvidual comfort and satisfaction.\nThey are specially\ntrained to make\nyou feel \"at home'\n-to make the\nhours fly by with games, books,\nsouve-\nand other diversions unique on the\nCourier.\nJAPAN AIR LINES' personal service... with DC-6B dependability and\nActually, your \"Courier\" service starts even before\nyour DC-6B leaves the ground. At the\nSan Fran-\ncisco and Honolulu airports, you are welcomed and\nserved\nby\nspecial JAL ground hostesses. And at\nTokyo, JAL hostesses welcome you to Japan and help\nVOU\non to vour note or\nconnecting transportation.\nJAL takes care of you all the way!\nADVANCE HELP AND CONTACTS\nWhat airline knows Japan\nbetter\nthan\nJapan\nAir\nLines? Aboard your \"Cour-\nier\"\nyou will benefit from\nvaluable\nadvance help to\nenrich your visit in Japan\n. trade and industrial\ndata, shopping and sight-\nseeing information, help\nwith official papers, etc.\nAnd of course you'll make\nfriends in advance with\nleading businessmen and\nother influential travelers\namong your fellow \"Cour-\nier\"\npassengers.\n(Another \"extra\"! Special\ncourtesies after you arrive\nin Japan! See back page.)\nDC-68\ncomfort\ncaptain. He is a 9-year\nveteran of Pacific flying.\nLATEST COMMUNICATIONS SYSTEM\nFLIGHT DECK\n2о29Ur\nLADIES' DRESSING ROOM\n(Men's on opposite side)\nWINGS OF THE NEW JAPAN\nLADIES DRESSING ROOM\n(Men's on opposite side)\nEVERY CHAIR FULLY. RECLINING\nCITY OF TOKYO\nCREW QUARTERS\nEvery JAL \"Courier\" pilot\nat least a million miler!\nAboard Douglas' newest long-range DC-6Bs, you're\nflown by the most seasoned American trans Pacific\nflight crews. Every JAL pilot has logged at least a\nmillion miles of transoceanic flying-most of them\nover two million.\n\"COURIER\" CARGO\n2,500 HP PRATT \u0026 WHITNEY ENGINES\nAnd much of this unsurpassed experience has been\nflown over the very route of the \"Pacific Courier.\"\nThese pilots, all CAA-licensed Americans, have al-\nready totalled over 1,500 trans Pacific crossings.\nWorld's most efficient maintenance\nBefore every take-off and after every landing, JAL's\nDC-6B \"Couriers\" are thoroughly checked by skilled\naircraft experts. And at regular scheduled inter-\nvals, every \"Courier\" is rigorously tested by United\nAir Lines engineers at UAL's huge San Francisco\nMaintenance Base. Here Japan Air Lines' DC-6Bs\nget the world's most modern, efficient maintenance.\nJAL \"PACIFIC COURIER\" SERVICE, EQUIPMENT\nAIR LINES\nGALLEY AND BAR\nREAR CABIN"
    ],
    "millsfield:images_texts_ids": [
      1762697299,
      1762698029
    ],
    "millsfield:primary_image": 1762697299,
    "millsfield:subcategory_id": 1511213425,
    "mz:is_current": 1,
    "sfomuseum:accession_number": "2001.097.011",
    "sfomuseum:aircraft": "Douglas DC-6B",
    "sfomuseum:aircraft_id": [
      493
    ],
    "sfomuseum:airline": "Japan Air Lines",
    "sfomuseum:airline_id": [
      1064
    ],
    "sfomuseum:category": "Scheduling / Ticketing",
    "sfomuseum:classification_id": 158,
    "sfomuseum:collection": "Aviation Archive",
    "sfomuseum:continent": "North America",
    "sfomuseum:country": "United States",
    "sfomuseum:creditline": "Gift of Edwin I. Power, Jr. and Linda Liscom",
    "sfomuseum:date": "1954",
    "sfomuseum:date_acquired": "2001-12-05",
    "sfomuseum:daterange_end": "1954-12-31",
    "sfomuseum:daterange_start": "1954-01-01",
    "sfomuseum:description": "Timetable issued by Japan Air Lines, effective February 2, 1954; white cover with black and white photographic image of Douglas DC-6B and text promoting service between San Francisco and Tokyo and Okinawa via Honolulu and Wake Island.",
    "sfomuseum:dimensions": "9 x 4 inches (22.9 x 10.2 cm)",
    "sfomuseum:medium": "paper, ink",
    "sfomuseum:object_id": 60896,
    "sfomuseum:placetype": "object",
    "sfomuseum:publication": ": , 1954.",
    "sfomuseum:subcategory": "Timetable",
    "src:geom": "sfomuseum#undetermined",
    "wof:belongsto": [
      102527513,
      1159162825,
      102191575,
      85633793,
      102087579,
      85922583,
      85688637,
      1159160869
    ],
    "wof:country": "XY",
    "wof:created": 1641341055,
    "wof:depicts": [
      1159288505,
      1159285785,
      1159290431,
      1159290427
    ],
    "wof:geomhash": "c281b9d9eefc83b5710e64b9d646067d",
    "wof:hierarchy": [
      {
        "building_id": -1,
        "campus_id": 102527513,
        "collection_id": 1159162825,
        "concourse_id": 1159162825,
        "continent_id": 102191575,
        "country_id": 85633793,
        "county_id": 102087579,
        "custom_id": 1762684647,
        "locality_id": 85922583,
        "neighbourhood_id": -1,
        "object_id": 1762684647,
        "region_id": 85688637,
        "wing_id": 1159160869
      }
    ],
    "wof:id": 1762684647,
    "wof:lastmodified": 1787988194,
    "wof:name": "timetable: Japan Air Lines",
    "wof:parent_id": 1159162825,
    "wof:placetype": "custom",
    "wof:placetype_alt": [
      "object"
    ],
    "wof:repo": "sfomuseum-data-collection",
    "wof:superseded_by": [],
    "wof:supersedes": []
  },
  "bbox": [
    -122.38647222518921,
    37.6161053594541,
    -122.38583385944366,
    37.61661101879963
  ],
  "geometry": {"type":"Polygon","coordinates":[[[-122.38647222518921,37.61631782178288],[-122.386434674263,37.61623283692423],[-122.38637566566466,37.61617759671399],[-122.38630056381224,37.6161308549656],[-122.38616108894348,37.6161053594541],[-122.38602161407469,37.6161308549656],[-122.38591432571411,37.61618609521055],[-122.38585531711577,37.61626683087935],[-122.38583385944366,37.61636881265146],[-122.38587141036987,37.61646654505181],[-122.38594114780425,37.61654303118856],[-122.38605380058287,37.61660252035167],[-122.38618254661559,37.61661101879963],[-122.3863059282303,37.61657277577607],[-122.3864185810089,37.61650903735973],[-122.3864668607712,37.61641130501523],[-122.38647222518921,37.61631782178288]]]}
}
