{
  "id": 1511936051,
  "type": "Feature",
  "properties": {
    "date:cessation_lower": "1962-01-01",
    "date:cessation_upper": "1962-12-31",
    "date:inception_lower": "1962-01-01",
    "date:inception_upper": "1962-12-31",
    "edtf:cessation": "1962",
    "edtf:date": "1962",
    "edtf:inception": "1962",
    "geom:area": 0,
    "geom:bbox": "-122.386155,37.616357,-122.386155,37.616357",
    "geom:latitude": 37.616357,
    "geom:longitude": -122.386155,
    "iso:country": "XX",
    "millsfield:airline_id": [
      1159284003
    ],
    "millsfield:category_id": 1511214223,
    "millsfield:collection_id": 1511214207,
    "millsfield:company_id": [
      1159288631
    ],
    "millsfield:images": [
      1527837459,
      1527848319
    ],
    "millsfield:images_colors_refs": {
      "crayola": [
        {
          "hex": "#9f8170"
        },
        {
          "hex": "#a57164"
        },
        {
          "hex": "#efcdb8"
        },
        {
          "hex": "#cd9575"
        },
        {
          "hex": "#ff2b2b"
        },
        {
          "hex": "#cdc5c2"
        },
        {
          "hex": "#414a4c"
        }
      ],
      "css4": [
        {
          "hex": "#c0c0c0"
        },
        {
          "hex": "#ff4500"
        },
        {
          "hex": "#2f4f4f"
        },
        {
          "hex": "#808080"
        },
        {
          "hex": "#ffb6c1"
        },
        {
          "hex": "#bc8f8f"
        }
      ],
      "marekm4": [
        {
          "hex": "#d8c9b8"
        },
        {
          "hex": "#b48777"
        },
        {
          "hex": "#392d2d"
        },
        {
          "hex": "#48362e"
        },
        {
          "hex": "#e33a1e"
        },
        {
          "hex": "#b9877a"
        },
        {
          "hex": "#e7c3b4"
        },
        {
          "hex": "#986e66"
        }
      ]
    },
    "millsfield:images_texts": [
      "EFFECTIVE JANUARY 1, 1962\nBONANZA\nAIR LINES\n8\n.....\nTRENO\nBEST LITTLE CITY IN THE\nBONANZALAND\nU.S.A.\nBONANZALAND\nU.S.A.\n+\nBONANZALAND\nU.S.A.\nServing the Sunny Southwest...\nARIZONA - CALIFORNIA - NEVADA - UTAH\nBONANZA\nFIRST ALL JET-POWERED\nAIRLINE IN AMERICA",
      "Effective January 1, 1962\nALL FLIGHTS\nSILVER DART\nJET-PROP\nEQUIPMENT\n51\n7:00\n8:14\n8:37\n6:30\n8:02\n8:34\n9:03\n21\nEx Sun\n7:20\n8:14\n7:46\n8:22\n8:55\n45\n9:40\n9:28\nBONANZA AIR LINES\nSYSTEM SCHEDULE\n+\nSALT LAKE CITY / RENO / LAS VEGAS -PHOENIX\n61\n31\nREAD\nDOWN\n65\n33\nREAD UP\n-FLIGHT NUMBER-\n62\n32\n64\n34\n66\n7:30\n8:38\n10:08\n53\n63\n4:00\n5:00\n6:08\n6:46\n7:28\n9:35\n11:07\n11:25\n2:00\n6:13\n7:51\n8:20\n7:15\n8:47\n9:05\n10:37\n11:24\nL. SALT LAKE CITY\nMST\nCedar City.\nLv. Page (Glen Canyon Dam) . . Lv\nLv. Flagstafft\nLv\n• RENO\nAr. LAS VEGAS\nLAS VEGAS\nLv . Kingman\nLV. PrescoTt •\nAr. PHOENIX+\nPSI A\n.. PST Lv\nPST Ar\nMST Lv\n... Lv\nMST LV\n0:4S\n9:38\n8:43\n8:01\n2:15\n9:05\n7:30\no:4y\n5:00\n4:38\n7:32\n7:00\n11:04\n11:35\n10:45\n12:00\n2:20\nPHOENIX / LAS VEGAS-LOS ANGELES\n43\n23\n4:10\n55\n2:10\n4:25\n47\n4:40\n57\n2:00\n2:54\n2:26\n3:02\n3:35\n25\n8:40\n9:34\n9:06\n9:42\n10:15\nFLIGHT NUMBER-\nLv. PHOENIX\nLv\n• Yuma .\nEl Centro .\n• SAN DIEGO\n. Santa Ana-Laguna Beach\nLv. Blythe . .....\nLv . Palm Springs-Indio\nMST Ar\nMST LV\nPST\nLv\n22\nEx Sun\n10:34\n9:46\n8:21\n7:37\n7:04\n46\n1:07\n42\nEx Sun\n24\n52\n48\n2:45\n1:56\n12:31\n11:47\n11:14\n8:06\n4:28\n5:11\n11:22\n6:21\n5:45\n1:30\n4:00\n10:38\n11:01\n2:25\n2:48\n4:55\n3:55\n5:37\n6:00\n6.20\n7:06\n7:31\n7:54\n10:35\nLASVEGAS\nLv. Apple Valley\nLv. Riverside\nLv . Ontario\nAr. LOS ANGELES (Intl.)\n. PST Lv\n6:40\n10:13\n9:45\n10:50\n1:20\n12:37\n12:13\n11:45\n5:13\n9:15\n9:30\n9:45\n4:45\n3:50\nLv . LOS ANGELES (Intl.)\nPST Ar\n10:05\n4:25\n4:05\nAr. Burbank . ... •\n9:50\n4:10\nAll flights operate daily except as otherwise noted\nLEGEND\n•Diners'...\n—No local passengers between Flagstaff and Phoenix\nPST-Pacific Standard Time\nPM-Bold Face\nY:38\n8:33\n7:00\n54\n5:49\n4:58\n4:30\n56\n7:35\n6:52\n6:28\n6:00\n10:23\n10:54\n10:22\n9:50\n26\n10:30\n9:41\n8:16\n7:32\n6:59\n6:35\nCHARGE\nBONANZA\nTRAVEL TO\nDiners\nCodes\nSLC\nCDC\nPGA\nFLG\nRNO\nLAS\nLAS\nIGM\nPRC\nPHX\n58\n10.19\n9:28\n9:00\nCity\nCodes\nPHX\nYUM\nIPL\nSAN\nSNA\nBLH\nPSP\nLAS\nAPV\nRAL\nONT\nLAX\nLAX\nBUR\nRESERVATIONS \u0026 INFORMATION\nCITY TICKET OFFICES\nhas veras.ver\nLos Angeles, Cal.\nSahara\nMULL DONU\nREgent 3-1818\n5-4133\nPhoenix,\nAriz.\nSalt Lake City, Utah\nBevery\nSHUS\nAdams Hole 20001\nRiverside Hotel Lobby\nHotel Utah\nLobby\n252-6021\nFAirview 9-0001\nDAvis 8-8656\nAIRPORTS - RESERVATIONS/AIR\nFREIGHT TELEPHONE\nCITY\nApple Valley, Cal.\nKi vine.\nBurbank,\nCal.\nCedar City,\nEI\nCentro,\nUtah\nCal\nrakotall,\nbeneateca\nGrand Canyon, Ariz.\nIndio,\nCal.\nKingman,\naguna\nAriz.\nBeach,\nCal.\nLos Angeles, Cal.\nAIRPORT NAME\ngoole valev\nRESERVATION / AIR FREIGHT\nTELEPHONE\nValley 7-7209\nMunicipal\nLockheed Air Terminal\nAF-TRiangle 7-6171\nMunicipal\nJUniper\nCounty\n6-9741\ngin 2-4218\nMunicipal\nLockheed Air Terminal\n*Zenith 2-1651\nAF-TRiangle 7-6171\nService Seasonal - Mav 1 through Oct. 31\nPalm Springs\nMunicipal\n32-55053\nSKvline\nOrange\n3-3630\nMcCarran Field\nKImberly 5:18\n5-1146\nREgent\nAF-REgent\nL.A. International\nCRestview 5-4133\nOntario, Cal.\nOntario International\nAriz.\nPaim springs, Cal.\nPrescott,\nAriz.\nReno,\nNev.\nRiverside, Cal.\nSan Diego, a Utah\nGlen Canyon\nPalm\nSky Harbor\nMunicipal\nMunicipal\nMunicipal\nMunicipal\nSan Diego.\nwetorville\nYuma,\nCal.\nAriz.\nADDle valler\nYuma County\nAF-SPring\n6-1430\nAF-YUkon\nAF-YUkon 4-3382\nMIdway\n5-2404\n252-6021\nAF-BRidge 5-4502\nHIckory\n5-2812\nFAirview\nAF-OVerland\nDAvis\n8-8656\nCYpress 6-6144\nApple Valley\n7-7209\nSUnset 2-1871\nReference Notes\nindicates telephone number for Air\nFreight information.\nWhen\nnot listed. Air Freight information mav be\nobtamned by callng keservauon telepnone number\n* Dial operator and ask for Zenith number listed.\nPASSENGER INFORMATION\nReservations\nReservations must be made in advance and are tentative\nSOH shes rese asne\nto cancel the reservation of any passenger who fails to present himself\nat the\nBonanza\nAir Lines\nAirport ticket office\nat least 10 minutes\nbefore scheduled departure of\nflight on which\nhis reservation was\nmade.\nSchedules-\n-Schedules show the time at which planes may\nbe\nexpected\nto arrive at or depart trom stadons, and to connect with ourer Planes\nfrom\ndelays or\nfrom errors in the printed schedule.\nTimes shown\nare subject to change without\nBaggage\n40 pounds of personal baggage will be carried free\non one\nBaggage in excess of 40 pounds may be carried at established\nexcess baggage rates.\nChildren's Fares\nOne child under two years of age, not occupying a\nseat, will be\ntree with each accompanying passenger 12\not age or\nUruel.\nChildren two vears of age and under 12 vears of ag\nwill be charged one-half of applicable one-way\nadult fare. or $4.70\nwhichever is greater."
    ],
    "millsfield:images_texts_ids": [
      1527837459,
      1527848319
    ],
    "millsfield:primary_image": 1527837459,
    "millsfield:subcategory_id": 1511213425,
    "mz:hierarchy_label": 1,
    "mz:is_current": 1,
    "sfomuseum:accession_number": "2005.132.009.012",
    "sfomuseum:airline": "Bonanza Air Lines",
    "sfomuseum:airline_id": [
      238
    ],
    "sfomuseum:category": "Scheduling / Ticketing",
    "sfomuseum:classification_id": 158,
    "sfomuseum:collection": "Aviation Archive",
    "sfomuseum:creditline": "Gift of the William Hough Collection",
    "sfomuseum:date": "1962",
    "sfomuseum:date_acquired": "2006-12-05",
    "sfomuseum:daterange_end": "1962-12-31",
    "sfomuseum:daterange_start": "1962-01-01",
    "sfomuseum:description": "Timetable issued by Bonanza Air Lines, effective January 1, 1962; four-page double-sided fold-out; red-orange cover with twelve squares with text and black and white photographic images of points of regional interest.",
    "sfomuseum:dimensions": "9 x 4 inches (22.9 x 10.2 cm)",
    "sfomuseum:media_ids": [
      1527837459,
      1527848319
    ],
    "sfomuseum:medium": "paper, ink",
    "sfomuseum:object_id": 97647,
    "sfomuseum:placetype": "object",
    "sfomuseum:primary_media_id": 1527837459,
    "sfomuseum:publication": ": , 1962.",
    "sfomuseum:subcategory": "Timetable",
    "src:geom": "sfomuseum#undetermined",
    "wof:belongsto": [
      1511214223,
      102527513,
      102191575,
      85633793,
      1511213425,
      85922583,
      102087579,
      1511214277,
      1511214207,
      85688637
    ],
    "wof:breaches": [],
    "wof:country": "XX",
    "wof:created": 1579906672,
    "wof:depicts": [
      1159284003,
      1159288631
    ],
    "wof:geomhash": "30c8a918561c84bb2daa2b97fc7c5353",
    "wof:hierarchy": [
      {
        "arcade_id": 1511213425,
        "building_id": 1511214277,
        "campus_id": 102527513,
        "concourse_id": 1511214223,
        "continent_id": 102191575,
        "country_id": 85633793,
        "county_id": 102087579,
        "custom_id": 1511936051,
        "locality_id": 85922583,
        "neighbourhood_id": -1,
        "object_id": 1511936051,
        "region_id": 85688637,
        "venue_id": 1511936051,
        "wing_id": 1511214207
      }
    ],
    "wof:id": 1511936051,
    "wof:lastmodified": 1787988182,
    "wof:name": "timetable: Bonanza Air Lines",
    "wof:parent_id": 1159162825,
    "wof:placetype": "custom",
    "wof:placetype_alt": [
      "object"
    ],
    "wof:repo": "sfomuseum-data-collection",
    "wof:superseded_by": [],
    "wof:supersedes": [],
    "wof:tags": []
  },
  "bbox": [
    -122.386155,
    37.616357,
    -122.386155,
    37.616357
  ],
  "geometry": {"type":"Point","coordinates":[-122.386155,37.616357]}
}
