{
  "id": 1913796461,
  "type": "Feature",
  "properties": {
    "date:cessation_lower": "1935-07-23",
    "date:cessation_upper": "1935-07-23",
    "date:inception_lower": "1935-07-23",
    "date:inception_upper": "1935-07-23",
    "edtf:cessation": "1935-07-23",
    "edtf:inception": "1935-07-23",
    "geom:area": 2.475047457570636e-7,
    "geom:bbox": "-122.386472,37.616105,-122.385834,37.616611",
    "geom:latitude": 37.61635747477365,
    "geom:longitude": -122.38615540108617,
    "millsfield:airline_id": [
      1159284991
    ],
    "millsfield:category_id": 1511214251,
    "millsfield:collection_id": 1511214207,
    "millsfield:company_id": [
      1159286839
    ],
    "millsfield:images": [
      1913802279,
      1913802281
    ],
    "millsfield:images_colors_refs": {
      "crayola": [
        {
          "hex": "#eceabe"
        },
        {
          "hex": "#714b23"
        },
        {
          "hex": "#414a4c"
        },
        {
          "hex": "#9f8170"
        }
      ],
      "css4": [
        {
          "hex": "#bc8f8f"
        },
        {
          "hex": "#556b2f"
        },
        {
          "hex": "#f5deb3"
        },
        {
          "hex": "#2f4f4f"
        }
      ],
      "marekm4": [
        {
          "hex": "#e8dbbd"
        },
        {
          "hex": "#423d38"
        },
        {
          "hex": "#a49470"
        },
        {
          "hex": "#a59470"
        },
        {
          "hex": "#51462d"
        },
        {
          "hex": "#e9dbbf"
        }
      ]
    },
    "millsfield:images_texts": [
      "MANAGEMENT\nHUBERT C. ANDERSON\nA\nN\nCABLE ADDRESS\nMANHOCO - MANILA\nOTE\nManila, Philippines\nDearest Debs.\nIt last\n+ it has stagpre\nraining\n• and what a\nrelef.\nLast night i lut\nthe hatre at 4 P.m for\nan appountinent with a\nman named Sternet\nWho is the Pusident of\nthe Telephone Cs..\nDid nt\nlear his affier untie\nsandurch and\nwint to\nbrd worn out - lent he\npomaded to help wher\nuntie now he",
      "kas been antagonistic.\nthe got a eat from Bo\nmorning with fort\nscripto from\nCat and\nHer. Say thanks to them\nal.\nAlso get in same\nmail the incored Det\ncard from Cherry and\nam Enclosing tome othe\nstamps which Cat\nmay want for her collection\nNo lette from you but\nthus was only one days\ndiffrance in arrival o\nthe boat this An +\nthe Rain. All my lor to\nyou dearest -\nHad\n2019.121.092)"
    ],
    "millsfield:images_texts_ids": [
      1913802279,
      1913802281
    ],
    "millsfield:primary_image": 1913802279,
    "millsfield:subcategory_id": 1511213489,
    "mz:is_approximate": 1,
    "mz:is_current": 1,
    "sfomuseum:accession_number": "2019.121.0921",
    "sfomuseum:airline": "Pan American Airways",
    "sfomuseum:airline_id": [
      685
    ],
    "sfomuseum:category": "Employee Career History",
    "sfomuseum:classification_id": 195,
    "sfomuseum:collection": "Aviation Archive",
    "sfomuseum:creditline": "Collection of SFO Museum",
    "sfomuseum:date": "07/23/1935",
    "sfomuseum:date_acquired": "2019-11-22",
    "sfomuseum:daterange_end": "1935-07-23",
    "sfomuseum:daterange_start": "1935-07-23",
    "sfomuseum:description": "Handwritten letter from Harold M. Bixby to his wife, Debby Bixby, dated July 23, [1935] on stationery from the Manila Hotel; includes brief description of meeting with Mr. [J.E.H.] Stevenot, president of the telephone company [Philippine Long-Distance Company].",
    "sfomuseum:dimensions": "8 1/2 x 5 1/2 inches (21.6 x 14 cm)",
    "sfomuseum:medium": "paper, ink",
    "sfomuseum:object_id": 211284,
    "sfomuseum:placetype": "object",
    "sfomuseum:publication": ": , 07/23/1935.",
    "sfomuseum:subcategory": "Correspondence, Personal",
    "src:geom": "sfomuseum#undetermined",
    "wof:belongsto": [
      102527513,
      1159162825,
      102191575,
      85633793,
      102087579,
      85922583,
      85688637,
      1159160869
    ],
    "wof:country": "XY",
    "wof:created": 1714549100,
    "wof:depicts": [
      1159284991,
      1159286839
    ],
    "wof:geomhash": "c281b9d9eefc83b5710e64b9d646067d",
    "wof:hierarchy": [
      {
        "building_id": -1,
        "campus_id": 102527513,
        "collection_id": 1159162825,
        "concourse_id": 1159162825,
        "continent_id": 102191575,
        "country_id": 85633793,
        "county_id": 102087579,
        "custom_id": 1913796461,
        "locality_id": 85922583,
        "neighbourhood_id": -1,
        "object_id": 1913796461,
        "region_id": 85688637,
        "wing_id": 1159160869
      }
    ],
    "wof:id": 1913796461,
    "wof:lastmodified": 1787988220,
    "wof:name": "correspondence: Harold M. Bixby to Debby Bixby",
    "wof:parent_id": 1159162825,
    "wof:placetype": "custom",
    "wof:placetype_alt": [
      "object"
    ],
    "wof:repo": "sfomuseum-data-collection",
    "wof:superseded_by": [],
    "wof:supersedes": []
  },
  "bbox": [
    -122.38647222518921,
    37.6161053594541,
    -122.38583385944366,
    37.61661101879963
  ],
  "geometry": {"type":"Polygon","coordinates":[[[-122.38647222518921,37.61631782178288],[-122.386434674263,37.61623283692423],[-122.38637566566466,37.61617759671399],[-122.38630056381224,37.6161308549656],[-122.38616108894348,37.6161053594541],[-122.38602161407469,37.6161308549656],[-122.38591432571411,37.61618609521055],[-122.38585531711577,37.61626683087935],[-122.38583385944366,37.61636881265146],[-122.38587141036987,37.61646654505181],[-122.38594114780425,37.61654303118856],[-122.38605380058287,37.61660252035167],[-122.38618254661559,37.61661101879963],[-122.3863059282303,37.61657277577607],[-122.3864185810089,37.61650903735973],[-122.3864668607712,37.61641130501523],[-122.38647222518921,37.61631782178288]]]}
}
