{
  "id": 1913796111,
  "type": "Feature",
  "properties": {
    "date:cessation_lower": "1927-03-29",
    "date:cessation_upper": "1927-03-29",
    "date:inception_lower": "1927-03-29",
    "date:inception_upper": "1927-03-29",
    "edtf:cessation": "1927-03-29",
    "edtf:inception": "1927-03-29",
    "geom:area": 2.475047457570636e-7,
    "geom:bbox": "-122.386472,37.616105,-122.385834,37.616611",
    "geom:latitude": 37.61635747477365,
    "geom:longitude": -122.38615540108617,
    "millsfield:aircraft_id": [
      1159291535
    ],
    "millsfield:category_id": 1511214251,
    "millsfield:collection_id": 1511214207,
    "millsfield:company_id": [
      1159293855,
      1159292605
    ],
    "millsfield:images": [
      1913801653
    ],
    "millsfield:images_colors_refs": {
      "crayola": [
        {
          "hex": "#714b23"
        },
        {
          "hex": "#edd19c"
        },
        {
          "hex": "#9f8170"
        }
      ],
      "css4": [
        {
          "hex": "#556b2f"
        },
        {
          "hex": "#bdb76b"
        },
        {
          "hex": "#eee8aa"
        }
      ],
      "marekm4": [
        {
          "hex": "#5b5334"
        },
        {
          "hex": "#a99c6f"
        },
        {
          "hex": "#e7d59f"
        }
      ]
    },
    "millsfield:images_texts": [
      "Merch 29, 1927\nMr'. Ches. A. Inaberen, Inc.,\nc/o Fyen Airlines,\nSan\nDiego, California.\nDear Mr. Iindbergh:\nI have just received your letter of the 26th with further\nreference to the rebuilt Wright Whirlwind.\nSeotty mas \"all lit up\" about the prospecte of getting a\nwielwind but I think from your description that he has been saved\nYou are quite right when you say that the performance\nof this motor is a remaricable tribute to the fright Company, and\nat least gives a good idea of the service that one can expect\nfrom a real Thirlwind.\nLast night I spent some time with Manford Mellider, who\ncame through St. Louis with Capt. G. R. Irwin.\nI was talling to\nErvin about new developments in comerelal seaplanes, and he told\nme that there were a number of types being manufactured on the\nmest cost.\nI have an idea, which\nmay some day materialize, wherein\nwe will need a flykig boat for use on the Mississippi. Preferably,\nit should have a metallle mull, deaigned so ae to resist ordinary\ndriftwood. \"lthout going to any special trouble, 1f you could get\nsome information along this 11ne for me, I would be very grateful.\nThe ship I may want will be a job for the water somewhat similar\nto my Travel-Air, but I do not believe the Travel-Air would be made\nentirely practical for river worle by the addition of pontoons.\nAm delighted to mow that your monoplane is progressing\nrapidly and that you plan to be ready to take off on the date\nnamed. That date, of course, we must contine to leep secret.\nwith lindest regards,\nand again thanking you for all\nthat you have done in my behalf, I am\nyury sincerely,\nTIMB: DH"
    ],
    "millsfield:images_texts_ids": [
      1913801653
    ],
    "millsfield:primary_image": 1913801653,
    "millsfield:subcategory_id": 1511213489,
    "mz:is_approximate": 1,
    "mz:is_current": 1,
    "sfomuseum:accession_number": "2019.121.0822",
    "sfomuseum:aircraft": "Ryan NYP Spirit of St. Louis",
    "sfomuseum:aircraft_id": [
      989
    ],
    "sfomuseum:category": "Employee Career History",
    "sfomuseum:classification_id": 195,
    "sfomuseum:collection": "Aviation Archive",
    "sfomuseum:creditline": "Collection of SFO Museum",
    "sfomuseum:date": "03/29/1927",
    "sfomuseum:date_acquired": "2019-11-22",
    "sfomuseum:daterange_end": "1927-03-29",
    "sfomuseum:daterange_start": "1927-03-29",
    "sfomuseum:description": "Typewritten letter from Harold M. Bixby to Charles A. Lindbergh dated March 29, 1927; carbon copy; includes reference to engine in 2019.121.0820 and 2019.121.0821 as well as discussion about flying boats for use on the Mississippi River; mentions Hanford McNider and Captain G.R. Erwin.",
    "sfomuseum:dimensions": "11 x 8 1/2 inches (27.9 x 21.6 cm)",
    "sfomuseum:medium": "paper, ink",
    "sfomuseum:object_id": 211171,
    "sfomuseum:placetype": "object",
    "sfomuseum:publication": ": , 03/29/1927.",
    "sfomuseum:subcategory": "Correspondence, Personal",
    "src:geom": "sfomuseum#undetermined",
    "wof:belongsto": [
      102527513,
      1159162825,
      102191575,
      85633793,
      102087579,
      85922583,
      85688637,
      1159160869
    ],
    "wof:country": "XY",
    "wof:created": 1714548988,
    "wof:depicts": [
      1159291535,
      1159293855,
      1159292605
    ],
    "wof:geomhash": "c281b9d9eefc83b5710e64b9d646067d",
    "wof:hierarchy": [
      {
        "building_id": -1,
        "campus_id": 102527513,
        "collection_id": 1159162825,
        "concourse_id": 1159162825,
        "continent_id": 102191575,
        "country_id": 85633793,
        "county_id": 102087579,
        "custom_id": 1913796111,
        "locality_id": 85922583,
        "neighbourhood_id": -1,
        "object_id": 1913796111,
        "region_id": 85688637,
        "wing_id": 1159160869
      }
    ],
    "wof:id": 1913796111,
    "wof:lastmodified": 1787988219,
    "wof:name": "correspondence: Harold M. Bixby to Charles A. Lindbergh",
    "wof:parent_id": 1159162825,
    "wof:placetype": "custom",
    "wof:placetype_alt": [
      "object"
    ],
    "wof:repo": "sfomuseum-data-collection",
    "wof:superseded_by": [],
    "wof:supersedes": []
  },
  "bbox": [
    -122.38647222518921,
    37.6161053594541,
    -122.38583385944366,
    37.61661101879963
  ],
  "geometry": {"type":"Polygon","coordinates":[[[-122.38647222518921,37.61631782178288],[-122.386434674263,37.61623283692423],[-122.38637566566466,37.61617759671399],[-122.38630056381224,37.6161308549656],[-122.38616108894348,37.6161053594541],[-122.38602161407469,37.6161308549656],[-122.38591432571411,37.61618609521055],[-122.38585531711577,37.61626683087935],[-122.38583385944366,37.61636881265146],[-122.38587141036987,37.61646654505181],[-122.38594114780425,37.61654303118856],[-122.38605380058287,37.61660252035167],[-122.38618254661559,37.61661101879963],[-122.3863059282303,37.61657277577607],[-122.3864185810089,37.61650903735973],[-122.3864668607712,37.61641130501523],[-122.38647222518921,37.61631782178288]]]}
}
