{
  "id": 1913795891,
  "type": "Feature",
  "properties": {
    "date:cessation_lower": "1933-09-23",
    "date:cessation_upper": "1933-09-23",
    "date:inception_lower": "1933-09-23",
    "date:inception_upper": "1933-09-23",
    "edtf:cessation": "1933-09-23",
    "edtf:inception": "1933-09-23",
    "geom:area": 2.475047457570636e-7,
    "geom:bbox": "-122.386472,37.616105,-122.385834,37.616611",
    "geom:latitude": 37.61635747477365,
    "geom:longitude": -122.38615540108617,
    "millsfield:airline_id": [
      1159284991,
      1159285931
    ],
    "millsfield:category_id": 1511214251,
    "millsfield:collection_id": 1511214207,
    "millsfield:company_id": [
      1159286721
    ],
    "millsfield:images": [
      1913801019,
      1913801021,
      1913801023,
      1913801025
    ],
    "millsfield:images_colors_refs": {
      "crayola": [
        {
          "hex": "#b4674d"
        },
        {
          "hex": "#414a4c"
        },
        {
          "hex": "#c46210"
        },
        {
          "hex": "#edd19c"
        },
        {
          "hex": "#cd9575"
        }
      ],
      "css4": [
        {
          "hex": "#cd5c5c"
        },
        {
          "hex": "#696969"
        },
        {
          "hex": "#f5deb3"
        },
        {
          "hex": "#b22222"
        },
        {
          "hex": "#e9967a"
        },
        {
          "hex": "#2f4f4f"
        },
        {
          "hex": "#bc8f8f"
        }
      ],
      "marekm4": [
        {
          "hex": "#e2d2ab"
        },
        {
          "hex": "#af7150"
        },
        {
          "hex": "#c69272"
        },
        {
          "hex": "#cb2d0d"
        },
        {
          "hex": "#ca2d0e"
        },
        {
          "hex": "#d1986f"
        },
        {
          "hex": "#c69570"
        },
        {
          "hex": "#454035"
        },
        {
          "hex": "#e5d4a9"
        },
        {
          "hex": "#b57458"
        },
        {
          "hex": "#58574e"
        },
        {
          "hex": "#e4d3a8"
        },
        {
          "hex": "#c69872"
        },
        {
          "hex": "#e3d3ab"
        }
      ]
    },
    "millsfield:images_texts": [
      "Dearest Debs darli\nSaturdan, night 9/23\nM the hatre in gutting scotch with its\njapa\nso di using this instrad. Hop you can\nread it\nall right.\n223.3Я:\nтизеяи\nВЗОЯАН\nAm as\nusure suvaiting deirloguinto\nny. let me smo\nOn fune\nEight the\ncabled me a price for souglas\namphibians\nof 34.200. and suềi then\ni had be using that figui in\nall report, proporals, stc. all of whick\nwant to N.t. and was approre. A\nfor days ago the Soong\nasked if er\nwould buy\na Dongles for him. a\nwied N.4.\nand they said oK price\n48,000-\nward back that he showed\nhar same\npruce a lown than CNAC\nand got a cable back to the feet\nthat the old quotation\nevao a mis -\ntaker. tore\nthe Chain officials an\nthe\nmost Suspicions people in the",
      "RADIO GRAM\nWORLD\nCLASS OF SERVICE\nURGENT\nFULL RATE\nDEFERRED\nNIGHT LETTER\nWIDE\nWIRELESS\n*08BA8\nCORA\nRECEIPT NO.\nCHINESE GOVERNMENT RADIO ADMINISTRATION\nCHARGES\n$\nSASSOON HOUSE. JINKEE ROAD. SHANGHAI\nTELEPHONE 11130\nCIRCUIT NO.\nCHECK \u0026 REMARKS\n_DATE \u0026 TIME\nsanta fores see dampan.\n-Th a ture\nlet no materoll\nsung so bits\npates lans\nauto at tote\n-o00.8-1\nsong en\nsoft to t\n- aim s abre\nFULL-RATE\nSENDER'S NAME AND ADDRESS: po\n(NOT TO BE TRANSMITTED)\nMESSAGE UNLESS\nMARKED OTHERWISE\n.1933\nDATE 02019.121.072/9",
      "world and\ndo not\nbiker me or sa.a.\nThey think un\narz lying?\nto gut so profit on the Donglas\nplanes.\nm. 4. Tang wwas so mad he\ncorld harde\nИОІТАЯТЕП\nPh cue to\nme\nEmme\nhe did mocking at accabit fixing\nthip up for us wich TV Soon an o\nthe Minist of Communications at\nnanking during this last wack.\nI hav cabled the whole stor,\nto Ny. and the Day they and sorry\nfor the mistake and that they did\nnot catch it Earlier - but that dors\nnot help me a bit.\nHar an appoistment\nwith T.V. Soong on monday\nand hope 9\ncan make him see the big things\nin store for China through D.a.a. and\nforget the\npee the but it ce be hand.\nECQI\narachts and lot of lorraor ton\nЯОдА ОнА зМАЙ ЗяЗаиза\nGood night - Had.",
      "RADIOGRAM\nCLASS OF SERVICE\nURGENT\nFULL RATE\nCGRA\nWORLD\nWIDE\nWIRELESS\nCARP\nRECEIPT NO.\nDEFERRED\nCHARGES\nNIGHT LETTER\nCHINESE GOVERNMENT RADIO ADMINISTRATION\nSASSOON HOUSE. JINKEE ROAD. SHANGHAI\nTELEPHONE 11130\n$\nCIRCUIT NO......\n....CHECK \u0026 REMARKS.\nratasine\n..DATE \u0026 TIME\npoto elate. e\nLib reto sout\narab to to tud.\n3\ntire\nFULL-RATE MESSAGE UNLESS\nMARKED OTHERWISE\nSENDER'S NAME AND ADDRESS:\n(NOT TO BE TRANSMITTED)\nDATE..\n1933\n2019.121,0721b"
    ],
    "millsfield:images_texts_ids": [
      1913801019,
      1913801021,
      1913801023,
      1913801025
    ],
    "millsfield:primary_image": 1913801019,
    "millsfield:subcategory_id": 1511213489,
    "mz:is_approximate": 1,
    "mz:is_current": 1,
    "sfomuseum:accession_number": "2019.121.0721 a b",
    "sfomuseum:airline": "Pan American Airways",
    "sfomuseum:airline_id": [
      685,
      1131
    ],
    "sfomuseum:category": "Employee Career History",
    "sfomuseum:classification_id": 195,
    "sfomuseum:collection": "Aviation Archive",
    "sfomuseum:creditline": "Collection of SFO Museum",
    "sfomuseum:date": "09/23/1933",
    "sfomuseum:date_acquired": "2019-11-22",
    "sfomuseum:daterange_end": "1933-09-23",
    "sfomuseum:daterange_start": "1933-09-23",
    "sfomuseum:description": "Handwritten letter from Harold M. Bixby to his wife, Debby Bixby, dated Saturday, September 23, [1933], on Radiogram from from the Chinese Government Radio Administration; includes description of miscommunication with Mr. [T.V.] Soong, M.Y. Tang, and the minister of communications [Chu Chia-hua] over purchase of a Douglas aircraft.",
    "sfomuseum:dimensions": "8 1/2 x 8 1/2 inches (21.6 x 21.6 cm)",
    "sfomuseum:medium": "paper, ink",
    "sfomuseum:object_id": 211069,
    "sfomuseum:placetype": "object",
    "sfomuseum:publication": ": , 09/23/1933.",
    "sfomuseum:subcategory": "Correspondence, Personal",
    "src:geom": "sfomuseum#undetermined",
    "wof:belongsto": [
      102527513,
      1159162825,
      102191575,
      85633793,
      102087579,
      85922583,
      85688637,
      1159160869
    ],
    "wof:country": "XY",
    "wof:created": 1714548924,
    "wof:depicts": [
      1159286721,
      1159284991,
      1159285931
    ],
    "wof:geomhash": "c281b9d9eefc83b5710e64b9d646067d",
    "wof:hierarchy": [
      {
        "building_id": -1,
        "campus_id": 102527513,
        "collection_id": 1159162825,
        "concourse_id": 1159162825,
        "continent_id": 102191575,
        "country_id": 85633793,
        "county_id": 102087579,
        "custom_id": 1913795891,
        "locality_id": 85922583,
        "neighbourhood_id": -1,
        "object_id": 1913795891,
        "region_id": 85688637,
        "wing_id": 1159160869
      }
    ],
    "wof:id": 1913795891,
    "wof:lastmodified": 1787988219,
    "wof:name": "correspondence: Harold M. Bixby to Debby Bixby",
    "wof:parent_id": 1159162825,
    "wof:placetype": "custom",
    "wof:placetype_alt": [
      "object"
    ],
    "wof:repo": "sfomuseum-data-collection",
    "wof:superseded_by": [],
    "wof:supersedes": []
  },
  "bbox": [
    -122.38647222518921,
    37.6161053594541,
    -122.38583385944366,
    37.61661101879963
  ],
  "geometry": {"type":"Polygon","coordinates":[[[-122.38647222518921,37.61631782178288],[-122.386434674263,37.61623283692423],[-122.38637566566466,37.61617759671399],[-122.38630056381224,37.6161308549656],[-122.38616108894348,37.6161053594541],[-122.38602161407469,37.6161308549656],[-122.38591432571411,37.61618609521055],[-122.38585531711577,37.61626683087935],[-122.38583385944366,37.61636881265146],[-122.38587141036987,37.61646654505181],[-122.38594114780425,37.61654303118856],[-122.38605380058287,37.61660252035167],[-122.38618254661559,37.61661101879963],[-122.3863059282303,37.61657277577607],[-122.3864185810089,37.61650903735973],[-122.3864668607712,37.61641130501523],[-122.38647222518921,37.61631782178288]]]}
}
