{
  "id": 1914622433,
  "type": "Feature",
  "properties": {
    "date:cessation_lower": "1970-01-01",
    "date:cessation_upper": "1979-12-31",
    "date:inception_lower": "1970-01-01",
    "date:inception_upper": "1979-12-31",
    "edtf:cessation": "197X",
    "edtf:inception": "197X",
    "geom:area": 2.475047457570636e-7,
    "geom:bbox": "-122.386472,37.616105,-122.385834,37.616611",
    "geom:latitude": 37.61635747477365,
    "geom:longitude": -122.38615540108617,
    "millsfield:aircraft_id": [
      1159290417
    ],
    "millsfield:airline_id": [
      1159285331
    ],
    "millsfield:category_id": 1762671311,
    "millsfield:collection_id": 1511214207,
    "millsfield:company_id": [],
    "millsfield:images": [
      1914622635,
      1914622637
    ],
    "millsfield:images_colors_refs": {
      "crayola": [
        {
          "hex": "#414a4c"
        },
        {
          "hex": "#000000"
        },
        {
          "hex": "#efdecd"
        }
      ],
      "css4": [
        {
          "hex": "#dcdcdc"
        },
        {
          "hex": "#2f4f4f"
        },
        {
          "hex": "#000000"
        }
      ],
      "marekm4": [
        {
          "hex": "#2e2b28"
        },
        {
          "hex": "#e9e3ce"
        },
        {
          "hex": "#242420"
        },
        {
          "hex": "#e9e3cf"
        }
      ]
    },
    "millsfield:images_texts": [
      "TRANS-PROVINCIAL\nAIRLINES LTD.\nSAFETY FEATURES OF YOUR DC-3\nThe design of this airplane,\nthe\ncontinuing program of maintenance it\nreceives, and the experience of your\ncaptain and crew make it unlikely that\nyou will ever need to use the built-in\nsafety features of the DC3. However, it\nis sound practice for every traveller to\nbe acquainted with them.\nYOUR SEAT BELT is designed for your\ncomfort and safety in case of turbulence.\nPlease keep it fastened whenever the seat\nbelt sign is illuminated. You may find it\nconvenient to leave your seat belt loosely\nfastened at all times and pull it snug when\nthe sign is lighted.\nEMERGENCY EXITS\nare clearly marked on both sides of the cabin. Instructions for opening them are printed on\neach of these exits. Do not open an emergency exit unless requested by a member of your crew.\nESCAPE WINDOWS OVER WINGS\nLOCATIONS\n1. Pull cover open.\n2. Grasp RED handle and\nturn.\n3. Entire window is then\noutward\n4. Exit through window;\none leg first, then head\nand shoulders, then the\nother leg.\nDOOR EXITS\nWINDOW\nEXIT\nWINDOW\nEXITS\nTurn handle in direction of\narrow.\nDOOR\nEXIT\nPush outward and down.\nAFTER LEAVING AIRCRAFT\nProceed away from the aircraft in an orderly fashion to a safe distance in case of fire\n- and keep together.\nPLEASE READ OTHER SIDE",
      "PLEASE DO NOT REMOVE THIS CARD FROM AIRPLANE\nIMPORTANT INFORMATION\nYou are flying aboard an aircraft with\na Flight Crew which is thoroughly\ntrained\nand\nexperienced. It\nis\nextremely unlikely that certain safety\nfacilities will be needed, but simply as\na precaution we would like to you to\nbe familiar with these features.\nSEATBACKS\nMinistry\nof\nTransportation\nRegulations require your seatback to\nbe upright during taxi, take off and\nlanding.\nNO SMOKING\nWhen the \"NO SMOKING\" sign is off,\nyou\nmay\nsmoke cigarettes\nwhile\nseated\nanywhere\nin\nthe\nCabin.\nWhenever the \"NO SMOKING\" sign\ncomes on, however, all cigarettes are\nto be extinguished.\nSEAT BELTS\nEven if the \"SEAT BELT\" sign is\nturned off in flight, it is recommended\nthat you\nkeep\nyour belt loosely\nfastened, whenever you are in your\nseat.\nEMERGENCY LANDING\nRemain calm and follow the instructions of your crew\nat all times.\nLoosen your collar and tie, remove glasses, hats, sharp\nobjects from clothing or pockets, and take off your\nshoes. (Take shoes with you when leaving the aircraft).\nDo not remove any other clothing.\nPut your seat in an upright position, fasten your seat\nbelt securely\naround your hips, and place both\ntogether flat on the floor. Lean over, cross your arms,\nhold your knees, and press your head into your folded\narms. Remain in this position until the aircraft comes to\na complete stop. (One or more impacts may follow the\ninitial impact).\nFollow the crew's instructions when you leave the air.\ncraft.\nRADIO RECEIVERS Radio receivers may not be operated while the aircraft is in\nflight. They may act as miniature broadcasting stations and interfere with the aircraft's\nnavigation system, causing incorrect readings. Should you wish to operate any other elec.\ntronic device, please notify the stewardess.\nTRANS-PROVINCIAL\nAIRLINES LTD.\nPLEASE READ OTHER SIDE"
    ],
    "millsfield:images_texts_ids": [
      1914622635,
      1914622637
    ],
    "millsfield:primary_image": 1914622635,
    "millsfield:subcategory_id": 1511213703,
    "mz:is_approximate": 1,
    "mz:is_current": 1,
    "sfomuseum:accession_number": "2002.127.559",
    "sfomuseum:aircraft": "Douglas DC-3",
    "sfomuseum:aircraft_id": [
      487
    ],
    "sfomuseum:airline": "Trans-Provincial Airlines",
    "sfomuseum:airline_id": [
      843
    ],
    "sfomuseum:category": "Passenger Amenity, Archive",
    "sfomuseum:classification_id": 581,
    "sfomuseum:collection": "Aviation Archive",
    "sfomuseum:creditline": "Gift of Thomas G. Dragges",
    "sfomuseum:date": "1970s",
    "sfomuseum:date_acquired": "2003-12-22",
    "sfomuseum:daterange_end": "1979-12-31",
    "sfomuseum:daterange_start": "1970-01-01",
    "sfomuseum:description": "Safety information card issued by Trans-Provincial Airlines for the Douglas DC-3 fleet; white double-sided card with illustrations depicting inflight safety and emergency procedures; no ID number; no revision date.",
    "sfomuseum:dimensions": "11 x 6 1/2 inches (27.9 x 16.5 cm)",
    "sfomuseum:medium": "paper, plastic, ink",
    "sfomuseum:object_id": 69750,
    "sfomuseum:placetype": "object",
    "sfomuseum:publication": ": , 1970s.",
    "sfomuseum:subcategory": "Safety Information Card",
    "src:geom": "sfomuseum#undetermined",
    "wof:belongsto": [
      102527513,
      1159162825,
      102191575,
      85633793,
      102087579,
      85922583,
      85688637,
      1159160869
    ],
    "wof:country": "XY",
    "wof:created": 1721028787,
    "wof:depicts": [
      1159285331,
      1159290417
    ],
    "wof:geomhash": "c281b9d9eefc83b5710e64b9d646067d",
    "wof:hierarchy": [
      {
        "building_id": -1,
        "campus_id": 102527513,
        "collection_id": 1159162825,
        "concourse_id": 1159162825,
        "continent_id": 102191575,
        "country_id": 85633793,
        "county_id": 102087579,
        "custom_id": 1914622433,
        "locality_id": 85922583,
        "neighbourhood_id": -1,
        "object_id": 1914622433,
        "region_id": 85688637,
        "wing_id": 1159160869
      }
    ],
    "wof:id": 1914622433,
    "wof:lastmodified": 1787988221,
    "wof:name": "safety information card: Trans-Provincial Airlines, Douglas DC-3",
    "wof:parent_id": 1159162825,
    "wof:placetype": "custom",
    "wof:placetype_alt": [
      "object"
    ],
    "wof:repo": "sfomuseum-data-collection",
    "wof:superseded_by": [],
    "wof:supersedes": []
  },
  "bbox": [
    -122.38647222518921,
    37.6161053594541,
    -122.38583385944366,
    37.61661101879963
  ],
  "geometry": {"type":"Polygon","coordinates":[[[-122.38647222518921,37.61631782178288],[-122.386434674263,37.61623283692423],[-122.38637566566466,37.61617759671399],[-122.38630056381224,37.6161308549656],[-122.38616108894348,37.6161053594541],[-122.38602161407469,37.6161308549656],[-122.38591432571411,37.61618609521055],[-122.38585531711577,37.61626683087935],[-122.38583385944366,37.61636881265146],[-122.38587141036987,37.61646654505181],[-122.38594114780425,37.61654303118856],[-122.38605380058287,37.61660252035167],[-122.38618254661559,37.61661101879963],[-122.3863059282303,37.61657277577607],[-122.3864185810089,37.61650903735973],[-122.3864668607712,37.61641130501523],[-122.38647222518921,37.61631782178288]]]}
}
