{
  "id": 1913796633,
  "type": "Feature",
  "properties": {
    "date:cessation_lower": "1964-11-20",
    "date:cessation_upper": "1964-11-20",
    "date:inception_lower": "1964-11-20",
    "date:inception_upper": "1964-11-20",
    "edtf:cessation": "1964-11-20",
    "edtf:inception": "1964-11-20",
    "geom:area": 2.475047457570636e-7,
    "geom:bbox": "-122.386472,37.616105,-122.385834,37.616611",
    "geom:latitude": 37.61635747477365,
    "geom:longitude": -122.38615540108617,
    "millsfield:airline_id": [
      1159284989
    ],
    "millsfield:category_id": 1511214251,
    "millsfield:collection_id": 1511214207,
    "millsfield:company_id": [
      1159286839
    ],
    "millsfield:images": [
      1913796977,
      1913796979
    ],
    "millsfield:images_colors_refs": {
      "crayola": [
        {
          "hex": "#fddde6"
        },
        {
          "hex": "#cd9575"
        },
        {
          "hex": "#a5694f"
        },
        {
          "hex": "#a57164"
        }
      ],
      "css4": [
        {
          "hex": "#a0522d"
        },
        {
          "hex": "#f5f5f5"
        },
        {
          "hex": "#cd853f"
        }
      ],
      "marekm4": [
        {
          "hex": "#f3f1ee"
        },
        {
          "hex": "#f3f0ed"
        },
        {
          "hex": "#9c794b"
        },
        {
          "hex": "#b99060"
        },
        {
          "hex": "#b18856"
        }
      ]
    },
    "millsfield:images_texts": [
      "NoV 20\n198%\nunon with the Dodges, he writes books,\noor Man 's Whetever\".\nThat should be right\nnever heard of him. He also wrote \"To\nre've never neard of that either. Anyway\ni cinculation from \u0026 months in Morooco and\nwork for PAA so our host Jesse Boynton\nus. The Arnolds and her grandmother,\nle for dinner with us at our hotel.\nit overcoat\nTea with the Abbots.\nin the \"levee\" in Iront of the hotel.\ny\"s birthday. First anniversary of JIK' g\npendence Day, le hired car and drove to\ndest olties in the world,\nVery interesting.\naced its history baok to 6000 B.C.\nty, on ruins of an anoiant olty, then Ronaas\nDU13\ntusaders built a fortress on Roman ruins, then\nack to Beirut our driver insisted on taking\noffee, We saw how Beirut lover income\nle asignter and her three cuildren.\nмоге\nce That night.\nstanted on our auto tour of the Holy Land.\nrove\ner to Baalbet which we hardly recognized\nmany years ago. It in an ave-inspiring\nwe did not gee anything in greece that was\nmore\nfoundation of the largest temple consista of\nthree\nstones\nof\n\u0026 feet square and 30 feet long.\nA fonth\nstone\nout\nnot\nused was found in a nearby quarry, Its\nweight\n1S\nat 30 tona, Question how did they move the\nother\nthree.\nsort of like San Caldwell s wonderment over that\nbIR\nstobe\ntnat\nWhittemore and I moved fron the old foundation\nOVeT\nto\nong the driveway at Topeide. Baalbek is in\nthe\nmádd le\nfertile valley between two snow capped\nmountain\nbread basket of Lebanon. Excapt for this\n1 te\nnaDo\nee how two million people can live in rocky.\nmon tanous\nBut for sone 4000 years the old Phoenicians\nand\ndescendante have lived largely on trade, andby out smarti\ning all\nneighbors, We had lunoh at Baalbek's Palmyra Inn\nand then carrind fou p Daussous,\nTues. Nov.24th. Motored around Dentsous which has grown tremendously\nsince our last visit, lew wide streets are lined on eitherside\nwith four and live story apartment buildings. The city seems very\nThe Arab refugees from Israel are permitted to work\nand have been moved out of the tents and packing box hovels of\na fen years ago into decent quarters (not so in Lebanon).\nOur\nguide told us he is a nufugee forcea out of his home in 1948.\nIncidentally in Lebanon, Syria, Jordan and other countries either\nArabic or in sympathy with the Arabs you do not mention \"Israel\",\nyou refer to it as the \"occupied territory\".\nWe drove down the\n\"Street Called Straight\", saw where, St. Paul was lowered over the\ncity wall in a basket and spent alot of time and some money in a\nDaZBaT.\nIn the afternoon ve drove out in the country on little\nroads through the \"Garden of Buen\" as thas onsis is sonetimes oalled.\nAESSHISKPO",
      "-aus to vetna na terminated at Agon made\nnordentally to govie pas been\ndren, const know why.\nthe ran alone the\nnos dynanited so much all the way to Petra.\nthe bonb desert where the soattered tenta\ncombed by a few camels and a few sheep\non earth they keno alive, There is one\n3 in bout every 50 sauare feet of desert\nlying over the lend that sepretary of the\nto tue oil man Doueney beok in the Harding\nce it wamit woth 31.00 and this is wath\nif the main desert biziway and drove to the\ntle villare of Blit. In coute there we drove\nsees struck to get water and according to our\ntoning ever gince. At flit ve left the car\nwho spoke inclusa very cell to 100k. over\ntre horses we kould ride into Petre. I\nmed guide, that I wanted a horee \"vnose get\nand went?, le couldn't field that one so ne\n\"no! However, the horses proved quite\nstiffness in unacoustoned busoles we both\nin Anerican tour promoter pas described Petra\ni quote, \"Touriste in search of a Shangri-\nis domes Hilton's tabled retreat, will find\nthe desert of southern Jordan, midway between\nead see and the Red Seg. Fere, carved out of\nSture Grand Convon la the rose-red city of\nhone, Petra was coveted by one tribe after\n=d be the Romans. The isolation of this\nde the clue to its prosperity, guaranteed 1te\nscene a ghost town, strew with the relics of\nthe time of the Crusades until 1026. A British\nsparing a la lawrence of frabia ds a Bedouin\ni the ruins, but few travelers followed bis\nu who tra\nмерь prepared to hare а вітільо-\nise tennise and tonbe no nor an easy drive\nall be samany to papitel al Jordan, lourista\ni then cann for the basands of an Arabian\nso village of diji, a police checkpoint\nata tend miscert of a stage set for Beau deste.\nareven ted by Arabs in flowing robes and\ni cloth folded into a triangle and anchored to\na with a coil or twisted black goat hair. A9\nbeen into the side of a mountain, you\ndezved out of solid rook, Here in the ancient\ne caravana once peid a bandsome fee for water\ntae walla of retra.\nThe path around the\nda into an intricate, steep gorge, as narrow"
    ],
    "millsfield:images_texts_ids": [
      1913796977,
      1913796979
    ],
    "millsfield:primary_image": 1913796977,
    "millsfield:subcategory_id": 1511213489,
    "mz:is_approximate": 1,
    "mz:is_current": 1,
    "sfomuseum:accession_number": "2019.121.1223 a e",
    "sfomuseum:airline": "Pan American World Airways",
    "sfomuseum:airline_id": [
      684
    ],
    "sfomuseum:category": "Employee Career History",
    "sfomuseum:classification_id": 195,
    "sfomuseum:collection": "Aviation Archive",
    "sfomuseum:creditline": "Collection of SFO Museum",
    "sfomuseum:date": "11/20/1964-11/27/1964",
    "sfomuseum:date_acquired": "2019-11-22",
    "sfomuseum:daterange_end": "1964-11-27",
    "sfomuseum:daterange_start": "1964-11-20",
    "sfomuseum:description": "Typewritten letter from Harold M. Bixby to his family, dated November 20 to 27, [1964]; includes description of travels in Beirut, Baalbek, Damascus, Petra, Jordan, and Jerusalem; includes opinions on the state of Israel.",
    "sfomuseum:dimensions": "11 x 8 1/2 inches (27.9 x 21.6 cm)",
    "sfomuseum:medium": "paper, ink",
    "sfomuseum:object_id": 211859,
    "sfomuseum:placetype": "object",
    "sfomuseum:publication": ": , 11/20/1964-11/27/1964.",
    "sfomuseum:subcategory": "Correspondence, Personal",
    "src:geom": "sfomuseum#undetermined",
    "wof:belongsto": [
      102527513,
      1159162825,
      102191575,
      85633793,
      102087579,
      85922583,
      85688637,
      1159160869
    ],
    "wof:country": "XY",
    "wof:created": 1714549150,
    "wof:depicts": [
      1159284989,
      1159286839
    ],
    "wof:geomhash": "c281b9d9eefc83b5710e64b9d646067d",
    "wof:hierarchy": [
      {
        "building_id": -1,
        "campus_id": 102527513,
        "collection_id": 1159162825,
        "concourse_id": 1159162825,
        "continent_id": 102191575,
        "country_id": 85633793,
        "county_id": 102087579,
        "custom_id": 1913796633,
        "locality_id": 85922583,
        "neighbourhood_id": -1,
        "object_id": 1913796633,
        "region_id": 85688637,
        "wing_id": 1159160869
      }
    ],
    "wof:id": 1913796633,
    "wof:lastmodified": 1787988220,
    "wof:name": "correspondence: Harold M. Bixby, family circular letter",
    "wof:parent_id": 1159162825,
    "wof:placetype": "custom",
    "wof:placetype_alt": [
      "object"
    ],
    "wof:repo": "sfomuseum-data-collection",
    "wof:superseded_by": [],
    "wof:supersedes": []
  },
  "bbox": [
    -122.38647222518921,
    37.6161053594541,
    -122.38583385944366,
    37.61661101879963
  ],
  "geometry": {"type":"Polygon","coordinates":[[[-122.38647222518921,37.61631782178288],[-122.386434674263,37.61623283692423],[-122.38637566566466,37.61617759671399],[-122.38630056381224,37.6161308549656],[-122.38616108894348,37.6161053594541],[-122.38602161407469,37.6161308549656],[-122.38591432571411,37.61618609521055],[-122.38585531711577,37.61626683087935],[-122.38583385944366,37.61636881265146],[-122.38587141036987,37.61646654505181],[-122.38594114780425,37.61654303118856],[-122.38605380058287,37.61660252035167],[-122.38618254661559,37.61661101879963],[-122.3863059282303,37.61657277577607],[-122.3864185810089,37.61650903735973],[-122.3864668607712,37.61641130501523],[-122.38647222518921,37.61631782178288]]]}
}
