{
  "id": 1913796079,
  "type": "Feature",
  "properties": {
    "date:cessation_lower": "1937-04-04",
    "date:cessation_upper": "1937-04-04",
    "date:inception_lower": "1937-04-04",
    "date:inception_upper": "1937-04-04",
    "edtf:cessation": "1937-04-04",
    "edtf:inception": "1937-04-04",
    "geom:area": 2.475047457570636e-7,
    "geom:bbox": "-122.386472,37.616105,-122.385834,37.616611",
    "geom:latitude": 37.61635747477365,
    "geom:longitude": -122.38615540108617,
    "millsfield:airline_id": [
      1159284991
    ],
    "millsfield:category_id": 1511214251,
    "millsfield:collection_id": 1511214207,
    "millsfield:company_id": [
      1159286839
    ],
    "millsfield:images": [
      1913799837,
      1913799839
    ],
    "millsfield:images_colors_refs": {
      "crayola": [
        {
          "hex": "#deaa88"
        },
        {
          "hex": "#85754e"
        },
        {
          "hex": "#efdecd"
        },
        {
          "hex": "#f8d568"
        },
        {
          "hex": "#714b23"
        },
        {
          "hex": "#edd19c"
        }
      ],
      "css4": [
        {
          "hex": "#faebd7"
        },
        {
          "hex": "#f0e68c"
        },
        {
          "hex": "#deb887"
        },
        {
          "hex": "#556b2f"
        }
      ],
      "marekm4": [
        {
          "hex": "#e8da97"
        },
        {
          "hex": "#696531"
        },
        {
          "hex": "#6c6839"
        },
        {
          "hex": "#f2eccf"
        },
        {
          "hex": "#ddcb71"
        },
        {
          "hex": "#d8c777"
        }
      ]
    },
    "millsfield:images_texts": [
      "Sunday Aprie 4\nDearest Urbo.\nIt has bun a perfect day - wratki-\nwit\nOften you lift I wrat loy the\noffier to sur if than wine any weir\nthen to qll where found 1 to\napparate, in good spirits playing wett\nthe othn Children.\n• Abont 10. 30 J\nwit out to the Club for some tennis\nThe Judge is in Ranking so Frank\nHavlick look his place and ur\nbrat Max Pand Bondie luo sits - one\n6 - 2 and the next one they kad\nus 5-1 bent we finally won q-?\nIt was lots of fun. Frank is betu\nthan the gadge.\nbut he's a bit\nunstrady\nat times - just like me.\nand we wire it, always both\ndoing will at the same time, Bfou\nFrank arurd one of the markus\nplayed with me against maxe B\nand us also brat them, two sets -\nof cours the marke was plenty good.\nI was\ngoad and lied aftu four\nhand si\n2 - also got sun Ourna\nand now no doubt sorryone well\ntree me how wale 9 look! coith\nyou wis here to mats the change.\nI is bus think of you all.\nday wording if the\nAra\n1 cas\ncaem or rough\nand whethe\nyou",
      "And Cat Especially wit\nthe trip\nthe big girls Shones\nhave thrie sa lego after thei\nhome abont one oclock\n- Had\nlunch with Hits. and ther\nwe both took a nap befor I went\n-to the office to suprevises the\nmoving. Came back tarl, - or sather\naround 5 accock and then Nibe\nand I wint to sir \"Maid of Salem\nmy confidentice verdict fair\nPublic announarment and this\nconviction i\" wordnfue\".\nor got home abort 7:45. had\nand nou Nor and the\nOld Amah ars asleep and I'm\nwriting in bid with then pellous\nbhind me and one on my lap\nWhere the lamp is also purcome,\nbalanced. Its nine oclock but 2\nsuspict a call fom your boy fren\nToye apt o start reading.\nThus Endeck the first day.\nHit is awfully cut and\nincutations hair bun extended for\nher part. I wile come hone at\nI to join in -\nLots and loto of\nCoor\nand the brat kind of commis"
    ],
    "millsfield:images_texts_ids": [
      1913799837,
      1913799839
    ],
    "millsfield:primary_image": 1913799837,
    "millsfield:subcategory_id": 1511213489,
    "mz:is_approximate": 1,
    "mz:is_current": 1,
    "sfomuseum:accession_number": "2019.121.1010",
    "sfomuseum:airline": "Pan American Airways",
    "sfomuseum:airline_id": [
      685
    ],
    "sfomuseum:category": "Employee Career History",
    "sfomuseum:classification_id": 195,
    "sfomuseum:collection": "Aviation Archive",
    "sfomuseum:creditline": "Collection of SFO Museum",
    "sfomuseum:date": "04/04/1937",
    "sfomuseum:date_acquired": "2019-11-22",
    "sfomuseum:daterange_end": "1937-04-04",
    "sfomuseum:daterange_start": "1937-04-04",
    "sfomuseum:description": "Handwritten letter from Harold M. Bixby to his wife, Debby Bixby, dated April 4, [1937]; includes description of tennis with Max P. [Polin] and Bondie [William L. Bond], the Judge [James Ross], mention of an office move, family matters.",
    "sfomuseum:dimensions": "13 x 8 inches (33 x 20.3 cm)",
    "sfomuseum:medium": "paper, ink",
    "sfomuseum:object_id": 211373,
    "sfomuseum:placetype": "object",
    "sfomuseum:publication": ": , 04/04/1937.",
    "sfomuseum:subcategory": "Correspondence, Personal",
    "src:geom": "sfomuseum#undetermined",
    "wof:belongsto": [
      102527513,
      1159162825,
      102191575,
      85633793,
      102087579,
      85922583,
      85688637,
      1159160869
    ],
    "wof:country": "XY",
    "wof:created": 1714548977,
    "wof:depicts": [
      1159284991,
      1159286839
    ],
    "wof:geomhash": "c281b9d9eefc83b5710e64b9d646067d",
    "wof:hierarchy": [
      {
        "building_id": -1,
        "campus_id": 102527513,
        "collection_id": 1159162825,
        "concourse_id": 1159162825,
        "continent_id": 102191575,
        "country_id": 85633793,
        "county_id": 102087579,
        "custom_id": 1913796079,
        "locality_id": 85922583,
        "neighbourhood_id": -1,
        "object_id": 1913796079,
        "region_id": 85688637,
        "wing_id": 1159160869
      }
    ],
    "wof:id": 1913796079,
    "wof:lastmodified": 1787988219,
    "wof:name": "correspondence: Harold M. Bixby to Debby Bixby",
    "wof:parent_id": 1159162825,
    "wof:placetype": "custom",
    "wof:placetype_alt": [
      "object"
    ],
    "wof:repo": "sfomuseum-data-collection",
    "wof:superseded_by": [],
    "wof:supersedes": []
  },
  "bbox": [
    -122.38647222518921,
    37.6161053594541,
    -122.38583385944366,
    37.61661101879963
  ],
  "geometry": {"type":"Polygon","coordinates":[[[-122.38647222518921,37.61631782178288],[-122.386434674263,37.61623283692423],[-122.38637566566466,37.61617759671399],[-122.38630056381224,37.6161308549656],[-122.38616108894348,37.6161053594541],[-122.38602161407469,37.6161308549656],[-122.38591432571411,37.61618609521055],[-122.38585531711577,37.61626683087935],[-122.38583385944366,37.61636881265146],[-122.38587141036987,37.61646654505181],[-122.38594114780425,37.61654303118856],[-122.38605380058287,37.61660252035167],[-122.38618254661559,37.61661101879963],[-122.3863059282303,37.61657277577607],[-122.3864185810089,37.61650903735973],[-122.3864668607712,37.61641130501523],[-122.38647222518921,37.61631782178288]]]}
}
