{
  "id": 1511935415,
  "type": "Feature",
  "properties": {
    "date:cessation_lower": "2008-07-08",
    "date:cessation_upper": "2008-07-08",
    "date:inception_lower": "2008-07-08",
    "date:inception_upper": "2008-07-08",
    "edtf:cessation": "2008-07-08",
    "edtf:date": "2008-07-08",
    "edtf:inception": "2008-07-08",
    "geom:area": 0,
    "geom:bbox": "-122.386155,37.616357,-122.386155,37.616357",
    "geom:latitude": 37.616357,
    "geom:longitude": -122.386155,
    "iso:country": "XX",
    "millsfield:category_id": 1511214215,
    "millsfield:collection_id": 1511214207,
    "millsfield:images": [
      1746512173,
      1746512175
    ],
    "millsfield:images_colors_refs": {
      "crayola": [
        {
          "hex": "#dbd7d2"
        },
        {
          "hex": "#2b6cc4"
        },
        {
          "hex": "#efdecd"
        },
        {
          "hex": "#324ab2"
        },
        {
          "hex": "#414a4c"
        },
        {
          "hex": "#9f8170"
        },
        {
          "hex": "#a5694f"
        }
      ],
      "css4": [
        {
          "hex": "#4682b4"
        },
        {
          "hex": "#2f4f4f"
        },
        {
          "hex": "#bdb76b"
        },
        {
          "hex": "#483d8b"
        },
        {
          "hex": "#dcdcdc"
        },
        {
          "hex": "#a0522d"
        }
      ],
      "marekm4": [
        {
          "hex": "#e9dde0"
        },
        {
          "hex": "#4164be"
        },
        {
          "hex": "#ad9b62"
        },
        {
          "hex": "#e4e3e4"
        },
        {
          "hex": "#95694a"
        },
        {
          "hex": "#473c30"
        },
        {
          "hex": "#2c40bc"
        }
      ]
    },
    "millsfield:images_texts": [
      "AEROMFILA 2007\n1897 - 1997\nCENTENAR SMARANDA BRÄESCU\n- PRIMA PARAŞUTISTA A ROMÂNIE\nEretele de stuf\nSAsaniniap\nsna\nSMARANDA BRĂESCU\nCorespondentă\nparaşurtată\nTIMIŞOARA 1 - 300790\nBani\n04.08.2007\n80\nROMÂNIA\nM. VĂMAŞESCU\n2 ROMÂNIA\n400LS\nhuarau hec hmt,\nTIMISOARA\n08. 07.08.\noF TMº\nDestinatar.\nALEXANDRU BARTOC\nA 7. TIMiJOARA\nC•P. 20S\nDeținătoare a primului record mondial\nde paraşutism\nSACRAMENTO (S.U.A.) - 19 mai 1932\nCodul\nLocalitatea\nTIMiJOARA",
      "Expeditor.\nCodul / Localitatea\nN90\n0P0C\n4 09 07 16\nOF.\n™M\nEDIPOST\nCod 058/97\nAplicați timbrele numai pe fata plicului, în coltul drept superior.\nNu introduceți în plicuri bani sou alte valori. Folositi peniru eceasta\nserviciul mandatelor poştale sau telegrafice și al scrisorilor cu valoare.\n2009,073.005"
    ],
    "millsfield:images_texts_ids": [
      1746512173,
      1746512175
    ],
    "millsfield:primary_image": 1746512173,
    "millsfield:subcategory_id": 1511213159,
    "mz:hierarchy_label": 1,
    "mz:is_current": 1,
    "sfomuseum:accession_number": "2009.073.005",
    "sfomuseum:category": "Philately",
    "sfomuseum:classification_id": 10,
    "sfomuseum:collection": "Aviation Archive",
    "sfomuseum:creditline": "Gift of Alexandru Dan Bartoc",
    "sfomuseum:date": "07/08/2008",
    "sfomuseum:date_acquired": "2009-04-24",
    "sfomuseum:daterange_end": "2008-07-08",
    "sfomuseum:daterange_start": "2008-07-08",
    "sfomuseum:description": "Airmail flight cover commemorating Romanian female aviator Smaranda Braescu (1897-1948); printed color cachet depicting Braescu posing in front of aircraft; postmarked August 4, 2007 and July 8, 2008 in Timisoara, Romania with commemorative cancellation mark over 80-bani stamp and preprinted 400-lei postal indicia.",
    "sfomuseum:dimensions": "4 1/2 x 6 1/4 inches (11.4 x 15.9 cm)",
    "sfomuseum:medium": "paper, ink",
    "sfomuseum:object_id": 96148,
    "sfomuseum:placetype": "object",
    "sfomuseum:publication": ": , 07/08/2008.",
    "sfomuseum:subcategory": "Airmail Flight Cover",
    "src:geom": "sfomuseum#undetermined",
    "wof:belongsto": [
      1511214215,
      102527513,
      102191575,
      85633793,
      1511213159,
      85922583,
      102087579,
      1511214277,
      1511214207,
      85688637
    ],
    "wof:breaches": [],
    "wof:country": "XX",
    "wof:created": 1618962232,
    "wof:geomhash": "30c8a918561c84bb2daa2b97fc7c5353",
    "wof:hierarchy": [
      {
        "arcade_id": 1511213159,
        "building_id": 1511214277,
        "campus_id": 102527513,
        "concourse_id": 1511214215,
        "continent_id": 102191575,
        "country_id": 85633793,
        "county_id": 102087579,
        "custom_id": 1511935415,
        "locality_id": 85922583,
        "neighbourhood_id": -1,
        "object_id": 1511935415,
        "region_id": 85688637,
        "venue_id": 1511935415,
        "wing_id": 1511214207
      }
    ],
    "wof:id": 1511935415,
    "wof:lastmodified": 1787988182,
    "wof:name": "airmail flight cover: Smaranda Braescu",
    "wof:parent_id": 1159162825,
    "wof:placetype": "custom",
    "wof:placetype_alt": [
      "object"
    ],
    "wof:repo": "sfomuseum-data-collection",
    "wof:superseded_by": [],
    "wof:supersedes": [],
    "wof:tags": []
  },
  "bbox": [
    -122.386155,
    37.616357,
    -122.386155,
    37.616357
  ],
  "geometry": {"type":"Point","coordinates":[-122.386155,37.616357]}
}
