{
  "id": 1511950605,
  "type": "Feature",
  "properties": {
    "date:cessation_lower": "1954-01-01",
    "date:cessation_upper": "1954-12-31",
    "date:inception_lower": "1954-01-01",
    "date:inception_upper": "1954-12-31",
    "edtf:cessation": "1954",
    "edtf:date": "1954",
    "edtf:inception": "1954",
    "geom:area": 0,
    "geom:bbox": "-122.386155,37.616357,-122.386155,37.616357",
    "geom:latitude": 37.616357,
    "geom:longitude": -122.386155,
    "iso:country": "XX",
    "millsfield:airline_id": [
      1159285957
    ],
    "millsfield:category_id": 1511214223,
    "millsfield:collection_id": 1511214207,
    "millsfield:company_id": [
      1159286901
    ],
    "millsfield:images": [
      1527842829,
      1527850537
    ],
    "millsfield:images_colors_refs": {
      "crayola": [
        {
          "hex": "#9c2542"
        },
        {
          "hex": "#414a4c"
        },
        {
          "hex": "#cdc5c2"
        },
        {
          "hex": "#000000"
        },
        {
          "hex": "#efdecd"
        },
        {
          "hex": "#cd9575"
        }
      ],
      "css4": [
        {
          "hex": "#c0c0c0"
        },
        {
          "hex": "#b22222"
        },
        {
          "hex": "#e9967a"
        },
        {
          "hex": "#f5deb3"
        },
        {
          "hex": "#191970"
        }
      ],
      "marekm4": [
        {
          "hex": "#b11308"
        },
        {
          "hex": "#242649"
        },
        {
          "hex": "#e8dac1"
        },
        {
          "hex": "#cf8a7a"
        },
        {
          "hex": "#bc1406"
        },
        {
          "hex": "#cfc2b4"
        },
        {
          "hex": "#10163e"
        }
      ]
    },
    "millsfield:images_texts": [
      "JULY 1, 1954\nTRANS -\nCANADA\nAir Lines\nU.S. EDITION\nFly\nTCA\nTHE MAPLE LEAF ROUTE\nNow, TCA flies on\nyour LOCAL TIME!\nSEE PAGE TWO FOR DETAILS\nTRANSCONTINENTAL\nINTERNATIONAL\nTRANS-ATLANTIC\nBERMUDA-CARIBBEAN",
      "TCA\nLegend\nTCA SERVICES\nAND THE ORIENT\nHONOLULU, AUSTRALIA, NEW ZEALAND\nPAL TO\nOTHER AIR LINES\nTIME ZONES\nPACIFIC\nTIME\nPRINCE RUPERT\nBRITISH\nCOLUMBIA\nPORT HARDY\nVANCOUVER\nVICTORIA\nPENTE\nSEATTLE - TACOMA\nSAN FRANCISCO\nLUANGELES\nPacific\nTrans-Canada Air Lines\nThe Maple Leaf Route\"\nCST\nTO EUROPE\nMOUNTAIN\nIME\nCENTRAL\nAST\nATLANEC\nCanada\nEST\nALBERTA\nPEACE RIVER\nTIME\nNST\nNEWFOUNDLAND\nTIME\nGOOSE BAY\nKNOB LAKE\nGMT\nGREENWICH\nTIME\nFORT McMURRAY\nSASKATCHEWAN MANITOBA\nFLIN FLON\nEDMONTON NORTH BATTLEFORD\nTHE PAS\nLLOYDN\n→ PRINCE ALBERT\nSASKATOON\nCALGARY\nYORKTON\nNFLD.\nGANDER\nTEPHENVILL\nEVEN ISLAND\nST.\nJOHN'S\nQUEBEC\nONTARIO\nLETHBRIDGE\nREGINA\nSWIFT CURRENT\nMOOSE JAW\nMEDICINE HAT\nBRANDON\nWINNIPEG\nMAGDALEN\nP.E.I. P\nCHARLOTTETOWN\nN.B.MONCTON\nFREDERICTON\nSAINT JOHN\nSYDNEY\n• FARGO\nKAPUSKASING\nFT. WILLIAM\nPORT ARTHUR\nTIMMINSO\nPORQUIS NOTANDA\nROUYN\nSUDBURY\nSAULT STE\nNORTH\nBAY\nMARIE\nO\\\nMONTREAL\nHALIFAX\nN.S.\nYARMOUTH\nTORONTO\n• BOSTON\nMINNEAPOLIS\nST. PAUL\nИ.S.A.\nCHICAGO\nLONDON\n•WINDSOR\nDETROIT!\nCLEVELAND\nSALT LAKE CITY\n• NEW YORK\nTO BERMUDA\nAND THE CARIBBEAN\nKANSAS CIT\nOT\nНозО\nDIRAT\nTULSA\nTO FLORIDA,\nMEXICO AND THE CARIBBEAN\nTO NASSAU\nBERMUDA\nPENNAGE\nPRESHWICK\nWILLIAM\nYICTOKIAC\nBRIDGE CHI\nSHANNON\nLONDON\nPARIS\n• GANDER\nJOHNS\nAXMOUIN\nCOUN\nLANDON ANKARA\nMEXICO\n• KINGSTON\nBERMUDA\nAtlantic\n• BARBADOS\nPORT OF SPAIN\nPARAMARITO\nOcean\nOcean\nT.C.A. MILEAGES\nMONTREAL-GOOSE BAY.... 808\nGOOSE BAY-PRESTWICK\n.. 2180\nGOOSE BAY-LONDON, ENG. 2456\nDUSSELDORF-LONDON, ENG.\n311\nPARIS—MONTREAL.......\n. 3491\nBERMUDA-BARBADOS...... 1367\nBARBADOS-PORT OF SPAIN.\n212\nTORONTO-BERMUDA.\n1155\nTORONTO-TAMPA\n1127\nTAMPA-KINGSTON.\n794\nTORONTO-MEXICO.\n2331\nST. JOHN'S-HALIFAX....\n724\nSAINT JOHN-MONTREAL..\n414\nMONTREAL-HALIFAX.\n549\nMONTREAL-TORONTO.\n337\nTORONTO—WINNIPEG...\n993\nSASKATOON-EDMONTON.\n312\nEDMONTON-VANCOUVER.\n642\nWINNIPEG-CALGARY.....\n773\nCALGARY-VANCOUVER.\n471\nTORONTO—CHICAGO..\n455\nTORONTO-CLEVELAND..\n211\nTORONTO-WINDSOR/DETROIT 199\nMONTREAL-NEW YORK\n361\nTORONTO-NEW YORK.....\n396\nSEATTLE/TACOMA-VICTORIA\n104\nBOSTON-HALIFAX..\n485\nTCA:\n-Over 125 TA flights are scheduled daily throughout 19,000 route miles"
    ],
    "millsfield:images_texts_ids": [
      1527842829,
      1527850537
    ],
    "millsfield:primary_image": 1527842829,
    "millsfield:subcategory_id": 1511213425,
    "mz:hierarchy_label": 1,
    "mz:is_current": 1,
    "sfomuseum:accession_number": "2011.126.031.004",
    "sfomuseum:airline": "Trans-Canada Air Lines (TCA)",
    "sfomuseum:airline_id": [
      1143
    ],
    "sfomuseum:category": "Scheduling / Ticketing",
    "sfomuseum:classification_id": 158,
    "sfomuseum:collection": "Aviation Archive",
    "sfomuseum:creditline": "Gift of the Paul H. Kowalewski Collection",
    "sfomuseum:date": "1954",
    "sfomuseum:date_acquired": "2011-12-22",
    "sfomuseum:daterange_end": "1954-12-31",
    "sfomuseum:daterange_start": "1954-01-01",
    "sfomuseum:description": "Timetable issued by Trans-Canada Air Lines (TCA), effective July 1, 1954, U.S. edition; red, blue, and white cover with text “Now TCA flies on your local time”.",
    "sfomuseum:dimensions": "9 x 4 inches (22.9 x 10.2 cm)",
    "sfomuseum:media_ids": [
      1527842829,
      1527850537
    ],
    "sfomuseum:medium": "paper, ink",
    "sfomuseum:object_id": 121468,
    "sfomuseum:placetype": "object",
    "sfomuseum:primary_media_id": 1527842829,
    "sfomuseum:publication": ": , 1954.",
    "sfomuseum:subcategory": "Timetable",
    "src:geom": "sfomuseum#undetermined",
    "wof:belongsto": [
      1511214223,
      102527513,
      102191575,
      85633793,
      1511213425,
      85922583,
      102087579,
      1511214277,
      1511214207,
      85688637
    ],
    "wof:breaches": [],
    "wof:country": "XX",
    "wof:created": 1579906656,
    "wof:depicts": [
      1159286901,
      1159285957
    ],
    "wof:geomhash": "30c8a918561c84bb2daa2b97fc7c5353",
    "wof:hierarchy": [
      {
        "arcade_id": 1511213425,
        "building_id": 1511214277,
        "campus_id": 102527513,
        "concourse_id": 1511214223,
        "continent_id": 102191575,
        "country_id": 85633793,
        "county_id": 102087579,
        "custom_id": 1511950605,
        "locality_id": 85922583,
        "neighbourhood_id": -1,
        "object_id": 1511950605,
        "region_id": 85688637,
        "venue_id": 1511950605,
        "wing_id": 1511214207
      }
    ],
    "wof:id": 1511950605,
    "wof:lastmodified": 1787988187,
    "wof:name": "timetable: Trans-Canada Air Lines (TCA), U.S. edition",
    "wof:parent_id": 1159162825,
    "wof:placetype": "custom",
    "wof:placetype_alt": [
      "object"
    ],
    "wof:repo": "sfomuseum-data-collection",
    "wof:superseded_by": [],
    "wof:supersedes": [],
    "wof:tags": []
  },
  "bbox": [
    -122.386155,
    37.616357,
    -122.386155,
    37.616357
  ],
  "geometry": {"type":"Point","coordinates":[-122.386155,37.616357]}
}
