{
  "id": 1913795795,
  "type": "Feature",
  "properties": {
    "date:cessation_lower": "1947-04-26",
    "date:cessation_upper": "1947-04-26",
    "date:inception_lower": "1947-04-26",
    "date:inception_upper": "1947-04-26",
    "edtf:cessation": "1947-04-26",
    "edtf:inception": "1947-04-26",
    "geom:area": 2.475047457570636e-7,
    "geom:bbox": "-122.386472,37.616105,-122.385834,37.616611",
    "geom:latitude": 37.61635747477365,
    "geom:longitude": -122.38615540108617,
    "millsfield:airline_id": [
      1159284991
    ],
    "millsfield:category_id": 1511214251,
    "millsfield:collection_id": 1511214207,
    "millsfield:company_id": [
      1159286839
    ],
    "millsfield:images": [
      1913799193,
      1913799197
    ],
    "millsfield:images_colors_refs": {
      "crayola": [
        {
          "hex": "#4a646c"
        },
        {
          "hex": "#efdecd"
        },
        {
          "hex": "#757575"
        }
      ],
      "css4": [
        {
          "hex": "#f5deb3"
        },
        {
          "hex": "#708090"
        },
        {
          "hex": "#696969"
        },
        {
          "hex": "#2f4f4f"
        }
      ],
      "marekm4": [
        {
          "hex": "#e7dfc6"
        },
        {
          "hex": "#e6dec6"
        },
        {
          "hex": "#5d7786"
        },
        {
          "hex": "#718891"
        },
        {
          "hex": "#486274"
        },
        {
          "hex": "#435b6e"
        }
      ]
    },
    "millsfield:images_texts": [
      "waskington Grie 26\n1943\nDits darling\nCame dom huk yith day morning with al Tiger\nhad lunch wits weder gones and kept an appointme\nWhics I had with Secy of the treas, Snyder at\n3:30.\nHe was\nvery\ncoopuatur and wie be\nhippie Din our Wint to a cocktaie gate\ngurun by\nthe\nThie piaz: Amvi can Commutti\ntha\nthe bambops for denne. They anz to\ncute\nthat old comple\nends\nto glad to hair\nme the\n2 wận reach touchunit Bott in quic\nabort, yin\nand\nHit many timis\nKitair look\nfine cas\nis recoirring\n•nice from he peatin\nwet no trace\nof any malignant groute\n• quite mark but healing and\nthe.\ndoos say\nthe will he no sear. Bore\nlooks -\nJune lout is\nabout his gaition\nwith Paa and\nso\nam has account!\ntor dron in this mong\nand star\n\"appointment.\nat 10 Am with Chairman\ngaston\nLater. Just back from a very tatinfacton talk\nwith hur gaston - also saw Clare gauss\nanothe\naffich of the bank whom O met in\n- Calenta sex\nYears ayo → Am gong to airpot now to Catch\nthe just plane to\n- N.Y.\nLath\n18 Vine -e. It was\nrough\non the plane and\n-O coned nt write a",
      "toid Arird at the office abnt 3:30 and after\nreading your litth of the 22nd went down to ser\ngot wande staged in his offia untie toäin tine.\n- At say\nthat he\n\"dors not wastes me to resiga\nchanta i\nto talke bicause\nSamtiPry came minter\nsu, though, that Diar gong to,\nreal\nfirm.\n- Then its gust an, set us i\ntrie.\njapana junks drace not courtes agai\ntal resig than crost to the tr\nwice god direct to washington.\ntom oir instrao\n-of Wetroit. O am determies\n•Ran-\nukat dealgo through and to do\nweatin\nis required.\nTher for O wee yo\nback to washington tomorrow If need tre.\n→ Checks on the post pote\nFriday D\nschedule\nand found tet atitte west.\nstee as long as\nas long a to mode bar\nrent is\nhan\nattantre\nschedules\nAren\nto tentage ano\nstie the durais\nmonks Sometings potten\nlora mone\nEury\nin Dramark!\nCant unduratand\nfrom 1000 to 2500 thou day\nlut inter the best fri crie it Retiresti"
    ],
    "millsfield:images_texts_ids": [
      1913799193,
      1913799197
    ],
    "millsfield:primary_image": 1913799193,
    "millsfield:subcategory_id": 1511213489,
    "mz:is_approximate": 1,
    "mz:is_current": 1,
    "sfomuseum:accession_number": "2019.121.1076",
    "sfomuseum:airline": "Pan American Airways",
    "sfomuseum:airline_id": [
      685
    ],
    "sfomuseum:category": "Employee Career History",
    "sfomuseum:classification_id": 195,
    "sfomuseum:collection": "Aviation Archive",
    "sfomuseum:creditline": "Collection of SFO Museum",
    "sfomuseum:date": "04/26/1947",
    "sfomuseum:date_acquired": "2019-11-22",
    "sfomuseum:daterange_end": "1947-04-26",
    "sfomuseum:daterange_start": "1947-04-26",
    "sfomuseum:description": "Handwritten letter from Harold M. Bixby to his wife, Debby Bixby, dated April 26, [likely 1947], in Washington [D.C.]; includes brief description of meeting with Secretary of Treasury [John Wesley] Snyder, meeting with J.T.T. [Juan Trippe]; attempts to meet with Japanese officials for a “Tokyo deal”; mentions Kitsie Bond and Bondy [William L. Bond], Chairman Gaston of the Import-Export Bank, Sam Pryor.",
    "sfomuseum:dimensions": "11 x 8 1/2 inches (27.9 x 21.6 cm)",
    "sfomuseum:medium": "paper, ink",
    "sfomuseum:object_id": 211439,
    "sfomuseum:placetype": "object",
    "sfomuseum:publication": ": , 04/26/1947.",
    "sfomuseum:subcategory": "Correspondence, Personal",
    "src:geom": "sfomuseum#undetermined",
    "wof:belongsto": [
      102527513,
      1159162825,
      102191575,
      85633793,
      102087579,
      85922583,
      85688637,
      1159160869
    ],
    "wof:country": "XY",
    "wof:created": 1714548896,
    "wof:depicts": [
      1159286839,
      1159284991
    ],
    "wof:geomhash": "c281b9d9eefc83b5710e64b9d646067d",
    "wof:hierarchy": [
      {
        "building_id": -1,
        "campus_id": 102527513,
        "collection_id": 1159162825,
        "concourse_id": 1159162825,
        "continent_id": 102191575,
        "country_id": 85633793,
        "county_id": 102087579,
        "custom_id": 1913795795,
        "locality_id": 85922583,
        "neighbourhood_id": -1,
        "object_id": 1913795795,
        "region_id": 85688637,
        "wing_id": 1159160869
      }
    ],
    "wof:id": 1913795795,
    "wof:lastmodified": 1787988219,
    "wof:name": "correspondence: Harold M. Bixby to Debby Bixby",
    "wof:parent_id": 1159162825,
    "wof:placetype": "custom",
    "wof:placetype_alt": [
      "object"
    ],
    "wof:repo": "sfomuseum-data-collection",
    "wof:superseded_by": [],
    "wof:supersedes": []
  },
  "bbox": [
    -122.38647222518921,
    37.6161053594541,
    -122.38583385944366,
    37.61661101879963
  ],
  "geometry": {"type":"Polygon","coordinates":[[[-122.38647222518921,37.61631782178288],[-122.386434674263,37.61623283692423],[-122.38637566566466,37.61617759671399],[-122.38630056381224,37.6161308549656],[-122.38616108894348,37.6161053594541],[-122.38602161407469,37.6161308549656],[-122.38591432571411,37.61618609521055],[-122.38585531711577,37.61626683087935],[-122.38583385944366,37.61636881265146],[-122.38587141036987,37.61646654505181],[-122.38594114780425,37.61654303118856],[-122.38605380058287,37.61660252035167],[-122.38618254661559,37.61661101879963],[-122.3863059282303,37.61657277577607],[-122.3864185810089,37.61650903735973],[-122.3864668607712,37.61641130501523],[-122.38647222518921,37.61631782178288]]]}
}
