{
  "id": 1913795453,
  "type": "Feature",
  "properties": {
    "date:cessation_lower": "1944-04-25",
    "date:cessation_upper": "1944-04-25",
    "date:inception_lower": "1944-04-25",
    "date:inception_upper": "1944-04-25",
    "edtf:cessation": "1944-04-25",
    "edtf:inception": "1944-04-25",
    "geom:area": 2.475047457570636e-7,
    "geom:bbox": "-122.386472,37.616105,-122.385834,37.616611",
    "geom:latitude": 37.61635747477365,
    "geom:longitude": -122.38615540108617,
    "millsfield:airline_id": [
      1159284991
    ],
    "millsfield:category_id": 1511214251,
    "millsfield:collection_id": 1511214207,
    "millsfield:company_id": [
      1159286839
    ],
    "millsfield:images": [
      1913799219,
      1913799221
    ],
    "millsfield:images_colors_refs": {
      "crayola": [
        {
          "hex": "#edd19c"
        },
        {
          "hex": "#9f8170"
        }
      ],
      "css4": [
        {
          "hex": "#eee8aa"
        },
        {
          "hex": "#bdb76b"
        }
      ],
      "marekm4": [
        {
          "hex": "#af9b70"
        },
        {
          "hex": "#e8d9a6"
        },
        {
          "hex": "#e7d9a6"
        },
        {
          "hex": "#ad9a6e"
        }
      ]
    },
    "millsfield:images_texts": [
      "Dearest\nDibs.\nare now abont four hours out of\nAprie 25\nACCRA\n194-4\nat\nwhich\nMace ur drop our maicator - rown. Who\nnavigates mat CNAC delurn, flights across the\nSouth Quantic. He is a grand frecot and hea tem\nmost helpful on this tip becaust he knows the ropss,\nmade tome 22 round tips) and he jumps in\nwith a ready wile to do whatire jobs need doing\nfom handling baggage to shooting stars. Wree ask him\nto mail this for me at\nas it is agin the\nregulations to carry letters.\nLast night the stars\nwar so clos that they lookid like the, lights along\nthis Bolton road. Brown took his frat baring on\nSpise and late got a fix pum cron branage on there\nstars -\nANTARES, FOMALHAUT and VEGA. It woned\nhair ben a fred day for you.\nThe Southin Cros\nand the\nfalor cros • ace so clear. and a lot of\nCattle stars you tredom sir.\nUr hit\nright on the non after an\nuncontful trep - has brakfast while this ship was\nbring refulles and then took off on on prest\nleg of the fligst..\nOur hour kiping is not so good. The Ship has\ncargo stowed along both side forward and ur sit on\nbuckit Mats toward the rear of the Cabir but\nw're ty comfortable by reason of the fact that\nWhite Wilhans, Who has made the trip before,\nbought a coupa of hammeaks which us string\nacron - diagonace - and really.\nride desux - also ur\nhar poles of cargo which can te thifts around",
      "so as to mate a pratict morris chair feet with\na laye suit cas as the back - two smaller\nones as\narms and some padding in the form\no lep presser (wi Each hair one and you re\nall st.\nMess 9 coned describe the trip in mor\ndetal\nent you understand that is not dore-\nas the\nButen say. Theates In afaid there\nwont he\nany fame, littles this time, unless you\nwant to\nas you\nthink might be of Natal and of crien\nwilk\nDonald wong us had quits a reunion. Chili\nhad organizis a softbale game beturn the Attantic\nand africa Crist Duisias and was having a grand\ntime.\nYou ee ta glad to tenor tat ur do not\nAmoks\non this anplare account faos\nankle Fanko un\nthe cabin so I hair no choice bit to cut\ndown drastically.\nCant sue any dyfries in\nMy gimmal condition Except that I fire butth\nashore\nsmoking than ü do aloft not smoking.\nLatur -\nalere - we soon b\nlanding\n- wee then add a.\nline or two if posite"
    ],
    "millsfield:images_texts_ids": [
      1913799219,
      1913799221
    ],
    "millsfield:primary_image": 1913799219,
    "millsfield:subcategory_id": 1511213489,
    "mz:is_approximate": 1,
    "mz:is_current": 1,
    "sfomuseum:accession_number": "2019.121.1081 a b",
    "sfomuseum:airline": "Pan American Airways",
    "sfomuseum:airline_id": [
      685
    ],
    "sfomuseum:category": "Employee Career History",
    "sfomuseum:classification_id": 195,
    "sfomuseum:collection": "Aviation Archive",
    "sfomuseum:creditline": "Collection of SFO Museum",
    "sfomuseum:date": "04/25/1944",
    "sfomuseum:date_acquired": "2019-11-22",
    "sfomuseum:daterange_end": "1944-04-25",
    "sfomuseum:daterange_start": "1944-04-25",
    "sfomuseum:description": "Handwritten letter from Harold M. Bixby to his wife, Debby Bixby, dated April 25, [1944]; includes description of flight in southern hemisphere; handwritten annotation at top “Accra 1944”; locations censored; mentions CNAC personnel “Chili” Vaughn, Donald Wong, and “Brown”.",
    "sfomuseum:dimensions": "12 1/2 x 8 inches (31.8 x 20.3 cm)",
    "sfomuseum:medium": "paper, ink",
    "sfomuseum:object_id": 211444,
    "sfomuseum:placetype": "object",
    "sfomuseum:publication": ": , 04/25/1944.",
    "sfomuseum:subcategory": "Correspondence, Personal",
    "src:geom": "sfomuseum#undetermined",
    "wof:belongsto": [
      102527513,
      1159162825,
      102191575,
      85633793,
      102087579,
      85922583,
      85688637,
      1159160869
    ],
    "wof:country": "XY",
    "wof:created": 1714548797,
    "wof:depicts": [
      1159286839,
      1159284991
    ],
    "wof:geomhash": "c281b9d9eefc83b5710e64b9d646067d",
    "wof:hierarchy": [
      {
        "building_id": -1,
        "campus_id": 102527513,
        "collection_id": 1159162825,
        "concourse_id": 1159162825,
        "continent_id": 102191575,
        "country_id": 85633793,
        "county_id": 102087579,
        "custom_id": 1913795453,
        "locality_id": 85922583,
        "neighbourhood_id": -1,
        "object_id": 1913795453,
        "region_id": 85688637,
        "wing_id": 1159160869
      }
    ],
    "wof:id": 1913795453,
    "wof:lastmodified": 1787988219,
    "wof:name": "correspondence: Harold M. Bixby to Debby Bixby",
    "wof:parent_id": 1159162825,
    "wof:placetype": "custom",
    "wof:placetype_alt": [
      "object"
    ],
    "wof:repo": "sfomuseum-data-collection",
    "wof:superseded_by": [],
    "wof:supersedes": []
  },
  "bbox": [
    -122.38647222518921,
    37.6161053594541,
    -122.38583385944366,
    37.61661101879963
  ],
  "geometry": {"type":"Polygon","coordinates":[[[-122.38647222518921,37.61631782178288],[-122.386434674263,37.61623283692423],[-122.38637566566466,37.61617759671399],[-122.38630056381224,37.6161308549656],[-122.38616108894348,37.6161053594541],[-122.38602161407469,37.6161308549656],[-122.38591432571411,37.61618609521055],[-122.38585531711577,37.61626683087935],[-122.38583385944366,37.61636881265146],[-122.38587141036987,37.61646654505181],[-122.38594114780425,37.61654303118856],[-122.38605380058287,37.61660252035167],[-122.38618254661559,37.61661101879963],[-122.3863059282303,37.61657277577607],[-122.3864185810089,37.61650903735973],[-122.3864668607712,37.61641130501523],[-122.38647222518921,37.61631782178288]]]}
}
