{
  "id": 1913795483,
  "type": "Feature",
  "properties": {
    "date:cessation_lower": "1963-12-06",
    "date:cessation_upper": "1963-12-06",
    "date:inception_lower": "1963-12-06",
    "date:inception_upper": "1963-12-06",
    "edtf:cessation": "1963-12-06",
    "edtf:inception": "1963-12-06",
    "geom:area": 2.475047457570636e-7,
    "geom:bbox": "-122.386472,37.616105,-122.385834,37.616611",
    "geom:latitude": 37.61635747477365,
    "geom:longitude": -122.38615540108617,
    "millsfield:airline_id": [
      1159284989
    ],
    "millsfield:category_id": 1511214251,
    "millsfield:collection_id": 1511214207,
    "millsfield:company_id": [
      1159286839
    ],
    "millsfield:images": [
      1913796995,
      1913796997,
      1913797001
    ],
    "millsfield:images_colors_refs": {
      "crayola": [
        {
          "hex": "#d68a59"
        },
        {
          "hex": "#a5694f"
        },
        {
          "hex": "#85754e"
        },
        {
          "hex": "#fddde6"
        }
      ],
      "css4": [
        {
          "hex": "#556b2f"
        },
        {
          "hex": "#cd853f"
        },
        {
          "hex": "#a0522d"
        },
        {
          "hex": "#f5f5f5"
        }
      ],
      "marekm4": [
        {
          "hex": "#735e41"
        },
        {
          "hex": "#f3f1ef"
        },
        {
          "hex": "#b88857"
        },
        {
          "hex": "#b9895a"
        },
        {
          "hex": "#9a754a"
        },
        {
          "hex": "#f3f1ee"
        },
        {
          "hex": "#b88959"
        },
        {
          "hex": "#99764c"
        },
        {
          "hex": "#a0784d"
        },
        {
          "hex": "#766142"
        },
        {
          "hex": "#76603f"
        }
      ]
    },
    "millsfield:images_texts": [
      "12/6\nDec. 6th En route\nNadi - Suva by\nF1j1 Airlines\n4 Engined Heron\nDear P \u0026 Pi (Parily and Priends)\nMy last letter was from Korolevu when we expected to make the\nthirty minute flight back to Nadi on the same 1fttle Piper Cub which had\ntaken us to Korolevu but about 11 a.m. the pilot phoned from Suva to report\nthat his plane was grounded because of mechanical troubla. So we went by\nway, (the road was built be U.S. Marines for deployment of troops to repel\na threatened Japanese invasion) through little villages and fields of sugar\ncane.\nThe latter, sugar, makes up about 50% of Fiji earning with gold\nmining 20% and copra another 20%. Of course the\n. Indian problem is always\npresent everywhere, especially in the sugar cane felds and around the\nlarge mill at Lautoka.\nIt was to this port that we drove from Korolevu\nto spend Sunday, hight and get ready for our four day cruise starting the\nFollowing morning. Mostly our preparations were taken up with getting rad\nof everything except the few items we would need on board because we had a\nletter from the Captain stating that space was difficult to find. We got\ndown to two over-night bags and we really didn't need all that we had in\nthen.\nThe Cathay Hotel, very modern, kept our suit cases for us until we\ngot back.\nThe Captain, Trevor Withers, was an old New Zealand Air Foree\nwing comnander in World War 2 and a great friend of Harold Catty's.\nlatter persuaded Withers to join him in a Tuna fishing venture which, as\nI wrote in a previous letter, did not work out. After the demise of that\n53E372\nproject Withers bought a boat back in 1951 and started running cruises down\nto the Yasawa group of islands scattered more or less in a sixty mile line\nstarting some forty miles west of Viti lovu, the big island with Nadi at\none end and Suva at the other. The Yasawa group was really discovered and\nquite well charted by Capt. Bligh when he and 18 others were cast adrift\nby the Bounty Mutineers.\nBligh did not land his long boat and was chased\ntwice by large war canoes full of Cannibals looking for a little white meat.\nOur cruise was through largely uncharted seas with many small passageways\nthrough the Coral reefs. Our ship, the \"Blue Ingoon\"\n1s 50 feet long with\ntwo diesel engines which drive it along about 10 to 15 miles an hour. There\nare somewhat cramped quarters for four people in a cabin with upper and\nLower berths, forward of that is a gelley, or dining room to you landlubbers,\nwhere two more passengers slept and there is a \"flight deck\" aft with a\ncouch on each side where Debby and I slept. The other passengers were an\nEnglish couple, an Australlan woman and her son and a couple from Reno,\nNevada.\nWe left the dock at tautoka at 10 a.m. in perfect weather. The\ncrew, in addition to Capt, Withers, consisted of four Fijians and an\nIndian cook.\nWe reached the first island called Waya at 2 pom. where we\nanchored, had lunch and then went ashore for an old time Fijian ceremonial\nreception by the \"Dut\" (King) and his warriors. The affection of these\nsimple natives for Capt, Withers 1s constantly in evidence. They built a\n\"Bure\" or grass house for him with aluminum windows (their own have no\nwindows) and lined with specially woven mats.\nBOSSIISI DO",
      "2 -\nThe welconing ceremony included the preparation and drinking of Yangona,\nthe native non-intoxteating drink.\nQuite a show. Then a spear dance by\nsinging of 50 years ago.\nHe spent the rest of the afternoon on the\nbeautiful beach in front of the Captaine \"bure\". Debby and I found sone\nfairly good shells. The beach and harbor are surrounded by mountains\nheavily wooded above a fringe of coconut palms which skirt the shore. The\nmeat of the coconut, or \"Copra\"\n› 1s the only cash crop of the Yasawas. The\ncoconuts are gathered by the natives and carried by boat to a central drying\nand shipping point.\nTuesday, Dec. 3» We salled early, past a very high mountain with\none side that drops away straight down for perhapa three or four hundred\nfeet. It is called \"Virgins leap\" because legend has it that some two :\nhundrod years ago some, invaders over-powered and killed all the warriors on\nthe island.\nThe wives and daughters having taken refuge on the mountain\ntop leaped oft the cliff. The natives have pronised to bury Capt. Withers\non that mountain top. We cruised among the islands with a rod out most of\nthe time. We took turns fishing and I was lucky enough to catch a 35 1b.\nyellow fin tuna, quite a battle. We stopped at a number of villages and\nbeaches including the \"Blue Lagoon\" a beautiful coral reef,- surrounded\nlagoon with thousands of small highly colored fish swiming in and out of\nthe multi-colored coral in the crystal clear water.\nOur final stop on our second day out was at Nacula island where\nwe anchored at 6 p.m. At this place as the others we went ashore in a\nsmall dinghy usually in two bout loads. After dinner on board the Captain\nannounced that the people of the island about thirty in all (excluding\nchildren) had Invited us to cone ashore for Tangona and a \"Hele\" or\ncelebration. They had bullt a big fire on the beach and in the light of\nthat fire they passed the Yangona - tastes like soapy water - when the\nwarrior in full war paint holds the coconut bowl straight out in front of\nhim you are supposed to clap your hands once, then hold out your boul into\nwhich he poures the Yangona.\nYou then must drink it all without stopping.\nWhen your cup is dry you toss 1t on the ground and the natives chant in\nFijian \"It is dry\". You then clap your hands three times and the ceremony,\nso far as you are concerned, is over.\nserved, sitting on the ground, the natives started singing to the accomplament\nof two or three ukes and one guitar.\nthe first place their language, as Hawaiian, is composed of all vowels and\nthere is no harsh sound, then their voices and the music are both good and\nfinally they sing the parts to perfection. Of course they just Love any\nexcuse to have a celebration. In the early daye the Missionarys taught\nthem that dancing was very wicked. Of course hymn singing was very good.\nThe natives loved the hymns, that was ok - but they still wanted to dance\n3o the missionarys compromised and let them dance the \"Taralala\" wherein\nyou stand side by side with your partner putting your arn around her and\nshe puts her arm around you. Then you start to shuffle to the musio and\nbreak away when it stops.\nThe moon came out casting long shadows of the\ntall coconut palms on the white beach with the water gently lapping the\nshore.\nJE1 PI00",
      "They said that the Market would be closed today but that there would be a\ncruse ship in port and all the shell peddlers would put their wares out\non tables near the dock. So we went down early this morning and Debby was\nable to byy a few shells but nothing sensational.\nOn our arrival Friday afternoon, Penna Gatty, the widow of\nHarold Catty, picked us up in her car and\ndrove us to her house for a\ndrink before dinner. She is now married to a man named Maurice Scott,\nSpeaker of the House of Parliament, a Britisher born on the island. Their\nhouse is on a high hill looking over the magnificent harbor of Suva. The\nplanting around the house 1s typical of Fiji. Golden and pink shower trees,\nlots of hybiscus but oddly enough little bougainvilla. It 1s all open to\nthe weather with a front porch built around a small swimming pool. Penna\nseens quite happy and we both liked her new husband.\nTomorrow, Monday, Dec. Ith, we fly back to Nads on PAgI Alrways,\non Fiji Airways but I found that thi\n\"life\" Involved was Harold Gatty's, not minel\nOn the 10th we fly to New Caledonia for a week later on Dec. 17th\non to Sydney where our address, as I wrote before, will be c/o P. A. A.\nBerger House, 82 Elizabeth Street.\nWe are both well. The weather is hot the way I 11ke 1t but most\nof the hotels are air conditioned. No one wears a coat but the Grand Pactrie\nin Suva asked that you wear a tie. Next edition from New Caledonia.\nAs ever,\nHarold"
    ],
    "millsfield:images_texts_ids": [
      1913796995,
      1913796997,
      1913797001
    ],
    "millsfield:primary_image": 1913796995,
    "millsfield:subcategory_id": 1511213489,
    "mz:is_approximate": 1,
    "mz:is_current": 1,
    "sfomuseum:accession_number": "2019.121.1226 a h",
    "sfomuseum:airline": "Pan American World Airways",
    "sfomuseum:airline_id": [
      684
    ],
    "sfomuseum:category": "Employee Career History",
    "sfomuseum:classification_id": 195,
    "sfomuseum:collection": "Aviation Archive",
    "sfomuseum:creditline": "Collection of SFO Museum",
    "sfomuseum:date": "12/06/1963",
    "sfomuseum:date_acquired": "2019-11-22",
    "sfomuseum:daterange_end": "1963-12-06",
    "sfomuseum:daterange_start": "1963-12-06",
    "sfomuseum:description": "Typewritten letter from Harold M. Bixby to his family, dated December 6, [1963], en route from Nadi to Suva on Fiji Airlines; includes description of travel in Korolevu, Wala, and Nacula Island, interactions with Trevor Withers; mentions Harold Gatty.",
    "sfomuseum:dimensions": "11 x 8 1/2 inches (27.9 x 21.6 cm)",
    "sfomuseum:medium": "paper, ink",
    "sfomuseum:object_id": 211862,
    "sfomuseum:placetype": "object",
    "sfomuseum:publication": ": , 12/06/1963.",
    "sfomuseum:subcategory": "Correspondence, Personal",
    "src:geom": "sfomuseum#undetermined",
    "wof:belongsto": [
      102527513,
      1159162825,
      102191575,
      85633793,
      102087579,
      85922583,
      85688637,
      1159160869
    ],
    "wof:country": "XY",
    "wof:created": 1714548806,
    "wof:depicts": [
      1159284989,
      1159286839
    ],
    "wof:geomhash": "c281b9d9eefc83b5710e64b9d646067d",
    "wof:hierarchy": [
      {
        "building_id": -1,
        "campus_id": 102527513,
        "collection_id": 1159162825,
        "concourse_id": 1159162825,
        "continent_id": 102191575,
        "country_id": 85633793,
        "county_id": 102087579,
        "custom_id": 1913795483,
        "locality_id": 85922583,
        "neighbourhood_id": -1,
        "object_id": 1913795483,
        "region_id": 85688637,
        "wing_id": 1159160869
      }
    ],
    "wof:id": 1913795483,
    "wof:lastmodified": 1787988219,
    "wof:name": "correspondence: Harold M. Bixby, family circular letter",
    "wof:parent_id": 1159162825,
    "wof:placetype": "custom",
    "wof:placetype_alt": [
      "object"
    ],
    "wof:repo": "sfomuseum-data-collection",
    "wof:superseded_by": [],
    "wof:supersedes": []
  },
  "bbox": [
    -122.38647222518921,
    37.6161053594541,
    -122.38583385944366,
    37.61661101879963
  ],
  "geometry": {"type":"Polygon","coordinates":[[[-122.38647222518921,37.61631782178288],[-122.386434674263,37.61623283692423],[-122.38637566566466,37.61617759671399],[-122.38630056381224,37.6161308549656],[-122.38616108894348,37.6161053594541],[-122.38602161407469,37.6161308549656],[-122.38591432571411,37.61618609521055],[-122.38585531711577,37.61626683087935],[-122.38583385944366,37.61636881265146],[-122.38587141036987,37.61646654505181],[-122.38594114780425,37.61654303118856],[-122.38605380058287,37.61660252035167],[-122.38618254661559,37.61661101879963],[-122.3863059282303,37.61657277577607],[-122.3864185810089,37.61650903735973],[-122.3864668607712,37.61641130501523],[-122.38647222518921,37.61631782178288]]]}
}
