{
  "id": 1511909657,
  "type": "Feature",
  "properties": {
    "date:cessation_lower": "1979-01-01",
    "date:cessation_upper": "1979-12-31",
    "date:inception_lower": "1979-01-01",
    "date:inception_upper": "1979-12-31",
    "edtf:cessation": "1979",
    "edtf:date": "1979",
    "edtf:inception": "1979",
    "geom:area": 0,
    "geom:bbox": "-122.386155,37.616357,-122.386155,37.616357",
    "geom:latitude": 37.616357,
    "geom:longitude": -122.386155,
    "iso:country": "US",
    "millsfield:airline_id": [
      1159285413
    ],
    "millsfield:category_id": 1511214223,
    "millsfield:collection_id": 1511214207,
    "millsfield:company_id": [
      1159288779
    ],
    "millsfield:images": [
      1527838703
    ],
    "millsfield:images_colors_refs": {
      "crayola": [
        {
          "hex": "#dbd7d2"
        },
        {
          "hex": "#6699cc"
        },
        {
          "hex": "#324ab2"
        },
        {
          "hex": "#9c2542"
        }
      ],
      "css4": [
        {
          "hex": "#d3d3d3"
        },
        {
          "hex": "#b22222"
        },
        {
          "hex": "#483d8b"
        },
        {
          "hex": "#778899"
        }
      ],
      "marekm4": [
        {
          "hex": "#c11b1b"
        },
        {
          "hex": "#dfd9c9"
        },
        {
          "hex": "#718bb7"
        },
        {
          "hex": "#2148a1"
        }
      ]
    },
    "millsfield:images_texts": [
      "U UNITED\nMODESTO\nOur Friendly Times EFFECTIVE SEPTEMBER 5.\nLeave\nArrive\nFlight\nService Via\nLeave\nArrive\nFlight\nService Via\nTo Akron, Ohio/\nCanton, Ohio. (EDT)\n6:20a\n5:10p\n983 / 122\n7 X• Sto\n848\n/Chi\n10:47p\n10:48a\n979 / 136\n370\n/Chi\nFrom Akron, Ohio/\n535-5792\nCanton, Ohio. (EDT)\n453-8201\n2:45p\n10:22p\n549 / 471\nChi\n/Sto\nTo Allentown /Bethlehem /\nEaston, Penn. (EDT)\n6:20a\n5:10p\n983 / 122 § 7 X• Sto\n10:47p\n9:18a\n316\n/Chi\n979 / 136\n§ 7 X* Sto\n748\n/Chi\nTo Baltimore, Md. (EDT)\n6:20a\n5:14p\n983 / 122 § 7 X• Sto\n394\n/Chi\n10:47p\n9:30a\n979 / 136 § 7 X* Sto\n170\nc/Chi\nFrom Baltimore, Md. (EDT)\n766-7600\n4:50p\n10:22p\n429 / 135 § Y X• Chi\n979\n/Sto\nTo Boise, Id. (MDT)\n6:20a\n11:02a\n983 / 604\n7x Sto\nTo Boston, Mass. (EDT)\n6:20a\n5:28p\n983 / 122 § 7 X• Sto\n404\n/Chi\n10:47p\n9:50a\n979 / 136 § Y X* Sfo\n156\n/Chi\nFrom Boston, Mass. (EDT)\n4:10p\n10:22p\n482-7900\n419 / 135 $ 7 X• Chi\n979\n/ Sfo\nTo Buffalo, /\nNiagara Falls N.Y. (EDT)\n6:20a\n4:34p\n983 / 122\n§ 7x Sto\n276\n/Chi\n10:47p\n9:09a\n979 / 136 § Y =• Sto\n330\n/Chi\nFrom Buffalo, /\n856-2900\nNiagara Falls N.Y. (EDT)\n5:12p\n10:22p\n635 / 135 § 7 X• Chi\n979\n/ Sfo\nTo Charlotte, N.C. (EDT)\n6:20a\n4:51p\n983 / 230\n7X Sto\n610\n/Mem\nFrom Charlotte, N.C. (EDT)\n376-8515\n6:00p 10:22p\n815 / 477\n7X Mem\n979\n/Sto\nTo Chicago, III. (CDT)\n6:20a\n1:20p (0\n983 / 122 5 2X•S\n10:47p\n6:05a (0\n979/136 ≤ • me St\nFrom Chicago, III. (CDT)\n569-3000\n6:40p (0) 10:22p\n135 / 979 ≤ 7 x• Sto\nTo Cleveland, O. (EDT)\n6:20a\n4:30p\n983 / 628\nSto\n10:47p 9:09a\n979 / 136 ≤ *=e Sh\n158\ne/Chi\nFrom Cleveland, O. (EDT)\n356-1311\n5:30p\n10:22p\n157 / 135 $ 7 X• Chi\n979\n/Sto\nTo Columbus, O. (EDT)\n6:20a\n4:28p\n983 / 122 ≤ Y X • Sto\n224\n10:47p\n9:30a\n/Chi\n979 / 136 § Y =® Sto\n684\n/Chi\nFrom Columbus, O. (EDT)\n2:51p\n10:22p\n349 / 285\n979\n228-4751\n7X\nChi\n/Sto\nTo Dayton, O. (EDT)\n6:20a\n4:23p\n983 / 122\n708\n10:47p\n8:50a\n979 / 136\n318\nFrom Dayton, O. (EDT)\n3:02p\n10:22p\n493 / 285\n979\n/Chi\nY me Sto\n/Chi\n461-4450\nChi\n/Sto\nTo Denver, Colo. (MDT)\n6:20a\n10:55a\n983 / 628\nSto\nFrom Denver, Colo. (MDT)\n398-4141\n6:35p\n10:22p\n743/979 ^ 9X\nSfo\nTo Detroit, Mich. (EDT)\n6:20a\n4:25p\n983 / 122\n10:47p\n9:15a\n979 / 136\n448\nFrom Detroit, Mich. (EDT)\n7 X•Sto\ne/Chi\n336-9000\n5:30p\n10:22p\n135 / 979\nTo Eugene, Ore. (PDT)\n6:20a\n9:42a\n983 / 862\nFrom Eugene, Ore. (PDT)\n7:05p\n10:22p\n529 / 979\nFrom Flint, Mich. (EDT)\n3:04p\n10:22p\n803 / 979\nSto\n342-5353\nSto\n743-8350\nSfo\nTo Fort Lauderdale, Fla. (EDT)\nHollywood /Miami Fla.\n10:47p 12:20p\n979 / 136 § 7 X* Sto\n845\n/Chi\nFrom Fort Lauderdale, Fla. (EDT)525-7321\nHollywood/Miami Fla.\n377-3461\n1:10p 10:22p\n201/285\nChi\n979\n/Sfo\nTo Fort Wayne, Ind. (EST)\n6:20a\n4:07p\n983/122 ≤ ?x•Sto\n720\n10:47p\n9:26a\n/Chi\n979 / 136 S 7 =® Sto\n452\n/Chi\nFrom. Fort Wayne, Ind. (EST)\n5:05p\n10:22p\n422-9561\n971/135.5 7 X•Chi\n979\n/Sfo\nTo Grand Rapids, Mich. (EDT)\n6:20a\n4:15p\n983/122 $ 7 X• Sto\n960\n10:47p 10:17a\n/Chi\n979/136 S =* Sto\n642\n/Chi\nFrom Grand Rapids, Mich. (EDT) 451-4581\n5:55p10:22p\n233/135 § 7 X•Chi\n979\n/Sto\nTo Hartford, Conn.\nSpringfield, Mass. (EDT)\n6:20a\n5:35p\n983 / 122 $ 7 X• Sto\n142\n/Chi\n10:47p\n9:46a\n979 / 136 § 7 X* Sto\n606\ne/Chi\nTo Honolulu, Hi. (HST)\n6:20a\n11:10a (H) 983/181 097 x* Sto\nFrom Honolulu, Hi. (HST)\n547-2211\n11:55a (H) 10:22p\n96 / 979 00 7 x* Sfo\nTo Kanas Cry, Mo. (COB)\n6:20a\n983/464\nFrom Kansas City, Mo. (CDT)\n5:40p10:22\n423/979\nSto\n471-6060\n7X Sto"
    ],
    "millsfield:images_texts_ids": [
      1527838703
    ],
    "millsfield:primary_image": 1527838703,
    "millsfield:subcategory_id": 1511213425,
    "mz:hierarchy_label": 1,
    "mz:is_current": 1,
    "sfomuseum:accession_number": "1999.047.424",
    "sfomuseum:airline": "United Airlines",
    "sfomuseum:airline_id": [
      883
    ],
    "sfomuseum:category": "Scheduling / Ticketing",
    "sfomuseum:classification_id": 158,
    "sfomuseum:collection": "Aviation Archive",
    "sfomuseum:continent": "North America",
    "sfomuseum:country": "United States",
    "sfomuseum:creditline": "Gift of United Airlines Archives",
    "sfomuseum:date": "1979",
    "sfomuseum:date_acquired": "2000-05-11",
    "sfomuseum:daterange_end": "1979-12-31",
    "sfomuseum:daterange_start": "1979-01-01",
    "sfomuseum:description": "City timetable issued by United Airlines for service to and from Modesto, effective September 5, 1979; bi-fold format.",
    "sfomuseum:dimensions": "9 x 4 inches (22.9 x 10.2 cm)",
    "sfomuseum:media_ids": [
      1527838703
    ],
    "sfomuseum:medium": "paper, ink",
    "sfomuseum:object_id": 49772,
    "sfomuseum:placetype": "object",
    "sfomuseum:primary_media_id": 1527838703,
    "sfomuseum:publication": ": , 1979.",
    "sfomuseum:subcategory": "Timetable",
    "src:geom": "sfomuseum#undetermined",
    "wof:belongsto": [
      102191575,
      85633793,
      136253057,
      1511214223,
      102527513,
      1511213425,
      85922583,
      102087579,
      1511214277,
      1511214207,
      85688637
    ],
    "wof:breaches": [],
    "wof:country": "US",
    "wof:created": 1579906676,
    "wof:depicts": [
      1159288779,
      1159285413
    ],
    "wof:geomhash": "30c8a918561c84bb2daa2b97fc7c5353",
    "wof:hierarchy": [
      {
        "continent_id": 102191575,
        "country_id": 85633793,
        "custom_id": 1511909657,
        "empire_id": 136253057,
        "object_id": 1511909657,
        "venue_id": 1511909657
      },
      {
        "arcade_id": 1511213425,
        "building_id": 1511214277,
        "campus_id": 102527513,
        "concourse_id": 1511214223,
        "continent_id": 102191575,
        "country_id": 85633793,
        "county_id": 102087579,
        "custom_id": 1511909657,
        "locality_id": 85922583,
        "neighbourhood_id": -1,
        "object_id": 1511909657,
        "region_id": 85688637,
        "venue_id": 1511909657,
        "wing_id": 1511214207
      }
    ],
    "wof:id": 1511909657,
    "wof:lastmodified": 1787988176,
    "wof:name": "timetable: United Airlines, Modesto",
    "wof:parent_id": 1159162825,
    "wof:placetype": "custom",
    "wof:placetype_alt": [
      "object"
    ],
    "wof:repo": "sfomuseum-data-collection",
    "wof:superseded_by": [],
    "wof:supersedes": [],
    "wof:tags": []
  },
  "bbox": [
    -122.386155,
    37.616357,
    -122.386155,
    37.616357
  ],
  "geometry": {"type":"Point","coordinates":[-122.386155,37.616357]}
}
