{
  "id": 2015065447,
  "type": "Feature",
  "properties": {
    "date:cessation_lower": "2004-01-01",
    "date:cessation_upper": "2004-12-31",
    "date:inception_lower": "2004-01-01",
    "date:inception_upper": "2004-12-31",
    "edtf:cessation": "2004",
    "edtf:inception": "2004",
    "geom:area": 2.475047457570636e-7,
    "geom:bbox": "-122.386472,37.616105,-122.385834,37.616611",
    "geom:latitude": 37.61635747477365,
    "geom:longitude": -122.38615540108617,
    "millsfield:aircraft_id": [
      1159289819
    ],
    "millsfield:airline_id": [
      1159285591
    ],
    "millsfield:category_id": 1762671311,
    "millsfield:collection_id": 1511214207,
    "millsfield:company_id": [
      1159293593
    ],
    "millsfield:images": [
      2015065617
    ],
    "millsfield:images_texts": [
      "SOUTHWEST AIRLINES®\nSafety Information\nInformación de Seguridad\nBoeing 737 Aircraft\nAviones Boeing Serie 737\nPassengers must comply with safety\ninstructions including signs, placards,\nand instructions of crew members.\nSMOKING IS NOT PERMITTED\nON ANY SCHEDULED FLIGHT.\nEMERGENCY\nEXIT SEATING\nIf you are seated in a seat with direct access to the\noverwing window exit, you are in an exit seat.\nFederal regulations require you to meet certain\ncriteria in order to occupy an exit seat. In an\nemergency where a crew member is unavailable to\nassist, you may be called upon to perform the func-\nbelow. If you do not meet the\ncriteria listed, feel you may not be able to perform\nthe functions listed, or do not wish to do so, please\ninform a crew member and ask to be reseated.\nCriteria for exit seat occupancy:\nA passenger seated in an exit seat must:\n1. Be 15 years of age or older\n2. Have the capacity to perform the applicable functions\nwithout the assistance of an adult companion, parent,\nor other relative\n3. Have the ability to read and understand printed or\ngraphic instructions related to emergency evacuation\n4. Have the ability to understand oral crew commands\n5. Have sufficient visual capacity to perform applicable\nfunctions without the assistance of visual aids beyond\ncontact lenses or eyeglasses\n6. Have sufficient aural capacity to hear and understand\ninstructions shouted by Flight Attendants without\nassistance beyond a hearing aid\n7. Have the ability to adequately impart information orally\nto other passengers\n8. Have sufficient mobility, strength or dexterity in both\narms and hands and both legs to:\n• Reach upward, sideways, and downward to the\nlocation of emergency exit\n• Grasp and push, pull, turn, shove or otherwise\nmanipulate mechanisms and open the exit\n• Lift out, hold, remove and maneuver objects the size\nand weight of overwing exit window out the opening.\n• Reach the emergency exit and exit expeditiously\n• Maintain balance while removing obstructions\nA passenger seated in an exit seat must not:\n1. Require a seat belt extension to fasten his or her seat belt\n2. Have a condition or responsibilities, such as caring for\nsmall children, that might prevent him or her from\nperforming the applicable functions\n3. Have a condition that might cause the person harm if he\nor she performs one or more of the applicable functions\nFunctions required of exit seat occupants:\nAn exit-seat ocupant must be willing and able to perform\nthe following functions if called upon to do so:\n1. Locate the emergency exit and recognize the emergency\nexit opening mechanism\n2. Comprehend the instructions for operating the\nemergency exit\n3. Operate the emergency exit\n4. Assess whether opening the emergency exit will\nincrease the hazards to which passengers may be\nexposed\n5. Follow oral directions and hand signals given by a\ncrew member\n6. Stow or secure the emergency exit window so that it\nwill not impede use of the exit\n7. Pass expeditiously through the emergency exit\n8. Assess, select, and follow a safe path away from the\nemergency exit\nLos pasajeros deberán de cumplir con\nlas instrucciones de seguridad, incluyendo\nanuncios, señales, e instrucciones de los\nmiembros de la tripulación.\nNO ESTA PERMITIDO FUMAR\nEN NINGUN VUELO.\nASIENTOS AL LADO DE\nLA SALIDA DE EMERGENCIA\nSi usted está sentado en un asiento con acceso directo\na la salida de emergencia por encima del ala, entonces\nusted está ubicado en un asiento de salida. Las\nregulaciones federales requieren que cumpla con ciertos\ncriterios para ocupar un asiento de salida. En una\nemergencia cuando un miembro de la tripulación no\nesté disponible para ayudar, usted deberá tomar los\npasos mencionados abajo. Si no cumple con los criterios,\ncree que no podrá tomar los pasos listados, o no desea\nhacerlo, por favor comuníqueselo a un miembro de la\ntripulación y pida que le ubiquen en otro asiento.\nCriterios para los asientos de salida de emergencia:\nUn pasajero sentado en el asiento de salida\nemergencia debe:\n2. Ser capaz de tomar los pasos necesarios sin la ayuda de\nun compañero adulto, padre u otro familiar.\n3. Ser capaz de leer y comprender las instrucciones impresas\nasi como las graticas relacionadas con una evacuacion de\n4. Ser capaz de comprender las instrucciones orales de la\n5. Ver suficientemente bien para tomar los pasos necesarios\nsin la ayuda de aparatos para la vista además de los\nlentes de contacto o anteojos.\n6. Oir suficientemente bien para comprender instrucciones\ngritadas por los Sobrecargos sin ayuda de un aparato\n7. Ser capaz de comunicar información oral a otros pasajeros.\n8. Tener suficiente movilidad, fuerza o dexteridad en ambos\nbrazos, manos y piernas para:\n• Poder alcanzar con la mano hacia arriba, hacia el lado\no por debajo de donde esté localizada la salida de\n• Agarrar, apretar, jalar, girar, empujar o manipular los\nmecanismos de otra manera y abrir la salida.\n• Levantar, cargar, sacar y manipular objetos del\ntamaño y peso de la ventana de salida ubicada por\nencima del ala por la apertura.\n• Alcanzar la salida de emergencia y salir rápidamente.\n• Mantener el equilibrio mientras despeje la salida de\nposibles obstáculos.\nUn pasajero sentado en un asiento de salida de\n1. Requerir una extensión del cinturón de seguridad para\npoder abrocharselo.\n2. Tener una condición o responsabilidad, como por ejemplo\ncuidar de niños pequeños, que le podrían impedir tomar\nlos pasos necesarios.\n3. Sufrir de una condición que podría dañarle si toma alguno\nde los pasos necesarios.\nPasos requeridos para las personas sentadas en los\nasientos ubicados en salidas de emergencia:\nUna persona sentada en un asiento ubicado en la salida de\nemergencia debe estar dispuesto y capaz de tomar los\nSiguientes pasos en caso de necesidad:\n1. Localizar la salida de emergencia y reconocer el mecanismo\npara abrir la salida de emergencia.\n2. Comprender las instrucciones para operar la salida de\nemergencia\n3. Abrir la salida de emergencia\n4. Evaluar si es que al abrir la salida de emergencia aumentaría\nel riesgo a los pasajeros.\n5. Seguir direcciones orales y gestos de mano de un miembro\nde la tripulación.\n6. Sujetar la ventana de la salida de emergencia para que no\nimpida el uso de la salida\n7. Salir rápidamente por la salida de emergencia.\n8. Evaluar y escoger un camino seguro una vez que se haya\nsalido por la salida de emergencia."
    ],
    "millsfield:images_texts_ids": [
      2015065617
    ],
    "millsfield:primary_image": 2015065617,
    "millsfield:subcategory_id": 1511213703,
    "mz:is_approximate": 1,
    "mz:is_current": 1,
    "sfomuseum:accession_number": "2020.052.252",
    "sfomuseum:aircraft": "Boeing 737",
    "sfomuseum:aircraft_id": [
      207
    ],
    "sfomuseum:airline": "Southwest Airlines",
    "sfomuseum:airline_id": [
      964
    ],
    "sfomuseum:category": "Passenger Amenity, Archive",
    "sfomuseum:classification_id": 581,
    "sfomuseum:collection": "Aviation Archive",
    "sfomuseum:creditline": "Gift of The David Kliman Collection",
    "sfomuseum:date": "2004",
    "sfomuseum:date_acquired": "2020-10-26",
    "sfomuseum:daterange_end": "2004-12-31",
    "sfomuseum:daterange_start": "2004-01-01",
    "sfomuseum:description": "Safety information card issued by Southwest Airlines for its Boeing 737 fleet; double-sided tri-fold card with illustrations demonstrating inflight safety and emergency procedures; identification code: IF-552; revision date: 7/04.",
    "sfomuseum:dimensions": "11 x 6 1/2 inches (27.9 x 16.5 cm)",
    "sfomuseum:medium": "paper, ink",
    "sfomuseum:object_id": 218064,
    "sfomuseum:placetype": "object",
    "sfomuseum:publication": ": , 2004.",
    "sfomuseum:subcategory": "Safety Information Card",
    "src:geom": "sfomuseum#undetermined",
    "wof:belongsto": [
      102527513,
      1159162825,
      102191575,
      85633793,
      102087579,
      85922583,
      85688637,
      1159160869
    ],
    "wof:country": "XY",
    "wof:created": 1773991984,
    "wof:depicts": [
      1159289819,
      1159293593,
      1159285591
    ],
    "wof:geomhash": "c281b9d9eefc83b5710e64b9d646067d",
    "wof:hierarchy": [
      {
        "building_id": -1,
        "campus_id": 102527513,
        "collection_id": 1159162825,
        "concourse_id": 1159162825,
        "continent_id": 102191575,
        "country_id": 85633793,
        "county_id": 102087579,
        "custom_id": 2015065447,
        "locality_id": 85922583,
        "neighbourhood_id": -1,
        "object_id": 2015065447,
        "region_id": 85688637,
        "wing_id": 1159160869
      }
    ],
    "wof:id": 2015065447,
    "wof:lastmodified": 1774083318,
    "wof:name": "safety information card: Southwest Airlines, Boeing 737",
    "wof:parent_id": 1159162825,
    "wof:placetype": "custom",
    "wof:placetype_alt": [
      "object"
    ],
    "wof:repo": "sfomuseum-data-collection",
    "wof:superseded_by": [],
    "wof:supersedes": []
  },
  "bbox": [
    -122.38647222518921,
    37.6161053594541,
    -122.38583385944366,
    37.61661101879963
  ],
  "geometry": {"type":"Polygon","coordinates":[[[-122.38647222518921,37.61631782178288],[-122.386434674263,37.61623283692423],[-122.38637566566466,37.61617759671399],[-122.38630056381224,37.6161308549656],[-122.38616108894348,37.6161053594541],[-122.38602161407469,37.6161308549656],[-122.38591432571411,37.61618609521055],[-122.38585531711577,37.61626683087935],[-122.38583385944366,37.61636881265146],[-122.38587141036987,37.61646654505181],[-122.38594114780425,37.61654303118856],[-122.38605380058287,37.61660252035167],[-122.38618254661559,37.61661101879963],[-122.3863059282303,37.61657277577607],[-122.3864185810089,37.61650903735973],[-122.3864668607712,37.61641130501523],[-122.38647222518921,37.61631782178288]]]}
}
