{
  "id": 1846753923,
  "type": "Feature",
  "properties": {
    "date:cessation_lower": "1921-01-01",
    "date:cessation_upper": "1921-12-31",
    "date:inception_lower": "1921-01-01",
    "date:inception_upper": "1921-12-31",
    "edtf:cessation": "1921~",
    "edtf:inception": "1921~",
    "geom:area": 2.475047457570636e-7,
    "geom:bbox": "-122.386472,37.616105,-122.385834,37.616611",
    "geom:latitude": 37.61635747477365,
    "geom:longitude": -122.38615540108617,
    "millsfield:aircraft_id": [
      1159289369
    ],
    "millsfield:airline_id": [
      1796785063
    ],
    "millsfield:category_id": 1511214223,
    "millsfield:collection_id": 1511214207,
    "millsfield:company_id": [
      1159293955
    ],
    "millsfield:images": [
      1846755203,
      1846755205,
      1846755209,
      1846755211
    ],
    "millsfield:images_colors_refs": {
      "crayola": [
        {
          "hex": "#95918c"
        },
        {
          "hex": "#757575"
        },
        {
          "hex": "#c5d0e6"
        },
        {
          "hex": "#dbd7d2"
        },
        {
          "hex": "#414a4c"
        }
      ],
      "css4": [
        {
          "hex": "#dcdcdc"
        },
        {
          "hex": "#d3d3d3"
        },
        {
          "hex": "#778899"
        },
        {
          "hex": "#2f4f4f"
        },
        {
          "hex": "#708090"
        }
      ],
      "marekm4": [
        {
          "hex": "#cad4de"
        },
        {
          "hex": "#c9d0d6"
        },
        {
          "hex": "#322e2c"
        },
        {
          "hex": "#75899b"
        },
        {
          "hex": "#353638"
        },
        {
          "hex": "#65758d"
        },
        {
          "hex": "#61738d"
        },
        {
          "hex": "#d2d9de"
        },
        {
          "hex": "#464642"
        },
        {
          "hex": "#c8d3de"
        },
        {
          "hex": "#75899f"
        },
        {
          "hex": "#3c3c3a"
        },
        {
          "hex": "#798891"
        }
      ]
    },
    "millsfield:images_texts": [
      "FLY\nAeromarine\nELYING BOAT SERVICE\n@\nA CAR AS SLAVICE P\nKey West-Havana\nPalm Beach - Miami - Bimini\nNassau -Tampa\nSt. Petersburg-Belleair Heights\nMAKE RESER\nARROMARINE\n35-37 N. SAY SHORE DRIV\nMIAH. FLORIDA\nAEROMARINE AIRWAYS, Inc.\nC. F. REDDEN, PRESIDENT\nExecutive Offices, Times Building, New York City",
      "FLY\nAeromarine\nFLYING BOAT SERVICE\nKey West-Havana\nPalm Beach - Miami - Bimini\nNassau -Tampa\nSt. Petersburg-Belleair Heights\nAEROMARINE AIRWAYS, Inc.\nC. F. REDDEN, PRESIDENT\nExecutive Offices, Times Building, New York City",
      "FLY THERE!\nIn An Aeromarine Flying Boat\nKEY WEST-HAVANA-PALM BEACH-MIAMI-BIMINI-NASSAU-TAMPA\nST. PETERSBURG-BELLEAIR HEIGHTS\nAfter Your Long Train Journey\nRefresh Yourself By a Cool and\nK SONVILLE\nComfortable Flight in an\nROUTES\nAeromarine\nATLANTIC\nWHITE AERIAL CRUISERS\nOF\nTHE\nAEROMARINE AIRWAYS INC.\nREG. U.S. PAT. OFFICE\nWhite Aerial Gruiser\nand\n\"SAVE A DAY\"\nOCEAN\nCLEARWATER\nDST PETERSBURG\nPALM• BLACH\nPoints\nHavana-Key West\nMiami-Bimini\nMiami-Key West\nMiami-Nassau\nSCHEDULE OF ROUTES\nLength\nof Flight\n85 Min.\n40\n105\n120\nFare\n$50.00\n25.00\n60.00\n75.00\nTampa-Key West\n100.00\nSt. Petersburg Belleair Heights\nRate on application\nSpecial Charters-Hourly or Daily-By Appointment\nGUL F\n• ISLANDS\n••.\nOF\nMEXICO\nANDRO:\nLANDS\nAEROMARINE AERIAL SCENIC TOURS\nAerial flights over Florida's most beautiful scenery\nThe quickest, safest and\nmost delightful means\nviewing\nand hundreds of other interesting\nsights, is from the air.\nFare according to distance.\nMinimum Sightseeing Flight$5.00 per Passenger.\nSHAVAMA\nU\n15000\nConnections Made With Morning and Evening Trains to and from Key West\nNOTICE-Time tables show the hour at which flying boats normaily leave and arrive at different ports. Every effort is made to keep\nto these schedules, but the departure, atrival or connection is not guaranteed.\n\"BE SURE IT'S AN AEROMARINE\"",
      "AEROMARINE AIRWAYS, Inc.\nThe Largest Aerial Transportation Company in the World Operating Flying Boats\n\"THOUSANDS OF PASSENGERS CARRIED-NOT A SINGLE MISHAP\"\nExecutive Offices, 1800 Times Building\nNew York City\nGeneral Information for Passengers\nRESERVATIONS.- Seats can be reserved and\nLIQUOR LAWS.- Importation of liquor is\ntickets purchased at any\nTourist Agency or Travel\nstrictly forbidden.\nPassengers are requested to forego\nBureau.\nOtherwise reservations for transportation can\nany attempt to enter the U.S. with liquor in their\nbe obtained by telegraphic request direct to our office\npossession.\nat Key West,\nFlorida.\nWAR TAX.-War tax is payable on all tickets-\n$3.00 per head.\nCHILDREN.- Between the ages of seven and\nfifteen travel for half fare.\nBAGGA\nGE.-Each passenger is allowed thirty\nPASSPORTS.- Are not required for U. S.\ncitizens-aliens must be supplied with passports.\n(30) pounds of personal baggage.\nAny baggage in ex-\ncess of this amount is charged for under a fixed reason-\nable tariff. Trunks and other heavy baggage may be\nforwarded by steamer the same day.\nFLYING CLOTHES.- Travel in the cabins of\nthe flying cruisers is equal in comfort to that in a Pull-\nman car, except there is no dust or grime.\nPassengers\nwear their ordinary clothes.\nNo leather garments, gog-\ngles or other paraphernalia are necessary in Aeromarine\ncruisers.\nCUTSOMS.- Baggage is cleared both inwards and\noutwards at Aeromarine floats by Customs officers spe-\nAEROMARINE FLEET\nFlying Cruisers:-11 Passengers\n(TWIN LIBERTY MOTORS)\nSanta Maria\nBalboa\nNina\nPonce de Leon\nColumbus\nMendoza\nFlying Boats:-5 Passengers\n(SINGLE LIBERTY MOTORS)\nPennsylvania\nFlorida\nNew York\nVirginia\nMiami\nNew Jersey\nPresidente Zayas\ncially detailed to our service.\nThe beauties of the Florida coast as seen bu tourists from an Aeromarine flying boat\n\"BE SURE IT'S AN AEROMARINE\"\nAEROMARINE AIRWAYS Inc. * me\nThe Largest Aerial Transportation Company\nRemember passengers without an accident of any kind.—\nWorld Operating Flying Boats\nAeromarine lying Boats have flow over 100,000 miles and carried thoROMA\nOn Your\nSouthern\nTrip\nThis Winter-\nSee\nFlorida\nFrom\nthe Air\nPassengers embarking on\nthe Aeromarine 11\nsenger\nflying\nDOS-\ncruiser at\nNew\nYork City\nfor\nflight\nto\nFlorida\nHavana, Cuba.\nand\nYou\nwill\nhave\ngenuine\ntreat.\nThe color and charm of\nFlorida\nand\nter-\n\"itories have\nbeen\ntold a\nsand times, but\nnever\nso\ncaptivating,\noverwhelmingly\nbeautiful, as when it grips vou\nby its splendor from an Aero-\nMarie\nllymng\nboat.\nDainty\nBuffet\nLunches\nure served in the\nreautiful mahog-\nuny cabin of the\nleven\npassenger\nJeromarine\nAv-\nng\ncruisers\npecial\nlights.\ncharter\nSeating arrangement in the\nInterior view forward cabin (seating\nMr 11\ncockpit flying boats\nmacaonaem\nFly There-It's Comfortabl Fascinating-Safe\ncruiser (rear\nAeromarine\nflying\ncabin seats five)\nThe reliability of the Aeromarine Flying Boat Service ha already been clearly demonstrated during the past year\nof operations-hundreds of air flights; thousands of passenge carried and a total of hundreds of thousands of miles\ncovered in perfect safety without the slightest mishap.\nALWAYS OVER THE WATER. Nothing nore scious can happen to an Aeromarine Hying boat in fight\nthan a forced descent.\nYou fly over the broad free space of te water's surface, hence you always have the necessary\nalighting space and herein is one of the great advantares of revel in Alying boats—vou don't have to fly at great heights,\nSt. Persburg, Fla.\nAlso from the leading Tourt Agicies and Tivel Bureaus\nKey West, Fla.\n\"BE SURE IT'S AN EROMA RENAVE\nHavana Cuba\n022.124.70l"
    ],
    "millsfield:images_texts_ids": [
      1846755203,
      1846755205,
      1846755209,
      1846755211
    ],
    "millsfield:primary_image": 1846755203,
    "millsfield:subcategory_id": 1511213701,
    "mz:is_approximate": 1,
    "mz:is_current": 1,
    "sfomuseum:accession_number": "2022.124.706",
    "sfomuseum:aircraft": "Aeromarine 75",
    "sfomuseum:aircraft_id": [
      6
    ],
    "sfomuseum:airline": "Aeromarine Airways",
    "sfomuseum:airline_id": [
      1582
    ],
    "sfomuseum:category": "Scheduling / Ticketing",
    "sfomuseum:classification_id": 471,
    "sfomuseum:collection": "Aviation Archive",
    "sfomuseum:creditline": "Gift of Jon E. Krupnick",
    "sfomuseum:date": "c. 1921",
    "sfomuseum:date_acquired": "2022-12-14",
    "sfomuseum:daterange_end": "1926-12-31",
    "sfomuseum:daterange_start": "1916-01-01",
    "sfomuseum:description": "Fare schedule issued by Aeromarine Airways, undated; fold-out format; black and white illustration of Aeromarine 75 flying over seaside scene with text “Key West - Havana / Palm Beach - Miami - Bimini / Nassau - Tampa / St. Petersburg - Belleair Heights”",
    "sfomuseum:dimensions": "9 x 4 inches (22.9 x 10.2 cm)",
    "sfomuseum:medium": "paper, ink",
    "sfomuseum:object_id": 233628,
    "sfomuseum:placetype": "object",
    "sfomuseum:publication": ": , c. 1921.",
    "sfomuseum:subcategory": "Fare Schedule",
    "src:geom": "sfomuseum#undetermined",
    "wof:belongsto": [
      102527513,
      1159162825,
      102191575,
      85633793,
      102087579,
      85922583,
      85688637,
      1159160869
    ],
    "wof:country": "XY",
    "wof:created": 1680078211,
    "wof:depicts": [
      1796785063,
      1159289369,
      1159293955
    ],
    "wof:geomhash": "c281b9d9eefc83b5710e64b9d646067d",
    "wof:hierarchy": [
      {
        "building_id": -1,
        "campus_id": 102527513,
        "collection_id": 1159162825,
        "concourse_id": 1159162825,
        "continent_id": 102191575,
        "country_id": 85633793,
        "county_id": 102087579,
        "custom_id": 1846753923,
        "locality_id": 85922583,
        "neighbourhood_id": -1,
        "object_id": 1846753923,
        "region_id": 85688637,
        "wing_id": 1159160869
      }
    ],
    "wof:id": 1846753923,
    "wof:lastmodified": 1787988214,
    "wof:name": "fare schedule: Aeromarine Airways",
    "wof:parent_id": 1159162825,
    "wof:placetype": "custom",
    "wof:placetype_alt": [
      "object"
    ],
    "wof:repo": "sfomuseum-data-collection",
    "wof:superseded_by": [],
    "wof:supersedes": []
  },
  "bbox": [
    -122.38647222518921,
    37.6161053594541,
    -122.38583385944366,
    37.61661101879963
  ],
  "geometry": {"type":"Polygon","coordinates":[[[-122.38647222518921,37.61631782178288],[-122.386434674263,37.61623283692423],[-122.38637566566466,37.61617759671399],[-122.38630056381224,37.6161308549656],[-122.38616108894348,37.6161053594541],[-122.38602161407469,37.6161308549656],[-122.38591432571411,37.61618609521055],[-122.38585531711577,37.61626683087935],[-122.38583385944366,37.61636881265146],[-122.38587141036987,37.61646654505181],[-122.38594114780425,37.61654303118856],[-122.38605380058287,37.61660252035167],[-122.38618254661559,37.61661101879963],[-122.3863059282303,37.61657277577607],[-122.3864185810089,37.61650903735973],[-122.3864668607712,37.61641130501523],[-122.38647222518921,37.61631782178288]]]}
}
