{
  "id": 1913796195,
  "type": "Feature",
  "properties": {
    "date:cessation_lower": "1935-06-25",
    "date:cessation_upper": "1935-06-25",
    "date:inception_lower": "1935-06-25",
    "date:inception_upper": "1935-06-25",
    "edtf:cessation": "1935-06-25",
    "edtf:inception": "1935-06-25",
    "geom:area": 2.475047457570636e-7,
    "geom:bbox": "-122.386472,37.616105,-122.385834,37.616611",
    "geom:latitude": 37.61635747477365,
    "geom:longitude": -122.38615540108617,
    "millsfield:airline_id": [
      1159284991
    ],
    "millsfield:category_id": 1511214251,
    "millsfield:collection_id": 1511214207,
    "millsfield:company_id": [
      1159286839
    ],
    "millsfield:images": [
      1913802127,
      1913802131,
      1913802133
    ],
    "millsfield:images_colors_refs": {
      "crayola": [
        {
          "hex": "#eceabe"
        },
        {
          "hex": "#414a4c"
        },
        {
          "hex": "#714b23"
        },
        {
          "hex": "#efcdb8"
        }
      ],
      "css4": [
        {
          "hex": "#556b2f"
        },
        {
          "hex": "#2f4f4f"
        },
        {
          "hex": "#f5deb3"
        }
      ],
      "marekm4": [
        {
          "hex": "#3e393b"
        },
        {
          "hex": "#524930"
        },
        {
          "hex": "#e7dbbd"
        },
        {
          "hex": "#ebdfc2"
        },
        {
          "hex": "#e6d7b5"
        },
        {
          "hex": "#554b31"
        }
      ]
    },
    "millsfield:images_texts": [
      "MANAGEMENT\nHUBERT C. ANDERSON\nCABLE ADDRESS\nA\nN/1\nMANHOCO • MANILA\nOTEY\nTuesday\nL/25\nManila, Philippines\nDearest Debs\njust a line or tie\nto\ntill yor that I am\nmaking good profun -\nsaw the gormer this\nA.mn and talked to Tryipe\nlast night. The laun\nsumed read, to face in\nline with thomas new\nsuggestions solici\nmade and tor ought\nnot to hav any trouble\nat all in fitting what\ntogut in the way\nof a franchin",
      "I had bra working\naufuel hard as in\naddit con to the franchin\nand maie contract 9\nalso hair to heep fine\na sit for the radi\nand passinga statoro.\nThe radio is repreiace,\ndifficuet for wit the\nnew direction funde\nur har to hark thes\npoints 1200 feet apart\nJet conticed ald the land\nin biture and in the\nimmediate meighborhood.\nHor one, been out\none night - last Saturda,",
      "and suce\nthen har\ngood and\nhard working\nRunnel and\nCushman\nase all good men in\nthui respection lie.\nbut take a eve\nkan dling becaus they\nkar bum togethn too\nclank, - all a bit\nhats and lot of\nloor from you own-\nBix"
    ],
    "millsfield:images_texts_ids": [
      1913802127,
      1913802131,
      1913802133
    ],
    "millsfield:primary_image": 1913802127,
    "millsfield:subcategory_id": 1511213489,
    "mz:is_approximate": 1,
    "mz:is_current": 1,
    "sfomuseum:accession_number": "2019.121.0900 a c",
    "sfomuseum:airline": "Pan American Airways",
    "sfomuseum:airline_id": [
      685
    ],
    "sfomuseum:category": "Employee Career History",
    "sfomuseum:classification_id": 195,
    "sfomuseum:collection": "Aviation Archive",
    "sfomuseum:creditline": "Collection of SFO Museum",
    "sfomuseum:date": "06/25/1935",
    "sfomuseum:date_acquired": "2019-11-22",
    "sfomuseum:daterange_end": "1935-06-25",
    "sfomuseum:daterange_start": "1935-06-25",
    "sfomuseum:description": "Handwritten letter from Harold M. Bixby to his wife, Debby Bixby, dated June 25, [1935] on stationery from the Manila Hotel; includes description of telephone call with [Juan] Trippe regarding the PAA franchise in the Philippines; mentions Governor General [Frank] Murphy, Mr. [C.S.] Russell, John Steele, Mr. Cushman.",
    "sfomuseum:dimensions": "8 1/2 x 5 1/2 inches (21.6 x 14 cm)",
    "sfomuseum:medium": "paper, ink",
    "sfomuseum:object_id": 211263,
    "sfomuseum:placetype": "object",
    "sfomuseum:publication": ": , 06/25/1935.",
    "sfomuseum:subcategory": "Correspondence, Personal",
    "src:geom": "sfomuseum#undetermined",
    "wof:belongsto": [
      102527513,
      1159162825,
      102191575,
      85633793,
      102087579,
      85922583,
      85688637,
      1159160869
    ],
    "wof:country": "XY",
    "wof:created": 1714549013,
    "wof:depicts": [
      1159284991,
      1159286839
    ],
    "wof:geomhash": "c281b9d9eefc83b5710e64b9d646067d",
    "wof:hierarchy": [
      {
        "building_id": -1,
        "campus_id": 102527513,
        "collection_id": 1159162825,
        "concourse_id": 1159162825,
        "continent_id": 102191575,
        "country_id": 85633793,
        "county_id": 102087579,
        "custom_id": 1913796195,
        "locality_id": 85922583,
        "neighbourhood_id": -1,
        "object_id": 1913796195,
        "region_id": 85688637,
        "wing_id": 1159160869
      }
    ],
    "wof:id": 1913796195,
    "wof:lastmodified": 1787988219,
    "wof:name": "correspondence: Harold M. Bixby to Debby Bixby",
    "wof:parent_id": 1159162825,
    "wof:placetype": "custom",
    "wof:placetype_alt": [
      "object"
    ],
    "wof:repo": "sfomuseum-data-collection",
    "wof:superseded_by": [],
    "wof:supersedes": []
  },
  "bbox": [
    -122.38647222518921,
    37.6161053594541,
    -122.38583385944366,
    37.61661101879963
  ],
  "geometry": {"type":"Polygon","coordinates":[[[-122.38647222518921,37.61631782178288],[-122.386434674263,37.61623283692423],[-122.38637566566466,37.61617759671399],[-122.38630056381224,37.6161308549656],[-122.38616108894348,37.6161053594541],[-122.38602161407469,37.6161308549656],[-122.38591432571411,37.61618609521055],[-122.38585531711577,37.61626683087935],[-122.38583385944366,37.61636881265146],[-122.38587141036987,37.61646654505181],[-122.38594114780425,37.61654303118856],[-122.38605380058287,37.61660252035167],[-122.38618254661559,37.61661101879963],[-122.3863059282303,37.61657277577607],[-122.3864185810089,37.61650903735973],[-122.3864668607712,37.61641130501523],[-122.38647222518921,37.61631782178288]]]}
}
