{
  "id": 1511928183,
  "type": "Feature",
  "properties": {
    "date:cessation_lower": "1971-01-01",
    "date:cessation_upper": "1971-12-31",
    "date:inception_lower": "1971-01-01",
    "date:inception_upper": "1971-12-31",
    "edtf:cessation": "1971",
    "edtf:date": "1971",
    "edtf:inception": "1971",
    "geom:area": 0,
    "geom:bbox": "-122.386155,37.616357,-122.386155,37.616357",
    "geom:latitude": 37.616357,
    "geom:longitude": -122.386155,
    "iso:country": "XX",
    "millsfield:airline_id": [
      1159285393
    ],
    "millsfield:category_id": 1511214223,
    "millsfield:collection_id": 1511214207,
    "millsfield:company_id": [
      1159287531
    ],
    "millsfield:images": [
      1527835423,
      1527851183
    ],
    "millsfield:images_colors_refs": {
      "crayola": [
        {
          "hex": "#414a4c"
        },
        {
          "hex": "#9c2542"
        },
        {
          "hex": "#c46210"
        },
        {
          "hex": "#dbd7d2"
        }
      ],
      "css4": [
        {
          "hex": "#006400"
        },
        {
          "hex": "#2f4f4f"
        },
        {
          "hex": "#d3d3d3"
        },
        {
          "hex": "#daa520"
        },
        {
          "hex": "#b22222"
        }
      ],
      "marekm4": [
        {
          "hex": "#b13114"
        },
        {
          "hex": "#d9dbcd"
        },
        {
          "hex": "#b4320d"
        },
        {
          "hex": "#e0d8c8"
        },
        {
          "hex": "#30320d"
        },
        {
          "hex": "#463f34"
        },
        {
          "hex": "#caa406"
        },
        {
          "hex": "#cb9f09"
        }
      ]
    },
    "millsfield:images_texts": [
      "TWA\nSYSTEM\nTIMETABLE\nEFFECTIVE JANUARY 6, 1971\nAmbassador\nService\nA whole new way\nto fly across the U.S.A.\nPlus new convenient\ncommuter departure\nand arrival schedules",
      "HONOLULU\nSAN\nFRANCISCO\nOAKLAND\nLOS\nANGELES\nPHOENIX\nGUAM\nOKINAWA\n• To Europe\n• To Europe\nBOSTON\nCHICAGO\n_DETROIT-\nHARTFORD\nDENVER\nCLEVELAND\nINDIANAPOLIS\nCOLUMBUS\nKANSAS\nCITY\nST. LOUIS\nLAS VEGAS\nPITTS-\nDAYTON ~\nBURGH\nWICHITA\nTULSA\n, LOUISVILLE.\nNASHVILLE\nCINCINNATI-\n) AMARILLO\n-NEW YORK\nCHARRISBURG\nPHILADELPHIA\nBALTIMORE\nWASHINGTON\nTUCSON\nATLANTAC\nALBU -\nQUERQUE\nOKLAHOMA CITY\nTAMPA\nMIAMI\nTAIPEI\nSHANNON\nAZORES\nLISBON\nBANGKOK\nHONG KONG\nLONDON\nTWA\nFRANKFURT\nZURICH\nROME\nATHENS\nPARIS\nGENEVA MILAN\nTRIPOLI\nMADRID\nTUNIS\nENTEBBE/KAMPALA\nCOLOMBO\nWORLD ROUTES\nTEL AVIV\nCAIRO\nNAIROBI\n•BOMBAY\nDHAHRAN\nDAR ES SALAAM\nTWA\nAmbassador Service Routes\nCHICAGO\nSAN FRANCISCO\nLOS ANGELES\nBOSTON\nNEW YORK/NEWARK\nPHILADELPHIA\n'BALTIMORE\nWASHINGTON\nGENERAL PASSENGER INFORMATION\nBAGGAGE-Baggage includes all luggage, parcels, and packages carried in the cabin or\nCUSTOMS REGULATIONS-Customs officers of each country may examine baggage on arrival.\nchecked in the cargo space.\nOvercoats, umbrellas, ladies'\nhandbags or ladies' pocketbooks,\nOnly personal articles for use while traveling are not subject to duty. Residents of the U.S.\nand small cameras carried by the passenger will\nnot be weighed\nas \"baggage.\nTWA may\naway more than 48 hours may claim a duty and tax exemption of $100 once each 31 days\nlimit the weight, size and type of baggage.\nfor merchandise\nacquired overseas. Additional allowances are available for U.S. residents\nBAGGAGE ALLOWANCE-IN THE U.S.A.-On each ticket, except when travel is part of an\narriving directly trom Guam.\nFruits, plants, meats and similar agricultural items cannot be\ninternational trip by air, free baggage\n1 with dimensions\ntaken into the\nContinental U.S.A. without permission. Consult the U.S\nDepartment of Agricul-\n(length plus width plus height) not over 62 inches and 1 with dimensions not over 55 inches,\nture or the nearest U.S. Foreign Office overseas for details. While TWA usually has available\nplus 1 or more pieces ot underseat baggage with\nthe latest information,\nthe carrier is not responsible for its\naccuracy and suggests\nthat\nExcept that each bag, whether checked or unchecked, shall not exceed 70 pounds.\npassengers consult the nearest Consulate of the country to be visited.\nINTERNATIONAL FIRST CLASS-66 Ibs. (30 kilograms) carried free for each full or half fare\nfirst class ticket, including portions of travel in the U.S.A.\nINTERNATIONAL ECONOMY CLASS-44 Ibs. (20 kilograms) carried free for each full or half\nfare economy class ticket, including portions of travel in the U.S.A.\nCHILDREN-Children paying half fare\ngranted tree baggage\nallowance\non the same\nbasis as a passenger paying the full adult fare. Children traveling free or at the 10% fare\nFAMILY FARES-IN THE U.S.A.—When travel is via First Class or Coach service Sunday Mid-\nnight through Friday P.M.,\nor Friday Midnight through Sunday 1:00 P.M., your spouse,\ncount of 5%. And tina accompanying mildren 12 through 21 receive a one third discount.\nFamily discounts do not apply to Discover America Excursion, economy,\ncoach fares.\nOne infant under 2 years occupying a seat is carried free with each family\ngroup.\nreceive no free baggage allowance.\nBAGGAGE-EXCESS CHARGES-Checked baggage in excess of the above free allowances shall\nGROUND TRANSPORTATION-Taxicab and limousine service available between downtown\nscheduled pick-up points and airport, at passenger's expense.\nIN THE U.S.A.—When the one way adult coach fare between the points between which the\nbaggage is checked or from the passenger's origin to his destination is $25 or less, $2 per\n$25.01-50.00, $3 per piece; $50.01-120.00, $4 per piece; $120.01-200.00, $5 per piece;\nover $200, $6 per piece.\nHOTEL RESERVATIONS-Any TWA office will gladly arrange hotel reservations in addition\nto airline reservations.\nINTERNATIONAL-Excess baggage is charged for at 1% of the full first class adult one way\njet fare per kilogram (2.2 lbs.).\nBAGGAGE -EXCESS VALUE-TWA's liability for baggage is limited to its actual value, but not\nmore than $500 per passenger on trips in the U.S.A. or $16.50 per kilogram for checked\nbaggage and\n$330 per passenger for\nunchecked baggage\non international trips,\nunless\nhigher valuation is stated before the flight and a charge of 10¢ on trips in the U.S.A. or 15¢\non international trips is paid for each extra $100 or fraction thereof claimed.\nCHECK-IN FOR FLIGHTS-INTERNATIONAL: Minimum check-in times vary for each country\nand are dependent on the formalities required by individual government airport authorities.\nConsult the listings of TWA offices published in this timetable for international check-in re-\nquirements or contact your nearest TWA office in order to avoid cancellation of your reserva-\nINSURANCE-Trip insurance is available at most airlines offices in the U.S.A.\nMEAL SERVICE-For information on Food and Beverage Service, see schedule pages.\nRECONFIRMATION-INTERNATIONAL-Passengers holding continuing or return reservations\nmust reconfirm their reservations at least 72 hours before scheduled flight departure time.\nFailure to reconfirm will result in cancellation of all reservations.\nRESERVATIONS-Reservations are not definite until tickets are purchased.\n• Passage may\nbe refused to any person when necessary\nto comply with Government regulations,\nrules, or for reasons beyond the control of TWA.\ntion. IN THE U.S.A.: Just a reminder, please plan your airport arrival to allow sufficient time\nfor pre-departure check-in and personal activities.\nWhile every effort will be made to hold\nyour reservation until scheduled departure time, your space is subject, by tariff rule, to\ncancellation 5 minutes before scheduled departure.\nCHILDREN-IN THE U.S.A.-(Not applicable to Family Fare travel)-(a) One child under 2\nyears not occupying a seat carried free with each accompanying fare paying adult passenger.\n(b) Children under 2 years occupying a seat, or over 2 years and under 12 years, or more than\none child accompanying a passenger are each charged one half normal adult fare. (c) Children\nunder 5 years must be accompanied by a passenger at least 12 years old. Children between 5\nand 8 may travel alone only by prior arrangement.\nUnaccompanied children between the ages of\n5 and 12 will be charged the full adult fare. INTERNATIONAL-One child under 2 years not occu-\npying a seat carried at 10% of adult fare with each accompanying full fare adult passenger.\nChildren over 2 and under 12 years, a child under 2 occupying a seat, and more than one child\naccompanying a passenger are each charged one half adult fare. Children may\ntravel alone\nonly under certain conditions.\nSCHEDULES -TWA reserves the right to cancel or change schedules without notice. Safety\nis our primary consideration. Schedules shown are based on expected flying times.\nweather and\nother factors may affect operating conditions,\ndepartures and arrivals cannot\nbe guaranteed.\nSTOPOVERS-IN THE U.S.A.—Stopovers are not permitted on most domestic U.S.A. tickets\nwithout additional charge, except in connection with international air travel. INTERNATIONAL\n-Within the time limit of the ticket.\nis made and, on international\nthe passenger has a valid visa if required by law.\nstopovers will be permitted at any\nscheduled stop on normal first class and economy fares. For number of stopovers allowed on\nany special fare, contact the nearest TWA office.\nYOUTH FARE TRAVEL PLAN-IN THE CONTINENTAL U.S.A.-Reduced fares are available for\npersons 12 through 21 years of age on a no-reservation basis at 60% of normal coach fares."
    ],
    "millsfield:images_texts_ids": [
      1527835423,
      1527851183
    ],
    "millsfield:primary_image": 1527835423,
    "millsfield:subcategory_id": 1511213425,
    "mz:hierarchy_label": 1,
    "mz:is_current": 1,
    "sfomuseum:accession_number": "2006.059.226",
    "sfomuseum:airline": "TWA (Trans World Airlines)",
    "sfomuseum:airline_id": [
      874
    ],
    "sfomuseum:category": "Scheduling / Ticketing",
    "sfomuseum:classification_id": 158,
    "sfomuseum:collection": "Aviation Archive",
    "sfomuseum:creditline": "Gift of the Paul Edward Fair Estate",
    "sfomuseum:date": "1971",
    "sfomuseum:date_acquired": "2006-10-19",
    "sfomuseum:daterange_end": "1971-12-31",
    "sfomuseum:daterange_start": "1971-01-01",
    "sfomuseum:description": "System timetable issued by TWA (Trans World Airlines), effective January 6, 1971; gold cover with text promoting Ambassador Service; includes route map and fare schedule.",
    "sfomuseum:dimensions": "8 3/4 x 4 inches (22.2 x 10.2 cm)",
    "sfomuseum:media_ids": [
      1527835423,
      1527851183
    ],
    "sfomuseum:medium": "paper, ink",
    "sfomuseum:object_id": 81460,
    "sfomuseum:placetype": "object",
    "sfomuseum:primary_media_id": 1527835423,
    "sfomuseum:publication": ": , 1971.",
    "sfomuseum:subcategory": "Timetable",
    "sfomuseum:subject": "Airlines -- timetables",
    "src:geom": "sfomuseum#undetermined",
    "wof:belongsto": [
      1511214223,
      102527513,
      102191575,
      85633793,
      1511213425,
      85922583,
      102087579,
      1511214277,
      1511214207,
      85688637
    ],
    "wof:breaches": [],
    "wof:country": "XX",
    "wof:created": 1579906665,
    "wof:depicts": [
      1159287531,
      1159285393
    ],
    "wof:geomhash": "30c8a918561c84bb2daa2b97fc7c5353",
    "wof:hierarchy": [
      {
        "arcade_id": 1511213425,
        "building_id": 1511214277,
        "campus_id": 102527513,
        "concourse_id": 1511214223,
        "continent_id": 102191575,
        "country_id": 85633793,
        "county_id": 102087579,
        "custom_id": 1511928183,
        "locality_id": 85922583,
        "neighbourhood_id": -1,
        "object_id": 1511928183,
        "region_id": 85688637,
        "venue_id": 1511928183,
        "wing_id": 1511214207
      }
    ],
    "wof:id": 1511928183,
    "wof:lastmodified": 1787988179,
    "wof:name": "timetable: TWA (Trans World Airlines)",
    "wof:parent_id": 1159162825,
    "wof:placetype": "custom",
    "wof:placetype_alt": [
      "object"
    ],
    "wof:repo": "sfomuseum-data-collection",
    "wof:superseded_by": [],
    "wof:supersedes": [],
    "wof:tags": []
  },
  "bbox": [
    -122.386155,
    37.616357,
    -122.386155,
    37.616357
  ],
  "geometry": {"type":"Point","coordinates":[-122.386155,37.616357]}
}
