{
  "id": 1779488851,
  "type": "Feature",
  "properties": {
    "date:cessation_lower": "1977-01-01",
    "date:cessation_upper": "1977-12-31",
    "date:inception_lower": "1977-01-01",
    "date:inception_upper": "1977-12-31",
    "edtf:cessation": "1977~",
    "edtf:inception": "1977~",
    "geom:area": 2.475047457570636e-7,
    "geom:bbox": "-122.386472,37.616105,-122.385834,37.616611",
    "geom:latitude": 37.61635747477365,
    "geom:longitude": -122.38615540108617,
    "millsfield:aircraft_id": [
      1159289651,
      1159289653,
      1159289873,
      1159289931,
      1159290421,
      1159291095,
      1159291139,
      1159291139,
      1159291191,
      1159291651,
      1159291669,
      1159293305
    ],
    "millsfield:airline_id": [
      1159284989
    ],
    "millsfield:category_id": 1763416373,
    "millsfield:collection_id": 1511214203,
    "millsfield:company_id": [
      1159293619
    ],
    "millsfield:images": [
      1779489763
    ],
    "millsfield:images_colors_refs": {
      "crayola": [
        {
          "hex": "#8a795d"
        },
        {
          "hex": "#414a4c"
        },
        {
          "hex": "#6699cc"
        },
        {
          "hex": "#9f8170"
        },
        {
          "hex": "#cdc5c2"
        }
      ],
      "css4": [
        {
          "hex": "#5f9ea0"
        },
        {
          "hex": "#bdb76b"
        },
        {
          "hex": "#c0c0c0"
        },
        {
          "hex": "#696969"
        },
        {
          "hex": "#556b2f"
        }
      ],
      "marekm4": [
        {
          "hex": "#c4c5b9"
        },
        {
          "hex": "#8c7557"
        },
        {
          "hex": "#a49765"
        },
        {
          "hex": "#535442"
        },
        {
          "hex": "#6096b2"
        }
      ]
    },
    "millsfield:images_texts": [
      "FOKKER F-7.\nPan Am's first plane. Made the first\nscheduled international flight by an\nAmerican airline on October 28, 1927\nbetween Key West, Florida and\nHavana, Cuba.\nSIKORSKY S-38.\nVersatile amphibian. Pioneered\nmany routes for Pan Am\nthroughout Latin America.\nNC53\nSIKORSKY S-42.\nAmerica's first true transoceanic\ntransport. Used mainly on Latin American\nroutes, it also surveyed routes across\nPacific and over Atlantic\nMARTIN M-130.-\nInaugurated first scheduled flight across\nthe Pacific. In November, 1935, flew\nfrom San Francisco to Manila in just under\n60 hours ilying time.\nDOUGLAS DC-4.\nMarked the transition to landplanes for\ntransoceanic flights. Flew between United\nStates and Europe, Asia, Latin America\nand Africa.\nBOEING B-314.\nLargest-and last-of Pan Am's flying boats.\nOpened the first regular transatlantic service\nin 1939. A vital carrier of men and supplies\nduring World War II.\nLOCKHEED CONSTELLATION.\nCompleted the first commercial round-the-\nworld flight in 1947. The \"Connie\" was the\nfirst transatlantic aircraft with a pressurized\ncabin.\nBOEING STRATOCRUISER.\nLuxurious double-decker. Mainstay of\nPan Am's transocean fleet from 1949 to\n1958. Shown here on a special flight to\nAntarctica.\nBOEING 707.\nOn October 26, 1958, a Pan Am Jet Clipper\nflew from New York to Paris on the first\nscheduled jet flight by a U.S. airline. Soon\nafterwards Pan Am Jet Clippers were flying\nworldwide, revolutionizing air travel.\nBOEING 747-\nIntroduced to the world by Pan Am\nin 1970. The largest, most comfortable, most\nreliable aircraft ever built. Carries over\n370 passengers.\nBOEING 747SP.\nNewest Pan Am first. A shorter, faster,\nhigher-flying version of the 747. Has the\nlongest range of any commercial aircraft-\nup to 7500 miles nonstop.\nPAN AM\nJoHN T.MCoy\n50\nvears of\nexperience.\nPAN AM"
    ],
    "millsfield:images_texts_ids": [
      1779489763
    ],
    "millsfield:primary_image": 1779489763,
    "millsfield:subcategory_id": 1511213365,
    "mz:is_approximate": 1,
    "mz:is_current": 1,
    "sfomuseum:accession_number": "2006.010.437",
    "sfomuseum:aircraft": "Lockheed L-049 Constellation",
    "sfomuseum:aircraft_id": [
      132,
      133,
      231,
      257,
      489,
      791,
      811,
      811,
      834,
      1041,
      1049,
      1826
    ],
    "sfomuseum:airline": "Pan American World Airways",
    "sfomuseum:airline_id": [
      684
    ],
    "sfomuseum:artist": "John T. McCoy",
    "sfomuseum:category": "Promotional, Museum",
    "sfomuseum:classification_id": 128,
    "sfomuseum:collection": "Aviation Museum",
    "sfomuseum:creditline": "Gift of the William Hough Collection",
    "sfomuseum:date": "c. 1977",
    "sfomuseum:date_acquired": "2010-07-30",
    "sfomuseum:daterange_end": "1982-12-31",
    "sfomuseum:daterange_start": "1972-01-01",
    "sfomuseum:description": "Poster produced by Pan American World Airways commemorating the 50th anniversary of service; full color composite illustration depicting historic aircraft fleet, including Fokker F-7, Sikorsky S-38, Sikorsky S-42, Martin M-130, Boeing 314, Douglas DC-4, Lockheed Constellation, Boeing Stratocruiser, Boeing 707, Boeing 747, and Boeing 747SP; chronological sequence of 11 color reproductions from series of watercolor paintings by John T. McCoy; text at lower right, “50 years of experience” with airline servicemark.",
    "sfomuseum:dimensions": "42 x 28 inches (106.7 x 71.1 cm)",
    "sfomuseum:medium": "paper, ink",
    "sfomuseum:object_id": 82245,
    "sfomuseum:placetype": "object",
    "sfomuseum:publication": ": , c. 1977.",
    "sfomuseum:subcategory": "Poster, Airline",
    "src:geom": "sfomuseum#undetermined",
    "wof:belongsto": [
      102527513,
      1159162825,
      102191575,
      85633793,
      102087579,
      85922583,
      85688637,
      1159160869
    ],
    "wof:country": "XY",
    "wof:created": 1652946713,
    "wof:depicts": [
      1159290421,
      1159289651,
      1159291669,
      1159291651,
      1159289931,
      1159293619,
      1159293305,
      1159289873,
      1159291191,
      1159284989,
      1159291095,
      1159289653,
      1159291139,
      1159293697
    ],
    "wof:geomhash": "c281b9d9eefc83b5710e64b9d646067d",
    "wof:hierarchy": [
      {
        "building_id": -1,
        "campus_id": 102527513,
        "collection_id": 1159162825,
        "concourse_id": 1159162825,
        "continent_id": 102191575,
        "country_id": 85633793,
        "county_id": 102087579,
        "custom_id": 1779488851,
        "locality_id": 85922583,
        "neighbourhood_id": -1,
        "object_id": 1779488851,
        "region_id": 85688637,
        "wing_id": 1159160869
      }
    ],
    "wof:id": 1779488851,
    "wof:lastmodified": 1787988208,
    "wof:name": "poster: Pan American World Airways, 50th anniversary",
    "wof:parent_id": 1159162825,
    "wof:placetype": "custom",
    "wof:placetype_alt": [
      "object"
    ],
    "wof:repo": "sfomuseum-data-collection",
    "wof:superseded_by": [],
    "wof:supersedes": []
  },
  "bbox": [
    -122.38647222518921,
    37.6161053594541,
    -122.38583385944366,
    37.61661101879963
  ],
  "geometry": {"type":"Polygon","coordinates":[[[-122.38647222518921,37.61631782178288],[-122.386434674263,37.61623283692423],[-122.38637566566466,37.61617759671399],[-122.38630056381224,37.6161308549656],[-122.38616108894348,37.6161053594541],[-122.38602161407469,37.6161308549656],[-122.38591432571411,37.61618609521055],[-122.38585531711577,37.61626683087935],[-122.38583385944366,37.61636881265146],[-122.38587141036987,37.61646654505181],[-122.38594114780425,37.61654303118856],[-122.38605380058287,37.61660252035167],[-122.38618254661559,37.61661101879963],[-122.3863059282303,37.61657277577607],[-122.3864185810089,37.61650903735973],[-122.3864668607712,37.61641130501523],[-122.38647222518921,37.61631782178288]]]}
}
