{
  "id": 1511950931,
  "type": "Feature",
  "properties": {
    "date:cessation_lower": "1992-01-01",
    "date:cessation_upper": "1992-12-31",
    "date:inception_lower": "1992-01-01",
    "date:inception_upper": "1992-12-31",
    "edtf:cessation": "1992",
    "edtf:date": "1992",
    "edtf:inception": "1992",
    "geom:area": 0,
    "geom:bbox": "-122.386155,37.616357,-122.386155,37.616357",
    "geom:latitude": 37.616357,
    "geom:longitude": -122.386155,
    "iso:country": "XX",
    "millsfield:airline_id": [
      1159284489
    ],
    "millsfield:category_id": 1511214223,
    "millsfield:collection_id": 1511214207,
    "millsfield:company_id": [
      1159287913
    ],
    "millsfield:images": [
      1527839941,
      1527847919
    ],
    "millsfield:images_colors_refs": {
      "crayola": [
        {
          "hex": "#6699cc"
        },
        {
          "hex": "#ffffff"
        },
        {
          "hex": "#1164b4"
        },
        {
          "hex": "#ff2b2b"
        },
        {
          "hex": "#324ab2"
        },
        {
          "hex": "#9c2542"
        },
        {
          "hex": "#efdecd"
        }
      ],
      "css4": [
        {
          "hex": "#778899"
        },
        {
          "hex": "#dcdcdc"
        },
        {
          "hex": "#f8f8ff"
        },
        {
          "hex": "#b22222"
        },
        {
          "hex": "#483d8b"
        }
      ],
      "marekm4": [
        {
          "hex": "#ac0722"
        },
        {
          "hex": "#708dbf"
        },
        {
          "hex": "#e5e8dd"
        },
        {
          "hex": "#254caf"
        },
        {
          "hex": "#1042b4"
        },
        {
          "hex": "#f9fdff"
        },
        {
          "hex": "#cf0811"
        }
      ]
    },
    "millsfield:images_texts": [
      "HAWALAN\nAIRLINES®\nInterisland\nTimetable\nSchedule 259/Effective January 20, 1992",
      "To Hilo\nLeave\nArrive Flight\nStops\nFrea\nFROM HONOLULU\nLeave\nArrive\nFROM KAHULUI\nFlight\nStops\nFreq\n5:35a\n7:00a\n7:30a\n7:40a\n8:55a\n11:20a\n1:45p\n2:35p\n3:35p\n4:05p\n5:30p\n6:40p\n7:15p\n6:21a\n7:46a\n8:56a\n8:26a\n9:41 a\n12:06p\n2:31p\n3:21p\n5:01 p\n4:51 p\n6:16p\n7:26p\n8:01p\n102\n192\n112\n122\n142\n162\n202\n222\n232\n242\n262\n282\n302\n8:25a\n4:30p\n8:56a\n5:01p\n112\n232\nFROM LIHUE\n1\n6:45a\n10:00a\n12:00p\n3:00p\n5:00p\n8:26a\n122\n1\n12:06p 166/162\nHNL\n2:31p 226/202 HNL\n4:51p 316/242 HNL\n7:26p 266/282 HNL\n57\nLeave\nFROM HILO\nArrive\nFlight\nTo Honolulu\nStops\nFrea\nLeave\nArrive\nFROM KAHULUI\nFlight\nStops\nFreq\n7:30a\n9:31a\n9:36a\n10:51a\n1:15p\n3:36p\n4:30p\n6:41 p\n6:11 p\n7:26p\n8:36p\n9:11p\n7:00p\n7:05p\n8:00p\n9:00p\n7:31p\n7:36p\n8:30p\n9:30p\n295\n217\n265\n285\nFROM KAPALUA-WEST MAUI\n57\nFROM KAHULUI\n6:30a\n6:55a\n8:00a\n9:00a\n9:25a\n10:00a\n10:25a\n10:25a\n11:00a\n12:00p\n12:15p\n12:24p\n1:00p\n2:00p\n2:25p\n3:00p\n4:00p\n5:00p\n6:00p\n6:10p\n7:01a\n7:25a\n8:31a\n9:31 a\n9:56a\n10:30a\n10:56a\n10:56a\n11:31 a\n12:30p\n12:46p\n12:55p\n1:31p\n2:31p\n2:56p\n3:30p\n4:30p\n5:31p\n6:31p\n6:41p\n105\n115\n125\n271\n1171\n195\n275\n275\n327\n165\n375\n157\n205\n145\n215\n225\n235\n315\n255\n231\nx1\n7:55a\n8:55a\n10:15a\n10:55a\n12:05p\n12:55p\n2:05p\n2:55p\n3:35p\n4:05p\n4:55p\n5:55p\n8:32a\n9:32a\n10:52a\n12:02p\n12:42p\n1:32p\n2:42p\n3:32p\n4:12p\n4:42p\n5:32p\n6:32p\n607\n613\n605\n617\n651\n619\n631\n625\n633\n635\n667\n641\nFROM KONA\n57\n6:45a\n7:50a\n10:10a\n11:05a\n11:40a\n12:30p\n12:30p\n1:30p\n2:40p\n3:20p\n3:20p\n4:20p\n5:35p\n7:22a\n8:25a\n11:31a\n11:42a\n12:55p\n1:05p\n1:05p\n2:05p\n3:17p\n3:57p\n3:57p\n4:57p\n6:12p\n107\n127\n327\n147\n157\n167\n167\n347\n247\n207\n207\n387\n287\n57\n57\nLeave\nFROM KONA\nArrive\nFlight\nTo Honolulu\nStops\nFreq\nLeave\nArrive Flight\nFROM LIHUE, KAUA'I\nStops\nFreq\n6:20p\n7:20p\n7:20p\n8:10p\n7:36p\n7:57p\n7:57p\n8:47p\n217\n367\n367\n267\n57\nFROM LANA'I\n11:30a\n3:05p\n12:02p\n617\n4:12p\n648/633\nFROM LIHUE, KAUA'I\n2:00p\n2:32p\n3:00p\n4:00p\n5:00p\n5:20p\n5:20p\n6:00p\n7:00p\n8:00p\n9:00p\n2:28p\n3:00p\n3:28p\n4:28p\n5:28p\n5:48p\n5:48p\n6:28p\n7:28p\n8:28p\n9:28p\n176\n232\n316\n256\n266\n274\n368\n276\n296\n284\n384\n57\n6:45a\n8:00a\n9:00a\n10:00a\n11:00a\n12:00p\n1:00p\n7:13a\n8:28a\n9:28a\n10:28a\n11:28a\n12:25p\n1:28p\n122\n196\n158\n166\n206\n226\n236\nFROM MOLOKA'I\n7:05a\n11:00a\n1:35p\n5:30p\n6:35p\n7:33a\n11:28a\n2:03p\n5:58p\n7:03p\n709\n727\n731\n775\n765\n57\nLeave\nFROM HILO\nArrive\nTo Kahului, Maui\nFlight\nStops Freq\nLeave\nArrive\nFROM HONOLULU\nFlight\nStops\nFrea\n8:10a\n9:20a\n5:15p\n8:40a\n9:50a\n5:45p\n271\n91\n231\n7:00p\n8:00p\n7:32p\n8:33p\n276\n296\nFROM KONA\nFROM HONOLULU\n5:30a\n5:50a\n7:00a\n7:30a\n8:00a\n8:15a\n9:00a\n9:30a\n9:30a\n10:00a\n11:00a\n11:30a\n12:00p\n1:00p\n1:30p\n2:00p\n3:00p\n3:35p\n3:45p\n4:00p\n5:00p\n6:00p\n6:03a\n6:23a\n7:33a\n8:03a\n8:33a\n8:48a\n9:33a\n10:03a\n10:03a\n10:33a\n11:33a\n12:03p\n12:33p\n1:33p\n2:03p\n2:33p\n3:33p\n4:07p\n4:18p\n4:33p\n5:33p\n6:27p\n106\n116\n126\n112\n136\n138\n196\n376\n376\n158\n166\n1174\n206\n226\n216\n236\n176\n232\n218\n316\n256\n266\n10:10a\n10:34a\n11:40a\n12:04p\n6:20p\n6:44p\n327\n157\n217\nFROM LIHUE, KAUA'I\n57\n6:45a\n8:00a\n9:00a\n10:00a\n11:00a\n11:15a\n12:00p\n1:00p\n2:00p\n2:32p\n3:00p\n4:00p\n5:00p\n6:00p\n7:00p\n8:33a 122/136 HNL\n9:33a\n196\n10:33a\n158\n11:33a\n166\n12:33p\n206\n11:55a\n96\n1:33p\n226\n2:33p\n236\n3:33p\n176\n4:07p\n232\n4:33p\n316\n5:33p\n256\n6:27p\n266\n7:32p\n276\n8:33p\n296\nFROM MOLOKA'I\n9:40a 10:03a\n796\nTo Kapalua - West Maui\nLeave\nArrive\nFlight\nStops Freq\nFROM HONOLULU\nLeave\nFROM LANA'I\nArrive\nFlight\nStops\nFrea\n7:00a\n8:00a\n9:15a\n10:00a\n11:10a\n12:00p\n1:10p\n2:00p\n2:20p\n3:10p\n4:00p\n5:00p\n7:39a\n8:39a\n9:54a\n10:39a\n11:49a\n12:39p\n1:49p\n2:39p\n3:20p\n3:49p\n4:39p\n5:39p\n606\n612\n626\n616\n650\n618\n630\n624\n648\n634\n668\n628 •\n3:05p 3:20p\n648\n2457\nFROM LIHUE, KAUA'I\n6:45a\n10:00a\n11:00a\n12:00p\n1:00p\n2:00p\n3:00p\n4:00p\n8:39a\n122/612\n11:49a\n166/650\n12:39p\n206/618\n1:49p\n226/630\n2:39p\n236/624\n3:49p\n176/634\n4:39p\n316/668\n5:39p\n256/628\nHNL\nHNL\nHNL\nHNL\nHNL\nHNL\nHNL\nHNL\nLeave\nArrive\nFROM HONOLULU\nFlight\nTo Kona\nStops Freq\nLeave\nArrive\nFlight\nFROM KAHULUI, MAUI\nStops\n5:40a\n6:50a\n8:15a\n10:00a\n10:05a\n11:25a\n11:25a\n12:30p\n1:40p\n2:20p\n2:20p\n3:20p\n3:45p\n5:15p\n6:15p\n6:15p\n7:05p\n6:19a\n7:29a\n9:35a\n11:18a\n10:44a\n12:04p\n12:04p\n1:09p\n2:19p\n2:59p\n2:59p\n3:59p\n5:05p\n5:54p\n6:54p\n6:54p\n7:44p\n108\n128\n138\n158\n148\n168\n168\n348\n188\n208\n208\n388\n218\n288\n368\n368\n268\n9:10a\n10:53a\n4:40p\n9:35a\n11:18a\n5:05p\n138\n158\n218\nFROM LIHUE, KAUA'I\n57\n57\n57\n9:00a\n11:00a\n12:00p\n1:00p\n2:32p\n4:00p\n5:20p\n5:20p\n6:00p\n10:44a\n158/148\nHNL\n1:09p\n206/348\nHNL\n2:19p\n226/188\nHNU\n2:59p\n236/208 HNL\n5:05p\n232/218\n5:54p\n256/288\nHNL\n6:54p 274/368 4HNL\n6:54p\n368-\n7:44p 276/268 HNL\nTo Lanai\nStops Frea\nFreq\n57\n57\nLeave\nArrive\nFROM HONOLULU\nFlight\nLeave\nArrive\nFlight\nFROM LIHUE, KAUA'I\nStops\nFrea\n10:00a\n2:20p\n11:10a 616/617\n2:51p\n648\n1:00p\n2:51p 236/648\nFROM KAPALUA-WEST MAUI\n10:55a\n11:10a\n617\nALL FLIGHTS OPERATE DAILY UNLESS NOTED: 1 Monday; 2 Tuesday;\n3 Wednesday; 4 Thursday; 5 Friday; 6 Saturday; 7 Sunday; X Except\nAll 600 \u0026 700 series flights designate Dash - 7 aircraft. All other interisland\nflights areDC-9 equipment."
    ],
    "millsfield:images_texts_ids": [
      1527839941,
      1527847919
    ],
    "millsfield:primary_image": 1527839941,
    "millsfield:subcategory_id": 1511213425,
    "mz:hierarchy_label": 1,
    "mz:is_current": 1,
    "sfomuseum:accession_number": "2011.126.017.009",
    "sfomuseum:airline": "Hawaiian Airlines",
    "sfomuseum:airline_id": [
      457
    ],
    "sfomuseum:category": "Scheduling / Ticketing",
    "sfomuseum:classification_id": 158,
    "sfomuseum:collection": "Aviation Archive",
    "sfomuseum:creditline": "Gift of the Paul H. Kowalewski Collection",
    "sfomuseum:date": "1992",
    "sfomuseum:date_acquired": "2011-12-22",
    "sfomuseum:daterange_end": "1992-12-31",
    "sfomuseum:daterange_start": "1992-01-01",
    "sfomuseum:description": "Interisland timetable issued by Hawaiian Airlines, effective January 20, 1992; three-page fold-out; white, blue, and red cover.",
    "sfomuseum:dimensions": "9 x 4 inches (22.9 x 10.2 cm)",
    "sfomuseum:media_ids": [
      1527847919,
      1527839941
    ],
    "sfomuseum:medium": "Paper, ink",
    "sfomuseum:object_id": 121670,
    "sfomuseum:placetype": "object",
    "sfomuseum:primary_media_id": 1527839941,
    "sfomuseum:publication": ": , 1992.",
    "sfomuseum:subcategory": "Timetable",
    "src:geom": "sfomuseum#undetermined",
    "wof:belongsto": [
      1511214223,
      102527513,
      102191575,
      85633793,
      1511213425,
      85922583,
      102087579,
      1511214277,
      1511214207,
      85688637
    ],
    "wof:breaches": [],
    "wof:country": "XX",
    "wof:created": 1579906672,
    "wof:depicts": [
      1159284489,
      1159287913
    ],
    "wof:geomhash": "30c8a918561c84bb2daa2b97fc7c5353",
    "wof:hierarchy": [
      {
        "arcade_id": 1511213425,
        "building_id": 1511214277,
        "campus_id": 102527513,
        "concourse_id": 1511214223,
        "continent_id": 102191575,
        "country_id": 85633793,
        "county_id": 102087579,
        "custom_id": 1511950931,
        "locality_id": 85922583,
        "neighbourhood_id": -1,
        "object_id": 1511950931,
        "region_id": 85688637,
        "venue_id": 1511950931,
        "wing_id": 1511214207
      }
    ],
    "wof:id": 1511950931,
    "wof:lastmodified": 1787988188,
    "wof:name": "timetable: Hawaiian Airlines, interisland service",
    "wof:parent_id": 1159162825,
    "wof:placetype": "custom",
    "wof:placetype_alt": [
      "object"
    ],
    "wof:repo": "sfomuseum-data-collection",
    "wof:superseded_by": [],
    "wof:supersedes": [],
    "wof:tags": []
  },
  "bbox": [
    -122.386155,
    37.616357,
    -122.386155,
    37.616357
  ],
  "geometry": {"type":"Point","coordinates":[-122.386155,37.616357]}
}
