{
  "id": 1913796437,
  "type": "Feature",
  "properties": {
    "date:cessation_lower": "1938-01-05",
    "date:cessation_upper": "1938-01-05",
    "date:inception_lower": "1938-01-05",
    "date:inception_upper": "1938-01-05",
    "edtf:cessation": "1938-01-05",
    "edtf:inception": "1938-01-05",
    "geom:area": 2.475047457570636e-7,
    "geom:bbox": "-122.386472,37.616105,-122.385834,37.616611",
    "geom:latitude": 37.61635747477365,
    "geom:longitude": -122.38615540108617,
    "millsfield:airline_id": [
      1159284991
    ],
    "millsfield:category_id": 1511214251,
    "millsfield:collection_id": 1511214207,
    "millsfield:company_id": [
      1159286839
    ],
    "millsfield:images": [
      1913798163
    ],
    "millsfield:images_colors_refs": {
      "crayola": [
        {
          "hex": "#9f8170"
        },
        {
          "hex": "#efcdb8"
        },
        {
          "hex": "#714b23"
        }
      ],
      "css4": [
        {
          "hex": "#f5deb3"
        },
        {
          "hex": "#556b2f"
        },
        {
          "hex": "#808080"
        }
      ],
      "marekm4": [
        {
          "hex": "#e8dab2"
        },
        {
          "hex": "#a0946f"
        },
        {
          "hex": "#5d5334"
        }
      ]
    },
    "millsfield:images_texts": [
      "Tac\nHongkong Jan. 5, 1938\nDear Ma;\nhave just bought myself a Christmas present in the\nform of a baby portable type writer which has standard key-\nboard but weighs only eight pounds and fits in a brief case.\nWhat Hoboken is for the stage - you are for this gadget.\nThere have been many changes in the whole Chinese sit-\nuation as you can well imagine.\nOur business was at first en-\ntirely disrupted and the future looked decidedly dark. Now we\nhave been able to work out a \"new deal\" and things are coming\nour way very nicely.\nThe Minister of Communications who was\nespecially hostile to us has been dismissed and in his place\nthere is a new man who is quite\nfriendly and cooperative. It\nappears also as though there will shortly be a change in the\nManaging Director of CNAC and that here again we shall get a\nmuch better man than we are now trying to work with.\nCNAC is now operating between Chungking - Hankow and\nHongkong with DC-2s (like the plane you flew in to Peiping)\nand we have just received some large new flying boats which\non the Yangstze between Hankow and Chungking.\nThere is a great deal of travel on the upper river now because\nthe Chinese governmental activities have all been moved to\nChungking.\nremain in China in charge of CNAC operations\nwith headquarters in Hongkong and if there is any China left\nwith our status more satisfactory than before the trouble start-\ned. Kitsie is in Washington but will shortly leave to join her\nI expect to return to Manila and Baguio by the hext\nwhich will also carry this letter.\nDebby thinks that\nperhaps you may have saved copies of some of my \"family letters\"\nwritten before you came out to China.\nIf you have any of these\nwill you please send them to me by airmail.\nOnly the ones you\nreceived prior to your own departure for the Orient. There are\nprobably only a fee such letters but I did not save copies and\nwill be very grateful if you can locate them either in your own\nfiles or possibly some member of the Bixby family may have a few\nput away somewhere.\nI think copies were sent to Arthur Hoskins\nand there was one letter on military avaiation which I sent to\nPhil Love with no copies to the family which I would also like\nto have.\nPerhaps you could call Phil (his initials are P.R.)\nand ask him if he can dig up that letter from his files.\nI personally feel that the war has not gone too badly\nfor the Chinese and that her only chance\nthe start was to\nmake the war so costly for the Japanese as to bring about a rev-\nolution in Japan. If the Japs had simply taken North China and\nmost of the sea ports, dug themselves in and then waited for the\nChinese to drive them out,\nthe latter would have had to attack -\na form of warfare with which they are not familiar - under con-\nditions wholly favorable to the Japanese.\nNow however the Japs\nfollowed the Chinese into\nthe interior where it is almost\nimpossible to maintain their service of supply, communications\nare difficult and long lines must be defended against guerilla\nattack - a form of warfare with which the Chinese are familiar\nand decidedly potent.\nIf the Chinese morale will just hold out\nfor another six months or so you may be surprised at the final\noutcome of the present hostilities.\nPlease do not go to too much trouble about the letters\nbut I will be very grateful if you can\nround up a few and\nthem to me by airmail to Baguio where I hope to remain for the\nnext few weeks after you receive this letter.\nLots of love and the best of joss for\n1938 and many more years to come!\nTaraci"
    ],
    "millsfield:images_texts_ids": [
      1913798163
    ],
    "millsfield:primary_image": 1913798163,
    "millsfield:subcategory_id": 1511213489,
    "mz:is_approximate": 1,
    "mz:is_current": 1,
    "sfomuseum:accession_number": "2019.121.1049",
    "sfomuseum:airline": "Pan American Airways",
    "sfomuseum:airline_id": [
      685
    ],
    "sfomuseum:category": "Employee Career History",
    "sfomuseum:classification_id": 195,
    "sfomuseum:collection": "Aviation Archive",
    "sfomuseum:creditline": "Collection of SFO Museum",
    "sfomuseum:date": "01/05/1938",
    "sfomuseum:date_acquired": "2019-11-22",
    "sfomuseum:daterange_end": "1938-01-05",
    "sfomuseum:daterange_start": "1938-01-05",
    "sfomuseum:description": "Typewritten letter from Harold M. Bixby to his mother, dated January 5, 1938 in Hong Kong; includes description of status of CNAC operations, [William L.] Bond’s position as head of CNAC operations based in Hong Kong, perspective on the war; mentions Kitsie Bond.",
    "sfomuseum:dimensions": "13 x 8 inches (33 x 20.3 cm)",
    "sfomuseum:medium": "paper, ink",
    "sfomuseum:object_id": 211412,
    "sfomuseum:placetype": "object",
    "sfomuseum:publication": ": , 01/05/1938.",
    "sfomuseum:subcategory": "Correspondence, Personal",
    "src:geom": "sfomuseum#undetermined",
    "wof:belongsto": [
      102527513,
      1159162825,
      102191575,
      85633793,
      102087579,
      85922583,
      85688637,
      1159160869
    ],
    "wof:country": "XY",
    "wof:created": 1714549093,
    "wof:depicts": [
      1159284991,
      1159286839
    ],
    "wof:geomhash": "c281b9d9eefc83b5710e64b9d646067d",
    "wof:hierarchy": [
      {
        "building_id": -1,
        "campus_id": 102527513,
        "collection_id": 1159162825,
        "concourse_id": 1159162825,
        "continent_id": 102191575,
        "country_id": 85633793,
        "county_id": 102087579,
        "custom_id": 1913796437,
        "locality_id": 85922583,
        "neighbourhood_id": -1,
        "object_id": 1913796437,
        "region_id": 85688637,
        "wing_id": 1159160869
      }
    ],
    "wof:id": 1913796437,
    "wof:lastmodified": 1787988220,
    "wof:name": "correspondence: Harold M. Bixby to his mother",
    "wof:parent_id": 1159162825,
    "wof:placetype": "custom",
    "wof:placetype_alt": [
      "object"
    ],
    "wof:repo": "sfomuseum-data-collection",
    "wof:superseded_by": [],
    "wof:supersedes": []
  },
  "bbox": [
    -122.38647222518921,
    37.6161053594541,
    -122.38583385944366,
    37.61661101879963
  ],
  "geometry": {"type":"Polygon","coordinates":[[[-122.38647222518921,37.61631782178288],[-122.386434674263,37.61623283692423],[-122.38637566566466,37.61617759671399],[-122.38630056381224,37.6161308549656],[-122.38616108894348,37.6161053594541],[-122.38602161407469,37.6161308549656],[-122.38591432571411,37.61618609521055],[-122.38585531711577,37.61626683087935],[-122.38583385944366,37.61636881265146],[-122.38587141036987,37.61646654505181],[-122.38594114780425,37.61654303118856],[-122.38605380058287,37.61660252035167],[-122.38618254661559,37.61661101879963],[-122.3863059282303,37.61657277577607],[-122.3864185810089,37.61650903735973],[-122.3864668607712,37.61641130501523],[-122.38647222518921,37.61631782178288]]]}
}
