{
  "id": 1511937269,
  "type": "Feature",
  "properties": {
    "date:cessation_lower": "1947-01-01",
    "date:cessation_upper": "1947-12-31",
    "date:inception_lower": "1947-01-01",
    "date:inception_upper": "1947-12-31",
    "edtf:cessation": "1947",
    "edtf:date": "1947",
    "edtf:inception": "1947",
    "geom:area": 0,
    "geom:bbox": "-122.386155,37.616357,-122.386155,37.616357",
    "geom:latitude": 37.616357,
    "geom:longitude": -122.386155,
    "iso:country": "XX",
    "millsfield:airline_id": [
      1159284949,
      1159284949
    ],
    "millsfield:category_id": 1511214223,
    "millsfield:collection_id": 1511214207,
    "millsfield:company_id": [
      1159287837
    ],
    "millsfield:images": [
      1527838061,
      1527850741
    ],
    "millsfield:images_colors_refs": {
      "crayola": [
        {
          "hex": "#414a4c"
        },
        {
          "hex": "#8a795d"
        },
        {
          "hex": "#dbd7d2"
        },
        {
          "hex": "#17806d"
        },
        {
          "hex": "#efcdb8"
        },
        {
          "hex": "#9f8170"
        }
      ],
      "css4": [
        {
          "hex": "#808080"
        },
        {
          "hex": "#2f4f4f"
        },
        {
          "hex": "#d3d3d3"
        },
        {
          "hex": "#ffb6c1"
        },
        {
          "hex": "#2e8b57"
        }
      ],
      "marekm4": [
        {
          "hex": "#197847"
        },
        {
          "hex": "#a08878"
        },
        {
          "hex": "#8c7668"
        },
        {
          "hex": "#e9c2b0"
        },
        {
          "hex": "#308656"
        },
        {
          "hex": "#3d4334"
        },
        {
          "hex": "#dcd5c1"
        }
      ]
    },
    "millsfield:images_texts": [
      "SUPPLEMENTAL TIME TABLE NO. 2, EFFECTIVE JULY 1, 1947\n(Supplements April 27, 1947 Flight Schedules)\nSouthwest\ndirways\nFlight\nSchedules\nONE OF AMERICA'S THIRTY\nGOVT. AUTHORIZED AIRLINES",
      "Southwest Airways\nLOS ANGELES - SAN FRANCISCO - SACRAMENTO VALLEY - MEDFORD\nNORTHBOUND - Down\nSOUTHBOUND - Up\n8t\n3\n11\n11\n2\nSOUTHERN DIVISION\n5\n7*\n30\nLy LOS ANGELES\nLv OXNARD-VENTURA\nLy SANTA BARBARA..\n48\nLv SANTA MARIA\n10\n11\nLv SAN LUIS OBISPO\n11\n07\nLv COALINGA (X)\nL MONTEREY\n11\n24\nLy SANTA CRUZ-WATSONVILLE\nLv SAN JOSE (MOFFETT FIELD\n8\n28*\n00\ncOcO\n46\n26\n00\n13\n34\n11\n47\n-12 02\nAr SAN FRANCISCO\n24\n12 50\u003c\n03\n22\nSACRAMENTO VALLEY DIVISION\n15\nLv SAN FRANCISCO\n28\nLv OAKLAND\nAr\nLV\nАг\nLV\n~NNO00O\n49\n9\nLv VALLEJO-NAPA\n17\nLv SACRAMENTO\n9\n41\nLv MARYSVILLE-YUBA CITY\n33333333\n33\n32\n06\n11\n42\n11\n15\n10 56\n6\n6\n9\n00\n21\n10\n32\n10\n20\n58\n23\n25\n10\n09\nLv CHICO\n10\n29\nRED BLUFF\n10 51\nL REDDING\n00\nLv\nTOMMANNH\n27*\n11\n18\n11\n08\n10\n10\n00\nDUNSMUIR (X)\n4 11\n11 36\nLV\nYREKA\n4 35\n12 00\nAr MEDFORD\n34\n32\nNORTHERN COAST DIVISION\n31\n12 30\n33\nAM —Light Face Type.\n30\n30\nLv SAN FRANCISCO\nAr\nPM-Bold Face Type.\n43\n43\nLv\nOAKLAND\nLV\nAll Times are Pacific\n10\n10\n10\nLv\nSANTA ROSA\nStandard.\n10\n37\n10\nLV\nUKIAH\n33\n59\nLv FORT BRAGG\nX-\n-Service temporarily\n57\nLv EUREKA\nLV\nNASHES\n27\n00\n*Operates Thurs., Fri., Sat.,\nSun.\n†Operates Fri., Sat., Sun.,\nMon.\ndelayed.\n50\n12\n50\nAr\nMEDFORD\nLv\n9\n30\nSCHEDULES show time at which planes may be expected to arrive or depart from stations, and to connect with other planes, but the company\nwill not be responsible for\nconsequences arising from delays or frem errors in the printed schedule.\nThe time shown is subject to change without notice.\nONE-WAY FARES\nAll fares subject to 15% Federal Transportation Tax\nJuly 1, 1947\nFares\nSubject to Change\nWithout Notice.\n-preuxo\nChico.\n15.40\n23.55\nCoalinga\n15.40\n20.80\n2.65\n14.10\n9.75\nEureka-Arcata\n20.80\nFort Bragg\n16.00\nLos Angeles\n5.55\n28.95\n16.00\n5.55\n24.15\n10.40\n22.70\n28.95\n6.70\n24.15\n12.25\nMarysville\nMedford(*)\nMonterey\nOxnard-Ventura\nRed Bluff\nRedding\nSacramento\nSan Francisco-Oakland(+)\nSan Jose\nSan Luis Obispo\nSanta Barbara\nSanta Cruz-Watsonville\nSanta Maria.\n23.55\n2.65\n9.75\n10.85\n22.50\n2.50\n2.95\n4.75\n6.85\n8.10\n17.60\n20.45\n9.95\n19.00\n10.40\n22.25\n30.85\n14.10\n22.25\n12.40\n22.70\n4.55\n8.10\n6.70\n16.25\n27.90\n12.25\n11.45\n23.10\n30.85\n13.15\n2.60\n15.40\n23.55\n16.65\n24.80\n12.00\n20.15\n8.55\n7.65\n3,35\n6.05\n5.80\n3.60\n12.25\n13.50\n23.00\n25.85\n15.35\n24.40\n9.65\n7.15\n7.45\n8.70\n18.20\n21.05\n10.55\n19.60\n4.10\n2.50\n16.70\n15.45\n8.20\n4.35\n14.40\n6.80\n12.40\n9.55\n21.20\n4.35\n5.60\n2.50\n5.55\n6.80\n16.30\n19.15\n8.65\n17.70\n18.15\n29.80\n8.05\n6.90\n14.15\n14.15\n15.40\n24.90\n27.75\n17.25\n26.30\nSanta Rosa\n11.90\n20.05\n14.15\nUkiah.\n14.40\n22.55\n13.85\nVallejo-Napa\n6.85\n10.95\n19.10\n4.55\n14.15\nYreka\n7.40\n21.10\n29.25\n10.05\n2.50\n10.85\n4.55\n16.25\n11.45\n13.15\n9.55\n18.15\n11.70\n10.85\n12.10\n7.45\n4.00\n3.10\n6.75\n9.65\n2.50\n8.15\n7.35\n9.85\n6.40\n16.55\n22.50\n8.10\n27.90\n23.10\n2.60\n21.20\n29.80\n11.70\n2.50\n15.40\n2.95\n16.65\n4.75\n12.00\n22.50\n23.75\n19.10\n15.65\n14.80\n5.90\n2.50\n12.95\n4.50\n19.00\n21.50\n18.05\n28.20\n23.55\n4.35\n8.05\n10.85\n22.50\n2.50\n6.45\n6.85\n8.10\n17.60\n20.45\n9.95\n19.00\n24.80\n5.60\n6.90\n12.10\n23.75\n$ 2.50\n7.70\n8.10\n9.35\n18.85\n21.70\n11.20\n20.25\n20.15\n2.50\n14.15\n7.45\n19.10\n6.45\n7.70\n3.45\n4.70\n14.20\n17.05\n6.55\n15.60\n6.85\n5.70\n8.10\n4.45\n2.50\n12.15\n6.85\n8.55\n12.25\n7.45\n16.70\n5.55\n14.15\n4.00\n15.65\n6.85\n8.10\n3.45\n2.50\n10.75\n13.60\n3.10\n12.15\n3.35\n5.85\n2.50\n12.55\nFares apply from airport to airport via SWA direct routing unless indicated otherwise.\n(*) Between Medford and points south of and including San Francisco-Oakland, fares apply SWA via Sacramento or Santa Rosa\n8.10\n7.65\n13.50\n8.70\n15.45\n6.80\n15.40\n3.10\n14.80\n8.10\n9.35\n4.70\n2.50\n9.85\n12.75\n2.50\n11.25\n4.60\n7.10\n3.65\n13.80\n17.60\n3.35\n23.00\n18.20\n8.20\n16.30\n24.90\n6.75\n5.90\n17.60\n18.85\n14.20\n10.75\n9.85\n3.85\n8.00\n2.50\n14.10\n16.60\n13.15\n23.30\n20.45\n6.05\n25.85\n21.05\n4.35\n19.15\n27.75\n9.65\n2.50\n20.45\n21.70\n17.05\n13.60\n12.75\n3.85\n10.90\n2.50\n16.95\n19.45\n16.00\n26.15\n9.95\n5.80\n15.35\n10.55\n14.40\n8.65\n17.25\n2.50\n12.95\n9.95\n11.20\n6.55\n3.10\n2.50\n8.00\n10.90\n9.40\n6.45\n8.95\n5.50\n15.65\n19.00\n3.60\n6.85\n10.95\n7.40\n21.10\n24.40\n19.60\n6.80\n11.90\n9.65\n4.10\n20.05\n14.40\n7.15\n2.50\n22.55\n17.70\n26.30\n8.15\n4.50\n14.15\n7.35\n19.00\n13.85\n9.85\n21.50\n19.00\n20.25\n15.60\n12.15\n11.25\n2.50\n2.50\n9.40\n15.50\n18.00\n3.35\n4.60\n14.10\n16.95\n6.45\n15.50\n2.50\n5.85\n7.10\n16.60\n19.45\n8.95\n18.00\n2.50\n19.10\n4.55\n14.15\n6.40\n18.05\n6.85\n8.10\n2.50\n2.50\n3.65\n13.15\n16.00\n5.50\n14.55\n29.25\n10.05\n2.50\n16.55\n28.20\n5.70\n4.45\n12.15\n12.55\n13.80\n23.30\n26.15\n15.65\n24.70\n14.55\n12.55\n24.70\n12.55\n(t) San Francisco to Oakland fare $2.50"
    ],
    "millsfield:images_texts_ids": [
      1527838061,
      1527850741
    ],
    "millsfield:primary_image": 1527838061,
    "millsfield:subcategory_id": 1511213425,
    "mz:hierarchy_label": 1,
    "mz:is_current": 1,
    "sfomuseum:accession_number": "2005.132.047.001",
    "sfomuseum:airline": "Southwest Airways",
    "sfomuseum:airline_id": [
      666,
      666
    ],
    "sfomuseum:category": "Scheduling / Ticketing",
    "sfomuseum:classification_id": 158,
    "sfomuseum:collection": "Aviation Archive",
    "sfomuseum:creditline": "Gift of the William Hough Collection",
    "sfomuseum:date": "1947",
    "sfomuseum:date_acquired": "2006-12-05",
    "sfomuseum:daterange_end": "1947-12-31",
    "sfomuseum:daterange_start": "1947-01-01",
    "sfomuseum:description": "Timetable issued by Southwest Airways, effective July 1, 1947; two page double-sided fold-out; green and white cover with illustration of an airplane in flight over a map of California.",
    "sfomuseum:dimensions": "9 x 4 inches (22.9 x 10.2 cm)",
    "sfomuseum:media_ids": [
      1527838061,
      1527850741
    ],
    "sfomuseum:medium": "paper, ink",
    "sfomuseum:object_id": 98198,
    "sfomuseum:placetype": "object",
    "sfomuseum:primary_media_id": 1527838061,
    "sfomuseum:publication": ": , 1947.",
    "sfomuseum:subcategory": "Timetable",
    "src:geom": "sfomuseum#undetermined",
    "wof:belongsto": [
      1511214223,
      102527513,
      102191575,
      85633793,
      1511213425,
      85922583,
      102087579,
      1511214277,
      1511214207,
      85688637
    ],
    "wof:breaches": [],
    "wof:country": "XX",
    "wof:created": 1579906674,
    "wof:depicts": [
      1159284949,
      1159287837
    ],
    "wof:geomhash": "30c8a918561c84bb2daa2b97fc7c5353",
    "wof:hierarchy": [
      {
        "arcade_id": 1511213425,
        "building_id": 1511214277,
        "campus_id": 102527513,
        "concourse_id": 1511214223,
        "continent_id": 102191575,
        "country_id": 85633793,
        "county_id": 102087579,
        "custom_id": 1511937269,
        "locality_id": 85922583,
        "neighbourhood_id": -1,
        "object_id": 1511937269,
        "region_id": 85688637,
        "venue_id": 1511937269,
        "wing_id": 1511214207
      }
    ],
    "wof:id": 1511937269,
    "wof:lastmodified": 1787988183,
    "wof:name": "timetable: Southwest Airways",
    "wof:parent_id": 1159162825,
    "wof:placetype": "custom",
    "wof:placetype_alt": [
      "object"
    ],
    "wof:repo": "sfomuseum-data-collection",
    "wof:superseded_by": [],
    "wof:supersedes": [],
    "wof:tags": []
  },
  "bbox": [
    -122.386155,
    37.616357,
    -122.386155,
    37.616357
  ],
  "geometry": {"type":"Point","coordinates":[-122.386155,37.616357]}
}
