{
  "id": 1511951167,
  "type": "Feature",
  "properties": {
    "date:cessation_lower": "1941-01-01",
    "date:cessation_upper": "1941-12-31",
    "date:inception_lower": "1941-01-01",
    "date:inception_upper": "1941-12-31",
    "edtf:cessation": "1941",
    "edtf:date": "1941",
    "edtf:inception": "1941",
    "geom:area": 0,
    "geom:bbox": "-122.386155,37.616357,-122.386155,37.616357",
    "geom:latitude": 37.616357,
    "geom:longitude": -122.386155,
    "iso:country": "XX",
    "millsfield:airline_id": [
      1159284991
    ],
    "millsfield:category_id": 1763416397,
    "millsfield:collection_id": 1511214207,
    "millsfield:company_id": [
      1159286839
    ],
    "millsfield:images": [
      1763388313
    ],
    "millsfield:images_colors_refs": {
      "crayola": [
        {
          "hex": "#6699cc"
        },
        {
          "hex": "#a5694f"
        },
        {
          "hex": "#fddde6"
        },
        {
          "hex": "#cd9575"
        },
        {
          "hex": "#414a4c"
        }
      ],
      "css4": [
        {
          "hex": "#6495ed"
        },
        {
          "hex": "#faf0e6"
        },
        {
          "hex": "#2f4f4f"
        },
        {
          "hex": "#a0522d"
        },
        {
          "hex": "#bdb76b"
        }
      ],
      "marekm4": [
        {
          "hex": "#6993c6"
        },
        {
          "hex": "#cfa55e"
        },
        {
          "hex": "#483b40"
        },
        {
          "hex": "#eeede5"
        },
        {
          "hex": "#9f654d"
        }
      ]
    },
    "millsfield:images_texts": [
      "THE\nDATUKUHY EVENING\nPOSa\nNovember 22, 1941\nTHE SATURDAY EVENING POST\nAMERICA'S NEW\nLIFELINE TO AFRICA\nNorth America\nAfrica\nPouth America\nPAN AMERICAN AIRWAYS-AFRICA\nON AuGuST 18 President Roosevelt\nannounced plans for the world's\nmost ambitious airways project.\nIt called for two things: First, a\nnew air transport service from\nthe U.S. to Africa and on across\nthe Dark Continent to Egypt. Sec-\nond, a new aerial \"ferry service\"\nlinked with that system, delivering\nmilitary planes to the Middle East.\nThis gigantic task was entrusted\nto Pan American Airways. The new\nairline spans 11,898 miles of ocean,\njungle and desert. Normally its\nbuilding would have taken years.\nActually, Pan American got opera-\ntions going in 60 days!\nThe White House statement on\nthis undertaking reads in part:\n\"The ferry system and the trans-\nport service provide direct and\nspeedy delivery of aircraft from the\n\"arsenal of democracy' to a critical\npoint in the front against addres-\nsion. The importance of this direct\nline of communications between\nour country and stratedic outposts\nin Africa cannot be overestimated.\"\nPioneering is an old story to Pan\nAmerican. A story made familiar\nthrough building 75,000 miles of\naerial routes throughout Latin\nAmerica, over the Pacific to China\nand New Zealand, up to Alaska\nand across the North Atlantic.\nCooperating with Uncle Sam and\nwith our friendly neighbor nations\nis also nothing new. For example, in\nrecent months Pan American took\nover thousands of miles of Nazi-\ncontrolled airlines in South Amer-\nica. Urgent defense needs were\nalso met in linking Singapore and\nManila by Clipper; in building and\nenlarging scores of airports.\nOne thing is sure. America's need\nof an efficient strongly-welded in-\nternational air transport service\nwill he even greater tomorrow than\nit is today-for both commerce and\ndefense. And you can be certain\nthat \"America's Merchant Marine\nof the Air\" will continue to antici-\npate the future and be ready with\nthe necessary personnel, facilities,\nand experience.\nAMERICA'S MERCHANT MARINE OF THE AIR\nPAN AMERICAN AIRWAYS SYSTEM\nPAA"
    ],
    "millsfield:images_texts_ids": [
      1763388313
    ],
    "millsfield:primary_image": 1763388313,
    "millsfield:subcategory_id": 1511213149,
    "mz:hierarchy_label": 1,
    "mz:is_current": 1,
    "sfomuseum:accession_number": "2001.038.164.013",
    "sfomuseum:airline": "Pan American Airways",
    "sfomuseum:airline_id": [
      685
    ],
    "sfomuseum:category": "Promotional, Archive",
    "sfomuseum:classification_id": 6,
    "sfomuseum:collection": "Aviation Archive",
    "sfomuseum:creditline": "Gift of Barnaby Conrad III",
    "sfomuseum:date": "1941",
    "sfomuseum:date_acquired": "2003-05-16",
    "sfomuseum:daterange_end": "1941-12-31",
    "sfomuseum:daterange_start": "1941-01-01",
    "sfomuseum:description": "Two-page advertisement from November 22, 1941 issue of Saturday Evening Post promoting Pan American Airways System, titled “America’s New Lifeline to Africa”; color illustration depicting aircraft engine hoisted by crane on African port; Boeing 314 in flight overhead.",
    "sfomuseum:dimensions": "13 3/4 x 21 inches (34.9 x 53.3 cm)",
    "sfomuseum:medium": "paper, ink",
    "sfomuseum:object_id": 122715,
    "sfomuseum:placetype": "object",
    "sfomuseum:publication": ": , 1941.",
    "sfomuseum:subcategory": "Advertisement, 2D",
    "sfomuseum:subject": "Pan Am promotional advertisement",
    "src:geom": "sfomuseum#undetermined",
    "wof:belongsto": [
      1511214205,
      102527513,
      102191575,
      85633793,
      1511213149,
      85922583,
      102087579,
      1511214277,
      1511214207,
      85688637
    ],
    "wof:breaches": [],
    "wof:country": "XX",
    "wof:created": 1618962245,
    "wof:depicts": [
      1159285809,
      1159286839,
      1159284991
    ],
    "wof:geomhash": "30c8a918561c84bb2daa2b97fc7c5353",
    "wof:hierarchy": [
      {
        "arcade_id": 1511213149,
        "building_id": 1511214277,
        "campus_id": 102527513,
        "concourse_id": 1511214205,
        "continent_id": 102191575,
        "country_id": 85633793,
        "county_id": 102087579,
        "custom_id": 1511951167,
        "locality_id": 85922583,
        "neighbourhood_id": -1,
        "object_id": 1511951167,
        "region_id": 85688637,
        "venue_id": 1511951167,
        "wing_id": 1511214207
      }
    ],
    "wof:id": 1511951167,
    "wof:lastmodified": 1787988188,
    "wof:name": "advertisement: Pan American Airways System, Saturday Evening Post",
    "wof:parent_id": 1159162825,
    "wof:placetype": "custom",
    "wof:placetype_alt": [
      "object"
    ],
    "wof:repo": "sfomuseum-data-collection",
    "wof:superseded_by": [],
    "wof:supersedes": [],
    "wof:tags": []
  },
  "bbox": [
    -122.386155,
    37.616357,
    -122.386155,
    37.616357
  ],
  "geometry": {"type":"Point","coordinates":[-122.386155,37.616357]}
}
