{
  "id": 1511909727,
  "type": "Feature",
  "properties": {
    "date:cessation_lower": "1981-01-01",
    "date:cessation_upper": "1981-12-31",
    "date:inception_lower": "1981-01-01",
    "date:inception_upper": "1981-12-31",
    "edtf:cessation": "1981",
    "edtf:date": "1981",
    "edtf:inception": "1981",
    "geom:area": 0,
    "geom:bbox": "-122.386155,37.616357,-122.386155,37.616357",
    "geom:latitude": 37.616357,
    "geom:longitude": -122.386155,
    "iso:country": "US",
    "millsfield:airline_id": [
      1159285413
    ],
    "millsfield:category_id": 1511214223,
    "millsfield:collection_id": 1511214207,
    "millsfield:company_id": [
      1159288779
    ],
    "millsfield:images": [
      1527838831
    ],
    "millsfield:images_colors_refs": {
      "crayola": [
        {
          "hex": "#efdecd"
        },
        {
          "hex": "#ff2b2b"
        },
        {
          "hex": "#324ab2"
        }
      ],
      "css4": [
        {
          "hex": "#dcdcdc"
        },
        {
          "hex": "#483d8b"
        },
        {
          "hex": "#b22222"
        }
      ],
      "marekm4": [
        {
          "hex": "#e7ddca"
        },
        {
          "hex": "#203da5"
        },
        {
          "hex": "#cf1417"
        }
      ]
    },
    "millsfield:images_texts": [
      "/ UNITED AIRLINES\nCumberland Airlines\nPittsburgh\nEffective July 2, 1981\nLeave\nArrive\nFlight\nService Via\nTo Baltimore, Md. (EDT)\n8:40p\n9:28p\n486\nFrom Baltimore, Md. (EDT)\n766-7600\n8:15a\n9:06a\n451\nTo Boise, Id. (MDT)\n8:00a\n11:49a\n11:45a\n5:10p\n3:30p\n5:40p\n9:15p\n10:52p\n175 / 587\n593 / 919\n223 / 289\n821 / 233\nX\nX\nFrom Boise, Id. (MDT)\nDen\n342-2781\n8:50a\n9:20a\n4:15p\n2:00p\n4:43p\n9:25p\n3:00p\n10:36p\n726\n336 / 766\n798 / 228\n300 / 770\nXXXX|\nTo Buffalo, /\nNiagara Falls N.Y. (EDT)\n5:30p\n6:12p\n498\nFrom Buffalo, /\n856-2900\nNiagara Falls N.Y. (EDT)\n8:35a\n9:23a\n539\nTo Cancun, Mx. (CST)\n8:35a\n8:35a\n12:30p\n211 / 41\nChi\n8:35a\n12:30p\n211 / 39\nChi\n8:35a\n1:35p\n1:35p\n211 / 65\nChi\n211 / 45\nChi\nFrom Cancun, Mx. (CST)\n3-00-99\n1:05p\n10:36p\n41/770: 7X\n1:10p\n10:36p\n39 / 770\n2:20p\n10:36p\n7X\nChi\n2:25p\n45 / 770\n10:36p\n65 / 770\nTo Cedar Rapids/\nlowa City, la. (CDT)\n11:45a\n1:44p\n8:15p\n10:25p\n593 / 365\n401 / 589\nFrom Cedar Rapids/\nlowa City, la. (CDT)\n7:00a\n3:15p\n10:58a\n7:17p\n364-2481\n1-800-323-8711\n918 / 556\nChi\n880 / 408\nChi\nTo Chicago, III. (CDT)\n8:35a\n9:03a (0)\n211\n11:45a\n12:09p (0)\n2:31p\n3:00p (0)\n593\n5:10p\n5:36p (0)\n435\n223\n8:15p\n8:36p (0)\n401\nFrom Chicago, III. (CDT)\n569-3000\n8:40a (O) 10:58a\n11:30a (0)\n1:48p\n556\n484\n2:25p (0)\n4:43p\n766\n4:59p (0) (\n7:17 p\n408\n8:15p (0) 10:36p\n770\n0000\nTo Cleveland, O. (EDT)\n7:05a\n7:43a\n9:55a\n4:45p\n2:50p\n5:25p\n621\n763\n822\nLeave\nArrive\nFlight\nService Via\nFrom Cleveland, O. (EDT)\n8:50a\n6:15p\n9:29a\n6:54p\n973\n444\nTo Cozumel, Mx. (CST)\n8:35a\n12:35p\n211 / 45\n8:35a\n12:35p\n211 / 65\n8:35a\n1:35p\n211 / 39\nFrom Cozumel, Mx. (CST)\n1:10p\n1:10p\n10:36p\n65\n/ 770\n2:15p\n10:36p\n45\n/ 770\n10:36p\n39 / 770\nTo Denver,\nColo. (MDT)\n8:00a\n9:10a\n175\n8:35a\n11:49a\n211 / 263\n11:45a\n2:30p\n2:31p\n5:40p\n5:10p\n593 / 463\n435 / 205\n8:15p\n6:50p\n821\n10:58p\n401 / 237\nFrom Denver,\nColo. (MDT)\n7:35a\n1:48p\n280 / 484\n11:20a\n4:15p\n726\n11:35a\n12:50p\n6:54p\n642 / 444\n4:35p\n7:17p\n240 / 408\n9:25p\n228\nTo Des Moines, la. (CDT)\n11:45a\n2:31p\n2:04p\n593 / 899\n5:10p\n4:55p\n435\n8:15p\n7:41 p\n223 / 651\n10:37 p\n401 / 969\n356-1311\nChi\nChi\nChi\n2-09-99\nChi\nChi\nChi\nChi\nChi\n: • Chi\n* Chi\n398-4141\n7 X• Chi\nX\nX\n0\nX\n• Chi\nX\nChi\n• Chi\nFrom Des Moines, la. (CDT)\n6:45a\n10:58a\n9:40a\n3:00p\n1:48p\n5:55p\n7:17p\n10:36p\n568 / 556\n254 / 484\n544 / 408\n778 / 770\nTo Eugene, Ore. (PDT)\n8:00a\n9:15a\n11:50a\n2:31p\n4:22p\n8:05p\n288-6011\n* Chi\nChi\nChi\nChi\n175 / 953\n473 / 510\n435 / 129\n518\nFrom Eugene, Ore. (PDT)\n6:38a\n7:17p\n408\n12:40p\n5:00p\n9:25p\n7:15a\n564 / 228\n525 / 66\n824\nTo Fort Lauderdale, Fla.\nHollywood /Miami (EDT)\n10:10a\n12:29p\n539\nFrom Fort Lauderdale, Fla.\nHollywood /Miami (EDT)\n2:25p\n4:50p\n498\nTo Fort Myers, Fla. (EDT)\n9:55a\n1:27p\n763 / 684\n§\n342-5353\n875 / 126 S Y X* Sto\n/Chi\nDen\nSto\n/Lax\n7X\n0\n525-7321\n377-3461\nY=\n7X Mco"
    ],
    "millsfield:images_texts_ids": [
      1527838831
    ],
    "millsfield:primary_image": 1527838831,
    "millsfield:subcategory_id": 1511213425,
    "mz:hierarchy_label": 1,
    "mz:is_current": 1,
    "sfomuseum:accession_number": "1999.047.452",
    "sfomuseum:airline": "United Airlines",
    "sfomuseum:airline_id": [
      883
    ],
    "sfomuseum:category": "Scheduling / Ticketing",
    "sfomuseum:classification_id": 158,
    "sfomuseum:collection": "Aviation Archive",
    "sfomuseum:continent": "North America",
    "sfomuseum:country": "United States",
    "sfomuseum:creditline": "Gift of United Airlines Archives",
    "sfomuseum:date": "1981",
    "sfomuseum:date_acquired": "2000-05-11",
    "sfomuseum:daterange_end": "1981-12-31",
    "sfomuseum:daterange_start": "1981-01-01",
    "sfomuseum:description": "Joint quick reference timetable issued by United Airlines and Cumberland Airlines for service to and from Pittsburgh, effective July 2, 1981; tri-fold format.",
    "sfomuseum:dimensions": "9 x 4 inches (22.9 x 10.2 cm)",
    "sfomuseum:media_ids": [
      1527838831
    ],
    "sfomuseum:medium": "paper, ink",
    "sfomuseum:object_id": 49806,
    "sfomuseum:placetype": "object",
    "sfomuseum:primary_media_id": 1527838831,
    "sfomuseum:publication": ": , 1981.",
    "sfomuseum:subcategory": "Timetable",
    "src:geom": "sfomuseum#undetermined",
    "wof:belongsto": [
      1511214223,
      102527513,
      102191575,
      85633793,
      1511213425,
      85922583,
      102087579,
      1511214277,
      1511214207,
      85688637,
      136253057
    ],
    "wof:breaches": [],
    "wof:country": "US",
    "wof:created": 1579906676,
    "wof:depicts": [
      1159285413,
      1159288779
    ],
    "wof:geomhash": "30c8a918561c84bb2daa2b97fc7c5353",
    "wof:hierarchy": [
      {
        "arcade_id": 1511213425,
        "building_id": 1511214277,
        "campus_id": 102527513,
        "concourse_id": 1511214223,
        "continent_id": 102191575,
        "country_id": 85633793,
        "county_id": 102087579,
        "custom_id": 1511909727,
        "locality_id": 85922583,
        "neighbourhood_id": -1,
        "object_id": 1511909727,
        "region_id": 85688637,
        "venue_id": 1511909727,
        "wing_id": 1511214207
      },
      {
        "continent_id": 102191575,
        "country_id": 85633793,
        "custom_id": 1511909727,
        "empire_id": 136253057,
        "object_id": 1511909727,
        "venue_id": 1511909727
      }
    ],
    "wof:id": 1511909727,
    "wof:lastmodified": 1787988176,
    "wof:name": "timetable: United Airlines and Cumberland Airlines, Pittsburgh",
    "wof:parent_id": 1159162825,
    "wof:placetype": "custom",
    "wof:placetype_alt": [
      "object"
    ],
    "wof:repo": "sfomuseum-data-collection",
    "wof:superseded_by": [],
    "wof:supersedes": [],
    "wof:tags": []
  },
  "bbox": [
    -122.386155,
    37.616357,
    -122.386155,
    37.616357
  ],
  "geometry": {"type":"Point","coordinates":[-122.386155,37.616357]}
}
