{
  "id": 1511952193,
  "type": "Feature",
  "properties": {
    "date:cessation_lower": "1989-01-01",
    "date:cessation_upper": "1989-12-31",
    "date:inception_lower": "1989-01-01",
    "date:inception_upper": "1989-12-31",
    "edtf:cessation": "1989",
    "edtf:date": "1989",
    "edtf:inception": "1989",
    "geom:area": 0,
    "geom:bbox": "-122.386155,37.616357,-122.386155,37.616357",
    "geom:latitude": 37.616357,
    "geom:longitude": -122.386155,
    "iso:country": "XX",
    "millsfield:airline_id": [
      1159283813,
      1159284505
    ],
    "millsfield:category_id": 1511214223,
    "millsfield:collection_id": 1511214207,
    "millsfield:company_id": [
      1159287275
    ],
    "millsfield:images": [
      1527847427
    ],
    "millsfield:images_colors_refs": {
      "crayola": [
        {
          "hex": "#d68a59"
        },
        {
          "hex": "#000000"
        },
        {
          "hex": "#1a4876"
        },
        {
          "hex": "#9c2542"
        },
        {
          "hex": "#dbd7d2"
        }
      ],
      "css4": [
        {
          "hex": "#d3d3d3"
        },
        {
          "hex": "#191970"
        },
        {
          "hex": "#b22222"
        },
        {
          "hex": "#daa520"
        }
      ],
      "marekm4": [
        {
          "hex": "#c19e31"
        },
        {
          "hex": "#a8320f"
        },
        {
          "hex": "#d9d8d3"
        },
        {
          "hex": "#0b1a3f"
        },
        {
          "hex": "#0b3a93"
        }
      ]
    },
    "millsfield:images_texts": [
      "ME TABLE\nAlaska\nAirlines\nEFFECTIVE DECEMBER 15, 1989\nINCLUDES HORIZON AIR\nSTOP PRESS\nWhy our readers voted Alaska best U.S. airline\nBy Aaron Sugarman\nHEN A LOYAL ALAS-\nWis Arines emer\nple are tired of generic air-\nlines, \"\nsays Bill Mak\nHOW TO\ny's roots back to\npassed away while out\nvice preside\nRENT A\nirways, which began\ningle-engine Stinson\nof town, his widow had the\n••po\nairline ship the coffin withd\nCondé Nast\nraveler\nanchorage and Bris-\n932. \"We grew up\ntradition of bush\nsays.\nfactor is getting\ntain as the air-\nough many of\nhe up through\nequivalent of abou\nweeks\"\nadditional pay\nthe program.\nKennedy also stays ck\nhis airline's service by ir\ning that actual in-flight col\nclass food be served to\nand his senior executives\ning their weekly meeting.\nCustomer complaints\ndealt with by Tim Orkins.\nrector of consumer affai\n\"We're the crisis-resoluti\nBASI\nunit. All we do is work\ncomplaints.\" he says\nHe receives 3,000 customer\nsurvey forms and as many a\n1,400 letters every month-\nand he responds to each one\nApologies are regularly ac-\n100\nBest hotels,\nairlines,\nresorts,\ncities,\ncruise lines\ncompanied by compensation.\neither in cash or credit toward\nfuture flights. Orkins says,\n*The question is: What is it\nworth to get somebody back\nafter you've upset them? Our\nfeeling is, it's worth being\ngenerous because it pays off in\nrate of return.\nSome Alaskans grumble\nthat the airline can afford to\nbe generous because its fares\nithin the state are high. But\nosters laud its commitment\nfar-flung Alaskan commu-\nes and high-profile flights\nthe Soviet Far East.\nJune 1988 the airline\ncqu\ncom Nome to the Soviet\nProvideniya, a dis-\nbook\nof only 260 miles.\ntendar\nhe Friendship Flight.\nand cu\ncompla.\npartial.,\nThoug\nperks is ee\nbeen a fina\nnearly\n1972. It has\nSECOND ANNUAL READERS CHOICE AWARDS\nd Alaskan natives\nSoviet relatives af-\nGuess which American city did well!)\nyear separation and\nbroke the ice curtain.\nman-\nDespite being on what\nmedy conducts a\nKennedy describes as a bear\nnour rap session.\n\"I've\nhug basis\"\nwith local Soviet\n16 consecuti\ngot a thick skin. Things can\nofficials. Alaska Airlines has\nmove vic-\nget very critical or emotional.\nyet to res\nbigger compe\nmedical emergencies\nbut we leave with a hot\nfered losses or\nfrom remote areas to appro\npost deregulation\nAlaska Airlin\nAlaska Airlines voted \"Best Airline in the United States\"\nby readers of Conde Nast Traveler Magazine."
    ],
    "millsfield:images_texts_ids": [
      1527847427
    ],
    "millsfield:primary_image": 1527847427,
    "millsfield:subcategory_id": 1511213425,
    "mz:hierarchy_label": 1,
    "mz:is_current": 1,
    "sfomuseum:accession_number": "2012.149.0117",
    "sfomuseum:airline": "Alaska Airlines",
    "sfomuseum:airline_id": [
      153,
      465
    ],
    "sfomuseum:category": "Scheduling / Ticketing",
    "sfomuseum:classification_id": 158,
    "sfomuseum:collection": "Aviation Archive",
    "sfomuseum:creditline": "Gift of the Captain John B. Russell Family",
    "sfomuseum:date": "1989",
    "sfomuseum:date_acquired": "2013-05-31",
    "sfomuseum:daterange_end": "1989-12-31",
    "sfomuseum:daterange_start": "1989-01-01",
    "sfomuseum:description": "Timetable issued by Alaska Airlines, including Horizon Air, effective December 15, 1989; blue cover with color photographic image of a magazine article and text “Alaska Airlines voted Best Airline in the United States.”",
    "sfomuseum:dimensions": "8 1/2 x 4 inches (21.6 x 10.2 cm)",
    "sfomuseum:media_ids": [
      1527847427
    ],
    "sfomuseum:medium": "paper, ink, metal",
    "sfomuseum:object_id": 132563,
    "sfomuseum:placetype": "object",
    "sfomuseum:primary_media_id": 1527847427,
    "sfomuseum:publication": ": , 1989.",
    "sfomuseum:subcategory": "Timetable",
    "src:geom": "sfomuseum#undetermined",
    "wof:belongsto": [
      1511214223,
      102527513,
      102191575,
      85633793,
      1511213425,
      85922583,
      102087579,
      1511214277,
      1511214207,
      85688637
    ],
    "wof:breaches": [],
    "wof:country": "XX",
    "wof:created": 1579906670,
    "wof:depicts": [
      1159283813,
      1159287275,
      1159284505
    ],
    "wof:geomhash": "30c8a918561c84bb2daa2b97fc7c5353",
    "wof:hierarchy": [
      {
        "arcade_id": 1511213425,
        "building_id": 1511214277,
        "campus_id": 102527513,
        "concourse_id": 1511214223,
        "continent_id": 102191575,
        "country_id": 85633793,
        "county_id": 102087579,
        "custom_id": 1511952193,
        "locality_id": 85922583,
        "neighbourhood_id": -1,
        "object_id": 1511952193,
        "region_id": 85688637,
        "venue_id": 1511952193,
        "wing_id": 1511214207
      }
    ],
    "wof:id": 1511952193,
    "wof:lastmodified": 1787988188,
    "wof:name": "timetable: Alaska Airlines, includes Horizon Air",
    "wof:parent_id": 1159162825,
    "wof:placetype": "custom",
    "wof:placetype_alt": [
      "object"
    ],
    "wof:repo": "sfomuseum-data-collection",
    "wof:superseded_by": [],
    "wof:supersedes": [],
    "wof:tags": []
  },
  "bbox": [
    -122.386155,
    37.616357,
    -122.386155,
    37.616357
  ],
  "geometry": {"type":"Point","coordinates":[-122.386155,37.616357]}
}
