{
  "id": 1913795385,
  "type": "Feature",
  "properties": {
    "date:cessation_lower": "1937-04-05",
    "date:cessation_upper": "1937-04-05",
    "date:inception_lower": "1937-04-05",
    "date:inception_upper": "1937-04-05",
    "edtf:cessation": "1937-04-05",
    "edtf:inception": "1937-04-05",
    "geom:area": 2.475047457570636e-7,
    "geom:bbox": "-122.386472,37.616105,-122.385834,37.616611",
    "geom:latitude": 37.61635747477365,
    "geom:longitude": -122.38615540108617,
    "millsfield:airline_id": [
      1159284991
    ],
    "millsfield:category_id": 1511214251,
    "millsfield:collection_id": 1511214207,
    "millsfield:company_id": [
      1159286839
    ],
    "millsfield:images": [
      1913799841,
      1913799845
    ],
    "millsfield:images_colors_refs": {
      "crayola": [
        {
          "hex": "#fddde6"
        },
        {
          "hex": "#edd19c"
        },
        {
          "hex": "#714b23"
        },
        {
          "hex": "#deaa88"
        },
        {
          "hex": "#f8d568"
        }
      ],
      "css4": [
        {
          "hex": "#f0e68c"
        },
        {
          "hex": "#f5f5dc"
        },
        {
          "hex": "#556b2f"
        },
        {
          "hex": "#deb887"
        }
      ],
      "marekm4": [
        {
          "hex": "#f3efdc"
        },
        {
          "hex": "#d6c678"
        },
        {
          "hex": "#e7d997"
        },
        {
          "hex": "#615d33"
        },
        {
          "hex": "#635f2d"
        },
        {
          "hex": "#ddcb71"
        }
      ]
    },
    "millsfield:images_texts": [
      "aprie 5\nDearst Deles\nHis brickday was a guat\nsucero. This morning I made a\nAngu human effort and sprang(?)\nont of bed at 7 a.m while\nthe grad her presents, the was\ndelighted wilk Everything - in surnth\nhear\nn or the watch.\nShe played\nwith the other kids wint to her\ntap dancing class and I came home\nfor lunch. This afternoon the had\nall the lids for a parts and was\nawfull her self higtect on\nawfull cuts. the made out the place\nand arranged the\ntable\nwith\nher right\nand thr Canning on her left. a\nwas at\nthe othe ind of the\ntable with Shirley\non my rigat\nand her raise on the left - ther\nMe Norton on one side\nand this\nN. on the attir next to Lisbeth.\nAlso on my\nept this England and\nbiturn thr. N and Mr. C. She had\nSat - the lille fat gie who was\nkids lord\nBor jun gor bangle for there cand\ncomm\non consent snos snapt\nwis snapped son account of\nbecaut higtalk is frigntence of\nnorses -\nsome\nCon\ncrason for\nkids\nbut\nNet suggested such.",
      "a produce and all the this\nreadil,\nfall in with the idea\nme and Mus N. une mos\nappreciater. they thought it was\nexterme, consckerate of Hite end\nin fact are both fret, soft on\no norget o in which regard\ngut remark they ans not\nalone.\nas the cars okes non-\nresident in stani for the moment\nwho also are a lit\nsoft where\n- Hit is concernse.\n• The Alersons\nsint a buttday\narcater. and miss\nEngland provided a\nchoctlats one\nalso ice cream with chocolate\naftn tra the keido put\non an entrtainment. Big day.\nNia-mow at 8 P.m. is some\nasleep.\nI made her take a map\nthis afternoon and\nthank she're\nв ок..\nShe got ago fom the Nortons\na lot of sma\nle prenato from the\nAlisons (funny pappus its) Bax of\ncandy from the Bonds, etc.\nThe\nwrathn was pupect.\nEr statid work at the new\nTomorrow ur\nAra making some\nconting trips wilt the\nalso H- Vs\nS-H3 and Than asked Euryone at 96//\nlo 90. Also niChuns, gauss ete\nLate a lot y lour\n1,21,101"
    ],
    "millsfield:images_texts_ids": [
      1913799841,
      1913799845
    ],
    "millsfield:primary_image": 1913799841,
    "millsfield:subcategory_id": 1511213489,
    "mz:is_approximate": 1,
    "mz:is_current": 1,
    "sfomuseum:accession_number": "2019.121.1011",
    "sfomuseum:airline": "Pan American Airways",
    "sfomuseum:airline_id": [
      685
    ],
    "sfomuseum:category": "Employee Career History",
    "sfomuseum:classification_id": 195,
    "sfomuseum:collection": "Aviation Archive",
    "sfomuseum:creditline": "Collection of SFO Museum",
    "sfomuseum:date": "04/05/1937",
    "sfomuseum:date_acquired": "2019-11-22",
    "sfomuseum:daterange_end": "1937-04-05",
    "sfomuseum:daterange_start": "1937-04-05",
    "sfomuseum:description": "Handwritten letter from Harold M. Bixby to his wife, Debby Bixby, dated April 5, [1937]; includes brief description of starting at new office; mentions the [William L. and Kitsi] Bond, Ki Chun, and the Gausses [Ambassador Clarence Gauss?].",
    "sfomuseum:dimensions": "13 x 8 inches (33 x 20.3 cm)",
    "sfomuseum:medium": "paper, ink",
    "sfomuseum:object_id": 211374,
    "sfomuseum:placetype": "object",
    "sfomuseum:publication": ": , 04/05/1937.",
    "sfomuseum:subcategory": "Correspondence, Personal",
    "src:geom": "sfomuseum#undetermined",
    "wof:belongsto": [
      102527513,
      1159162825,
      102191575,
      85633793,
      102087579,
      85922583,
      85688637,
      1159160869
    ],
    "wof:country": "XY",
    "wof:created": 1714548777,
    "wof:depicts": [
      1159284991,
      1159286839
    ],
    "wof:geomhash": "c281b9d9eefc83b5710e64b9d646067d",
    "wof:hierarchy": [
      {
        "building_id": -1,
        "campus_id": 102527513,
        "collection_id": 1159162825,
        "concourse_id": 1159162825,
        "continent_id": 102191575,
        "country_id": 85633793,
        "county_id": 102087579,
        "custom_id": 1913795385,
        "locality_id": 85922583,
        "neighbourhood_id": -1,
        "object_id": 1913795385,
        "region_id": 85688637,
        "wing_id": 1159160869
      }
    ],
    "wof:id": 1913795385,
    "wof:lastmodified": 1787988219,
    "wof:name": "correspondence: Harold M. Bixby to Debby Bixby",
    "wof:parent_id": 1159162825,
    "wof:placetype": "custom",
    "wof:placetype_alt": [
      "object"
    ],
    "wof:repo": "sfomuseum-data-collection",
    "wof:superseded_by": [],
    "wof:supersedes": []
  },
  "bbox": [
    -122.38647222518921,
    37.6161053594541,
    -122.38583385944366,
    37.61661101879963
  ],
  "geometry": {"type":"Polygon","coordinates":[[[-122.38647222518921,37.61631782178288],[-122.386434674263,37.61623283692423],[-122.38637566566466,37.61617759671399],[-122.38630056381224,37.6161308549656],[-122.38616108894348,37.6161053594541],[-122.38602161407469,37.6161308549656],[-122.38591432571411,37.61618609521055],[-122.38585531711577,37.61626683087935],[-122.38583385944366,37.61636881265146],[-122.38587141036987,37.61646654505181],[-122.38594114780425,37.61654303118856],[-122.38605380058287,37.61660252035167],[-122.38618254661559,37.61661101879963],[-122.3863059282303,37.61657277577607],[-122.3864185810089,37.61650903735973],[-122.3864668607712,37.61641130501523],[-122.38647222518921,37.61631782178288]]]}
}
