{
  "id": 1511956621,
  "type": "Feature",
  "properties": {
    "date:cessation_lower": "1981-01-01",
    "date:cessation_upper": "1981-12-31",
    "date:inception_lower": "1981-01-01",
    "date:inception_upper": "1981-12-31",
    "edtf:cessation": "1981",
    "edtf:date": "1981",
    "edtf:inception": "1981",
    "geom:area": 0,
    "geom:bbox": "-122.386155,37.616357,-122.386155,37.616357",
    "geom:latitude": 37.616357,
    "geom:longitude": -122.386155,
    "iso:country": "XX",
    "millsfield:airline_id": [
      1159284989
    ],
    "millsfield:category_id": 1511214223,
    "millsfield:collection_id": 1511214207,
    "millsfield:company_id": [
      1159286839
    ],
    "millsfield:images": [
      1527853643
    ],
    "millsfield:images_colors_refs": {
      "crayola": [
        {
          "hex": "#9f8170"
        },
        {
          "hex": "#414a4c"
        },
        {
          "hex": "#eceabe"
        }
      ],
      "css4": [
        {
          "hex": "#fffacd"
        },
        {
          "hex": "#2f4f4f"
        },
        {
          "hex": "#808080"
        }
      ],
      "marekm4": [
        {
          "hex": "#3b3627"
        },
        {
          "hex": "#9f956e"
        },
        {
          "hex": "#fcf8cb"
        }
      ]
    },
    "millsfield:images_texts": [
      "•..\nORD\nJFK\nORD\nLHR\nBRU\nLHR\nFRA\nTXL\nDKR\nINB\nDXB\nDEL\nBOM\nBOM\nDEL\nABI\nLHR\nBRU\nERA\n\"ve\nJFK\nMIA\n- 5\n+2\n+1\n+2\n+2\n+2\n+4\n+54\n+54\nfours\nGMT\n+ 51\n+34\n+4\n+2\n+2\n41\n+2\n+2\nATLANTIC ALL-CARGO SERVICES\nCHICAGO, O'Hare...\nNEW YORK, J. F. Kennedy International\narr\ndep\nCHICAGO. O' Hare...\nLONDON Harthrow\nLONDON, Heathrow\nFRANKFURT...\nBERLIN, Tegel...\nDAKAR\nJOHANNESBURG, Jan Smute\nDUBAI\nDELHI\nBOMBAY\nWESTBOUND\nBOMBAY\nDELHI ..\nDUBAI\nJOHANNESBURG, Jan Smute\nABIDJAN\nDAKAR.\nBERLIN, Togel\nLONDON, Heathrow\nFRANKEURT\nLONDON, Hesthrow\narr\ndep\n... dep\ndep\ndep\ndep\ndep\narr\ndep\narr\ndeo\nNEW YORK. J, F. Kennedy International\nMIAMI\nWe\nTh\nwett\n160\nos os\n06 03\n04 00\n19 os\n20 35\n21'35\n21 35\n10'35\nMo\nFr\n13 50\n1830\n21'1s\n2055\n21 35\n20\n00'10\n08 00\nB5.\n88\n23 59\n04 45\n04 45\nMo\n*8\n11 20\n13 30\n183.\n23 59\n04 45\n21 33\n10\n14 43\nїї 00\n02 05\n04 45\n04 45\nTh\n14 45\nEFFECTIVE 01 JULY, 1981\n20 00\n23 04\n0600\n20 00\n23\n04\nWe Th\n23 50\n10 00\nöi 35\n02 35\n...\n23 30\n2200\n23 59\nsul\noi'30\n00's3\nHNL\nNAN\nSYD\nAKL\nSYD\nJFK\nMIA\nGUA\nMAR\nCCs\nEZE\nVCP\nEZE\nVCP\nPOS\nCCS\nMAR\nGUA\nMIA\nJFK\n• -7\n- 10\n+10\n+10\n- 6\nPACIFIC ALL-CARGO SERVICES\nWESTBOUND\nEASTBOUND\n74F\n18 45\n01 30\n82\n88\ndep NEW YORK, J.F. Kennedy international….\n**) LOS ANGELES\ner} MONOLULU .\n08 33\ndep\n{tee\nder NADI (FLI)\n13 45\ndep\nSYDNEY ....\n21 30\ndep\narr) AUCKLAND\ndep /\naFF SYONEY....\narr\ndep\nOperational ia70i\nLATIN AMERICA ALL-CARGO\nSERVICES\nSOUTHBOUND\nTu\nTh\n*%.\nTh\nWe\nNEW YORK, J.P. Kennedy International\n... der\n05 10\n04 15\nos 10\nMIAMI\n07 00\n19 00\n12 ss\n19 00\n19 30\nGUATEMALA CITY\nMARACAIBO\nCARACAS\n= 8\n10 os\n22°0s\n02 00\nPORT OF SPAIN (TRINIDAD-TOBAGO)\n(A)\narr\nBUENOS AIRES, Exeiza\ndep\n21 30\n2139\nSAO PAULO, Viracopos\nNORTHBOUND\n21 30\n23 59\n15\nTu\nTh\nTu Fr\nFr\nTu Sa\n+\nBUENOS AIRES, Freize.....\nSAO PAULO, Viracopos.\ndep\narr\ndep\n21 30\na1 10\nI SA\nPORT OF SPAIN (TRINIDAD.TOBAGO)\nCARACAS\n12 45\n00 10\nMARACAIRO\nGUATEMALA CITY.\nMIAMI\n-der\n{dep\n03'so\n00 15\n04 40\n04 30\nNEW YORK, J. F. Kennedy International\n14 25\n0900\nA-Applies on Th only ex Caracas.\n19 00\n22'30\n13 20\n16 os\n.....\nWe\n07 00"
    ],
    "millsfield:images_texts_ids": [
      1527853643
    ],
    "millsfield:primary_image": 1527853643,
    "millsfield:subcategory_id": 1511213425,
    "mz:hierarchy_label": 1,
    "mz:is_current": 1,
    "sfomuseum:accession_number": "2005.127.002.004",
    "sfomuseum:airline": "Pan American World Airways",
    "sfomuseum:airline_id": [
      684
    ],
    "sfomuseum:category": "Scheduling / Ticketing",
    "sfomuseum:classification_id": 158,
    "sfomuseum:collection": "Aviation Archive",
    "sfomuseum:creditline": "Gift of the William Hough Collection",
    "sfomuseum:date": "1981",
    "sfomuseum:date_acquired": "2006-12-14",
    "sfomuseum:daterange_end": "1981-12-31",
    "sfomuseum:daterange_start": "1981-01-01",
    "sfomuseum:description": "Cargo schedule for Pan American World Airways; effective July 1, 1981; single-sided on white paper; with information on services in the Atlantic, Latin America and Pacific; part of 11 issues dated 1980-1981.",
    "sfomuseum:dimensions": "14 x 8 1/2 inches (35.6 x 21.6 cm)",
    "sfomuseum:media_ids": [
      1527853643
    ],
    "sfomuseum:medium": "paper, ink",
    "sfomuseum:object_id": 151527,
    "sfomuseum:placetype": "object",
    "sfomuseum:primary_media_id": 1527853643,
    "sfomuseum:publication": ": , 1981.",
    "sfomuseum:subcategory": "Timetable",
    "src:geom": "sfomuseum#undetermined",
    "wof:belongsto": [
      1511214223,
      102527513,
      102191575,
      85633793,
      1511213425,
      85922583,
      102087579,
      1511214277,
      1511214207,
      85688637
    ],
    "wof:breaches": [],
    "wof:country": "XX",
    "wof:created": 1579906659,
    "wof:depicts": [
      1159284991,
      1159284989,
      1159286839
    ],
    "wof:geomhash": "30c8a918561c84bb2daa2b97fc7c5353",
    "wof:hierarchy": [
      {
        "arcade_id": 1511213425,
        "building_id": 1511214277,
        "campus_id": 102527513,
        "concourse_id": 1511214223,
        "continent_id": 102191575,
        "country_id": 85633793,
        "county_id": 102087579,
        "custom_id": 1511956621,
        "locality_id": 85922583,
        "neighbourhood_id": -1,
        "object_id": 1511956621,
        "region_id": 85688637,
        "venue_id": 1511956621,
        "wing_id": 1511214207
      }
    ],
    "wof:id": 1511956621,
    "wof:lastmodified": 1787988190,
    "wof:name": "timetable: Pan American World Airways, cargo schedule",
    "wof:parent_id": 1159162825,
    "wof:placetype": "custom",
    "wof:placetype_alt": [
      "object"
    ],
    "wof:repo": "sfomuseum-data-collection",
    "wof:superseded_by": [],
    "wof:supersedes": [],
    "wof:tags": []
  },
  "bbox": [
    -122.386155,
    37.616357,
    -122.386155,
    37.616357
  ],
  "geometry": {"type":"Point","coordinates":[-122.386155,37.616357]}
}
