{
  "id": 1762688163,
  "type": "Feature",
  "properties": {
    "date:cessation_lower": "1982-01-01",
    "date:cessation_upper": "1982-12-31",
    "date:inception_lower": "1982-01-01",
    "date:inception_upper": "1982-12-31",
    "edtf:cessation": "1982",
    "edtf:inception": "1982",
    "geom:area": 2.475047457570636e-7,
    "geom:bbox": "-122.386472,37.616105,-122.385834,37.616611",
    "geom:latitude": 37.61635747477365,
    "geom:longitude": -122.38615540108617,
    "millsfield:airline_id": [
      1159284309
    ],
    "millsfield:category_id": 1511214223,
    "millsfield:collection_id": 1511214207,
    "millsfield:company_id": [
      1159287349
    ],
    "millsfield:images": [
      1762698107
    ],
    "millsfield:images_colors_refs": {
      "crayola": [
        {
          "hex": "#a57164"
        },
        {
          "hex": "#714b23"
        },
        {
          "hex": "#dbd7d2"
        }
      ],
      "css4": [
        {
          "hex": "#800000"
        },
        {
          "hex": "#696969"
        },
        {
          "hex": "#dcdcdc"
        }
      ],
      "marekm4": [
        {
          "hex": "#e6e0e3"
        },
        {
          "hex": "#531210"
        },
        {
          "hex": "#936165"
        }
      ]
    },
    "millsfield:images_texts": [
      "EASTERN\nSAN FRANCISCO\nTIMETABLE\nEffective July 2, 1982\nFly Eastern and take advantage of our\ngreat bonus program with features\noffered by no other airline. Contact\nEastern or your Travel Agent for details.\nSan Francisco, Calif\nTO\nLeave\nArrive\nFlight\nStops\nMeals\nAlbany, N.Y\n840a\n10 24p\n70/100 Atlanta\nMMM$\nAllentown/Bethlehem/Easton, Pa.\n840a\n830p 70/734 Atlanta\nMMMM*\nAmsterdam, Netherlands\nKLM Royal Dutch Airlines From Atlanta To Amsterdam\n840a\n750a\n70/666 Atlanta\nMMMM฿\nMo Tu\n1210p\n10 45a 72/622 Atlanta\nMMM$\nWe Fr Sa\nAntigua, West Indies\nCheck Eastern Reservations\nAruba, Netherlands Antilles\nCheck Eastern Reservations\nAsuncion, Paraguay\n1210p\n253p 72/1\nMiami\nMMMM$\nMo; Whisperliners\nAtlanta, Ga.\n840a\n407p\n70\n1210p\n740p\n72\n955p\n510a 74\nNONSTOP MM$\nA-300 Whisperliner\nNONSTOP M M g\nA-300 Whisperliner\nNONSTOP S S 83-NC\nA-300 Whisperliner\nBaltimore, Md.\n840a\n825p\n70/132\n1210p 1141p 72/126\nAtlanta\nAtlanta\nMMM*\nLeave\nFor Reservations and\nInformation Call 474-5858\nFROM\nArrive\nFlight Stops\nMeals\n436-4721\n700a\n12 27p\n161/723 New York - M- Me\n821-8860\nCheck Eastern Reservations\nCheck Eastern Reservations\n2-0323\n10 10a\n800p 964/501 Miami\n27444\n10 15a\n800p\n914/501 Miami\n43-331\nCheck Eastern Reservations\n435-1111\n914a\n1057a\n340p\n536p\n650p\n832p\n63\n73\n17\n768-3100\n11 20a\n232p\n536p\n832p\n147/73\n141/77\nAtlanta\nAtlanta\nNONSTOP M MR\nA-300 Whisperliner\nNONSTOP M Me\nA-300 Whisperlines\nNONSTOP M M\nA-300 Whisperline:\nSM- Mes."
    ],
    "millsfield:images_texts_ids": [
      1762698107
    ],
    "millsfield:primary_image": 1762698107,
    "millsfield:subcategory_id": 1511213425,
    "mz:is_current": 1,
    "sfomuseum:accession_number": "1997.19.16",
    "sfomuseum:airline": "Eastern Air Lines",
    "sfomuseum:airline_id": [
      376
    ],
    "sfomuseum:category": "Scheduling / Ticketing",
    "sfomuseum:classification_id": 158,
    "sfomuseum:collection": "Aviation Archive",
    "sfomuseum:continent": "North America",
    "sfomuseum:country": "United States",
    "sfomuseum:creditline": "Gift of Stanford M. Horn",
    "sfomuseum:date": "1982",
    "sfomuseum:daterange_end": "1982-12-31",
    "sfomuseum:daterange_start": "1982-01-01",
    "sfomuseum:description": "City timetable issued by Eastern Air Lines for service to and from San Francisco, effective July 2, 1982; brown and white cover.",
    "sfomuseum:dimensions": "9 x 4 inches (22.9 x 10.2 cm)",
    "sfomuseum:maker": "Eastern Airlines",
    "sfomuseum:medium": "paper, ink",
    "sfomuseum:object_id": 44496,
    "sfomuseum:placetype": "object",
    "sfomuseum:publication": ": , 1982.",
    "sfomuseum:subcategory": "Timetable",
    "sfomuseum:subject": "Airlines -- Commercial -- Eastern",
    "src:geom": "sfomuseum#undetermined",
    "wof:belongsto": [
      102527513,
      1159162825,
      102191575,
      85633793,
      102087579,
      85922583,
      85688637,
      1159160869
    ],
    "wof:country": "XY",
    "wof:created": 1641342222,
    "wof:depicts": [
      1159284309,
      1159287349
    ],
    "wof:geomhash": "c281b9d9eefc83b5710e64b9d646067d",
    "wof:hierarchy": [
      {
        "building_id": -1,
        "campus_id": 102527513,
        "collection_id": 1159162825,
        "concourse_id": 1159162825,
        "continent_id": 102191575,
        "country_id": 85633793,
        "county_id": 102087579,
        "custom_id": 1762688163,
        "locality_id": 85922583,
        "neighbourhood_id": -1,
        "object_id": 1762688163,
        "region_id": 85688637,
        "wing_id": 1159160869
      }
    ],
    "wof:id": 1762688163,
    "wof:lastmodified": 1787988196,
    "wof:name": "timetable: Eastern Air Lines, San Francisco",
    "wof:parent_id": 1159162825,
    "wof:placetype": "custom",
    "wof:placetype_alt": [
      "object"
    ],
    "wof:repo": "sfomuseum-data-collection",
    "wof:superseded_by": [],
    "wof:supersedes": []
  },
  "bbox": [
    -122.38647222518921,
    37.6161053594541,
    -122.38583385944366,
    37.61661101879963
  ],
  "geometry": {"type":"Polygon","coordinates":[[[-122.38647222518921,37.61631782178288],[-122.386434674263,37.61623283692423],[-122.38637566566466,37.61617759671399],[-122.38630056381224,37.6161308549656],[-122.38616108894348,37.6161053594541],[-122.38602161407469,37.6161308549656],[-122.38591432571411,37.61618609521055],[-122.38585531711577,37.61626683087935],[-122.38583385944366,37.61636881265146],[-122.38587141036987,37.61646654505181],[-122.38594114780425,37.61654303118856],[-122.38605380058287,37.61660252035167],[-122.38618254661559,37.61661101879963],[-122.3863059282303,37.61657277577607],[-122.3864185810089,37.61650903735973],[-122.3864668607712,37.61641130501523],[-122.38647222518921,37.61631782178288]]]}
}
