{
  "id": 1779502837,
  "type": "Feature",
  "properties": {
    "date:cessation_lower": "1990-01-01",
    "date:cessation_upper": "1999-12-31",
    "date:inception_lower": "1990-01-01",
    "date:inception_upper": "1999-12-31",
    "edtf:cessation": "199X",
    "edtf:inception": "199X",
    "geom:area": 2.475047457570636e-7,
    "geom:bbox": "-122.386472,37.616105,-122.385834,37.616611",
    "geom:latitude": 37.61635747477365,
    "geom:longitude": -122.38615540108617,
    "millsfield:category_id": 1762671311,
    "millsfield:collection_id": 1511214207,
    "millsfield:images": [
      1779503033,
      1897763567
    ],
    "millsfield:images_colors_refs": {
      "crayola": [
        {
          "hex": "#1a4876"
        },
        {
          "hex": "#dbd7d2"
        },
        {
          "hex": "#cdc5c2"
        }
      ],
      "css4": [
        {
          "hex": "#c0c0c0"
        },
        {
          "hex": "#191970"
        },
        {
          "hex": "#d3d3d3"
        }
      ],
      "marekm4": [
        {
          "hex": "#c5cfc1"
        },
        {
          "hex": "#212a8f"
        },
        {
          "hex": "#d4dfcb"
        },
        {
          "hex": "#16194d"
        },
        {
          "hex": "#222b8e"
        },
        {
          "hex": "#0d105d"
        }
      ]
    },
    "millsfield:images_texts": [
      "Please use this\nbag if you are affected\nby motion sickness.\nFold en this dotted line and seal wub tape a staples\nOrder Form.\nNo. of\nKolls\nTotal\nFilm Size\n12 Exp.\n15 Exp.\n24 Exp.\n36 Exp.\nTwin Prints\nPrice\n52.99\n56.99\n58.99\n$10.93\n$3.00\nper roll\nNeed a new 24\nexposure 100 ASA\n• 126 0 Disc (5\nexpI\nPackaging \u0026\nHandling\n$3.90 ca\n50c per roll\n(max $3.00)\nTOTAL\n69\nNAME:_\nADDRESS:-\nPOSTCODE:.\nPHONE:\nCheques payable to Leisure Photos.\nPlease write name and address on back.\nYes, you can charge: Please debit my Bankcard/\nMasterCard/Visa:\nExpiry Date.\nCardholder's signature.\nCUSTOMER SERVICE: (02) 449 7139\nSave up to 60% on\nyour holiday photos.\nYou no longer have to pay a fortune to relive those\nwonderful memories.\nLeisure Photos process all brands of 110, 126, 135\nand disc C41 colour print film.\nAnd our prints are up to 37% larger than standard\npostcardin prints cost only another $3.00 per roll for all\nfilm sizes and we also offer special low prices for reprints,\nenlargements, halt frame, black and white and roll film.\nWe even pay the cost of posting the film to us and its\nreturn. Please, however, include packaging and handling\nas indicated on the order form.\nCredits given if less than 5 prints developed on\nroll of 12 and 15 exposure film-10 prints on 24 and 36\nexposure film.\nLeisure Photos are Australia's number one mail order\nphoto service for guaranteed quality, value and service.\nIf however, you're not 100% delighted with your prints\nsimply return them to us with your negatives within 14 days\nof receipt. Your money will be refunded immediately.\n290\n140",
      "Please use\nthis bag if you are\naffected by\nmotion sickness.\nAir Mail\nNo stamp required if\nposted within Australia.\nUse this strong\nbag to mail your next.\nroll of film, the safe and\nsure way to protect\nyour memones.,\nPrices from only\n$4.99 including develop-\ning and printing,\nFree Post No. 4,\nLeisure Photos,\nР.О. Вож 100,\nTurramurra, NSW, 2074."
    ],
    "millsfield:images_texts_ids": [
      1779503033,
      1897763567
    ],
    "millsfield:primary_image": 1779503033,
    "millsfield:subcategory_id": 1511213185,
    "mz:is_approximate": 1,
    "mz:is_current": 1,
    "sfomuseum:accession_number": "1998.157.255",
    "sfomuseum:category": "Passenger Amenity, Archive",
    "sfomuseum:classification_id": 22,
    "sfomuseum:collection": "Aviation Archive",
    "sfomuseum:creditline": "Gift of The Henry Steiner Air Sickness Bag Collection",
    "sfomuseum:date": "1990s",
    "sfomuseum:date_acquired": "1999-07-13",
    "sfomuseum:daterange_end": "1999-12-31",
    "sfomuseum:daterange_start": "1990-01-01",
    "sfomuseum:description": "Airsickness bag issued by [Ansett Australia?]; white and blue bag with text “Please use this bag if you are affected by motion sickness, with address and form for photographic processing (Leisure Photos); gusset wedge, no closure.",
    "sfomuseum:dimensions": "10 1/4 x 6 1/4 inches (26 x 15.9 cm)",
    "sfomuseum:medium": "paper, ink",
    "sfomuseum:object_id": 47918,
    "sfomuseum:placetype": "object",
    "sfomuseum:publication": ": , 1990s.",
    "sfomuseum:subcategory": "Airsickness Bag",
    "src:geom": "sfomuseum#undetermined",
    "wof:belongsto": [
      102527513,
      1159162825,
      102191575,
      85633793,
      102087579,
      85922583,
      85688637,
      1159160869
    ],
    "wof:country": "XY",
    "wof:created": 1653119337,
    "wof:geomhash": "c281b9d9eefc83b5710e64b9d646067d",
    "wof:hierarchy": [
      {
        "building_id": -1,
        "campus_id": 102527513,
        "collection_id": 1159162825,
        "concourse_id": 1159162825,
        "continent_id": 102191575,
        "country_id": 85633793,
        "county_id": 102087579,
        "custom_id": 1779502837,
        "locality_id": 85922583,
        "neighbourhood_id": -1,
        "object_id": 1779502837,
        "region_id": 85688637,
        "wing_id": 1159160869
      }
    ],
    "wof:id": 1779502837,
    "wof:lastmodified": 1787988208,
    "wof:name": "airsickness bag: [Ansett Australia??]",
    "wof:parent_id": 1159162825,
    "wof:placetype": "custom",
    "wof:placetype_alt": [
      "object"
    ],
    "wof:repo": "sfomuseum-data-collection",
    "wof:superseded_by": [],
    "wof:supersedes": []
  },
  "bbox": [
    -122.38647222518921,
    37.6161053594541,
    -122.38583385944366,
    37.61661101879963
  ],
  "geometry": {"type":"Polygon","coordinates":[[[-122.38647222518921,37.61631782178288],[-122.386434674263,37.61623283692423],[-122.38637566566466,37.61617759671399],[-122.38630056381224,37.6161308549656],[-122.38616108894348,37.6161053594541],[-122.38602161407469,37.6161308549656],[-122.38591432571411,37.61618609521055],[-122.38585531711577,37.61626683087935],[-122.38583385944366,37.61636881265146],[-122.38587141036987,37.61646654505181],[-122.38594114780425,37.61654303118856],[-122.38605380058287,37.61660252035167],[-122.38618254661559,37.61661101879963],[-122.3863059282303,37.61657277577607],[-122.3864185810089,37.61650903735973],[-122.3864668607712,37.61641130501523],[-122.38647222518921,37.61631782178288]]]}
}
