{
  "id": 1913822251,
  "type": "Feature",
  "properties": {
    "date:cessation_lower": "1965-01-01",
    "date:cessation_upper": "1965-12-31",
    "date:inception_lower": "1961-01-01",
    "date:inception_upper": "1961-12-31",
    "edtf:cessation": "1965",
    "edtf:inception": "1961",
    "geom:area": 2.475047457570636e-7,
    "geom:bbox": "-122.386472,37.616105,-122.385834,37.616611",
    "geom:latitude": 37.61635747477365,
    "geom:longitude": -122.38615540108617,
    "millsfield:airline_id": [
      1159284989
    ],
    "millsfield:category_id": 1511214251,
    "millsfield:collection_id": 1511214207,
    "millsfield:company_id": [
      1159286839
    ],
    "millsfield:images": [
      1913822657,
      1913822659,
      1913822661,
      1913822663,
      1913822665
    ],
    "millsfield:images_colors_refs": {
      "crayola": [
        {
          "hex": "#414a4c"
        },
        {
          "hex": "#1a4876"
        },
        {
          "hex": "#efdecd"
        },
        {
          "hex": "#9f8170"
        },
        {
          "hex": "#2e5894"
        },
        {
          "hex": "#6e5160"
        }
      ],
      "css4": [
        {
          "hex": "#2f4f4f"
        },
        {
          "hex": "#808080"
        },
        {
          "hex": "#191970"
        },
        {
          "hex": "#f5f5dc"
        },
        {
          "hex": "#faebd7"
        },
        {
          "hex": "#556b2f"
        },
        {
          "hex": "#696969"
        },
        {
          "hex": "#483d8b"
        }
      ],
      "marekm4": [
        {
          "hex": "#0d2171"
        },
        {
          "hex": "#eae8dc"
        },
        {
          "hex": "#8c8a76"
        },
        {
          "hex": "#eae8dd"
        },
        {
          "hex": "#eae5d0"
        },
        {
          "hex": "#385192"
        },
        {
          "hex": "#eeebdc"
        },
        {
          "hex": "#666463"
        },
        {
          "hex": "#5a5844"
        },
        {
          "hex": "#535253"
        },
        {
          "hex": "#eae7dc"
        },
        {
          "hex": "#615f61"
        }
      ]
    },
    "millsfield:images_texts": [
      "De Gaulle and the Chinese Conmunists.\nApparently De\nGaulle believes in the old adage \"if you cant\nlick 'em join 'em.\" The Conmunists in Dienbienphu and else\nwhere in Indo-China made the French look like what they are -\n= third rate power.\nNow let's take a look at De Gaulle's new partners whom he seems\nto like better than the United States. Iney are busy in Feiping\ntraining French and other renegades as well as other fuzzy-think-\ning nationals in the technique of Communist take-over.\n-Hrough stuit the police authority. \"eve nots\"\nare inflaned to comnit all manner of debauchery especially with\nrespect to anyone who has ever exercised over them any nodicum\nThus people - if you please - like De Caulle and\nMadam De Gaulle are first publicly humiliated to the great de-\nlight of the mob then tortured perhaps burned\nraped in front of their men folk.\nhouses of the \"have gots\" and generally there is a holocaust of\nblood and incest until finally even the worst elements of the mob\nhave had enough. The erstwhile \"have gots\" have been murdered.\nThe Communists then establish law and order so strict as to de-\nprive each and every person of any liberty whatever. 1P They do not\nshare the fussian philosophy of peaceful coexistance with the\nkilled.\nThere must be class struggle - blood - murder otherwise\nCommunisa can not prevail.\nHow can The Chinese Concunists hope to become the number one\ncountry of the world.\nThey can not compete either commercially\nor wiliiarily with either the United States or Russia. But they\ncan incite revolts to take over authority.\nThey are training\nhundreds of blacks, browns and yellows to seize authority in.\nsoft spots.\nThese are taught that there can be no compronise\nwith the whites - they must be slaughtered including the Russians\nand the French.\n• De Gaulle in his insatiable mania for the Glory\nof France had better realize that his friends the Chinese Con-\nmunists are interested only in knocking the \"1\" out of that\nGlory.\nSISSUSIN",
      "De Gaulle and the Chinese Communists.\nApparently De Gaulle believes in the old adage \"if you cant\nlick 'em join 'en.\" The Coumunists in Dienbienphu and else\nwhere in Indo-China made the Freach look like what they are -\na third rate power.\nNow let's take a look at De Gaulle's new parters whon he seeus\nto like better than the United States. They are busy in Peiping\ntraining French and other renegades as well as other fuzzy-shink-\ning nationals in she technique of Communial tase-over.\nStep number one is to capture the police authority. \"ave nots\"\nare inflamed to comnit all manner of debauchery especially with\nrespect to anyone who has ever exercised over them any modicum\nof authority.\nThus people - 11 you please - like De Gaulle and\nHadan De Gaulle are first publicly humiliated to the great de-\nligat of the mob then tortured perhaps burned alive. Women are\nraped in front af sheir men folk. shops are looted as well as\nhouses of the \"have gots\" and generally there is a holocaust of\nblood and incest until finally even the vorat elements of the mob\nhave had enough, The erstwhile \"have gots\" have been murdered.\nIne Connunists then establish law and order so strict as to de-\nprive eson and every person of any liberty whatever. They do not\nshare the Hussian philosophy of peaceful coexistance with the\ncapitalistic countries but quite to the contrary are convinced\nthat the ruling clases in all freedom-loving countries must be\nkilled. There must be class struggle - blood - murder otherwise\nCommunis can not prevail.\nHow can the Chinese Communists nope to become the number one\ncountry of the worid.\nThey can not compete either conmercially\nor militarily with either the United States or Russia. But they\ncan incite revolts to take over authority. They are training\nhundreds of blacks, browas and yellows to\nseize authority in\nsoft spots.\nThese are taught that there can be no compromise\nwith toe whites - they must be slaughtered including the Russians\nand the french.\nDe Gaulle in his insatiable mania for the Glory\nof france had better realize that his friends the Chinese Con-\nmunista are interested only in knocking the \"I\" out or that\nGlory•\nOISSNSIPOS",
      "De Gaulle and the Chinese Communists.\nApparently De Gaulle believes in the old adege \"if you cant\n1ick \"es join 'em.\" The Communists in Dienbienphu and else\nwhere in Indo-China made the French look like what they are -\na third rate pover.\nNow let's take a look at De Gaulle's new partners whom he seems\nto like better than the United States. They are busy in Feiping\ntraining Prench and other renegades as well as other fuzzy-think-\ning nationals in the sechnique of Conmunist taice-over.\nstep number one is to capture the police authority. \"Have nots\"\nare inflamed to conmit all manner of debauchery especially with\nrespect to anyone who has ever exercised over them any modicum\not authority.\nThus people - 11 you please - like De Gaulle and\nMadam De Caulle are first publicly humiliated to the great de-\n12gnt of the aos then tortured perhaps burned alive. vomen are\nraped in front of their men folk.\nShops are looted\nas well 6S\nhouses of the \"have gots\" and generelly there is a holocaust of\nblood and incest until finally even the worst elements of the mob\nhave had enough.\nThe erstwhile \"have gots\" have been murdered.\nThe Communists then establish lav and order so strict as to de-\nprive each and every person of any liberty whatever. They do not\nshare the Russian philosophy of peaceful coexistance with the\ncapitalistic countries but quite to the contrary are convinced\nthat the ruling classes in all freedom-loving countries aust be\nkilled. There must be class struggle - blood - murder otherwise\nCommunise can not prevail.\nHow can the Chinese Communists hope to become the number one\nThey on not compete either commercially\nor militarily with either the United Stetes or Russia. But they\ncan incite revolts vo take over authority. They are training\nbrewas and yellows to seise authority in\nThese are taught that there can be no comprosise\nwith the whites - they sust be slaughtered Ancluding the Kussians\nand the french.\nDe Geulle in his insatiable mania for the Glory\nof Prance had\nbetter realise that his friends the Chinese Con-\nmuniate are interested only in knocking the \"I\" out of that\nGlory•",
      "De Gaulle and the Chinese Communists.\nApparently De Gaulle believes in the old agage \"if you cant lick 'em\njoin 'em. The Communists in Dien\nBien Pu and elsewhere in Indo-\nChina made the French look like what they are - a third rate power.\nNow let's take a look at De Gaulle's new partners whom he seems to\nlike better than the United States. They are busy in Peiping train-\ning French renegades as well as other fuzzy-thinking nationals in\nthe technique of Communist take-over. The first step is to capture\nthe police authority through street mobs, bribery, murder or riots.\nin flamed to all manna of Excessio\nSuch an\nNext the \"have-nots\" are encouraged to murder, torture, rape and\nand murder\nhumiliatedall the \"have-gots\" including if you please the De Gaulles.\nThey are encouraged to loot the shops, stores and banks to shoot, rape\nand pillage. Anyone who ever exercised any power over them is first\nhumiliated then tortured and murdered on the street or in the public\nsquare where all can see. Finally out of this bloody holocaust the\n\"hair - guts\nanz dead.\nCommunists establish order.^\nThe \"have-nots\" are by then so thoroughly\nsurfeited with blood and disorder that they are quite willing to have\nauthority reestablished even at the expense of all personal liberty.\nThe Chinese Communists do not share the Russian philosophy of peace-\nful coexistance with capitalistic countries but quite to the contrary\nare convinced that the ruling classes in the United States and other\nfreedom loving countries must be eliminated. th \"hau gat\"\nThere must be class\nstruggle. There must be murder and blood shed or Conmunism can mutatio:\nIt a reported that on it\nsucceed. ^ The leaders of the uprising in Zanzibar was Pelping trained.\nThe Chinese Communists are busy rallying the blacks, browns and yellow\nFrench and the\npeople against the whites - including the Russians. They can not real-\nize their dream of becoming the number one power in the world any other\nway. De Gaulle in his mania for the Glory of France had better realize\nthat the chinese Communists are interested only in knocking the\n\"L\"\nent of that joy.",
      "De Gaulle and the Chinese Communists.\nApparently De Gaulle believes in the old adage \"if you cant lick 'em\njoin 'em.\nThe Chinese Communists in Indo China made the French look\nlike what they are - a third rate power.\nNow let's take a look at De Gaulle's new partners whow he seems to\nlike better than the United States.\nThey are busy in Peiping train-\ning French and other renegades as well as a lot of fuzay thinking\nidealists the technique of Comnunist take-over.\nThe first step is to\ncapture the police authority through the agitation of street mobs,\nbribery, murder and riots. The \"have-nots\" are inflaned to murder,\ntorture, rape and to humiliate the \"have-gots\" including - if you\nplease Mr. and lirs. De Gaulle. They are encouraged to loot the shops\nand stores as well as the homes of the wealthy.\nAnyone who has ever\nexercised ang power over them is first publicly humiliated where all\ncan see,\nthen tortured and murdered. Finally out of this bloody\nholocaust the Coumunists step in to establish order. The \"have-gots\"\nare dead. The \"have-nous\" now by virtue of pillage and looting have\na few possessions to protect also they are so surfeited with blood and\ndisorder that they are quite willing to have authority reestablished\neven at the expense of all personal liberty.\nThe Chinese Communists do not share the Russian philosophy of peace-\nful coexistance with capitalistic countries but cuite to the contrary\nare convinced that the ruling classes in the United States and other\nfreedom loving countries must be eliminated. There must be class\nstruggle.\nThere must be murder and blood or Communise can not succeed.\nIt was reported that one of the leaders of the uprising in Zanzibar\nwas Peiping trained.\nThe Chinese Connunists are busy rellying the\nblack, brown and yellow people against the whites - including the\nRussians and their new found friends the French. They can not realize\ntheir dream of becoming the number one power in the world any other way.\nDe Gaulle in his megalomania for the Glory of France had better realize\nthat the Chinese Communists are interested only in knooking the \"1\"\nout of that Glory.\nPISSLISIP/OS"
    ],
    "millsfield:images_texts_ids": [
      1913822657,
      1913822659,
      1913822661,
      1913822663,
      1913822665
    ],
    "millsfield:primary_image": 1913822657,
    "millsfield:subcategory_id": 1511213505,
    "mz:is_approximate": 1,
    "mz:is_current": 1,
    "sfomuseum:accession_number": "2019.121.1221 a g",
    "sfomuseum:airline": "Pan American World Airways",
    "sfomuseum:airline_id": [
      684
    ],
    "sfomuseum:category": "Employee Career History",
    "sfomuseum:classification_id": 203,
    "sfomuseum:collection": "Aviation Archive",
    "sfomuseum:creditline": "Collection of SFO Museum",
    "sfomuseum:date": "1961-1965",
    "sfomuseum:date_acquired": "2019-11-22",
    "sfomuseum:daterange_end": "1965-12-31",
    "sfomuseum:daterange_start": "1961-01-01",
    "sfomuseum:description": "Typewritten document, undated; drafts of piece titled “De Gaulle and the Chinese Communists”",
    "sfomuseum:dimensions": "11 x 8 1/2 inches (27.9 x 21.6 cm)",
    "sfomuseum:medium": "paper, ink",
    "sfomuseum:object_id": 211857,
    "sfomuseum:placetype": "object",
    "sfomuseum:publication": ": , 1961-1965.",
    "sfomuseum:subcategory": "Other, Employee Career History",
    "src:geom": "sfomuseum#undetermined",
    "wof:belongsto": [
      102527513,
      1159162825,
      102191575,
      85633793,
      102087579,
      85922583,
      85688637,
      1159160869
    ],
    "wof:country": "XY",
    "wof:created": 1714635106,
    "wof:depicts": [
      1159286839,
      1159284989
    ],
    "wof:geomhash": "c281b9d9eefc83b5710e64b9d646067d",
    "wof:hierarchy": [
      {
        "building_id": -1,
        "campus_id": 102527513,
        "collection_id": 1159162825,
        "concourse_id": 1159162825,
        "continent_id": 102191575,
        "country_id": 85633793,
        "county_id": 102087579,
        "custom_id": 1913822251,
        "locality_id": 85922583,
        "neighbourhood_id": -1,
        "object_id": 1913822251,
        "region_id": 85688637,
        "wing_id": 1159160869
      }
    ],
    "wof:id": 1913822251,
    "wof:lastmodified": 1787988220,
    "wof:name": "document: Harold M. Bixby",
    "wof:parent_id": 1159162825,
    "wof:placetype": "custom",
    "wof:placetype_alt": [
      "object"
    ],
    "wof:repo": "sfomuseum-data-collection",
    "wof:superseded_by": [],
    "wof:supersedes": []
  },
  "bbox": [
    -122.38647222518921,
    37.6161053594541,
    -122.38583385944366,
    37.61661101879963
  ],
  "geometry": {"type":"Polygon","coordinates":[[[-122.38647222518921,37.61631782178288],[-122.386434674263,37.61623283692423],[-122.38637566566466,37.61617759671399],[-122.38630056381224,37.6161308549656],[-122.38616108894348,37.6161053594541],[-122.38602161407469,37.6161308549656],[-122.38591432571411,37.61618609521055],[-122.38585531711577,37.61626683087935],[-122.38583385944366,37.61636881265146],[-122.38587141036987,37.61646654505181],[-122.38594114780425,37.61654303118856],[-122.38605380058287,37.61660252035167],[-122.38618254661559,37.61661101879963],[-122.3863059282303,37.61657277577607],[-122.3864185810089,37.61650903735973],[-122.3864668607712,37.61641130501523],[-122.38647222518921,37.61631782178288]]]}
}
