{
  "id": 1511920183,
  "type": "Feature",
  "properties": {
    "date:cessation_lower": "1933-01-01",
    "date:cessation_upper": "1933-12-31",
    "date:inception_lower": "1933-01-01",
    "date:inception_upper": "1933-12-31",
    "edtf:cessation": "1933~",
    "edtf:date": "1933~",
    "edtf:inception": "1933~",
    "geom:area": 0,
    "geom:bbox": "-122.386155,37.616357,-122.386155,37.616357",
    "geom:latitude": 37.616357,
    "geom:longitude": -122.386155,
    "iso:country": "XX",
    "millsfield:airline_id": [
      1159285517
    ],
    "millsfield:category_id": 1511214223,
    "millsfield:collection_id": 1511214207,
    "millsfield:company_id": [
      1159288117
    ],
    "millsfield:images": [
      1527818187,
      1527818189
    ],
    "millsfield:images_colors_refs": {
      "crayola": [
        {
          "hex": "#ff2b2b"
        },
        {
          "hex": "#000000"
        },
        {
          "hex": "#414a4c"
        },
        {
          "hex": "#cd4a4c"
        },
        {
          "hex": "#fddde6"
        }
      ],
      "css4": [
        {
          "hex": "#cd5c5c"
        },
        {
          "hex": "#2f4f4f"
        },
        {
          "hex": "#faf0e6"
        },
        {
          "hex": "#000000"
        },
        {
          "hex": "#dc143c"
        },
        {
          "hex": "#dcdcdc"
        }
      ],
      "marekm4": [
        {
          "hex": "#de201f"
        },
        {
          "hex": "#524c4f"
        },
        {
          "hex": "#1d161a"
        },
        {
          "hex": "#e9e3e3"
        },
        {
          "hex": "#f2edec"
        },
        {
          "hex": "#d74d50"
        }
      ]
    },
    "millsfield:images_texts": [
      "-AIR PASSENGERS AIR MAIL AIR EXPRESS•\nWNESTERNAIR EXPRES\nATNICE DAKLY CORST TO COAST MULTI-MOTOR SERVICE\nFOR RESERVATIONS APPLY\nREED \u0026 MILLER, S. S. AGCY.\n40% E. Colorado St., Pasudena, Calif.\nTolepiono TErraco 0550\nAIR RATES\nanel\n•CHEDULES\nPRILADELPHIA\nhirsoin\nWASHINCTON\nPITTSSURGH\nOMAHA\nSAN DIECO\nLOS ANGELES\nDAUTO\nCOLORADO SPRINGS\nAMARILLO\nANSCU",
      "AMCrICa S\nFirst\nPassenger\nSystem\nPACIFIC COAST DIVISION\n3% He- NEVADA\n3Hrs-\n2%Hrs\nAH\n_ 2Hrs\nIH-\n- 3 Hes\n2%AгS\n2 Hes.\nINHes\n1Hr.\n%Hr\n\"TAF\nRNIA\nARIZONA\n- IH-\n-IH-\n-2 Hes\n- 2444\n- ХН-\n- I He\n2 SCHEDULES COAST TO COAST\nNow choose from\nschedules\nom Southern CHornia to the east via Salt Lake City. ov\nAmerica's original transcontinental airway.\nAngeles or San Diego one\nTou may leave La\n-Montana\nnight, arrive in Utah before breal\nbe\nIdaho\nbefore\nDenver\nChieago\nthat\nnight:\nNew\nYork\nBOXE BEERS\nand intermediate points with like\nsaving\none business day\ntim\nthe\nday\nschedule\noffers greater senic\n25,000 MILES OF AIR ROUTES\nBlanketing the United States from Coast to Coast-Canada to\nMexico\nWestern Air\nExpress\nand\noffer\nYOU\nAn AlT\network at rates that make travel dollars\nAmerica's\nFirst\nrassenger\nSystem\nROCKY MOUNTAIN DIVISION\nIHr-\n%Hr_\n*KH.\nWAr-\nORAC\n% Denver\nPueblo\n:%Hr\n-.*Hг\n- *Hr\nI Hr\n* H-\n- 1 Hr\n2 Hrs.\nAmarillo\n- KH\n• %Hr\nNEW\n1H-\nно влас\nMEXICO\n- IH-\n*Hr\n- 1XHes\nST EXAS\n- 2Hrs\nAPPRECIATE YOUR ROCKY MOUNTAIN REGION\nFly\nlengthwise the Rockies—oar above\nGlorieta\nMexico and Texas.\nMid-Continent atates,\nthis beautiful country\nAying\nhigh above the heat and\nof surface travel\nRIDE WITH THE PIONEERS\nantonehall\nWestern Air\n12.000.000 miles.\nBute or sal he so us as record or reling in\nOn\nthe aste in\nthe east.\nCal can o\ncarrying\npoints in the United Sales Los Ange be to take dely.\ndesignated"
    ],
    "millsfield:images_texts_ids": [
      1527818187,
      1527818189
    ],
    "millsfield:primary_image": 1527818187,
    "millsfield:subcategory_id": 1511213425,
    "mz:hierarchy_label": 1,
    "mz:is_current": 1,
    "sfomuseum:accession_number": "2001.015.022",
    "sfomuseum:airline": "Western Air Express",
    "sfomuseum:airline_id": [
      929
    ],
    "sfomuseum:category": "Scheduling / Ticketing",
    "sfomuseum:classification_id": 158,
    "sfomuseum:collection": "Aviation Archive",
    "sfomuseum:continent": "World Routes",
    "sfomuseum:creditline": "Gift of Thomas G. Dragges",
    "sfomuseum:date": "c. 1933",
    "sfomuseum:date_acquired": "2003-10-23",
    "sfomuseum:daterange_end": "1938-12-31",
    "sfomuseum:daterange_start": "1928-01-01",
    "sfomuseum:description": "Timetable produced Western Air Express, undated (c. 1933); red and white cover with illustration of planes and route map of United States.",
    "sfomuseum:dimensions": "9 x 4 inches (22.9 x 10.2 cm)",
    "sfomuseum:media_ids": [
      1527818187,
      1527818189
    ],
    "sfomuseum:medium": "paper, ink",
    "sfomuseum:object_id": 57990,
    "sfomuseum:placetype": "object",
    "sfomuseum:primary_media_id": 1527818187,
    "sfomuseum:publication": ": , c. 1933.",
    "sfomuseum:subcategory": "Timetable",
    "src:geom": "sfomuseum#undetermined",
    "wof:belongsto": [
      1511214223,
      102527513,
      102191575,
      85633793,
      1511213425,
      85922583,
      102087579,
      1511214277,
      1511214207,
      85688637
    ],
    "wof:breaches": [],
    "wof:country": "XX",
    "wof:created": 1579906677,
    "wof:depicts": [
      1159285517,
      1159288117,
      1159294433
    ],
    "wof:geomhash": "30c8a918561c84bb2daa2b97fc7c5353",
    "wof:hierarchy": [
      {
        "arcade_id": 1511213425,
        "building_id": 1511214277,
        "campus_id": 102527513,
        "concourse_id": 1511214223,
        "continent_id": 102191575,
        "country_id": 85633793,
        "county_id": 102087579,
        "custom_id": 1511920183,
        "locality_id": 85922583,
        "neighbourhood_id": -1,
        "object_id": 1511920183,
        "region_id": 85688637,
        "venue_id": 1511920183,
        "wing_id": 1511214207
      }
    ],
    "wof:id": 1511920183,
    "wof:lastmodified": 1787988177,
    "wof:name": "timetable: Western Air Express",
    "wof:parent_id": 1159162825,
    "wof:placetype": "custom",
    "wof:placetype_alt": [
      "object"
    ],
    "wof:repo": "sfomuseum-data-collection",
    "wof:superseded_by": [],
    "wof:supersedes": [],
    "wof:tags": []
  },
  "bbox": [
    -122.386155,
    37.616357,
    -122.386155,
    37.616357
  ],
  "geometry": {"type":"Point","coordinates":[-122.386155,37.616357]}
}
