{
  "id": 2015174175,
  "type": "Feature",
  "properties": {
    "date:cessation_lower": "2009-01-01",
    "date:cessation_upper": "2009-12-31",
    "date:inception_lower": "2009-01-01",
    "date:inception_upper": "2009-12-31",
    "edtf:cessation": "2009~",
    "edtf:inception": "2009~",
    "geom:area": 2.475047457570636e-7,
    "geom:bbox": "-122.386472,37.616105,-122.385834,37.616611",
    "geom:latitude": 37.61635747477365,
    "geom:longitude": -122.38615540108617,
    "millsfield:airline_id": [
      1159284201
    ],
    "millsfield:category_id": 1746152551,
    "millsfield:collection_id": 1511214203,
    "millsfield:company_id": [
      1360700741
    ],
    "millsfield:images": [
      2015174657
    ],
    "millsfield:primary_image": 2015174657,
    "millsfield:subcategory_id": 1746152563,
    "mz:is_approximate": 1,
    "mz:is_current": 1,
    "sfomuseum:accession_number": "2020.074.0906",
    "sfomuseum:airline": "Continental Airlines",
    "sfomuseum:airline_id": [
      328
    ],
    "sfomuseum:category": "Meal Service",
    "sfomuseum:classification_id": 570,
    "sfomuseum:collection": "Aviation Museum",
    "sfomuseum:creditline": "Gift of Vincent Ma",
    "sfomuseum:date": "c. 2009",
    "sfomuseum:date_acquired": "2021-02-02",
    "sfomuseum:daterange_end": "2014-12-31",
    "sfomuseum:daterange_start": "2004-01-01",
    "sfomuseum:description": "Side plate issued by Continental Airlines for inflight first class meal service; white plate with blue, gray, and pink flower petal motif on rim; manufacturer logo with text “Expressly for Continental Airlines / 8-9801” on bottom.",
    "sfomuseum:dimensions": "1/2 x 5 inches dia. (1.3 x 12.7 cm dia.)",
    "sfomuseum:maker": "Rego China",
    "sfomuseum:medium": "glazed ceramic",
    "sfomuseum:object_id": 220450,
    "sfomuseum:placetype": "object",
    "sfomuseum:publication": ": , c. 2009.",
    "sfomuseum:subcategory": "Plate / Dish / Bowl",
    "src:geom": "sfomuseum#undetermined",
    "wof:belongsto": [
      102527513,
      1159162825,
      102191575,
      85633793,
      102087579,
      85922583,
      85688637,
      1159160869
    ],
    "wof:country": "XY",
    "wof:created": 1775077240,
    "wof:depicts": [
      1360700741,
      1159284201
    ],
    "wof:geomhash": "c281b9d9eefc83b5710e64b9d646067d",
    "wof:hierarchy": [
      {
        "building_id": -1,
        "campus_id": 102527513,
        "collection_id": 1159162825,
        "concourse_id": 1159162825,
        "continent_id": 102191575,
        "country_id": 85633793,
        "county_id": 102087579,
        "custom_id": 2015174175,
        "locality_id": 85922583,
        "neighbourhood_id": -1,
        "object_id": 2015174175,
        "region_id": 85688637,
        "wing_id": 1159160869
      }
    ],
    "wof:id": 2015174175,
    "wof:lastmodified": 1775077786,
    "wof:name": "side plate: Continental Airlines, first class",
    "wof:parent_id": 1159162825,
    "wof:placetype": "custom",
    "wof:placetype_alt": [
      "object"
    ],
    "wof:repo": "sfomuseum-data-collection",
    "wof:superseded_by": [],
    "wof:supersedes": []
  },
  "bbox": [
    -122.38647222518921,
    37.6161053594541,
    -122.38583385944366,
    37.61661101879963
  ],
  "geometry": {"type":"Polygon","coordinates":[[[-122.38647222518921,37.61631782178288],[-122.386434674263,37.61623283692423],[-122.38637566566466,37.61617759671399],[-122.38630056381224,37.6161308549656],[-122.38616108894348,37.6161053594541],[-122.38602161407469,37.6161308549656],[-122.38591432571411,37.61618609521055],[-122.38585531711577,37.61626683087935],[-122.38583385944366,37.61636881265146],[-122.38587141036987,37.61646654505181],[-122.38594114780425,37.61654303118856],[-122.38605380058287,37.61660252035167],[-122.38618254661559,37.61661101879963],[-122.3863059282303,37.61657277577607],[-122.3864185810089,37.61650903735973],[-122.3864668607712,37.61641130501523],[-122.38647222518921,37.61631782178288]]]}
}
