{
  "id": 1914622235,
  "type": "Feature",
  "properties": {
    "date:cessation_lower": "1974-01-01",
    "date:cessation_upper": "1974-12-31",
    "date:inception_lower": "1974-01-01",
    "date:inception_upper": "1974-12-31",
    "edtf:cessation": "1974",
    "edtf:inception": "1974",
    "geom:area": 2.475047457570636e-7,
    "geom:bbox": "-122.386472,37.616105,-122.385834,37.616611",
    "geom:latitude": 37.61635747477365,
    "geom:longitude": -122.38615540108617,
    "millsfield:aircraft_id": [
      1159290443
    ],
    "millsfield:airline_id": [
      1159285415
    ],
    "millsfield:category_id": 1762671311,
    "millsfield:collection_id": 1511214207,
    "millsfield:company_id": [],
    "millsfield:images": [
      1914622975,
      1914622977
    ],
    "millsfield:images_colors_refs": {
      "crayola": [
        {
          "hex": "#a2add0"
        },
        {
          "hex": "#757575"
        },
        {
          "hex": "#414a4c"
        },
        {
          "hex": "#979aaa"
        },
        {
          "hex": "#9c2542"
        },
        {
          "hex": "#6699cc"
        }
      ],
      "css4": [
        {
          "hex": "#2f4f4f"
        },
        {
          "hex": "#708090"
        },
        {
          "hex": "#5f9ea0"
        },
        {
          "hex": "#a52a2a"
        },
        {
          "hex": "#87ceeb"
        }
      ],
      "marekm4": [
        {
          "hex": "#881d32"
        },
        {
          "hex": "#88bac6"
        },
        {
          "hex": "#5a7686"
        },
        {
          "hex": "#79a4b8"
        },
        {
          "hex": "#2d3d40"
        },
        {
          "hex": "#729aa4"
        },
        {
          "hex": "#87b7cd"
        },
        {
          "hex": "#334047"
        },
        {
          "hex": "#8a1b25"
        }
      ]
    },
    "millsfield:images_texts": [
      "HOW TO\nUSE THE\nOXYGEN MASK\nJet aircraft fly at high altitude and the cabin is pressurized for your\ncomfort. If cabin pressure ever was lost, you would be breathing high\naltitude \"thin\" air ... so it is imperative that cigars and cigarettes be\nextinguished immediately and oxygen masks be put on as shown below.\n1. WHERE TO LOCATE MASKS.\nOxygen masks are in a seat back\ncompartment in front of you. In the\nlounges, masks are located in\nceiling or wall compartments. If\noxygen is ever required, compart-\nment doors will open automatically.\n2. HOW TO USE MASKS. Remain\nseated. Grasp nearest mask and\npull it from its holder. A cord turns\noxygen on as you pull mask to you.\nFor childrens' use, a spare mask is\navailable at each row.\n3. UNCOIL OXYGEN TUBE AND\nPLASTIC BAG. The coiled oxygen\ntube, plastic bag, and head band\nare stored inside the mask and should\nbe lifted out. The oxygen supply\ntube is long enough that you may\nrelax comfortably in your seat after\nmask is on your face.\n4. PLACE MASK OVER NOSE AND\nMOUTH. Slip head band over head\nand adjust to fit. Do not overtighten\nhead band as this may misshape mask\nand cause discomfort.\nPROTECTIVE POSITIONS\nSit well back in seat-\npull seat belt tight-\nassume position in illustration—\nkeep position until plane stops.\nRear Facing\nSeat.\nForward\nfacing seat.\nBottom seat cushion is floatable.\nGrasp it at back-pull it up HARD-\nflip it over onto floor-step on it\nto detach it from seat frame.\nFEDERAL AVIATION REGULATIONS REQUIRE:\nDURING TAKE OFF AND LANDING YOUR SEAT BACK AND TRAY TABLE MUST BE\nIN THE UPRIGHT POSITION AND YOUR CARRY-ON LUGGAGE PLACED UNDER A SEAT.",
      "FOR YOUR SAFETY. Know how to move out\nDC-8\nof this airplane fast. There is fire-danger any\ntime a landing is other than normal-partic-\nularly when the airplane structure is damaged.\nBelow is a floor plan of the plane you are in. Familiarize yourself with the location of\nthe exits. Note particularly the exits nearest you. Study how they are opened and also\nthe protective position you should assume during an emergency landing. When leav-\ning, do not take coats, purses or baggage with you. Move to the exits immediately.\nA WORD ABOUT YOUR SEAT BELT - Rough air (turbulence) at high altitudes,\nalthough infrequent, can be severe. When seat belt sign is lighted in-flight, please\ncomply with the sign immediately to prevent possible injury. Experienced air travelers\nusually keep their seat belts fastened all the time when seated.\nEXIT\nDOOR\nWITH\nSLIDE\nCOCKPIT\nUNITED\nCA 317\n5-74\nHOW TO OPEN EXITS\nDOOR EXITS AND ESCAPE SLIDES\n1. Lift handle up and over.\n2. Push door out.\nEXIT\nPRINTED IN U.S.A.\nEXIT\nDOOR\nWITH\nSLIDE\nOPEN\nESCAPE\nWINDOWS\nOVER\nWING\n3. Pull RED handle to inflate slide.\n4. After slide inflates,\njump and sit in slide.\nESCAPE WINDOWS OVER WINGS\n1. Pull window handle in and down.\n3. Exit through window\n2. Discard window.\n—leg, body, leg.\nAt rear of wing, slide down flaps.\nEXIT\nU\nEXIT\nDOOR\nWITH\nSLIDE\nEXIT\nDOOR\nWITH\nSLIDE"
    ],
    "millsfield:images_texts_ids": [
      1914622975,
      1914622977
    ],
    "millsfield:primary_image": 1914622977,
    "millsfield:subcategory_id": 1511213703,
    "mz:is_approximate": 1,
    "mz:is_current": 1,
    "sfomuseum:accession_number": "2002.127.608",
    "sfomuseum:aircraft": "Douglas DC-8",
    "sfomuseum:aircraft_id": [
      498
    ],
    "sfomuseum:airline": "United Air Lines",
    "sfomuseum:airline_id": [
      884
    ],
    "sfomuseum:category": "Passenger Amenity, Archive",
    "sfomuseum:classification_id": 581,
    "sfomuseum:collection": "Aviation Archive",
    "sfomuseum:creditline": "Gift of Thomas G. Dragges",
    "sfomuseum:date": "1974",
    "sfomuseum:date_acquired": "2003-12-22",
    "sfomuseum:daterange_end": "1974-12-31",
    "sfomuseum:daterange_start": "1974-01-01",
    "sfomuseum:description": "Safety information card issued by United Air Lines for Douglas DC-8;  blue double-sided card with illustrations demonstrating inflight safety and emergency procedures; identification code: 317; revision date: 5/74.",
    "sfomuseum:dimensions": "10 x 6 inches (25.4 x 15.2 cm)",
    "sfomuseum:medium": "plastic, ink",
    "sfomuseum:object_id": 70052,
    "sfomuseum:placetype": "object",
    "sfomuseum:publication": ": , 1974.",
    "sfomuseum:subcategory": "Safety Information Card",
    "src:geom": "sfomuseum#undetermined",
    "wof:belongsto": [
      102527513,
      1159162825,
      102191575,
      85633793,
      102087579,
      85922583,
      85688637,
      1159160869
    ],
    "wof:country": "XY",
    "wof:created": 1721028725,
    "wof:depicts": [
      1159285415,
      1159290443
    ],
    "wof:geomhash": "c281b9d9eefc83b5710e64b9d646067d",
    "wof:hierarchy": [
      {
        "building_id": -1,
        "campus_id": 102527513,
        "collection_id": 1159162825,
        "concourse_id": 1159162825,
        "continent_id": 102191575,
        "country_id": 85633793,
        "county_id": 102087579,
        "custom_id": 1914622235,
        "locality_id": 85922583,
        "neighbourhood_id": -1,
        "object_id": 1914622235,
        "region_id": 85688637,
        "wing_id": 1159160869
      }
    ],
    "wof:id": 1914622235,
    "wof:lastmodified": 1787988221,
    "wof:name": "safety information card: United Air Lines, Douglas DC-8",
    "wof:parent_id": 1159162825,
    "wof:placetype": "custom",
    "wof:placetype_alt": [
      "object"
    ],
    "wof:repo": "sfomuseum-data-collection",
    "wof:superseded_by": [],
    "wof:supersedes": []
  },
  "bbox": [
    -122.38647222518921,
    37.6161053594541,
    -122.38583385944366,
    37.61661101879963
  ],
  "geometry": {"type":"Polygon","coordinates":[[[-122.38647222518921,37.61631782178288],[-122.386434674263,37.61623283692423],[-122.38637566566466,37.61617759671399],[-122.38630056381224,37.6161308549656],[-122.38616108894348,37.6161053594541],[-122.38602161407469,37.6161308549656],[-122.38591432571411,37.61618609521055],[-122.38585531711577,37.61626683087935],[-122.38583385944366,37.61636881265146],[-122.38587141036987,37.61646654505181],[-122.38594114780425,37.61654303118856],[-122.38605380058287,37.61660252035167],[-122.38618254661559,37.61661101879963],[-122.3863059282303,37.61657277577607],[-122.3864185810089,37.61650903735973],[-122.3864668607712,37.61641130501523],[-122.38647222518921,37.61631782178288]]]}
}
