{
  "id": 1930466103,
  "type": "Feature",
  "properties": {
    "date:cessation_lower": "2002-01-01",
    "date:cessation_upper": "2002-12-31",
    "date:inception_lower": "2002-01-01",
    "date:inception_upper": "2002-12-31",
    "edtf:cessation": "2002",
    "edtf:inception": "2002",
    "geom:area": 2.475047457570636e-7,
    "geom:bbox": "-122.386472,37.616105,-122.385834,37.616611",
    "geom:latitude": 37.61635747477365,
    "geom:longitude": -122.38615540108617,
    "millsfield:aircraft_id": [
      1159289965
    ],
    "millsfield:airline_id": [
      1159285413
    ],
    "millsfield:category_id": 1762671311,
    "millsfield:collection_id": 1511214207,
    "millsfield:company_id": [
      1159293593,
      1159289949
    ],
    "millsfield:images": [
      1930466305,
      1930466307,
      1930466309
    ],
    "millsfield:images_colors_refs": {
      "crayola": [
        {
          "hex": "#cdc5c2"
        },
        {
          "hex": "#6699cc"
        },
        {
          "hex": "#a5694f"
        },
        {
          "hex": "#5d76cb"
        },
        {
          "hex": "#414a4c"
        },
        {
          "hex": "#bf4f51"
        },
        {
          "hex": "#dbd7d2"
        },
        {
          "hex": "#ffae42"
        },
        {
          "hex": "#ff2b2b"
        }
      ],
      "css4": [
        {
          "hex": "#191970"
        },
        {
          "hex": "#b22222"
        },
        {
          "hex": "#a0522d"
        },
        {
          "hex": "#dcdcdc"
        },
        {
          "hex": "#daa520"
        },
        {
          "hex": "#c0c0c0"
        },
        {
          "hex": "#2f4f4f"
        },
        {
          "hex": "#6495ed"
        },
        {
          "hex": "#f4a460"
        },
        {
          "hex": "#4682b4"
        }
      ],
      "marekm4": [
        {
          "hex": "#cabdb6"
        },
        {
          "hex": "#282847"
        },
        {
          "hex": "#a7564b"
        },
        {
          "hex": "#dbb52e"
        },
        {
          "hex": "#e3dfdd"
        },
        {
          "hex": "#d2c9b8"
        },
        {
          "hex": "#312c25"
        },
        {
          "hex": "#c92920"
        },
        {
          "hex": "#252349"
        },
        {
          "hex": "#5ca0db"
        },
        {
          "hex": "#b9453f"
        },
        {
          "hex": "#568ab5"
        },
        {
          "hex": "#dab046"
        }
      ]
    },
    "millsfield:images_texts": [
      "Safety\nB767-300 2 Cabin\nIf you are sitting in an exit row please identify yourself to a crewmember to allow for reseating\nif: You lack the ability to read, speak, or understand the language, or the graphic form, or the\nability to understand oral crew commands in the language specified by the airline.\nSicherheit Wenn Sie in einer Reihe von Sitzen neben einem Notausgang sitzen, müssen Sie\ndie Flugzeugbesatzung verständigen, damit diese Ihnen einen neuen Platz zuteilen kann, sollten Sie:\ndie Sprache nicht sprechen, lesen oder verstehen können, oder die grafischen Darstellungen nicht\nverstehen, oder sollten Sie die mündlichen Anordnungen der Flugzeugbesatzung nicht verstehen.\nSécurité\nSi vous êtes assis sur une rangée située près d'une sortie veuillez vous\nidentifier à un membre de l'équipage afin que l'on puisse vous attribue un autre siège si:\nvous ne pouvez pas lire, parler ou comprendre l'anglais, ou les illustrations graphiques, ou\nbien si vous ne pouvez pas comprendre les instructions orales de l'équipage.\nSeguridad Por favor identifiquese con un tripulante para ser cambiado de asiento si\nusted está sentado en una de las hileras de la salida, y si tiene problemas para: leer,\nentender el idioma, instrucciones gráficas o la dificultad para entender ordenes verbales de\nla tripulación en el idioma utilizado por la aerolínea.\nExit Row Seating\nSelection Criteria: U.S.\nFederal Aviation Administration regulations specify\nprocedures U.S. air carriers must follow concerning exit\nrow seating. No air carrier may seat a person in an exit\nseat if it is determined that it is likely that the person\nwould be unable to perform one or more of the\napplicable functions listed below or depicted on this\nsafety card because the person:\n1) Lacks sufficient mobility, strength, or dexterity in\nboth arms and hands, and both legs to: a) reach upward,\nsideways, and downward to the location of emergency\nexit and exit-slide operating mechanisms; b) grasp and\npush, pull, turn, or otherwise manipulate those\nmechanisms; c) push, shove, pull, or otherwise open\nemergency exits; d) lift out, hold, deposit on nearby\nseats, or maneuver over the seatbacks to the next row\nobjects the size and weight of over-wing window exit\ndoors; e) remove obstructions similar in size and weight\nto over-wing exit doors; f) reach the emergency exit\nexpeditiously; g) maintain balance while removing\nobstructions; h) exit expeditiously; i) stabilize an escape\nslide after deployment; or j) assist others in getting off\nan escape slide;\nFunctions to be performed: In the event of\nan emergency in which a crewmember is not available\nto assist, a passenger occupying an exit row seat may\nbe called upon to perform the following functions:\n1) Locate the emergency exit;\n2)\nRecognize the emergency exit opening mechanism;\n3) Comprehend the instructions for operating the\nemergency exit;\n4) Operate the emergency exit;\n5) Assess whether opening the emergency exit will\nincrease the hazards to which passengers may be exposed;\n6) Follow oral directions and hand signals given by a\ncrewmember;\n7) Stow or secure the emergency exit door so that it will\nnot impede use of the exit;\n8) Assess the condition of an escapeslide, activate the\nslide, and stabilize the slide after deployment to assist\nothers in getting off the slide;\n9) Pass expeditiously through the emergency exit; and\n10) Assess, select, and follow a safe path away from the\nemergency exit.\nThe passenger must identify himself or herself to\nallow reseating if he or she: a) Cannot meet the\n2) Is less than 15 years of age or lacks the capacity\nto perform one or more of the applicable functions\nnondiscernible condition that will prevent him or her\nwithout the assistance of an adult companion,\nfrom performing the applicable functions; c) May\nparent, or other relative;\nsuffer bodily harm as the result of performing one or\n3) Lacks the ability to read and understand instructions\nmore of those functions; or d) Does not wish to\nrelated to emergency evacuation provided by the air\nperform those functions (no reason needs to be given).\ncarrier in printed or graphic form or the ability to\nunderstand oral crew commands;\nFederal Regulations Require All Passengers:\n4) Lacks suficient visual capacity to perform one or\n• Regardless of where they are sitting or\nmore of the applicable functions without the assistance\ntheir physical condition, to review this\nof visual aids beyond contact lenses or eyeglasses;\ncard for their safety;\n5) Lacks sufficient aural capacity to hear and\n•To comply with these instructions, instruct-\nunderstand instructions shouted by flight attendants,\nions of our crew or authorized employees,\nwithout assistance beyond a hearing aid;\n6) Lacks the ability adequately to impart information\nand all posted and lighted signs.\norally to other passengers; or,\nWhen finished reviewing this\ncard\n7) Has: a) a condition or responsibilities, such as caring\nplease return it to the seat pocket for\nfor small children, that might prevent the person from\nour next customer.\nperforming one or more of the applicable functions; or\nb) a condition that might cause the person harm if he or\nshe performs one or more of the applicable functions.\nUNITED",
      "No smoking at any time on board this airplane.\n9 489 9 9\n8903 999849.\nRauchen an Bord dieses Flugzeugs ist Keiner Zeit gestattet.\nInterdiction permanente de fumer à bord de cet avion.\nNo fumar en ningún momento a bordo de este avión.\nTaxi, Take-off, \u0026 Landing\n#17. A2R700474\nRollen, Abflug und Landung\nDéplacement au sol, décollage et atterrissage\nDurante el rodaje, el despegue, y el aterrizaje\nDo not use...\n9258\nBenutzen Sie nicht...\nNe pas utiliser...\nNo use...\nOxygen\nSauerstoff\nOxygène\nOxigeno\nEmergency exits\n\"27\nNotausgänge\nSorties de secours\nSalidas de emergencia\nB\nA\nExit\n#*0\nAusgang\nSortie\nSalida\nB\n•d\nWhile seated\nWährend Sie sitzen\nLorsque vous êtes assis\nMientras está sentado\n2\n5г",
      "CA 368 Rev. 5/02\nLife Rafts\n7995\nSchlauchboote\nCanot pneumatique\nBalsas salvavidas\n2\n3\n2\nCopyright © 2002 Aero Safety Graphics Inc. All Rights Reserved. Printed in the U.S.A."
    ],
    "millsfield:images_texts_ids": [
      1930466305,
      1930466307,
      1930466309
    ],
    "millsfield:primary_image": 1930466305,
    "millsfield:subcategory_id": 1511213703,
    "mz:is_approximate": 1,
    "mz:is_current": 1,
    "sfomuseum:accession_number": "2002.127.717",
    "sfomuseum:aircraft": "Boeing 767-300",
    "sfomuseum:aircraft_id": [
      272
    ],
    "sfomuseum:airline": "United Airlines",
    "sfomuseum:airline_id": [
      883
    ],
    "sfomuseum:category": "Passenger Amenity, Archive",
    "sfomuseum:classification_id": 581,
    "sfomuseum:collection": "Aviation Archive",
    "sfomuseum:creditline": "Gift of Thomas G. Dragges",
    "sfomuseum:date": "2002",
    "sfomuseum:date_acquired": "2003-12-22",
    "sfomuseum:daterange_end": "2002-12-31",
    "sfomuseum:daterange_start": "2002-01-01",
    "sfomuseum:description": "Safety information card issued by United Airlines for its Boeing 767-300 fleet; white and dark blue double-sided tri-fold card with illustrations demonstrating inflight safety and emergency procedures; identification code: CA 368; revision date: 5/02.",
    "sfomuseum:dimensions": "11 x 5 1/2 inches (27.9 x 14 cm)",
    "sfomuseum:maker": "Aero Safety Graphics Inc.",
    "sfomuseum:medium": "paper, ink",
    "sfomuseum:object_id": 70619,
    "sfomuseum:placetype": "object",
    "sfomuseum:publication": ": , 2002.",
    "sfomuseum:subcategory": "Safety Information Card",
    "src:geom": "sfomuseum#undetermined",
    "wof:belongsto": [
      102527513,
      1159162825,
      102191575,
      85633793,
      102087579,
      85922583,
      85688637,
      1159160869
    ],
    "wof:country": "XY",
    "wof:created": 1722065625,
    "wof:depicts": [
      1159293593,
      1159289949,
      1159285413,
      1159289965
    ],
    "wof:geomhash": "c281b9d9eefc83b5710e64b9d646067d",
    "wof:hierarchy": [
      {
        "building_id": -1,
        "campus_id": 102527513,
        "collection_id": 1159162825,
        "concourse_id": 1159162825,
        "continent_id": 102191575,
        "country_id": 85633793,
        "county_id": 102087579,
        "custom_id": 1930466103,
        "locality_id": 85922583,
        "neighbourhood_id": -1,
        "object_id": 1930466103,
        "region_id": 85688637,
        "wing_id": 1159160869
      }
    ],
    "wof:id": 1930466103,
    "wof:lastmodified": 1787988221,
    "wof:name": "safety information card: United Airlines, Boeing 767-300",
    "wof:parent_id": 1159162825,
    "wof:placetype": "custom",
    "wof:placetype_alt": [
      "object"
    ],
    "wof:repo": "sfomuseum-data-collection",
    "wof:superseded_by": [],
    "wof:supersedes": []
  },
  "bbox": [
    -122.38647222518921,
    37.6161053594541,
    -122.38583385944366,
    37.61661101879963
  ],
  "geometry": {"type":"Polygon","coordinates":[[[-122.38647222518921,37.61631782178288],[-122.386434674263,37.61623283692423],[-122.38637566566466,37.61617759671399],[-122.38630056381224,37.6161308549656],[-122.38616108894348,37.6161053594541],[-122.38602161407469,37.6161308549656],[-122.38591432571411,37.61618609521055],[-122.38585531711577,37.61626683087935],[-122.38583385944366,37.61636881265146],[-122.38587141036987,37.61646654505181],[-122.38594114780425,37.61654303118856],[-122.38605380058287,37.61660252035167],[-122.38618254661559,37.61661101879963],[-122.3863059282303,37.61657277577607],[-122.3864185810089,37.61650903735973],[-122.3864668607712,37.61641130501523],[-122.38647222518921,37.61631782178288]]]}
}
