{
  "id": 1914555611,
  "type": "Feature",
  "properties": {
    "date:cessation_lower": "1994-01-01",
    "date:cessation_upper": "1994-12-31",
    "date:inception_lower": "1994-01-01",
    "date:inception_upper": "1994-12-31",
    "edtf:cessation": "1994",
    "edtf:inception": "1994",
    "geom:area": 2.475047457570636e-7,
    "geom:bbox": "-122.386472,37.616105,-122.385834,37.616611",
    "geom:latitude": 37.61635747477365,
    "geom:longitude": -122.38615540108617,
    "millsfield:aircraft_id": [
      1159291227
    ],
    "millsfield:airline_id": [
      1159284489
    ],
    "millsfield:category_id": 1762671311,
    "millsfield:collection_id": 1511214207,
    "millsfield:company_id": [
      1159291223
    ],
    "millsfield:images": [
      1914556291,
      1914556295,
      1914556297
    ],
    "millsfield:images_colors_refs": {
      "crayola": [
        {
          "hex": "#ceff1d"
        },
        {
          "hex": "#efdecd"
        },
        {
          "hex": "#1dacd6"
        },
        {
          "hex": "#000000"
        },
        {
          "hex": "#9c2542"
        },
        {
          "hex": "#414a4c"
        },
        {
          "hex": "#1974d2"
        },
        {
          "hex": "#dbd7d2"
        }
      ],
      "css4": [
        {
          "hex": "#000000"
        },
        {
          "hex": "#b22222"
        },
        {
          "hex": "#2f4f4f"
        },
        {
          "hex": "#191970"
        },
        {
          "hex": "#6495ed"
        },
        {
          "hex": "#ffd700"
        },
        {
          "hex": "#dcdcdc"
        },
        {
          "hex": "#1e90ff"
        }
      ],
      "marekm4": [
        {
          "hex": "#3c9ade"
        },
        {
          "hex": "#e1dfda"
        },
        {
          "hex": "#1489db"
        },
        {
          "hex": "#293226"
        },
        {
          "hex": "#ddce11"
        },
        {
          "hex": "#be0d0a"
        },
        {
          "hex": "#e5e1d4"
        },
        {
          "hex": "#252319"
        },
        {
          "hex": "#300642"
        },
        {
          "hex": "#e3ded5"
        }
      ]
    },
    "millsfield:images_texts": [
      "HAWALAN.\nAIRLINES\nFor Your Safety\nPour Votre Sécurité\nFür Ihre Sicherheit\nPara Su Seguridad\nNo To kotou Meitaki\nMo Lou Saogalemu\nFEDERAL REGULATIONS REQUIRE\nTHAT ALL PASSENGERS COMPLY WITH ANY\nILLUMINATED SIGN, PRINTED PLACARD\nAND / OR VERBAL SAFETY INSTRUCTIONS\nGIVEN BY A CREWMEMBER\nblease do not nemove card from aircralt",
      "Oxygen\nOxigeno\nSauerstoff\nOssigeno\nOxygene\n3\nEXIT SEAT\nINSTRUCTIONS\nWenn Sie neben einem Ausgang sitzen und Sie verstehen\nkein Englisch, bitte verständigen Sie die Flugzeugbesatzung.\nSi vous êtes assis dans une rangée de sièges à côté d'une\nsortie et ne comprenez pas la langue anglaise, veuillez\nle dire à un membre de l'équipage.\nSi usted se encuentra sentado en una corda de asientos\npróxima a una salida y no entiende el idioma Inglés como\npara seguir estas instrucciones por favor avisele a una\nazatata.\nIF YOU ARE SEATED IN AN EMERGENCY EXIT\n2.\nARE YOU LESS THAN 15 YEARS OF AGE\nROW: U.S. FEDERAL AVIATION REGULATIONS\nOR DO YOU LACK CAPACITY TO PER-\nREQUIRE THAT\nPASSENGERS\nSEATED\nIN\nFORM ONE OR MORE OF THE ABOVE\nDESIGNATED EMERGENCY EXIT ROWS MUST\nFUNCTIONS WITHOUT THE ASSISTANCE\nHAVE SUFFICIENT MOBILITY, STRENGTH AND\nOF AN ADULT COMPANION, PARENT OR\nDEXTERITY TO OPEN THE EMERGENCY EXITS\nOTHER RELATIVE\nIN THE EVENT OF AN EMERGENCY IN WHICH\n3.\nDO YOU LACK ABILITY TO READ AND\nCREWMEMBER IS NOT AVAILABLE TO\nUNDERSTAND INSTRUCTIONS RELATED\nASSIST. ANOTHER SEAT ASSIGNMENT IS RE-\nTO EMERGENCY EVACUATION PROVID-\nQUIRED IF YOU DO NOT WANT TO OR ARE\nED BY THE AIRLINE IN PRINTED OR\nUNABLE TO HELP IN THE EVENT OF AN\nGRAPHIC FORM OR THE ABILITY TO\nEMERGENCY FOR ANY OF THE FOLLOWING\nUNDERSTAND ORAL CREW COMMANDS\nREASONS:\nIN\nTHE LANGUAGE USED BY THE\n1.\nDO YOU LACK STRENGTH, DEXTERITY\nAIRLINE.\nOR MOBILITY IN BOTH ARMS AND HANDS\n4.\nDO\nYOU LACK\nSUFFICIENT VISUAL\nAND BOTH LEGS:\nCAPACITY TO PERFORM ONE OR MORE\nA.\nTO REACH UPWARD, SIDEWAYS\nOF THE ABOVE FUNCTIONS WITHOUT\nAND DOWNWARD TO THE LOCA-\nTHE ASSISTANCE\nOF\nVISUAL\nAIDS\nTION OF EMERGENCY EXIT AND EX-\nBEYOND\nCONTACT\nLENSES\nOR\nIT SLIDE OPERATING MECHANISMS:\nEYEGLASSES.\nB.\nTO GRASP AND PUSH, PULL, TURN,\nOR OTHERWISE\nMANIPULATE\n5.\nDO YOU LACK THE SUFFICIENT AURAL\nCAPACITY TO HEAR AND UNDERSTAND\nTHOSE MECHANISMS;\nC.\nTO PUSH,\nSHOVE.\nPULL.\nOR\nINSTRUCTIONS\nSHOUTED\nBY\nCREWMEMBERS WITHOUT ASSISTANCE\nOTHERWISE OPEN EMERGENCY\nBEYOND A HEARING AID.\nD.\nEXITS:\n6.\nDO YOU LACK THE ABILITY TO ADE-\nTO LIFT OUT, HOLD, DEPOSIT ON\nQUATELY IMPART INFORMATION ORAL•\nNEARBY SEATS,\nOR MANEUVER\nLY TO OTHER PASSENGERS.\nOVER THE\nSEATBACKS TO THE\n7.\nDO YOU HAVE:\nNEXT ROW OBJECTS THE SIZE AND\nWEIGHT\nOF\nOVERWING EXIT\nA.\nA CONDITION OR RESPONSIBILITY\nSUCH AS CARING FOR\nSMALL\nDOORS;\nCHILDREN THAT WOULD PREVENT\nE.\nTO\nREMOVE OBSTRUCTIONS\nYOU FROM PERFORMING ONE OR\nSIMILAR IN SIZE AND WEIGHT TO\nMORE OF THE ABOVE FUNCTIONS\nOVERWING EXIT DOORS;\nOR\nF. TO REACH THE EMERGENCY EXIT\nG.\nEXPEDITIOUSLY:\nB.\nA CONDITION THAT MIGHT CAUSE\nYOU PERSONAL HARM IF YOU PER-\nTO MAINTAIN\nBALANCE WHILE\nFORM ONE OR MORE OF THE\nH.\nREMOVING OBSTRUCTIONS:\nLISTED FUNCTIONS.\nTO EXIT EXPEDITIOUSLY;\nNOW, PRIOR TO TAKEOFF, CAREFULLY STUDY\n1.\nTO STABILIZE AN ESCAPE SLIDE\nAND FULLY UNDERSTAND THE FUNCTIONS IN-\nAFTER DEPLOYMENT; OR\nDICATED ON THIS CARD. PLEASE CONTACT A\nJ.\nTO ASSIST OTHERS IN GETTING\nCREWMEMBER IF YOU HAVE ANY QUESTIONS.\nOFF THE ESCAPE SLIDE.\nCARDSAFETY -50A\nP/N 9430438\nREF.",
      "A\nB\nA\nUNDER VOU SEAT\nOR\n3\nC\nEXIT\nSortie de secours\nNotausgang\nUscita di emergenza\nSalida de urgencia\ns,labal ala ea\nT#P9\n\"EÇOSOS KIVSÚVOU\nA\nCopyright © 1993 Cabin Safety International Ltd.\nBox 737, Claymont, DE 19703-0737 U.S.A.\nTel: (410) 275-8822\nFax: (410) 275-1121\nLanding on water Wl benal\nAmerrisage\nKa 782 00\nWasserung\nAmmaraggio\nAvayKaoTıKn\nAmaraje"
    ],
    "millsfield:images_texts_ids": [
      1914556291,
      1914556295,
      1914556297
    ],
    "millsfield:primary_image": 1914556291,
    "millsfield:subcategory_id": 1511213703,
    "mz:is_approximate": 1,
    "mz:is_current": 1,
    "sfomuseum:accession_number": "2002.127.326",
    "sfomuseum:aircraft": "Douglas DC-9 Series 50",
    "sfomuseum:aircraft_id": [
      850
    ],
    "sfomuseum:airline": "Hawaiian Airlines",
    "sfomuseum:airline_id": [
      457
    ],
    "sfomuseum:category": "Passenger Amenity, Archive",
    "sfomuseum:classification_id": 581,
    "sfomuseum:collection": "Aviation Archive",
    "sfomuseum:creditline": "Gift of Thomas G. Dragges",
    "sfomuseum:date": "1994",
    "sfomuseum:date_acquired": "2003-12-22",
    "sfomuseum:daterange_end": "1994-12-31",
    "sfomuseum:daterange_start": "1994-01-01",
    "sfomuseum:description": "Safety information card issued by Hawaiian Airlines for its Douglas DC-9-50 fleet; purple double-sided tri-fold card with illustrations demonstrating inflight safety and emergency procedures; identification code: D9S-8-38-11-94 50A P/N 9430438; revision date: 11/94. ",
    "sfomuseum:dimensions": "11 x 5 1/2 inches (27.9 x 14 cm)",
    "sfomuseum:maker": "Cabin Safety International Ltd.",
    "sfomuseum:medium": "paper, ink",
    "sfomuseum:object_id": 68897,
    "sfomuseum:placetype": "object",
    "sfomuseum:publication": ": , 1994.",
    "sfomuseum:subcategory": "Safety Information Card",
    "src:geom": "sfomuseum#undetermined",
    "wof:belongsto": [
      102527513,
      1159162825,
      102191575,
      85633793,
      102087579,
      85922583,
      85688637,
      1159160869
    ],
    "wof:country": "XY",
    "wof:created": 1720459756,
    "wof:depicts": [
      1159291227,
      1159291223,
      1159284489
    ],
    "wof:geomhash": "c281b9d9eefc83b5710e64b9d646067d",
    "wof:hierarchy": [
      {
        "building_id": -1,
        "campus_id": 102527513,
        "collection_id": 1159162825,
        "concourse_id": 1159162825,
        "continent_id": 102191575,
        "country_id": 85633793,
        "county_id": 102087579,
        "custom_id": 1914555611,
        "locality_id": 85922583,
        "neighbourhood_id": -1,
        "object_id": 1914555611,
        "region_id": 85688637,
        "wing_id": 1159160869
      }
    ],
    "wof:id": 1914555611,
    "wof:lastmodified": 1787988221,
    "wof:name": "safety information card: Hawaiian Airlines, Douglas DC-9-50",
    "wof:parent_id": 1159162825,
    "wof:placetype": "custom",
    "wof:placetype_alt": [
      "object"
    ],
    "wof:repo": "sfomuseum-data-collection",
    "wof:superseded_by": [],
    "wof:supersedes": []
  },
  "bbox": [
    -122.38647222518921,
    37.6161053594541,
    -122.38583385944366,
    37.61661101879963
  ],
  "geometry": {"type":"Polygon","coordinates":[[[-122.38647222518921,37.61631782178288],[-122.386434674263,37.61623283692423],[-122.38637566566466,37.61617759671399],[-122.38630056381224,37.6161308549656],[-122.38616108894348,37.6161053594541],[-122.38602161407469,37.6161308549656],[-122.38591432571411,37.61618609521055],[-122.38585531711577,37.61626683087935],[-122.38583385944366,37.61636881265146],[-122.38587141036987,37.61646654505181],[-122.38594114780425,37.61654303118856],[-122.38605380058287,37.61660252035167],[-122.38618254661559,37.61661101879963],[-122.3863059282303,37.61657277577607],[-122.3864185810089,37.61650903735973],[-122.3864668607712,37.61641130501523],[-122.38647222518921,37.61631782178288]]]}
}
