{
  "id": 1511956633,
  "type": "Feature",
  "properties": {
    "date:cessation_lower": "1981-01-01",
    "date:cessation_upper": "1981-12-31",
    "date:inception_lower": "1980-01-01",
    "date:inception_upper": "1980-12-31",
    "edtf:cessation": "1981",
    "edtf:date": "1980",
    "edtf:inception": "1980",
    "geom:area": 0,
    "geom:bbox": "-122.386155,37.616357,-122.386155,37.616357",
    "geom:latitude": 37.616357,
    "geom:longitude": -122.386155,
    "iso:country": "XX",
    "millsfield:airline_id": [
      1159284989
    ],
    "millsfield:category_id": 1511214223,
    "millsfield:collection_id": 1511214207,
    "millsfield:company_id": [
      1159286839
    ],
    "millsfield:images": [
      1527853631
    ],
    "millsfield:images_colors_refs": {
      "crayola": [
        {
          "hex": "#a5694f"
        },
        {
          "hex": "#414a4c"
        },
        {
          "hex": "#fdbcb4"
        },
        {
          "hex": "#cd9575"
        }
      ],
      "css4": [
        {
          "hex": "#ffb6c1"
        },
        {
          "hex": "#e9967a"
        },
        {
          "hex": "#cd5c5c"
        },
        {
          "hex": "#2f4f4f"
        }
      ],
      "marekm4": [
        {
          "hex": "#3d231d"
        },
        {
          "hex": "#ce8f73"
        },
        {
          "hex": "#fdc5b5"
        },
        {
          "hex": "#9e665a"
        }
      ]
    },
    "millsfield:images_texts": [
      ".100.-\nORD\nLHR\nBRU\nDXE\nDEL\n• 40 c\nBRU\nJFK\na0 n\nORD\nLAX\nNAN\nSYD\nAKL\nSYD\nMIA\nGUA\nMAR\n....\nMIA\nfrom\n3518\n1-54\nHours\nGMT\n*2\n+1\nEASTBOUNC\nNEW TORANCHARAdl\nCHICAGO, O'Hare..\nLONDON, Heathrow\nBRUSSELS\nLONDON\nHeathrow\nFRANKFURT\nDELHI\nWESTBOUND\nDELHI\nDUBAI\nBERLIN,\nLONDON, Heathrow\nBRUSSELS.\nLONDON, Heathrow\nI NEW YORK/NEWARK, J. F. Kennedy International\nATLANTIC ALL-CARGO SERVICES\nTu Fr\n+\ndep\ndes\ndep\narr\ndep\n05 45\n21\n161\n74F\n21'50\n00 10\nTh\n04 30\n19'45\nWe Sa\n21 00\nSu\nWe\n88-00\n- NO\nFr\n120\n19 4g\n85\n00'10\n07\n40\n12 30\n13'30\n03 35 03 35 / 03'35\n899\n16 25\n09 30\n/ 19 30\nTh\n167\n=99\n16:\n28\nPA\n74F\n22\n00\n35\nMo\n20\n45\n23 30\nHours\nfron\nAMT\n-7\n+ 10\n+12\n+ 10\nHours\nGMT\nHours\nGHT\nPACIFIC ALL-CARGO SERVICES\nWESTBOUND\n851\n16 00\n18 35\n06\n13 25\nEASTBOUND\nNEW YORK NEWARK, J. F. Kennedy Int'l\nCHICAGO, 'Hare\n• LOS ANGELES\ndep)\nMAD INTERNATIONAL DATE LINE\nSYDNEY …...\ndep!\narr\nSYDNEY....\nX-Operational landing.\nart\nder\ndep\narr\ndep\nTu\n0s 40\n50\n20\n8 30\n22\nSOUTHBOUND\nNEW YORK/NEWARK, J. F. Kennedy International\nGUATEMALA CITY\nPORT OESPAIN TRINIDAD TOBAGO\nSAO PAULO.\nViracopos\nKHOONL\nSAO PAULO.\nORT OF SPAIN (TRINIDAD-TOBAGC\nMARACAIBO\nUATEMALA CITY.\nNEW YORK/NEWARK, J.\nLATIN AMERICA ALL-CARGO SERVICES\nWe Sa\n793\nWe\n04 30\n17 45\nWe\n741\n00\n45\n08 s5\n74F\n08\n15\n11 20\n23\nFr Sa\n475\n74F\n00\nWe\n14\n00\n20\n35\nTu\n21\nWe\n02\n40\nMo\n263\n$8\nFr\n06\n00\nTu\n08\n45\n12 10\nTu\n74F\nFr\n14'55\n14 40\n18 20\nTh\n13\n45\n16 25\n17 30\nTh\n19 00\n21\n10"
    ],
    "millsfield:images_texts_ids": [
      1527853631
    ],
    "millsfield:primary_image": 1527853631,
    "millsfield:subcategory_id": 1511213425,
    "mz:hierarchy_label": 1,
    "mz:is_current": 1,
    "sfomuseum:accession_number": "2005.127.002.009",
    "sfomuseum:airline": "Pan American World Airways",
    "sfomuseum:airline_id": [
      684
    ],
    "sfomuseum:category": "Scheduling / Ticketing",
    "sfomuseum:classification_id": 158,
    "sfomuseum:collection": "Aviation Archive",
    "sfomuseum:creditline": "Gift of the William Hough Collection",
    "sfomuseum:date": "1980-1981",
    "sfomuseum:date_acquired": "2006-12-14",
    "sfomuseum:daterange_end": "1981-12-31",
    "sfomuseum:daterange_start": "1980-01-01",
    "sfomuseum:description": "Cargo schedule for Pan American World Airways; single-sided on pink paper; with information on services in the Atlantic, Latin America and Pacific; part of 11 issues dated 1980-1981.",
    "sfomuseum:dimensions": "14 x 8 1/2 inches (35.6 x 21.6 cm)",
    "sfomuseum:media_ids": [
      1527853631
    ],
    "sfomuseum:medium": "paper, ink",
    "sfomuseum:object_id": 151532,
    "sfomuseum:placetype": "object",
    "sfomuseum:primary_media_id": 1527853631,
    "sfomuseum:publication": ": , 1980-1981.",
    "sfomuseum:subcategory": "Timetable",
    "src:geom": "sfomuseum#undetermined",
    "wof:belongsto": [
      1511214223,
      102527513,
      102191575,
      85633793,
      1511213425,
      85922583,
      102087579,
      1511214277,
      1511214207,
      85688637
    ],
    "wof:breaches": [],
    "wof:country": "XX",
    "wof:created": 1579906659,
    "wof:depicts": [
      1159284991,
      1159284989,
      1159286839
    ],
    "wof:geomhash": "30c8a918561c84bb2daa2b97fc7c5353",
    "wof:hierarchy": [
      {
        "arcade_id": 1511213425,
        "building_id": 1511214277,
        "campus_id": 102527513,
        "concourse_id": 1511214223,
        "continent_id": 102191575,
        "country_id": 85633793,
        "county_id": 102087579,
        "custom_id": 1511956633,
        "locality_id": 85922583,
        "neighbourhood_id": -1,
        "object_id": 1511956633,
        "region_id": 85688637,
        "venue_id": 1511956633,
        "wing_id": 1511214207
      }
    ],
    "wof:id": 1511956633,
    "wof:lastmodified": 1787988190,
    "wof:name": "timetable: Pan American World Airways, cargo schedule",
    "wof:parent_id": 1159162825,
    "wof:placetype": "custom",
    "wof:placetype_alt": [
      "object"
    ],
    "wof:repo": "sfomuseum-data-collection",
    "wof:superseded_by": [],
    "wof:supersedes": [],
    "wof:tags": []
  },
  "bbox": [
    -122.386155,
    37.616357,
    -122.386155,
    37.616357
  ],
  "geometry": {"type":"Point","coordinates":[-122.386155,37.616357]}
}
