{
  "id": 1914555607,
  "type": "Feature",
  "properties": {
    "date:cessation_lower": "1992-01-01",
    "date:cessation_upper": "1992-12-31",
    "date:inception_lower": "1992-01-01",
    "date:inception_upper": "1992-12-31",
    "edtf:cessation": "1992",
    "edtf:inception": "1992",
    "geom:area": 2.475047457570636e-7,
    "geom:bbox": "-122.386472,37.616105,-122.385834,37.616611",
    "geom:latitude": 37.61635747477365,
    "geom:longitude": -122.38615540108617,
    "millsfield:aircraft_id": [
      1159289859
    ],
    "millsfield:airline_id": [
      1159284755
    ],
    "millsfield:category_id": 1762671311,
    "millsfield:collection_id": 1511214207,
    "millsfield:company_id": [
      1159293593,
      1159289819
    ],
    "millsfield:images": [
      1914556195,
      1914556197,
      1914556199
    ],
    "millsfield:images_colors_refs": {
      "crayola": [
        {
          "hex": "#414a4c"
        },
        {
          "hex": "#cdc5c2"
        },
        {
          "hex": "#ffcf48"
        },
        {
          "hex": "#efdecd"
        },
        {
          "hex": "#ffae42"
        },
        {
          "hex": "#dbd7d2"
        },
        {
          "hex": "#9c2542"
        },
        {
          "hex": "#000000"
        }
      ],
      "css4": [
        {
          "hex": "#b22222"
        },
        {
          "hex": "#daa520"
        },
        {
          "hex": "#2f4f4f"
        },
        {
          "hex": "#000000"
        },
        {
          "hex": "#faebd7"
        },
        {
          "hex": "#d3d3d3"
        }
      ],
      "marekm4": [
        {
          "hex": "#ddcfc3"
        },
        {
          "hex": "#d8bd42"
        },
        {
          "hex": "#261d1b"
        },
        {
          "hex": "#ece6d8"
        },
        {
          "hex": "#dbd0c1"
        },
        {
          "hex": "#e1cd30"
        },
        {
          "hex": "#312426"
        },
        {
          "hex": "#b41c25"
        },
        {
          "hex": "#2f2423"
        },
        {
          "hex": "#b8202c"
        }
      ]
    },
    "millsfield:images_texts": [
      "Alaska is our home.\nBOEING\n737-400\nFOR YOUR SAFETY\nIf you are sitting in an exit row please identify yourself to a crew member to allow for reseating if: You lack the ability to read,\nspeak, or understand English, or the graphic form, or the ability to understand oral crew commands.\nPIYAQQUŁUKTAIRRUTIKSRAGNUN\nKANIQSISIUTKUVIN TANIKTUN, AASI AQUPPINIGUVIN ANNIVIGMI, KILIKSAGIN SAVAKTI\nPICURLANRITLLERKARPIGUN\nAQUMGAKUVET ANVIIM TUMYARANI, CALI TARINGUILLKUVET KASSATUN, QANRUUTNAIRACI TENGSSUUTMI CALISTA\nFÜR IHRE SICHERHEIT\nWenn Si in einer Reihe von Sitzen neben einem Notausgang sitzen, müssen Sie die Flugzeugbesatzung verständigen, damit\ndiese Ihnen einen neuen Platz zuteilen kann, sollten Sie: Englisch nicht sprechen, lesen oder verstehen können, oder die\ngrafischen Darstellungen nicht verstehen, oder sollten Sie die mündlichen Anordnungen der Flugzeugbesatzung nicht verstehen.\nPOUR VOTRE SÉCURITÉ\nSi vous êtes assis sur une rangée située près d'une sortie veuillez vous identifier à un membre de l'equipage afin que l'on\nvous attribue un autre siège si: vous ne pouvez pas lire, parler ou comprendre la l'anglais ou les illustrations graphiques,\nou bien si vous ne pouvez comprendre les instructions orales de l'equipage.\nPARA SU SEGURIDAD\nPor favor identifiquese con un tripulante para ser cambiado de asiento si usted está sentado en una de las hilera de la salida,\ny si tiene problemas para: leer, hablar, y entender inglés, instrucciones gráficas o la dificultad para entender ordenes verbales\nde la tripulación.\nEmergency exits are often heavy, awkward to lift, push, pull, and maneuver when opening. Because of this, and for the\nbenefit of all passengers, Federal Law requires that only consenting, able-bodied passengers, sit in a row of seats next to\nan exit. If you are sitting in an exit row, you may be asked to open the exit and assist our crew in the event of an emergency.\nIF YOU ARE SITTING IN AN EXIT ROW PLEASE ASK TO BE RESEATED IF YOU ARE UNABLE TO PERFORM THE\nFUNCTIONS SHOWN ON THIS CARD BECAUSE:\n•You lack sufficient mobility, strength, or dexterity on both arms and hands, and both legs to:\n-Reach upward, sideways, and downward to the location of emergency exit and exit slide operating mechanisms;\n-Grasp and push, pull, turn, or otherwise manipulate those mechanisms;\n-Push, shove, pull, or otherwise open emergency exits;\n-Lift out, hold, deposit on nearby seats, or maneuver over the seatbacks to the next row objects the size and weight of\nover-wing window exit doors;\n-Remove obstructions similar in size and weight to over-wing exit doors;\n•Reach the emergency exit expeditiously;\n-Maintain balance while removing obstructions;\n-Exit expeditiously;\n-Stabilize an escape slide after deployment, or;\n-Assist others in getting off an escape slide;\n•You are less than 15 years of age or lack the capacity to perform one or more of the applicable functions shown on this\ncard without the assistance of an adult companion, parent, or other relative;\n•You lack sufficient visual capacity to perform one or more of the applicable functions shown on this card without the\nassistance of visual aids beyond contact lenses or eye glasses;\n•You lack sufficient aural capacity to hear and understand instructions shouted by flight attendants without the assistance\nbeyond a hearing aid;\n•You lack the ability adequately to impart information orally to other passengers;\n•You have a condition or responsibility, such as caring for small children, that might prevent you from performing one or\nmore of the applicable functions;\n•You have a condition that might cause yourself harm if you perform one or more of the applicable functions.\nFederal law requires that all passengers, regardless of where they are sitting or their physical condition, review this\nimportant information.\nFollow these instructions, the directions of the crew, and posted signs.\nPlease do not remove this card from the aircraft.",
      "Take-off \u0026 landing\nOxygen masks\nPull mask to start oxygen flow.\nEmergency exits\nKnow the location and operation of all exits.\nBefore opening an exit, quickly look through a window and check outside for the following:\nSmoke\nFire\nDebris/\nObstructions\nExit operation\nA\nIf the smoke is so thick you\ncan not see out, redirect\npassengers to other exits.\nIf there is fire outside the\naircraft redirect passengers\nto other exits.\nIf there are obstructions or\nmetal debris outside, redirect\npassengers to other exits.\nRotate handle in direction of arrow.\nThe door comes in, then push out.\nCheck that the slide has properly\ninflated and is in good condition.\nFollow lights to the exits.\nExit location\nBB/CA\nA\nExit operation\nB\nA\nEXIT\nPull handle down.\nLift window in.\nPut window out of escape path.\nExit leg-head-leg.\nPut your mask on first before\nhelping others.\nIf necessary, use handles to\nstabilize slide.\n....\nExit quickly.",
      "Life vest\n4\n2\n3\nIn water, before opening the door, look to see how high the water level is. Do not open the\ndoor if the water is above the door sill.\nCopyright © Aero Safety Graphics Inc., 1992. All Rights Reserved. Olympia, WA. USA (206) 357-9736\nPS-0014 (1/92)\n2002.127.379"
    ],
    "millsfield:images_texts_ids": [
      1914556195,
      1914556197,
      1914556199
    ],
    "millsfield:primary_image": 1914556195,
    "millsfield:subcategory_id": 1511213703,
    "mz:is_approximate": 1,
    "mz:is_current": 1,
    "sfomuseum:accession_number": "2002.127.379",
    "sfomuseum:aircraft": "Boeing 737-400",
    "sfomuseum:aircraft_id": [
      225
    ],
    "sfomuseum:airline": "MarkAir",
    "sfomuseum:airline_id": [
      579
    ],
    "sfomuseum:category": "Passenger Amenity, Archive",
    "sfomuseum:classification_id": 581,
    "sfomuseum:collection": "Aviation Archive",
    "sfomuseum:creditline": "Gift of Thomas G. Dragges",
    "sfomuseum:date": "1992",
    "sfomuseum:date_acquired": "2003-12-22",
    "sfomuseum:daterange_end": "1992-12-31",
    "sfomuseum:daterange_start": "1992-01-01",
    "sfomuseum:description": "Safety information card issued by MarkAir for the Boeing 737-400 fleet; white double-sided tri-fold card with illustrations depicting inflight safety and emergency procedures; identification code: PS-0014; revision date: 1/92.",
    "sfomuseum:dimensions": "9 1/2 x 5 1/2 inches (24.1 x 14 cm)",
    "sfomuseum:maker": "Aero Safety Graphics Inc.",
    "sfomuseum:medium": "paper, ink",
    "sfomuseum:object_id": 69021,
    "sfomuseum:placetype": "object",
    "sfomuseum:publication": ": , 1992.",
    "sfomuseum:subcategory": "Safety Information Card",
    "src:geom": "sfomuseum#undetermined",
    "wof:belongsto": [
      102527513,
      1159162825,
      102191575,
      85633793,
      102087579,
      85922583,
      85688637,
      1159160869
    ],
    "wof:country": "XY",
    "wof:created": 1720459755,
    "wof:depicts": [
      1159289859,
      1159293593,
      1159289819,
      1159284755
    ],
    "wof:geomhash": "c281b9d9eefc83b5710e64b9d646067d",
    "wof:hierarchy": [
      {
        "building_id": -1,
        "campus_id": 102527513,
        "collection_id": 1159162825,
        "concourse_id": 1159162825,
        "continent_id": 102191575,
        "country_id": 85633793,
        "county_id": 102087579,
        "custom_id": 1914555607,
        "locality_id": 85922583,
        "neighbourhood_id": -1,
        "object_id": 1914555607,
        "region_id": 85688637,
        "wing_id": 1159160869
      }
    ],
    "wof:id": 1914555607,
    "wof:lastmodified": 1787988221,
    "wof:name": "safety information card: MarkAir, Boeing 737-400",
    "wof:parent_id": 1159162825,
    "wof:placetype": "custom",
    "wof:placetype_alt": [
      "object"
    ],
    "wof:repo": "sfomuseum-data-collection",
    "wof:superseded_by": [],
    "wof:supersedes": []
  },
  "bbox": [
    -122.38647222518921,
    37.6161053594541,
    -122.38583385944366,
    37.61661101879963
  ],
  "geometry": {"type":"Polygon","coordinates":[[[-122.38647222518921,37.61631782178288],[-122.386434674263,37.61623283692423],[-122.38637566566466,37.61617759671399],[-122.38630056381224,37.6161308549656],[-122.38616108894348,37.6161053594541],[-122.38602161407469,37.6161308549656],[-122.38591432571411,37.61618609521055],[-122.38585531711577,37.61626683087935],[-122.38583385944366,37.61636881265146],[-122.38587141036987,37.61646654505181],[-122.38594114780425,37.61654303118856],[-122.38605380058287,37.61660252035167],[-122.38618254661559,37.61661101879963],[-122.3863059282303,37.61657277577607],[-122.3864185810089,37.61650903735973],[-122.3864668607712,37.61641130501523],[-122.38647222518921,37.61631782178288]]]}
}
