{
  "id": 1511937489,
  "type": "Feature",
  "properties": {
    "date:cessation_lower": "1933-01-01",
    "date:cessation_upper": "1933-12-31",
    "date:inception_lower": "1933-01-01",
    "date:inception_upper": "1933-12-31",
    "edtf:cessation": "1933",
    "edtf:date": "1933",
    "edtf:inception": "1933",
    "geom:area": 0,
    "geom:bbox": "-122.386155,37.616357,-122.386155,37.616357",
    "geom:latitude": 37.616357,
    "geom:longitude": -122.386155,
    "iso:country": "XX",
    "millsfield:aircraft_id": [
      1159289609
    ],
    "millsfield:airline_id": [
      1159285415
    ],
    "millsfield:category_id": 1511214223,
    "millsfield:collection_id": 1511214207,
    "millsfield:company_id": [
      1159293593,
      1159289607
    ],
    "millsfield:images": [
      1527837967,
      1527851523
    ],
    "millsfield:images_colors_refs": {
      "crayola": [
        {
          "hex": "#ceff1d"
        },
        {
          "hex": "#dbd7d2"
        },
        {
          "hex": "#414a4c"
        },
        {
          "hex": "#757575"
        }
      ],
      "css4": [
        {
          "hex": "#daa520"
        },
        {
          "hex": "#191970"
        },
        {
          "hex": "#d3d3d3"
        },
        {
          "hex": "#ffd700"
        },
        {
          "hex": "#708090"
        }
      ],
      "marekm4": [
        {
          "hex": "#2a264f"
        },
        {
          "hex": "#1b1d3d"
        },
        {
          "hex": "#dad6cf"
        },
        {
          "hex": "#dabf04"
        },
        {
          "hex": "#e4c810"
        },
        {
          "hex": "#716f89"
        },
        {
          "hex": "#d8d4c3"
        }
      ]
    },
    "millsfield:images_texts": [
      "AA EFFECTIVE JANUARY 15, 1933 AAA\nUNITED\nAIR LINES\nFly This Winter\nHeated Cabin Pianes...Modern Depots\nEvery Proved Aid to Air Navigation\nLOW FARES\nTo 137 Cities in 38 States\nSEATTLE\nTACOMA @SPOKANE\nPasco\nORTLAND\n@Great Falls\nMedford\nLAKE\nRock Springs\nhiladelphia\nBaltimore\nInator\nWichita\nPonca City\nOKLAHOMA CITY\nFORT WORT\n•CODALLAS\nAir Transportation at Its Best\nCopyright 1931, United Air Lines, Inc.\nUNITED\nAIR LINES\nSUBSIDIARY OF UNITED AIRCRAFT \u0026 TRANSPORT CORP.",
      "• SEATTLE\nTACOMA\nUNITED AIR LINES\n•SPOKANE\nOGREAT FALLS\nPORTLAND\nBANDAN\nMINNCAPOLS\nST. PAUL\nMEOFORD\nBOISE\nNATUKONNA\nSTON\nRENO\nSACRAMENTO\nSAN FRANCISCOO\nOAKLAND\nSIOUX FALLS\nSALT LAKE CITY\nROCK SPRINGS\nSIOUX CITY\nCHEYENNE\nОМАНА\nIOWA CITY\nNORTH PLATTE\nLINCOLN\nDES MOINES\nMOLINE\n/TOLELEVELAND\nNEW YORK\nSOUTH BEND\nT WAYNE\nPITTSBURGH\nATLANTIC CITY\nFRESNO\nBAKERSFIELD\n10\no the East\nLos Angeles\nCOLUMBUS\nWASHINGTON\nDENVER O\nCOLORADO SPRINGS O\nKANSAS CITYY\nLOUISVILLE\nWICHITA\nPONCA CITY\nLOS ANGELES\nSAN DIEGO\nOKLAHOMA\nCITY\nCHARLESTON:\nFORT WORTH\nJACKSOKVILLE\nDAYTONA BEACH\nHOUSTON\nSAN ANTONIO O\nGALVESTON\nCORPUS\n• United Air Lines Passenger-Mail\nExpress-Services\n- Other Air Lines\nPETERSBURC\nто межсо спус\nCentral and South Americay\n\"Air Transportation At Its Best\"\nU\nNITED AIR LINES serves directly forty-six cities in twenty\nmountainous terrain. Included in the personnel are seven pilots,\nstates and offers air and air-rail connections to scores of other\neach of whom has flown a million miles. United Air Lines has a\npoints. Its lines, in addition to linking the Atlantic and\npilot personnel of 150. Their first consideration is your safety and\nthe Pacific seaboards, connect the Great Lakes area to the Southwest,\ncomfort.\nthe Pacific Northwest to the Rocky Mountain region and provide\nthe only through service on the Pacific Coast.\n25,000,000 Miles NIGHT Flying Experience\nUnited Air Lines is the only air line in the world with over 50 million\nmiles flying experience of which more than 25 million miles has been\nflown at night. Over the routes where subsidiaries inaugurated air-\nmail, express\nand passenger service six years ago, United Air Lines\nnow operates a fleet of 100 Boeing and Ford planes 37,500 miles\na day, or 13,500,000 miles annually, over 6,378 miles of Government\nimproved and lighted airways.\nFour Experts Aground For Every Pilot Aloft\nWith United Air Lines, travel by air is much more than just a plane\nin the sky. Back of the millions of dollars invested in transport\nplanes, modern hangar-depots, servicing plants and extensive ground\nfacilities, is a highly skilled operating and executive personnel (a\nground staff of 600). There are four experts on the ground for\nevery pilot aloft.\nAll Proved Aids to Air Navigation Employed\nAll proved aids to aerial navigation are employed, including two-\nWasp and Hornet Engines\nThe latest features of aeronautical design and construction suggested\nby millions of miles of regular schedule flying are incorporated in\nUnited's fleet of passenger planes, all of which are powered with\nthe reliable Pratt \u0026 Whitney \"Wasp\" and \"Hornet\" engines.\nway voice radio communication system. This airplane radio-telephone\nequipment not only permits communication between pilots and ground\nstations and other planes in flight, but also reception of U.S. Depart-\nment of Commerce directive radio beam signals. Pilots also have\nthe benefit of the extensive and complete airways weather reporting\nservice provided by trained meteorologists of the United States\nWeather Bureau and broadcast hourly by the Aeronautics Branch\nVeteran Passenger and Mail Pilots\nof the Department of Commerce.\nUnited's veteran passenger and mail pilots, whose average experience\nis more than 20 times the flying experience required by the Govern-\nment for transport pilots, are generally recognized as being on a par\nwith any group of commercial flyers in the world. They are thoroughly\nexperienced transport pilots, accustomed to all variations of flying\nconditions-night or day, winter or summer, at sea level or over\nFly With United Air Lines\nBased on the firm foundation of six years' experience and 50,000,000\nmiles of air transport operations, United Air Lines invites you to\ntravel on its nation-wide air passenger, mail and express service.\n* 1 •"
    ],
    "millsfield:images_texts_ids": [
      1527837967,
      1527851523
    ],
    "millsfield:primary_image": 1527837967,
    "millsfield:subcategory_id": 1511213425,
    "mz:hierarchy_label": 1,
    "mz:is_current": 1,
    "sfomuseum:accession_number": "2005.132.036.001",
    "sfomuseum:aircraft": "Boeing 80A",
    "sfomuseum:aircraft_id": [
      114
    ],
    "sfomuseum:airline": "United Air Lines",
    "sfomuseum:airline_id": [
      884
    ],
    "sfomuseum:category": "Scheduling / Ticketing",
    "sfomuseum:classification_id": 158,
    "sfomuseum:collection": "Aviation Archive",
    "sfomuseum:creditline": "Gift of the William Hough Collection",
    "sfomuseum:date": "1933",
    "sfomuseum:date_acquired": "2006-12-05",
    "sfomuseum:daterange_end": "1933-12-31",
    "sfomuseum:daterange_start": "1933-01-01",
    "sfomuseum:description": "Timetable issued by United Air Lines, effective January 15, 1933; 14-page fold-out; yellow and blue cover with route map, illustration of Boeing 80A, and text promoting winter travel.",
    "sfomuseum:dimensions": "9 x 4 inches (22.9 x 10.2 cm)",
    "sfomuseum:media_ids": [
      1527837967,
      1527851523
    ],
    "sfomuseum:medium": "paper, ink",
    "sfomuseum:object_id": 98296,
    "sfomuseum:placetype": "object",
    "sfomuseum:primary_media_id": 1527837967,
    "sfomuseum:publication": ": , 1933.",
    "sfomuseum:subcategory": "Timetable",
    "src:geom": "sfomuseum#undetermined",
    "wof:belongsto": [
      1511214223,
      102527513,
      102191575,
      85633793,
      1511213425,
      85922583,
      102087579,
      1511214277,
      1511214207,
      85688637
    ],
    "wof:breaches": [],
    "wof:country": "XX",
    "wof:created": 1579906674,
    "wof:depicts": [
      1159285415,
      1159288779,
      1159289609,
      1159293593,
      1159289607
    ],
    "wof:geomhash": "30c8a918561c84bb2daa2b97fc7c5353",
    "wof:hierarchy": [
      {
        "arcade_id": 1511213425,
        "building_id": 1511214277,
        "campus_id": 102527513,
        "concourse_id": 1511214223,
        "continent_id": 102191575,
        "country_id": 85633793,
        "county_id": 102087579,
        "custom_id": 1511937489,
        "locality_id": 85922583,
        "neighbourhood_id": -1,
        "object_id": 1511937489,
        "region_id": 85688637,
        "venue_id": 1511937489,
        "wing_id": 1511214207
      }
    ],
    "wof:id": 1511937489,
    "wof:lastmodified": 1787988183,
    "wof:name": "timetable: United Air Lines",
    "wof:parent_id": 1159162825,
    "wof:placetype": "custom",
    "wof:placetype_alt": [
      "object"
    ],
    "wof:repo": "sfomuseum-data-collection",
    "wof:superseded_by": [],
    "wof:supersedes": [],
    "wof:tags": []
  },
  "bbox": [
    -122.386155,
    37.616357,
    -122.386155,
    37.616357
  ],
  "geometry": {"type":"Point","coordinates":[-122.386155,37.616357]}
}
