{
  "id": 1762829557,
  "type": "Feature",
  "properties": {
    "date:cessation_lower": "1973-01-01",
    "date:cessation_upper": "1973-12-31",
    "date:inception_lower": "1973-01-01",
    "date:inception_upper": "1973-12-31",
    "edtf:cessation": "1973",
    "edtf:inception": "1973",
    "geom:area": 2.475047457570636e-7,
    "geom:bbox": "-122.386472,37.616105,-122.385834,37.616611",
    "geom:latitude": 37.61635747477365,
    "geom:longitude": -122.38615540108617,
    "millsfield:airline_id": [
      1159284327
    ],
    "millsfield:category_id": 1511214247,
    "millsfield:collection_id": 1511214207,
    "millsfield:company_id": [
      1159287585
    ],
    "millsfield:exhibition_ids": [
      1159160113
    ],
    "millsfield:images": [
      1762890465,
      1881085907,
      1881085909,
      1881085911,
      1881085913
    ],
    "millsfield:images_colors_refs": {
      "crayola": [
        {
          "hex": "#000000"
        },
        {
          "hex": "#ffa343"
        },
        {
          "hex": "#6699cc"
        },
        {
          "hex": "#0a7e8c"
        },
        {
          "hex": "#bab86c"
        },
        {
          "hex": "#cdc5c2"
        },
        {
          "hex": "#414a4c"
        },
        {
          "hex": "#dbd7d2"
        }
      ],
      "css4": [
        {
          "hex": "#008080"
        },
        {
          "hex": "#5f9ea0"
        },
        {
          "hex": "#48d1cc"
        },
        {
          "hex": "#6495ed"
        },
        {
          "hex": "#2f4f4f"
        },
        {
          "hex": "#696969"
        },
        {
          "hex": "#bdb76b"
        },
        {
          "hex": "#d3d3d3"
        },
        {
          "hex": "#008b8b"
        },
        {
          "hex": "#000000"
        },
        {
          "hex": "#c0c0c0"
        },
        {
          "hex": "#daa520"
        }
      ],
      "marekm4": [
        {
          "hex": "#529ebc"
        },
        {
          "hex": "#3d3535"
        },
        {
          "hex": "#0c0b0b"
        },
        {
          "hex": "#c5a766"
        },
        {
          "hex": "#18779d"
        },
        {
          "hex": "#55a7cf"
        },
        {
          "hex": "#cccdc8"
        },
        {
          "hex": "#49abc5"
        },
        {
          "hex": "#eba130"
        },
        {
          "hex": "#4b5148"
        },
        {
          "hex": "#c4c6c1"
        },
        {
          "hex": "#585151"
        },
        {
          "hex": "#bec1bf"
        },
        {
          "hex": "#baa55f"
        },
        {
          "hex": "#0c0c0c"
        },
        {
          "hex": "#1a6c9a"
        },
        {
          "hex": "#d8d9c5"
        },
        {
          "hex": "#eba73e"
        }
      ]
    },
    "millsfield:images_texts": [
      "Stereo\nCan also be\nSTAVECOR IOTE\nequipment\n69029\nHAVA NAGILA FESTIVE\nAS PRESENTED ON THE\nEL AL ISRAEL AIRLINES FLIGHT\nENTERTAINMENT PROGRAM",
      "OR TO COO MAOr) GEULA CİLS\nALI RIGHIS\nOLAM - YEHORAM GAON (Trad,E ISTEI\nFINTAN\nLOM - BUO DARON T.\n- L. Favio) 9. MEDLE)\nUBEEAASM GHT",
      "SIDE 2\nCBS 69029",
      "Stereo\nHAVA NAGILA FESTIZE\nAS PRESENTED ON THE\nEL AL ISRAEL AIRLINES FLIGHT\nENTERTAINMENT PROGRAM",
      "Produced for Customer\nRelations\nand Passenger\nSIDE ONE\n1. HAVA NAGILA - IRV. GOODMAN (Trad.)\n\"Hava Nagila - Let's be joyous... Let's be gay...\"\nThe best known and most popular song ever to have come out of Israel\n\"Hava Nagila\" has been sung and translated into many languages\nand its joyous message has been one of Israel's most effective ambassadors.\n2. LAMNATSE'ACH SHIR MIZMOR (To the Victor)\nGEULA GILL (Psalms - D. Seltzer)\n\"Make a joyful noise to God, all the earth. Let God arise,\nlet His enemies be scattered. Let those who hate them flee before Him.\nBehold, He who keeps Israel will neither slumber nor sleep.\"\nThe events of the 6-Day War gave these words, (taken from the Psalms),\nnew and vigorous meaning. Again - as always - in times of sorrow and joy-\nBible to find expression for our deepest and most profound feelings.\n3. DONA, DONA - HELENA HENDEL\n(A. Zeitlin - Sh. Secunda; Hebrew : N. Hendel)\nFolk songs have always had a way of overcoming boundaries of time, place and\nlanguage. This delightful Yiddish folk song has long been a favorite of amateur\nand professional folk singers everywhere. This version, sung in\nYiddish and Hebrew, is particularly charming.\n4. ADON OLAM (Master of the Universe)\nYEHORAM GAON (Trad.)\nThe strong faith of the Jew in the power of the Almighty\nis glorified here in one of the most beautiful traditional Shabbat\nsongs sung on Friday evening after prayers.\n5. SHALOSH AHAVOTAY (Three Loves)\nCHAVA ALBERSTEIN (T. Alyagon - M. Amarillo)\nThis lovely ballad tells the story of a naive, rather old-fashioned\nkind of girl who builds castles in the air and seeks true love\nA special charm is given to the song by Chava Alberstein,\nin a vocal style that is honest, simple and warm.\n6. OSEH SHALOM - DUO DAROM\n(Trad. - N. Hirsch)\nThis song which won a prize at the first annually-held Israeli\nChassidic Song Festival, is a vivid reflection of the \"Return to\nJudaism and Chassidism* movement. Perhaps the secret of the\nsong's lasting popularity lies in its eager hope for peace.\n7. FINJAN — YAFFA YARKONI\n(H. Hefer - Folk)\nWhat can be more fun than sitting around a crackling\ncampfire on a balmy Israeli night, listening to the\nwhisper of the Mediterranean, while the pungent aroma of\nTurkish coffee rises from the copper-colored \"Finjan\"!\n8. EYFO AT AHOOVA (Where Are You, My Love)\nYEHORAM GAON (T. Alyagon - L. Favio)\n9. MEDLEY - ELEH CHEMDA LIBEE/YISM'CHU\nTogether with their burning faith, tradition and joy in life, the Chassidim\nbrought with them a treasury of irresistible, foot-stomping melodies.\nIn this medley you will hear some of the tunes taken from that priceless heritage.\n1. Haskell/Goodman 2. C. Seagle 4. S. Cohen 5. M. Wilensky 6. B. Nagari 8. A. Weiss 9. Y. Houri\nSIDE TWO\n1. YERUSHALAIM SHEL ZAHAV (Jerusalem of Gold)\nCHAVA ALBERSTEIN \u0026 THE PARVARIM (N. Shemer)\nIn the tense days just before the 6-Day War in 1967, Naomi Shemer wrote this\njewel of a song. Little did she dream that its prophetic words would soon come\ntrue and that Jews would soon be standing at the Wall and with\n*Jerusalem of Gold/Your air is heady as wine /And the smell of your pines/\nIs carried by the twilight wind / Pure as the sound of bells./We have come back\nto you/To the wells and the square/While a Shofar calls out/In the Old City.*\n2. HA'AMEENE YOM YAVO (Believe the Day Will Come]\nSHOSHANA DAMARI (R. Klatzkin - M. Baharav)\nThe constant belief that better days are sure to come is expressed in this opti-\nmistic song. Singer and listeners are swept along by this hope.\nThis song was\nwritten in War of Independence days.\n\"Believe me, better days will come / I'll come back to hold you...\"\n3. ME'AL PISGAT HAR HATZOFIM (From Mt. Scopus)\nYEHORAM GAON (A. Hameiri-Folk)\nOf all the many love songs written to Jerusalem, this\nis perhaps the most beautiful, and certainly the best-\nknown and most sung in Israel and by Jews everywhere.\n\"From the top of Mt. Scopus / I greet you / Jerusalem\nFrom the top of Mt. Scopus /1 bow to your glory / Jerusalem.\"\nYehoram\nGaon, Jerusalem-born and bred, sings this lovely\nsong with all his heart, as only he can.\n4. HA'IM AT BOCHA O TSOCHEKET\n(Are You Laughing or Crying) CHAVA ALBERSTEIN\n(Y. Katz - D. Krivoshe)\nDuring the 6-Day War a member of Kibbutz Gadot stood on\nthe newly liberated Golan Heights and looked down on his\nbombed out kibbutz. He wrote this song to his daughter\nhoping that this would be the last war and that from now on\nthey'd live in peace on their kibbutz.\n•The earth is a planet / That circles the sun / And living is better\nthan dying /And someone will finish /What we have begun /\nMy child are you laughing or crying.*\n5. ETZ HA'ALON (The Oak Tree)\nYEHORAM GAON (Y. Tehar Lev - M. Amarilio)\nThis lovely, melodious ballad was a prize-winner at the annual\nIsrael Song Festival, in Jerusalem. A song for that melancholic mood.\n6. NA'ARA MAMESH OTSAR (What a Girl)\nALIZA AZIKRI (Y. Offen - A. San)\nA happy, easy-going love song whose Greek-style melody and beat\nis very popular in Israel.\n7. EREV SHEL SHOSHANIM (Night of Roses)\nTHE PARVARIM (M. DorY. Hadar)\nThe romantic Mediterranean is the inspiration for this love song. An all-time favorite\nin Israel, it has become a favorite of lovers throughout the world.\n8. BASHANA HABA'AH (Anytime of the Year)\nYAFFA YARKONI\n(E. Manor/R. Brittan - N. Hirsch)\nA joyous, cheerful song, expressing the hope of better days to come.\nTranslated and sung in many languages, the English version\n\"Anytime of the Year\" has become an American hit.\nArr:\n1, 7. Y. Houri 2. S. Cohen 3. D. Seltzer 4. B. Nagari 5.S. Cohen 6. A. San 8. O. D'Andrea\nP) 1973 CBS Records inc"
    ],
    "millsfield:images_texts_ids": [
      1762890465,
      1881085907,
      1881085909,
      1881085911,
      1881085913
    ],
    "millsfield:on_view": 0,
    "millsfield:primary_image": 1881085907,
    "millsfield:subcategory_id": 1511213351,
    "mz:is_current": 1,
    "sfomuseum:accession_number": "2010.027.001 a c",
    "sfomuseum:airline": "El Al Israel Airlines",
    "sfomuseum:airline_id": [
      384
    ],
    "sfomuseum:category": "Audio / Visual",
    "sfomuseum:classification_id": 119,
    "sfomuseum:collection": "Aviation Archive",
    "sfomuseum:country": "Isreal",
    "sfomuseum:creditline": "Collection of SFO Museum",
    "sfomuseum:date": "1973",
    "sfomuseum:date_acquired": "2009-11-02",
    "sfomuseum:daterange_end": "1973-12-31",
    "sfomuseum:daterange_start": "1973-01-01",
    "sfomuseum:description": "Phonograph record promoting El Al Israel Airlines, titled “Hava nagila festival”; produced by CBS;\ra. record cover in plastic sleeve; color photographic image of flight attendant at top of stairway next to airplane door, descriptions of music on reverse;\rb. LP record with orange center and black label with “CBS” in center;\rc. plastic sleeve.",
    "sfomuseum:dimensions": "12 1/4 x 12 1/8 inches (31.1 x 30.8 cm)",
    "sfomuseum:exhibition_ids": [
      1066
    ],
    "sfomuseum:maker": "CBS Records, Inc.",
    "sfomuseum:medium": "cardboard, vinyl, paper, plastic, ink",
    "sfomuseum:object_id": 103844,
    "sfomuseum:placetype": "object",
    "sfomuseum:publication": ": , 1973.",
    "sfomuseum:subcategory": "Phonograph Record",
    "src:geom": "sfomuseum#undetermined",
    "wof:belongsto": [
      102527513,
      1159162825,
      102191575,
      85633793,
      102087579,
      85922583,
      85688637,
      1159160869
    ],
    "wof:country": "XY",
    "wof:created": 1642729714,
    "wof:depicts": [
      1159287585,
      1159284327
    ],
    "wof:geomhash": "c281b9d9eefc83b5710e64b9d646067d",
    "wof:hierarchy": [
      {
        "building_id": -1,
        "campus_id": 102527513,
        "collection_id": 1159162825,
        "concourse_id": 1159162825,
        "continent_id": 102191575,
        "country_id": 85633793,
        "county_id": 102087579,
        "custom_id": 1762829557,
        "locality_id": 85922583,
        "neighbourhood_id": -1,
        "object_id": 1762829557,
        "region_id": 85688637,
        "wing_id": 1159160869
      }
    ],
    "wof:id": 1762829557,
    "wof:lastmodified": 1787988201,
    "wof:name": "phonograph record: El Al Israel Airlines, Hava Nagila Festival",
    "wof:parent_id": 1159162825,
    "wof:placetype": "custom",
    "wof:placetype_alt": [
      "object"
    ],
    "wof:repo": "sfomuseum-data-collection",
    "wof:superseded_by": [],
    "wof:supersedes": []
  },
  "bbox": [
    -122.38647222518921,
    37.6161053594541,
    -122.38583385944366,
    37.61661101879963
  ],
  "geometry": {"type":"Polygon","coordinates":[[[-122.38647222518921,37.61631782178288],[-122.386434674263,37.61623283692423],[-122.38637566566466,37.61617759671399],[-122.38630056381224,37.6161308549656],[-122.38616108894348,37.6161053594541],[-122.38602161407469,37.6161308549656],[-122.38591432571411,37.61618609521055],[-122.38585531711577,37.61626683087935],[-122.38583385944366,37.61636881265146],[-122.38587141036987,37.61646654505181],[-122.38594114780425,37.61654303118856],[-122.38605380058287,37.61660252035167],[-122.38618254661559,37.61661101879963],[-122.3863059282303,37.61657277577607],[-122.3864185810089,37.61650903735973],[-122.3864668607712,37.61641130501523],[-122.38647222518921,37.61631782178288]]]}
}
