{
  "id": 1746836281,
  "type": "Feature",
  "properties": {
    "date:cessation_lower": "1942-01-01",
    "date:cessation_upper": "1942-12-31",
    "date:inception_lower": "1942-01-01",
    "date:inception_upper": "1942-12-31",
    "edtf:cessation": "1942~",
    "edtf:inception": "1942~",
    "geom:area": 2.475047457570636e-7,
    "geom:bbox": "-122.386472,37.616105,-122.385834,37.616611",
    "geom:latitude": 37.61635747477365,
    "geom:longitude": -122.38615540108617,
    "millsfield:airline_id": [
      1159284991
    ],
    "millsfield:category_id": 1763416373,
    "millsfield:collection_id": 1511214203,
    "millsfield:company_id": [
      1159286839
    ],
    "millsfield:images": [
      1763372573
    ],
    "millsfield:images_colors_refs": {
      "crayola": [
        {
          "hex": "#6699cc"
        },
        {
          "hex": "#414a4c"
        },
        {
          "hex": "#fddde6"
        }
      ],
      "css4": [
        {
          "hex": "#6495ed"
        },
        {
          "hex": "#2f4f4f"
        },
        {
          "hex": "#faf0e6"
        }
      ],
      "marekm4": [
        {
          "hex": "#ebe6e5"
        },
        {
          "hex": "#6aaad6"
        },
        {
          "hex": "#382a2b"
        }
      ]
    },
    "millsfield:images_texts": [
      "20°N\n20°W\n20°\n40°E\n60° E\n80°E\nPAN-AMERICAN AIRWAYS AFRICA LTD\nathurstc\n460\nFrench West Africă\nLake\nRoberts Field\nLiberia\nGold Coast\n1-- Feb-Dec 42\nКолод\nEquator\nTakoradiO °O24\u003e\nMain Trans-Africa\nRouter\n327 Feb-Dec 42\n230ct 41-12 Dec 42\n14 Nov 41-\nMardiguni\nFrench Equatorial Africa:\nA°\n1941-1942\n\" Pioneering\n\"Hump\nApril-May 1942\n25\nAug-Nov 42 Lydda\nChina\nCAIRO\nДеся\nPalestine\nHabbaniya\nDelivery Plans\nChungking\n653\nEgypt\n0252\nO\nand Cargo to Russia\nTeheran 1\n(also 36 Pan Africa\nBasra O\n1 June - 19 Octy42\nDinjaniew)\nMyitkyina\nJan-Dec 42\nIran\nNew Delhi\ncooch\nO\n-Kunming\nAnglo\nEgyptian\nLuxor\n58g\n631\nBehar\n8. Sudan\nSharjah O\n735\nApr\n•Eritrea\nKarachig\n785\nO\nLashio\n4420 Asmaras\nCalcutta\nGeneina\nMasirah Island\n523 KHARTOUMO Aden Aug-Nov 42\n62*\nBurma\nEvacuation\n86 Dec 41-Decí42\nFeb-Dec\nSalalah 6 June-1 Aug 42\nJune- Aug 42\nApril-May 1942\nTrans-Atlantic\nFerry Route\n(from Natal, Brazil)\n• Ascension Island\nThe dates shown (in blue) are the periods of\nPan-Africa's deployment at each station.\nHowever, the larger figures showing staff\nnumbers are those on\n1 September 1942\nwhen the total employee count was 1,016.\nBlack figures show airway distances (statute\nmiles. Total, Bathurst-Karachi 7371 via Cairo,\n6422 via Aden.\nEquator\nAFRICA\n.:.\n40°E\n60°E\n80° E\nREGD"
    ],
    "millsfield:images_texts_ids": [
      1763372573
    ],
    "millsfield:primary_image": 1763372573,
    "millsfield:subcategory_id": 1511213365,
    "mz:is_current": 1,
    "sfomuseum:accession_number": "1998.133.152",
    "sfomuseum:airline": "Pan American Airways",
    "sfomuseum:airline_id": [
      685
    ],
    "sfomuseum:category": "Promotional, Museum",
    "sfomuseum:classification_id": 128,
    "sfomuseum:collection": "Aviation Museum",
    "sfomuseum:creditline": "Gift of Mrs. Glenda Bready",
    "sfomuseum:date": "c. 1942 (reproduced 1970s)",
    "sfomuseum:date_acquired": "1998-09-29",
    "sfomuseum:daterange_end": "1979-12-31",
    "sfomuseum:daterange_start": "1937-01-01",
    "sfomuseum:description": "Reproduction of poster issued by Pan American Airways Africa depicting route map with text “Pan-American Airways Africa, Ltd., 1941 - 1942”; black and blue text and graphics over white background.",
    "sfomuseum:dimensions": "20 x 28 inches (50.8 x 71.1 cm)",
    "sfomuseum:medium": "paper, ink",
    "sfomuseum:object_id": 47450,
    "sfomuseum:placetype": "object",
    "sfomuseum:publication": ": , c. 1942 (reproduced 1970s).",
    "sfomuseum:subcategory": "Poster, Airline",
    "src:geom": "sfomuseum#undetermined",
    "wof:belongsto": [
      102527513,
      1159162825,
      102191575,
      85633793,
      102087579,
      85922583,
      85688637,
      1159160869
    ],
    "wof:country": "XY",
    "wof:created": 1639525148,
    "wof:depicts": [
      1159286839,
      1159284989,
      1159284991
    ],
    "wof:geomhash": "c281b9d9eefc83b5710e64b9d646067d",
    "wof:hierarchy": [
      {
        "building_id": -1,
        "campus_id": 102527513,
        "collection_id": 1159162825,
        "concourse_id": 1159162825,
        "continent_id": 102191575,
        "country_id": 85633793,
        "county_id": 102087579,
        "custom_id": 1746836281,
        "locality_id": 85922583,
        "neighbourhood_id": -1,
        "object_id": 1746836281,
        "region_id": 85688637,
        "wing_id": 1159160869
      }
    ],
    "wof:id": 1746836281,
    "wof:lastmodified": 1787988192,
    "wof:name": "poster: Pan American Airways Africa",
    "wof:parent_id": 1159162825,
    "wof:placetype": "custom",
    "wof:placetype_alt": [
      "object"
    ],
    "wof:repo": "sfomuseum-data-collection",
    "wof:superseded_by": [],
    "wof:supersedes": []
  },
  "bbox": [
    -122.38647222518921,
    37.6161053594541,
    -122.38583385944366,
    37.61661101879963
  ],
  "geometry": {"type":"Polygon","coordinates":[[[-122.38647222518921,37.61631782178288],[-122.386434674263,37.61623283692423],[-122.38637566566466,37.61617759671399],[-122.38630056381224,37.6161308549656],[-122.38616108894348,37.6161053594541],[-122.38602161407469,37.6161308549656],[-122.38591432571411,37.61618609521055],[-122.38585531711577,37.61626683087935],[-122.38583385944366,37.61636881265146],[-122.38587141036987,37.61646654505181],[-122.38594114780425,37.61654303118856],[-122.38605380058287,37.61660252035167],[-122.38618254661559,37.61661101879963],[-122.3863059282303,37.61657277577607],[-122.3864185810089,37.61650903735973],[-122.3864668607712,37.61641130501523],[-122.38647222518921,37.61631782178288]]]}
}
