{
  "id": 1762691827,
  "type": "Feature",
  "properties": {
    "date:cessation_lower": "1952-01-01",
    "date:cessation_upper": "1952-12-31",
    "date:inception_lower": "1952-01-01",
    "date:inception_upper": "1952-12-31",
    "edtf:cessation": "1952",
    "edtf:inception": "1952",
    "geom:area": 2.475047457570636e-7,
    "geom:bbox": "-122.386472,37.616105,-122.385834,37.616611",
    "geom:latitude": 37.61635747477365,
    "geom:longitude": -122.38615540108617,
    "millsfield:airline_id": [
      1159284073
    ],
    "millsfield:category_id": 1511214223,
    "millsfield:collection_id": 1511214207,
    "millsfield:company_id": [
      1159287923
    ],
    "millsfield:images": [
      1762701275
    ],
    "millsfield:images_colors_refs": {
      "crayola": [
        {
          "hex": "#dbd7d2"
        },
        {
          "hex": "#324ab2"
        }
      ],
      "css4": [
        {
          "hex": "#dcdcdc"
        },
        {
          "hex": "#483d8b"
        }
      ],
      "marekm4": [
        {
          "hex": "#283ca0"
        },
        {
          "hex": "#e3dddb"
        }
      ]
    },
    "millsfield:images_texts": [
      "CALIFORNIA CENTRAL AIRLINES\nDAILY SCHEDULED COMMUTER FLIGHTS BETWEEN SAN FRANCICO • OAKLAND • BURBANK • LOS ANGELES • SAN DIEGO • INYOKERN\nNORTHBOUND\n(Read Down)\nSAN DIEGO.\nLOS ANGELES\nLOS ANGELES\nBURBANK\nBURBANK\nSAN FRANCISCO\nSAN FRANCISCO\nOAKLAND\n..Lv .\nLv\nLV .\nAr.\nSOUTHBOUND\n(Read Down)\nOAKLAND\nLV .\nSAN\nFRANCISCO....\nSAN FRANCISCO\nAr.\nBURBANK\nLV .\n••••\nBURBANK\nLv\nLOS ANGELES\nLOS ANGELES\nAr.\nSAN DIEGO.\nLV .\n*No Los Angeles Stop\nFriday \u0026 Saturday\n• No San Diego-to-Burbank\npassengers on Sunday\n631\nMon.\nOnly\n655\n7 35\n745\n8 00\n815\n9 50\n10 05\n10 20\n538\nDAILY\n915\n930\n9 45\n11 20\n11 35\n1215\n431\nSat.\nOnly\n539\nDAILY\n8 40\n9 20\n9 30\n7 45 y\n945\n958\n10 00\n1010\n11 35\n10 25\n11 45\n11 55\n450\nSat.\nOnly\n1215\n12 30\n12 45\n2 20\n245\n3 00\n556\nDAILY\n1 45\n2 00\n215\n425\n358\n547\nDAILY\n12 30\n12 00·\n213\n225\n240\n562\nDAILY\n315\n3 30\n345\n520\n535\n615\n457\nFri. \u0026\nSat.\n*559 •\n315 /\n245v\n458\n472\nFri. \u0026\nSun.\n6 00\n743\nDAILY\n1 55\n2 35\n2 45\n3 00\n315\n4 50\n5 05\n5 20\n**576\nDAILY\n6 45\n7 00\n715\n8 50\n9 05\n9 20\n9 30\n10 04\n471\nFri. \u0026\nSun.\n6 00\n7 35\n480\nFri. \u0026\nSun.\n8 00\n9 35\n575\nDAILY\n7 00\n8 35\n8 50\n9 05\nt579\nDAILY\n6 40\n720\n730\n745\n8 00\n935\n9 50\n10 05\n584\n488\nFri. \u0026\nSun.\nDAILY\n9 25\n8 50\n11 33\n180 11\n10 20\n11.55\n481\nFri. \u0026\nSun.\n487\nSun.\nOnly\n693\nSun.\nOnly\n10 30\n493\nFri. \u0026\nSun.\n810\n9 53\n10 00\n11 35\n11 10\n11 25\n1 00\n115\n130\n11 20\n11 35\n11.50\n125\n135\n150\n492\nFri.\nOnly\n1030\n10 45\n11 00\n12 35\n694\nSun.\nOnly\n11 00\n11 15\n11 30\n496\nSun.\nOnly\n606\nSun.\nOnly\n150\n1200 M\n135\n115\n130\n350 V\nNORTHBOUND\nBurbank\nInyokern\n29\n65\nEFFECTIVE\nJUNE 6, 1952\n10840540\nAdditional week-end flights-\nSOUTHBOUND\nInyokern\nBurbank\nCall for Information\n36\n50 550\nAr 930\nALL FLIGHTS ON LOCAL CALIFORNIA TIME • A.M. IN LIGHT FACE TYPE • P.M. IN BOLD FACE TYPE\nSUBJECT TO CHANGE WITHOUT NOTICE\nAll Inyokern Flights Daily except Saturday, Sunday and Holidays.\none of the SCHEDULED AIRLINES in the U.S. A.\n+No Los Angeles Stop\non Friday and Sunday\n**Departs Oakland at 7:15 p.m.\non Saturday and Monday"
    ],
    "millsfield:images_texts_ids": [
      1762701275
    ],
    "millsfield:primary_image": 1762701275,
    "millsfield:subcategory_id": 1511213425,
    "mz:is_current": 1,
    "sfomuseum:accession_number": "2015.167.251",
    "sfomuseum:airline": "California Central Airlines",
    "sfomuseum:airline_id": [
      271
    ],
    "sfomuseum:category": "Scheduling / Ticketing",
    "sfomuseum:classification_id": 158,
    "sfomuseum:collection": "Aviation Archive",
    "sfomuseum:creditline": "Gift of Thomas G. Dragges",
    "sfomuseum:date": "1952",
    "sfomuseum:date_acquired": "2016-07-06",
    "sfomuseum:daterange_end": "1952-12-31",
    "sfomuseum:daterange_start": "1952-01-01",
    "sfomuseum:description": "Pocket timetable issued by California Central Airlines, effective June 6, 1952; tri-fold single page; white, red, and blue cover with photographic image of airplane tail section.",
    "sfomuseum:dimensions": "4 x 2 3/4 inches (10.2 x 7 cm)",
    "sfomuseum:medium": "paper, ink",
    "sfomuseum:object_id": 174232,
    "sfomuseum:placetype": "object",
    "sfomuseum:publication": ": , 1952.",
    "sfomuseum:subcategory": "Timetable",
    "src:geom": "sfomuseum#undetermined",
    "wof:belongsto": [
      102527513,
      1159162825,
      102191575,
      85633793,
      102087579,
      85922583,
      85688637,
      1159160869
    ],
    "wof:country": "XY",
    "wof:created": 1641343479,
    "wof:depicts": [
      1159284073,
      1159287923
    ],
    "wof:geomhash": "c281b9d9eefc83b5710e64b9d646067d",
    "wof:hierarchy": [
      {
        "building_id": -1,
        "campus_id": 102527513,
        "collection_id": 1159162825,
        "concourse_id": 1159162825,
        "continent_id": 102191575,
        "country_id": 85633793,
        "county_id": 102087579,
        "custom_id": 1762691827,
        "locality_id": 85922583,
        "neighbourhood_id": -1,
        "object_id": 1762691827,
        "region_id": 85688637,
        "wing_id": 1159160869
      }
    ],
    "wof:id": 1762691827,
    "wof:lastmodified": 1787988197,
    "wof:name": "timetable: California Central Airlines, pocket schedule",
    "wof:parent_id": 1159162825,
    "wof:placetype": "custom",
    "wof:placetype_alt": [
      "object"
    ],
    "wof:repo": "sfomuseum-data-collection",
    "wof:superseded_by": [],
    "wof:supersedes": []
  },
  "bbox": [
    -122.38647222518921,
    37.6161053594541,
    -122.38583385944366,
    37.61661101879963
  ],
  "geometry": {"type":"Polygon","coordinates":[[[-122.38647222518921,37.61631782178288],[-122.386434674263,37.61623283692423],[-122.38637566566466,37.61617759671399],[-122.38630056381224,37.6161308549656],[-122.38616108894348,37.6161053594541],[-122.38602161407469,37.6161308549656],[-122.38591432571411,37.61618609521055],[-122.38585531711577,37.61626683087935],[-122.38583385944366,37.61636881265146],[-122.38587141036987,37.61646654505181],[-122.38594114780425,37.61654303118856],[-122.38605380058287,37.61660252035167],[-122.38618254661559,37.61661101879963],[-122.3863059282303,37.61657277577607],[-122.3864185810089,37.61650903735973],[-122.3864668607712,37.61641130501523],[-122.38647222518921,37.61631782178288]]]}
}
