{
  "id": 1762830275,
  "type": "Feature",
  "properties": {
    "date:cessation_lower": "1958-01-01",
    "date:cessation_upper": "1958-12-31",
    "date:inception_lower": "1958-01-01",
    "date:inception_upper": "1958-12-31",
    "edtf:cessation": "1958",
    "edtf:inception": "1958",
    "geom:area": 2.475047457570636e-7,
    "geom:bbox": "-122.386472,37.616105,-122.385834,37.616611",
    "geom:latitude": 37.61635747477365,
    "geom:longitude": -122.38615540108617,
    "millsfield:airline_id": [
      1159285101
    ],
    "millsfield:category_id": 1511214247,
    "millsfield:collection_id": 1511214207,
    "millsfield:company_id": [
      1159287229
    ],
    "millsfield:exhibition_ids": [
      1159160113,
      1159160343
    ],
    "millsfield:images": [
      1762890441,
      1881085787,
      1881085789,
      1881085791,
      1881085793
    ],
    "millsfield:images_colors_refs": {
      "crayola": [
        {
          "hex": "#bab86c"
        },
        {
          "hex": "#6699cc"
        },
        {
          "hex": "#a5694f"
        },
        {
          "hex": "#000000"
        },
        {
          "hex": "#414a4c"
        },
        {
          "hex": "#757575"
        },
        {
          "hex": "#cdc5c2"
        }
      ],
      "css4": [
        {
          "hex": "#000000"
        },
        {
          "hex": "#c0c0c0"
        },
        {
          "hex": "#5f9ea0"
        },
        {
          "hex": "#2f4f4f"
        },
        {
          "hex": "#bdb76b"
        },
        {
          "hex": "#696969"
        },
        {
          "hex": "#a0522d"
        }
      ],
      "marekm4": [
        {
          "hex": "#c1b558"
        },
        {
          "hex": "#6e6a68"
        },
        {
          "hex": "#cabc5e"
        },
        {
          "hex": "#cac9c2"
        },
        {
          "hex": "#c1c6be"
        },
        {
          "hex": "#100f0f"
        },
        {
          "hex": "#cac7b0"
        },
        {
          "hex": "#bec1bf"
        },
        {
          "hex": "#2a2b34"
        },
        {
          "hex": "#bdc0be"
        },
        {
          "hex": "#a7543c"
        },
        {
          "hex": "#313735"
        },
        {
          "hex": "#6d98ac"
        },
        {
          "hex": "#6e9dac"
        }
      ]
    },
    "millsfield:images_texts": [
      "HOLIDAY ABROAD in LONDON\nREG OWEN and His Orchestra\nRCA VICTOR\nLPM-1599\nA \"New Orthophonic\" High Fidelity Recording\n72\nSABENA\nINSPIRED BY\nSABENA\nBELGIAN World AIRLINES \"HOLIDAY ABROAD\"\nNo gelle thema pom\n@ RCA Printed in U.S. A.",
      "LPM\n1599\n(2PP-5285)\nRCA VICTOR\nHOLIDAY ABROAD IN LONDON\nLONG 33% PLAY",
      "RCA VICTOR\nHOLIDAY ABROAD IN LONDON\nLPM\n1599\n(I2PP-S780\n2\n• ОРТИОРНО",
      "LPM-1599\nSIDE 1 Someday I'll Find You - Limehouse Blues • A Nightingale Sang in Berkeley Square • The Touch of Your Lips • Cruising Down the River\nGreensleeves • Goodnight, Sweetheart\nSIDE 2\nZigeuner • A Foggy Day in London Town • Among My Souvenirs • I'll Follow My Secret Heart • Cherry Ripe • These Foolish Things • I'll See\nYou Again\nHOLIDAY ABROAD® IN LONDON\nREG OWEN and His Orchestra\nEveryone has one place he prefers above all others, I suppose, and mine is London.\nI love the town. I love the way the buildings look-severe and austere and dignified,\nbut gay with flowered window-boxes. I love to stand around in a pub like The White\nBear and watch the dim light reflected in the burnished woodwork. I love the march-\ning bands in the streets, blaring forth jazz, and I love the terrible jokes of the grinning\ncomedians in the music halls. I love to sit in a theater with a drink by my elbow (the\nLondon theater makes the New York theater all but unbearable). I love to go to the\nPoets Corner at Westminster Abbey and stand for minutes-even hours-marveling\nat the vast talents that lie buried there, secure in the knowledge that their work will\nlive forever. I love the demonstrations and mass meetings in Trafalgar Square, the\nmen who hawk newspapers and the newspapers themselves, and the deferential clerks\nin the stores. I love to go into Grafton Street and spend a long time with Mr. Dingle\nof F. Tautz deciding what material he will use for my next suit, and then I love to\ngo around to the Westbury Hotel and have a glass of scotch with Tony, the manager.\nI love to wander up and down Fleet Street, where it is impossible for an American\nto tell the journalists from the barristers, and then I love to go and meet Nico Davies,\na publisher friend of mine, in his tradition-laden club, The Garrick. I love to ride on\nthe top deck of the double-decker buses, and I love to dodge the bicycles and the\nqueer little motorbikes. I love the richly-appointed lobby of The Savoy Hotel, where\none confronts the most famous people in the world. I love the BBC and its talks on\nbirds and weeds and thrips. I love the skife bands and the jam sessions in the stone-\nwalled cellar of The Cottage in Litchfield Street. I love the bookshops and the\nnewsstands. I love the bawdy talk at the weekly meetings of The Thursday Club,\nthat high-spirited group of stags, and I love the forty-odd varieties of Dover sole one\ngets in the Wheeler restaurants. I love the air of reserve and hauteur in Belgrave\nSquare, and I love the intimacy of the mews and keeps just off it. I love the well-\ngroomed English women and the red-checked children. There is practically nothing\nabout London I do not love-and finally, I love Reg Owen for putting a musical\npicture of the town I love on this record.\nRICHARD GEHMAN\nProduced by Simon Rady.\n© by Radio Corporation of America, 7959\nHOLIDAY ABROAD® by SABENA BELGIAN World AIRLINES, 1958\nIMPORTANT NOTICE — This is a \"New Orthophonic\" High Fidelity recording, designed for the\nphonograph of today or tomorrow. Played on your present machine, it gives vou the finest quality\nof renroduction. Plaved on a \"Stereophonic\" machine. it gives even more brilliant true-to.lifo\nfidelity. You can buy today, without fear of obsolescence in the future.\nPrinted in U.S. A.",
      "HOLIDAY ABROAD in LONDON\nREG OWEN and His Orchestra\nRCA VICTOR\nLPM-1599\nA \"New Orthophonic\" High Fidelity Recording\n(SABENA\nSABENA\nMozelle them pom\nARCA RAINEA"
    ],
    "millsfield:images_texts_ids": [
      1762890441,
      1881085787,
      1881085789,
      1881085791,
      1881085793
    ],
    "millsfield:on_view": 0,
    "millsfield:primary_image": 1881085787,
    "millsfield:subcategory_id": 1511213351,
    "mz:is_current": 1,
    "sfomuseum:accession_number": "2009.161.001 a c",
    "sfomuseum:airline": "Sabena",
    "sfomuseum:airline_id": [
      736
    ],
    "sfomuseum:category": "Audio / Visual",
    "sfomuseum:classification_id": 119,
    "sfomuseum:collection": "Aviation Archive",
    "sfomuseum:creditline": "Collection of SFO Museum",
    "sfomuseum:date": "1958",
    "sfomuseum:date_acquired": "2009-09-29",
    "sfomuseum:daterange_end": "1958-12-31",
    "sfomuseum:daterange_start": "1958-01-01",
    "sfomuseum:description": "Phonograph record album, titled “Holiday abroad in London”, by Reg Owen and His Orchestra, released by RCA Victor;\ra. cover with watercolor illustration of couple near London Tower Bridge;\rb. black record with black center, color of RCA dog logo and gray “RCA Victor” above, same on reverse;\rc. glassine sleeve.",
    "sfomuseum:dimensions": "12 1/4 x 12 1/4 inches (31.1 x 31.1 cm)",
    "sfomuseum:exhibition_ids": [
      1066,
      1205
    ],
    "sfomuseum:maker": "RCA Corporation",
    "sfomuseum:medium": "cardboard, paper, vinyl, ink",
    "sfomuseum:object_id": 101217,
    "sfomuseum:placetype": "object",
    "sfomuseum:publication": ": , 1958.",
    "sfomuseum:subcategory": "Phonograph Record",
    "src:geom": "sfomuseum#undetermined",
    "wof:belongsto": [
      102527513,
      1159162825,
      102191575,
      85633793,
      102087579,
      85922583,
      85688637,
      1159160869
    ],
    "wof:country": "XY",
    "wof:created": 1642729909,
    "wof:depicts": [
      1159285101,
      1159287229
    ],
    "wof:geomhash": "c281b9d9eefc83b5710e64b9d646067d",
    "wof:hierarchy": [
      {
        "building_id": -1,
        "campus_id": 102527513,
        "collection_id": 1159162825,
        "concourse_id": 1159162825,
        "continent_id": 102191575,
        "country_id": 85633793,
        "county_id": 102087579,
        "custom_id": 1762830275,
        "locality_id": 85922583,
        "neighbourhood_id": -1,
        "object_id": 1762830275,
        "region_id": 85688637,
        "wing_id": 1159160869
      }
    ],
    "wof:id": 1762830275,
    "wof:lastmodified": 1787988201,
    "wof:name": "phonograph record: Sabena, Holiday abroad in London, Reg Owen and His Orchestra",
    "wof:parent_id": 1159162825,
    "wof:placetype": "custom",
    "wof:placetype_alt": [
      "object"
    ],
    "wof:repo": "sfomuseum-data-collection",
    "wof:superseded_by": [],
    "wof:supersedes": []
  },
  "bbox": [
    -122.38647222518921,
    37.6161053594541,
    -122.38583385944366,
    37.61661101879963
  ],
  "geometry": {"type":"Polygon","coordinates":[[[-122.38647222518921,37.61631782178288],[-122.386434674263,37.61623283692423],[-122.38637566566466,37.61617759671399],[-122.38630056381224,37.6161308549656],[-122.38616108894348,37.6161053594541],[-122.38602161407469,37.6161308549656],[-122.38591432571411,37.61618609521055],[-122.38585531711577,37.61626683087935],[-122.38583385944366,37.61636881265146],[-122.38587141036987,37.61646654505181],[-122.38594114780425,37.61654303118856],[-122.38605380058287,37.61660252035167],[-122.38618254661559,37.61661101879963],[-122.3863059282303,37.61657277577607],[-122.3864185810089,37.61650903735973],[-122.3864668607712,37.61641130501523],[-122.38647222518921,37.61631782178288]]]}
}
