{
  "id": 1511938095,
  "type": "Feature",
  "properties": {
    "date:cessation_lower": "1962-01-01",
    "date:cessation_upper": "1962-12-31",
    "date:inception_lower": "1962-01-01",
    "date:inception_upper": "1962-12-31",
    "edtf:cessation": "1962",
    "edtf:date": "1962",
    "edtf:inception": "1962",
    "geom:area": 0,
    "geom:bbox": "-122.386155,37.616357,-122.386155,37.616357",
    "geom:latitude": 37.616357,
    "geom:longitude": -122.386155,
    "iso:country": "XX",
    "millsfield:airline_id": [
      1159285957
    ],
    "millsfield:category_id": 1511214223,
    "millsfield:collection_id": 1511214207,
    "millsfield:company_id": [
      1159286901
    ],
    "millsfield:images": [
      1527842759,
      1527850509
    ],
    "millsfield:images_colors_refs": {
      "crayola": [
        {
          "hex": "#cdc5c2"
        },
        {
          "hex": "#1a4876"
        },
        {
          "hex": "#757575"
        },
        {
          "hex": "#9c2542"
        },
        {
          "hex": "#95918c"
        }
      ],
      "css4": [
        {
          "hex": "#c0c0c0"
        },
        {
          "hex": "#708090"
        },
        {
          "hex": "#191970"
        },
        {
          "hex": "#778899"
        },
        {
          "hex": "#b22222"
        }
      ],
      "marekm4": [
        {
          "hex": "#798693"
        },
        {
          "hex": "#d1cdbd"
        },
        {
          "hex": "#bb100e"
        },
        {
          "hex": "#1a3054"
        },
        {
          "hex": "#202e54"
        },
        {
          "hex": "#647388"
        },
        {
          "hex": "#d1cab6"
        },
        {
          "hex": "#b73426"
        }
      ]
    },
    "millsfield:images_texts": [
      "CANADA AND U.S.A. SERVICES\nEFFECTIVE FEBRUARY 1, 1962\nTRANS CANADA\nAIR LINES\nFor services to the U.K., Ireland, Continental Europe,\nNassau, Jamaica, Bermuda, Antigua, Barbados and Trinidad\nconsult the OVERSEAS and SOUTHERN SERVICES edition\nTCA\nAIR CANADA",
      "FORT SMITH\nMOUNTAIN TIME\nCENTRAL TIME\nEASTERN TIME\n•M MURRAY\nNOTE NI\n• CHURCHILL\nOOPS\nPORT\nCALGARY\n3SO0W\nSAN FRANCISCO\nSALT LAKE CITY\nCHICAGO\nOLAS VEGAS\nDENVERSO\nPHOENIX\nFORT WORTIOODALYAS\nHOUSTON O\nNEW ORLEANS\u003c\nMEXICO O\nLegend\nTCA SERVICES\nOTHER AIR LINES\nTIME ZONES\nOVERSEAS AND SOUTHERN SERVICES Edition\nconsult the\nTIMES\nBARBADOS and TRINIDAD\nNASSAU, JAMAICA, BERMUDA, ANTIGUA,\nU.K., IRELAND, CONTINENTAL EUROPE,\nFor information on services to and from the\nALL TIMES SHOWN ARE LOCAL\n1200 N indicates 12 o'clock Noon.\nDark Face Type (11:50) indicates P.M.\nLight Face Type (11:50) indicates A.M.\nCNTT3A370\nATLAN PA\nMIAMIO\nMONTEGO BAY O\nX-Refer to special note regarding operation of flight.\nD-Dinner\nL-Lunch\nB-Breakfast\nF/Y-First and Economy\nY-Economy\nF-First\nATLANTIC TIME\nNEWFOUNDLAND TIME\nGOOSE BAY\nSANTI N2138\nGANDER\nPHENVILLE\nST. JOHN'S\nHALICAY\nYARMOUTH\nO BOSTON\nNEW\nYORK\nNASSAU\nKINGSTON\n•ANTIGUA\nBARBADOS\n• PORT OF SPAIN\nSYMBOLS\nD3-DC-3: Economy\nV-Viscount: First or Economy\nVG-Vanguard: First and Economy\nD8-DC-8 Jet: First and Economy\nEQUIPMENT AND CLASSES OF SERVICE\nExplanatory Notes\nTCA\nTICKET OFFICES. •\n.......\nPage\n19\nHamilton, Onf., LIMOUSINE SERVICE. • • • Page 18\nTRAVEL, CUSTOMS, and IMMIGRATION.. Page\nco\nGENERAL INFORMATION\nGREENWICH TIME\nGLASGOW\nBELFAST O\nONDON AMSTERDAM\nBERLING\nUSSELDORF\nBRUSSELS\nARIS\nPANSUE\nOZURICH SIENNA\nLISBON C\nMADRID\nROME\nALGIERS\nTCA is General Sales Agent\nin Canada for:\nAER LINGUS • AERO O/Y FINNAIR\nAIR INDIA INTERNATIONAL\nCENTRAL AFRICAN AIRWAYS CORPORATION\nCESKOSLOVENSKE AEROLINIE\nIBERIA SPANISH AIR LINES\nJUGOSLOVENSKI AERO TRANSPORT\nNEW ZEALAND NATIONAL AIRWAYS CORPORATION\nPAKISTAN INTERNATIONAL AIRLINES CORPORATION\nPOLISH AIR LINES (LOT)\nTRANS-AUSTRALIA AIRLINES\nMALEV (HUNGARIAN AIR TRANSPORT)\nJAPAN AIR LINES\nFARES . . •\nCNR. ...\nPages 16-17\nPage 15\nComplete WESTBOUND and EASTBOUND. •\nPages 7-14\nQuick Reference . ... ... .\nSCHEDULES AND FARES\nContents\nMEMBER: FLIGHT SAFETY FOUNDATION INC.\nETCA-\nAIR CANADA\nPages 2-6\nTRANS-CANADA AIR LINES"
    ],
    "millsfield:images_texts_ids": [
      1527842759,
      1527850509
    ],
    "millsfield:primary_image": 1527842759,
    "millsfield:subcategory_id": 1511213425,
    "mz:hierarchy_label": 1,
    "mz:is_current": 1,
    "sfomuseum:accession_number": "2005.132.105.003",
    "sfomuseum:airline": "Trans-Canada Air Lines (TCA)",
    "sfomuseum:airline_id": [
      1143
    ],
    "sfomuseum:category": "Scheduling / Ticketing",
    "sfomuseum:classification_id": 158,
    "sfomuseum:collection": "Aviation Archive",
    "sfomuseum:creditline": "Gift of the William Hough Collection",
    "sfomuseum:date": "1962",
    "sfomuseum:date_acquired": "2006-12-05",
    "sfomuseum:daterange_end": "1962-12-31",
    "sfomuseum:daterange_start": "1962-01-01",
    "sfomuseum:description": "Timetable issued by Trans-Canada Air Lines (TCA), effective February 1, 1962, for Canada and U.S. service; 19-page fold-out; red cover with blue route map.",
    "sfomuseum:dimensions": "9 x 4 inches (22.9 x 10.2 cm)",
    "sfomuseum:media_ids": [
      1527842759,
      1527850509
    ],
    "sfomuseum:medium": "paper, ink",
    "sfomuseum:object_id": 98580,
    "sfomuseum:placetype": "object",
    "sfomuseum:primary_media_id": 1527842759,
    "sfomuseum:publication": ": , 1962.",
    "sfomuseum:subcategory": "Timetable",
    "src:geom": "sfomuseum#undetermined",
    "wof:belongsto": [
      1511214223,
      102527513,
      102191575,
      85633793,
      1511213425,
      85922583,
      102087579,
      1511214277,
      1511214207,
      85688637
    ],
    "wof:breaches": [],
    "wof:country": "XX",
    "wof:created": 1579906655,
    "wof:depicts": [
      1159285957,
      1159286901
    ],
    "wof:geomhash": "30c8a918561c84bb2daa2b97fc7c5353",
    "wof:hierarchy": [
      {
        "arcade_id": 1511213425,
        "building_id": 1511214277,
        "campus_id": 102527513,
        "concourse_id": 1511214223,
        "continent_id": 102191575,
        "country_id": 85633793,
        "county_id": 102087579,
        "custom_id": 1511938095,
        "locality_id": 85922583,
        "neighbourhood_id": -1,
        "object_id": 1511938095,
        "region_id": 85688637,
        "venue_id": 1511938095,
        "wing_id": 1511214207
      }
    ],
    "wof:id": 1511938095,
    "wof:lastmodified": 1787988183,
    "wof:name": "timetable: Trans-Canada Air Lines (TCA), Canada and U.S.A. schedule",
    "wof:parent_id": 1159162825,
    "wof:placetype": "custom",
    "wof:placetype_alt": [
      "object"
    ],
    "wof:repo": "sfomuseum-data-collection",
    "wof:superseded_by": [],
    "wof:supersedes": [],
    "wof:tags": []
  },
  "bbox": [
    -122.386155,
    37.616357,
    -122.386155,
    37.616357
  ],
  "geometry": {"type":"Point","coordinates":[-122.386155,37.616357]}
}
