{
  "id": 1913796259,
  "type": "Feature",
  "properties": {
    "date:cessation_lower": "1952-12-01",
    "date:cessation_upper": "1952-12-01",
    "date:inception_lower": "1952-12-01",
    "date:inception_upper": "1952-12-01",
    "edtf:cessation": "1952-12-01",
    "edtf:inception": "1952-12-01",
    "geom:area": 2.475047457570636e-7,
    "geom:bbox": "-122.386472,37.616105,-122.385834,37.616611",
    "geom:latitude": 37.61635747477365,
    "geom:longitude": -122.38615540108617,
    "millsfield:airline_id": [
      1159284989
    ],
    "millsfield:category_id": 1511214251,
    "millsfield:collection_id": 1511214207,
    "millsfield:company_id": [
      1159286839
    ],
    "millsfield:images": [
      1913796777,
      1913796779
    ],
    "millsfield:images_colors_refs": {
      "crayola": [
        {
          "hex": "#efdecd"
        },
        {
          "hex": "#414a4c"
        },
        {
          "hex": "#9f8170"
        }
      ],
      "css4": [
        {
          "hex": "#2f4f4f"
        },
        {
          "hex": "#808080"
        },
        {
          "hex": "#ffe4c4"
        }
      ],
      "marekm4": [
        {
          "hex": "#434029"
        },
        {
          "hex": "#968f72"
        },
        {
          "hex": "#ede2cb"
        },
        {
          "hex": "#3f3b25"
        },
        {
          "hex": "#ebe1c8"
        }
      ]
    },
    "millsfield:images_texts": [
      "Honolulu\nDecember 1, 1952\nDear FamiLy,\nWe really feel now that we're home, even though we're\nstill 5,000 miles from New York.\nNo more Customs formalities; no\nmore forms to fill out; no more currencies to convert to dollars\nor vice versa (with a liberal cut for the bankers both ways!)\nIf we should have to sum up our impressions of a round\nthe world trip in one word it would be \"chenge\".\nNothing is the\nsame.\nEverything is different.\nOld timers who\ncannot adjust their\nlives to the changes which heve taken place can be best classified\nby that British slang expression,\n\"They've had it\".\nIn Manila one\nsuch ectually said to me, \"These Filipinos have become absolutely\nimpossible - the way they act you'd think they owned the place!\"\nHowever, the policy or lack of policy, of the Trumen\nadministration has kept pace with all the changes. It has swept\nlike a weather-vane,\nresponsive to every wind that blows and much\nof the wind has been from politicians.\nSeemingly the only consistent\npolicy has been bused on the idea that if we give away enough\ndollars welll make friends and influence people. Harry has sent his\nemissaries - usually lame duck politicos or unsuccessful haberdashers -\nto every corner of the world. Most of them carry satchels full of\nchecks signed by Harry or one of his agencies.\nThey set up elaborate\noffices staffed with ne'er-do-well theorists and professional do-\ngooders.\nThey rent the best houses and offices at prices well\nabove the going rates,\nto the consternation of local businessmen.\nThey hire the best trained servants also at wages well above average\nto the greater consternation of the local businessman's wife.\nThey\nrate U.S. Conmissary privileges which means that they and their\nfamilies buy provisions for half the price paid by those poor tax-\npayers who are trying to make a living in that community.\nThey en-\ntertain with whiskey at two dollars a bottle and American cigarettes\n. 60¢ per carton, while the local housewife pays five times that\nThey set up such an elaborate orgenization that most of\nthe funds go to support staft, and the latter never having \"had it\nso good\" and not knowing how long it will last are more intent on\nconserving the dollars then putting them out.\nThat is all to the\ngood under the cockeyed circumstances because it is certainly true\nthat we lose respect in oriental countries by giving money away.\nIf we loan it, as in the Philippines, the Filipinos resent the fact\nthat they must depend on American doles and at the same time despise\nus for being so niggardly. It's the old story if you lend money\nto a friend you lose your money and your friend.\nwith little John 0. Public huddled in a seat in abject terror while\nahead was Dean Acheson at the navigetor station, smiling confidently\nover a chart covered with arrows pointing in different directions.\nAhead of the navigator was Harry Truman the pilot, turned hall-way",
      "round in the pilot's seat looking et Acheson.\nAhead through a\ncracked window was a large black cloud on the left marked\n\"Korea\" and on the right one marked \"Russia\", with high mountains\nahead\nand below the level of flight. All the instruments on the\nboard were broken and the cockpit in a general state of disorder.\nwas suying to Dean,\n\"wonder what the little guy is worried\nI told Roy Howard that personelly I felt as secure as I\nin an airplane with e baboon at the controls.\nHe replied,\nthanking me for the idea which he had passed along to the cartoonists\nand then added a postscript, \"That have you got agsinst baboons?\"\non the last leg of\nour trip around the world it is\nwith a profound sigh of relief and a heartfelt \"Thank God\" that we\nreturn to a United States with IKE at the controls of the Ship of\nState instead of that untrained Missouri chimpanzee.\nHonolulu is wonderful. A few of you in the know will\nadmit that\nthe Royal Hawaiian is\nsomewhat better then the Trocadero\nat Bangkok! Te had s fine trip from Manila with two Thanksgiving\nDeys as the doy we gained crossing the date line was Thursday.\nApproaching voke the pilot let me sit in the \"jump seat\" right\nbeside him and made a swing around the island so that 1 could see\nthe extent of damage done by the recent typhoon. It was extensive.\nMost of the old quonset huts had been blown away and parts were\nstrewn all over the island. Our own facilities with the aid of a\nlittle \"moonlight requisition\" had been jully restored but most of\nthe other personnel, largely C.A.A. employees, were still in tents.\nWe leave here Thursday December 4th for San Francisco\nand hope to see most of you soon after this letter arrives.\nAll the best to all of you.\nH. N. B."
    ],
    "millsfield:images_texts_ids": [
      1913796777,
      1913796779
    ],
    "millsfield:primary_image": 1913796777,
    "millsfield:subcategory_id": 1511213489,
    "mz:is_approximate": 1,
    "mz:is_current": 1,
    "sfomuseum:accession_number": "2019.121.1179 a b",
    "sfomuseum:airline": "Pan American World Airways",
    "sfomuseum:airline_id": [
      684
    ],
    "sfomuseum:category": "Employee Career History",
    "sfomuseum:classification_id": 195,
    "sfomuseum:collection": "Aviation Archive",
    "sfomuseum:creditline": "Collection of SFO Museum",
    "sfomuseum:date": "12/01/1952",
    "sfomuseum:date_acquired": "2019-11-22",
    "sfomuseum:daterange_end": "1952-12-01",
    "sfomuseum:daterange_start": "1952-12-01",
    "sfomuseum:description": "Typewritten letter from Harold M. Bixby to his family, dated December 1, 1952, in Honolulu; includes perspectives on postwar global changes, United States foreign policy; mentions President Harry S. Truman.",
    "sfomuseum:dimensions": "11 x 8 1/2 inches (27.9 x 21.6 cm)",
    "sfomuseum:medium": "paper, ink",
    "sfomuseum:object_id": 211542,
    "sfomuseum:placetype": "object",
    "sfomuseum:publication": ": , 12/01/1952.",
    "sfomuseum:subcategory": "Correspondence, Personal",
    "src:geom": "sfomuseum#undetermined",
    "wof:belongsto": [
      102527513,
      1159162825,
      102191575,
      85633793,
      102087579,
      85922583,
      85688637,
      1159160869
    ],
    "wof:country": "XY",
    "wof:created": 1714549035,
    "wof:depicts": [
      1159284989,
      1159286839
    ],
    "wof:geomhash": "c281b9d9eefc83b5710e64b9d646067d",
    "wof:hierarchy": [
      {
        "building_id": -1,
        "campus_id": 102527513,
        "collection_id": 1159162825,
        "concourse_id": 1159162825,
        "continent_id": 102191575,
        "country_id": 85633793,
        "county_id": 102087579,
        "custom_id": 1913796259,
        "locality_id": 85922583,
        "neighbourhood_id": -1,
        "object_id": 1913796259,
        "region_id": 85688637,
        "wing_id": 1159160869
      }
    ],
    "wof:id": 1913796259,
    "wof:lastmodified": 1787988219,
    "wof:name": "correspondence: Harold M. Bixby, family circular letter",
    "wof:parent_id": 1159162825,
    "wof:placetype": "custom",
    "wof:placetype_alt": [
      "object"
    ],
    "wof:repo": "sfomuseum-data-collection",
    "wof:superseded_by": [],
    "wof:supersedes": []
  },
  "bbox": [
    -122.38647222518921,
    37.6161053594541,
    -122.38583385944366,
    37.61661101879963
  ],
  "geometry": {"type":"Polygon","coordinates":[[[-122.38647222518921,37.61631782178288],[-122.386434674263,37.61623283692423],[-122.38637566566466,37.61617759671399],[-122.38630056381224,37.6161308549656],[-122.38616108894348,37.6161053594541],[-122.38602161407469,37.6161308549656],[-122.38591432571411,37.61618609521055],[-122.38585531711577,37.61626683087935],[-122.38583385944366,37.61636881265146],[-122.38587141036987,37.61646654505181],[-122.38594114780425,37.61654303118856],[-122.38605380058287,37.61660252035167],[-122.38618254661559,37.61661101879963],[-122.3863059282303,37.61657277577607],[-122.3864185810089,37.61650903735973],[-122.3864668607712,37.61641130501523],[-122.38647222518921,37.61631782178288]]]}
}
