{
  "id": 1913768827,
  "type": "Feature",
  "properties": {
    "date:cessation_lower": "1933-01-19",
    "date:cessation_upper": "1933-01-19",
    "date:inception_lower": "1933-01-19",
    "date:inception_upper": "1933-01-19",
    "edtf:cessation": "1933-01-19",
    "edtf:inception": "1933-01-19",
    "geom:area": 2.475047457570636e-7,
    "geom:bbox": "-122.386472,37.616105,-122.385834,37.616611",
    "geom:latitude": 37.61635747477365,
    "geom:longitude": -122.38615540108617,
    "millsfield:airline_id": [
      1159284991,
      1159285931
    ],
    "millsfield:category_id": 1511214251,
    "millsfield:collection_id": 1511214207,
    "millsfield:company_id": [
      1159286721
    ],
    "millsfield:images": [
      1913768943,
      1913768945,
      1913768947
    ],
    "millsfield:images_colors_refs": {
      "crayola": [
        {
          "hex": "#414a4c"
        },
        {
          "hex": "#6e5160"
        },
        {
          "hex": "#eceabe"
        }
      ],
      "css4": [
        {
          "hex": "#696969"
        },
        {
          "hex": "#f5deb3"
        },
        {
          "hex": "#2f4f4f"
        }
      ],
      "marekm4": [
        {
          "hex": "#58555e"
        },
        {
          "hex": "#4b444c"
        },
        {
          "hex": "#ecdfba"
        },
        {
          "hex": "#54525b"
        },
        {
          "hex": "#ebdeb8"
        },
        {
          "hex": "#eddfb7"
        }
      ]
    },
    "millsfield:images_texts": [
      "119/332\nEN ROUTE\nTHE AMERICAN\nThursday\nPENNSYLVANIA RAILROAD\nDiarist -\nI had dinner, wrot\nsural lettes, mostl, buseren\nbut one to Bo, and nour\nan ready for bad. Sid a\nlot bittee in spict than\nI did but want to write to\nagaun tonight so thee\nweis is a lette for you at\nMas when you arrer there.\nI'm sure o cam get\nthe money set out in our\nbudget that is worked out\nat Caddip. That cared for\n2.000 now and salary from",
      "now on. When the money is\navailable 'el was you so\nJu'll know what to count\non .\nI is bia thanking a\nlot about Frances and Bo. tr\nwant them to conturic at\nFarmington and I think in\na ratue, justified in doing\nso becaun talks and I leath\nIt aside money for them\nwas a fune\nfor theis education. That is\nabsolute, true dear. Tr cam\nconside that the money which\ner are spading is only what\nwas proveded as a fund for\nthe girls. I want you to thank\nof it that way.\n9 am indesung a circular\nfor te Pennoylvania describin\ntheis plan for sheppen acts\nwet the thought that when\nyou go to Dauphin Island\nyou might ship the car ao\nfar as washengton as Norfolk\nAnd coin from thic on. That\nworld sac some matoung\ntimc and stile lear the\nbrat part of the trip by auto,\ncapecial, through Vergina ete.\nBe sure to take your\nAuto club card - although 2\nnot think is should rence\nit but mayhe tel git mapo\nEte while In home and sind",
      "them to you.\nDebts dear plean t\ncarfue when you diet ung.\nwhere. I proma that tee\nte carfue too and take no\nkong or unnectar, chances.\nUr mean too much to Each\notte.\nYeur my brat to tho\nand the boy - chao tab if\nhe's think, and thanks Again\nJa your pluck. You are\nthe beat spat as ure is\nthe most adorable in the\nwhole worde world.\nale me lour angle\ngood aght. Had\n2019.121.0562"
    ],
    "millsfield:images_texts_ids": [
      1913768943,
      1913768945,
      1913768947
    ],
    "millsfield:primary_image": 1913768943,
    "millsfield:subcategory_id": 1511213489,
    "mz:is_approximate": 1,
    "mz:is_current": 1,
    "sfomuseum:accession_number": "2019.121.0562",
    "sfomuseum:airline": "Pan American Airways",
    "sfomuseum:airline_id": [
      685,
      1131
    ],
    "sfomuseum:category": "Employee Career History",
    "sfomuseum:classification_id": 195,
    "sfomuseum:collection": "Aviation Archive",
    "sfomuseum:creditline": "Collection of SFO Museum",
    "sfomuseum:date": "01/19/1933",
    "sfomuseum:date_acquired": "2019-11-22",
    "sfomuseum:daterange_end": "1933-01-19",
    "sfomuseum:daterange_start": "1933-01-19",
    "sfomuseum:description": "Handwritten letter from Harold M. Bixby to his wife, Debby Bixby, dated Thursday, [likely January 19, 1933], on stationery from the Pennsylvania Railroad “The American” route; includes personal and family matters.",
    "sfomuseum:dimensions": "7 1/4 x 5 1/4 inches (18.4 x 13.3 cm)",
    "sfomuseum:medium": "paper, ink",
    "sfomuseum:object_id": 210837,
    "sfomuseum:placetype": "object",
    "sfomuseum:publication": ": , 01/19/1933.",
    "sfomuseum:subcategory": "Correspondence, Personal",
    "src:geom": "sfomuseum#undetermined",
    "wof:belongsto": [
      102527513,
      1159162825,
      102191575,
      85633793,
      102087579,
      85922583,
      85688637,
      1159160869
    ],
    "wof:country": "XY",
    "wof:created": 1714462439,
    "wof:depicts": [
      1159284991,
      1159285931,
      1159286721
    ],
    "wof:geomhash": "c281b9d9eefc83b5710e64b9d646067d",
    "wof:hierarchy": [
      {
        "building_id": -1,
        "campus_id": 102527513,
        "collection_id": 1159162825,
        "concourse_id": 1159162825,
        "continent_id": 102191575,
        "country_id": 85633793,
        "county_id": 102087579,
        "custom_id": 1913768827,
        "locality_id": 85922583,
        "neighbourhood_id": -1,
        "object_id": 1913768827,
        "region_id": 85688637,
        "wing_id": 1159160869
      }
    ],
    "wof:id": 1913768827,
    "wof:lastmodified": 1787988219,
    "wof:name": "correspondence: Harold M. Bixby to Debby Bixby",
    "wof:parent_id": 1159162825,
    "wof:placetype": "custom",
    "wof:placetype_alt": [
      "object"
    ],
    "wof:repo": "sfomuseum-data-collection",
    "wof:superseded_by": [],
    "wof:supersedes": []
  },
  "bbox": [
    -122.38647222518921,
    37.6161053594541,
    -122.38583385944366,
    37.61661101879963
  ],
  "geometry": {"type":"Polygon","coordinates":[[[-122.38647222518921,37.61631782178288],[-122.386434674263,37.61623283692423],[-122.38637566566466,37.61617759671399],[-122.38630056381224,37.6161308549656],[-122.38616108894348,37.6161053594541],[-122.38602161407469,37.6161308549656],[-122.38591432571411,37.61618609521055],[-122.38585531711577,37.61626683087935],[-122.38583385944366,37.61636881265146],[-122.38587141036987,37.61646654505181],[-122.38594114780425,37.61654303118856],[-122.38605380058287,37.61660252035167],[-122.38618254661559,37.61661101879963],[-122.3863059282303,37.61657277577607],[-122.3864185810089,37.61650903735973],[-122.3864668607712,37.61641130501523],[-122.38647222518921,37.61631782178288]]]}
}
