{
  "id": 1511935621,
  "type": "Feature",
  "properties": {
    "date:cessation_lower": "1968-01-01",
    "date:cessation_upper": "1968-12-31",
    "date:inception_lower": "1968-01-01",
    "date:inception_upper": "1968-12-31",
    "edtf:cessation": "1968",
    "edtf:date": "1968",
    "edtf:inception": "1968",
    "geom:area": 0,
    "geom:bbox": "-122.386155,37.616357,-122.386155,37.616357",
    "geom:latitude": 37.616357,
    "geom:longitude": -122.386155,
    "iso:country": "XX",
    "millsfield:airline_id": [
      1159283793
    ],
    "millsfield:category_id": 1511214223,
    "millsfield:collection_id": 1511214207,
    "millsfield:company_id": [
      1159286809
    ],
    "millsfield:images": [
      1527844229,
      1527844231
    ],
    "millsfield:images_colors_refs": {
      "crayola": [
        {
          "hex": "#85754e"
        },
        {
          "hex": "#c46210"
        },
        {
          "hex": "#000000"
        },
        {
          "hex": "#ff2b2b"
        },
        {
          "hex": "#fddde6"
        },
        {
          "hex": "#ffae42"
        }
      ],
      "css4": [
        {
          "hex": "#f5f5f5"
        },
        {
          "hex": "#ff4500"
        },
        {
          "hex": "#daa520"
        },
        {
          "hex": "#6b8e23"
        },
        {
          "hex": "#000000"
        },
        {
          "hex": "#d2691e"
        }
      ],
      "marekm4": [
        {
          "hex": "#4d941f"
        },
        {
          "hex": "#eeefef"
        },
        {
          "hex": "#2a1718"
        },
        {
          "hex": "#e5c121"
        },
        {
          "hex": "#db4c21"
        },
        {
          "hex": "#f0f0f0"
        },
        {
          "hex": "#172020"
        },
        {
          "hex": "#e03517"
        }
      ]
    },
    "millsfield:images_texts": [
      "AIR\nCALIFORNIA\n737 Jet Service\nbetween\nNorthern \u0026 Southern California\nNow Serving\nSan\nFrancisco\nOakland\nSan Jose\nOntario\nHollywood\nBurbank\nOrange\nGounty\nDisneyland\nArea\nEffective\nDecember 3, 1968",
      "Cotati\nPenngrove\n(121)\n• Yountville\nGlen Ellen\nBoyes Hot\nSprings\nSonoma\nAllendale,\n80)\nVacaville •\nNAPA\nMankas /\nCors.\nOrales\nPetaluma\nSchellville\nMarshall\nFairfield\nBirds Ldg.\nRio Vista\nOlema\nPt. Reys Station\nNOVATO\nVALLEJOO\nSan Pablo\nSan Anselmo•\nSAN RAFAEL\nPittsburg\nAntioch'\nPleasant Hill\nRICHMOND\n• BERKELEY\nBrentwood\n• Walnut Cr.\n'OAKLAND AIRPORT\nSAN FRANCISCO\nINTERNATIONAL\n›ALAMEDA\nAIRPORT\nSAN LEANDRO\nPACIFICA\nSAN BRUNO\nBURLINGAME\nSAN MATEO\nREDWOOD CITY\nMENLO PARK\nPALO ALTO\n580\nHAYWARD\nSunoi\n238),\n* FREMONT\nPleasanton\nMOUNTAIN\nVIEW\n(680)\nAlum Rock\nMilpitas\nTunitas\nSan Gregorio\nFranklin\nLocke\nWalnut\nLathro\n12. Tracy co\nCarbona\n84)\na Honda\nPescadero'\nSANTA CLARA\nCampbelle\n9)\nSaratoga •\nSAN JOSE AIRPORT\nLos Gatos\nBig Basin\nhomokora\nPark\nGlenwood\nMorgan Hill\nSwanton\nFelton\nPasatiempo\n17)\nScotts Val.\nLive Oak\n• Aptos\n(101)\nBay Area\nDavenport\nSANTA CRUZ\nGilroy\nWatsonville\nFOR RESERVATIONS\nFROM THE FOLLOWING AREAS\nSAN FRANCISCO 415) 433-2660 OAKLAND (415) 562-8200\n*OTHER SAN FRANCISCO PENINSULA AREA (415) 871-9942\nSAN JOSE (408) 286-7870\nENTERPRISE 1-6346 • Belvedere • Corte Madera • Fairfield • *Millbrae • Mill Valley • Napa • *San Carlos-\nBelmont • *San Mateo • San Rafael • Santa Rosa • Sausalito • Suisun • Vallejo\nSanta Susana\n27)\n• Thousand Oaks\n27)\nBEVERLY HILLS\nSANTA MONICA\nLOS ANGELES\nINTERNATIONAL AIRPORT\nMANHATTAN BEACH\n395)\nPalmilale\nOro Grande\nAdelanto'\nPearblossom\nLittlerock\n• Vincent\nActon\nPinon Hills\nPhelan\nMountain •\nView Acres\nSan Fernando\nHOLLYWO D\n39\n~ BURBANKAIRPORT\nPASADENA MONROVIA\nL GLENDORA\nGLENDALE ALHAMERA\nAZUSA*\n15)\nSAN\nMuscoy\n-BERNARDINO\nPOMONAI\nINGLEWOOD\nWHITHER ONTARIO AIRPORT\nLA MIRADA•\nNORWALK•\n- BUENA PARK\nNorco,\n•FULLERTON\nP GOS\n19) (605)\nANAHEIM\nCorona\nORANGE\nSANTA ANA S\nRIVERSIDE\nEdgemont\n• Home Gardens\nLONG\nBEACH\nAlhornill\nHUNTINGTON BEACH\nCOSTA MESA\nORANGE/\n(Sig• Trabuco Canyon\nNEWPORT BEACH\n3C COUNTY AIRPORT,\nPerris\nwildomai\nLaguna Beach\n74)\nSan Juan\nCapistrano\nSan Clemente\nFallbrook gr\nBons:\nLuis Rey\nOCEANSIDE\nCarlsbad\nSo. California\nFOR RESERVATIONS\nFROM THE FOLLOWING AREAS\nHOLLYWOOD/BURBANK (213) 845-7813\nONTARIO (714) 983-2743 *OTHER ORANGE COUNTY CITIES (714) 540-4550\nZENITH 7-0799 • Alhambra • Beverly Hills • *Capistrano Valley • Compton • Corona • Covina • Culver\nCity • Downey • El Monte • Fallbrook • Fontana • Glendale • La Crescenta • Lomita • Long Beach • Los\nAngeles • Montebello • North Hollywood • *Oceanside • Pasadena • Pomona • Redlands • Reseda •\nRiverside • San Bernardino • *San Clemente • San Fernando • San Pedro • Santa Monica • Sunland-\nTujunga • Torrance • Vista • West Los Angeles • Whittier"
    ],
    "millsfield:images_texts_ids": [
      1527844229,
      1527844231
    ],
    "millsfield:primary_image": 1527844229,
    "millsfield:subcategory_id": 1511213425,
    "mz:hierarchy_label": 1,
    "mz:is_current": 1,
    "sfomuseum:accession_number": "2005.132.002.010",
    "sfomuseum:airline": "Air California",
    "sfomuseum:airline_id": [
      144
    ],
    "sfomuseum:category": "Scheduling / Ticketing",
    "sfomuseum:classification_id": 158,
    "sfomuseum:collection": "Aviation Archive",
    "sfomuseum:creditline": "Gift of the William Hough Collection",
    "sfomuseum:date": "1968",
    "sfomuseum:date_acquired": "2006-12-05",
    "sfomuseum:daterange_end": "1968-12-31",
    "sfomuseum:daterange_start": "1968-01-01",
    "sfomuseum:description": "Timetable issued by Air California, effective December 3, 1968, for 737 service between Northern and Southern California; four-page fold-out; white cover with color photographic image of Boeing 737 and list of destination cities.",
    "sfomuseum:dimensions": "9 x 3 inches (22.9 x 7.6 cm)",
    "sfomuseum:media_ids": [
      1527844229,
      1527844231
    ],
    "sfomuseum:medium": "paper, ink",
    "sfomuseum:object_id": 97445,
    "sfomuseum:placetype": "object",
    "sfomuseum:primary_media_id": 1527844229,
    "sfomuseum:publication": ": , 1968.",
    "sfomuseum:subcategory": "Timetable",
    "src:geom": "sfomuseum#undetermined",
    "wof:belongsto": [
      1511214223,
      102527513,
      102191575,
      85633793,
      1511213425,
      85922583,
      102087579,
      1511214277,
      1511214207,
      85688637
    ],
    "wof:breaches": [],
    "wof:country": "XX",
    "wof:created": 1579906659,
    "wof:depicts": [
      1159286809,
      1159283793
    ],
    "wof:geomhash": "30c8a918561c84bb2daa2b97fc7c5353",
    "wof:hierarchy": [
      {
        "arcade_id": 1511213425,
        "building_id": 1511214277,
        "campus_id": 102527513,
        "concourse_id": 1511214223,
        "continent_id": 102191575,
        "country_id": 85633793,
        "county_id": 102087579,
        "custom_id": 1511935621,
        "locality_id": 85922583,
        "neighbourhood_id": -1,
        "object_id": 1511935621,
        "region_id": 85688637,
        "venue_id": 1511935621,
        "wing_id": 1511214207
      }
    ],
    "wof:id": 1511935621,
    "wof:lastmodified": 1787988182,
    "wof:name": "timetable: Air California",
    "wof:parent_id": 1159162825,
    "wof:placetype": "custom",
    "wof:placetype_alt": [
      "object"
    ],
    "wof:repo": "sfomuseum-data-collection",
    "wof:superseded_by": [],
    "wof:supersedes": [],
    "wof:tags": []
  },
  "bbox": [
    -122.386155,
    37.616357,
    -122.386155,
    37.616357
  ],
  "geometry": {"type":"Point","coordinates":[-122.386155,37.616357]}
}
