{
  "id": 1511921611,
  "type": "Feature",
  "properties": {
    "date:cessation_lower": "1980-01-01",
    "date:cessation_upper": "1989-12-31",
    "date:inception_lower": "1980-01-01",
    "date:inception_upper": "1989-12-31",
    "edtf:cessation": "198X",
    "edtf:date": "198x",
    "edtf:inception": "198X",
    "geom:area": 0,
    "geom:bbox": "-122.386155,37.616357,-122.386155,37.616357",
    "geom:latitude": 37.616357,
    "geom:longitude": -122.386155,
    "iso:country": "XX",
    "millsfield:airline_id": [
      1159284153
    ],
    "millsfield:category_id": 1762671311,
    "millsfield:collection_id": 1511214207,
    "millsfield:company_id": [
      1159288057
    ],
    "millsfield:exhibition_ids": [
      1796996505
    ],
    "millsfield:images": [
      1527843523,
      1527843525
    ],
    "millsfield:images_colors_refs": {
      "crayola": [
        {
          "hex": "#bf4f51"
        },
        {
          "hex": "#fdbcb4"
        },
        {
          "hex": "#9c7c38"
        },
        {
          "hex": "#efdecd"
        },
        {
          "hex": "#000000"
        },
        {
          "hex": "#ffa474"
        }
      ],
      "css4": [
        {
          "hex": "#a0522d"
        },
        {
          "hex": "#ffb6c1"
        },
        {
          "hex": "#cd853f"
        },
        {
          "hex": "#ffa07a"
        },
        {
          "hex": "#000000"
        },
        {
          "hex": "#dcdcdc"
        }
      ],
      "marekm4": [
        {
          "hex": "#e8e2de"
        },
        {
          "hex": "#a46b24"
        },
        {
          "hex": "#fabba1"
        },
        {
          "hex": "#b58a3b"
        },
        {
          "hex": "#fa9a70"
        },
        {
          "hex": "#b05133"
        },
        {
          "hex": "#2d1504"
        },
        {
          "hex": "#2f1811"
        }
      ]
    },
    "millsfield:images_texts": [
      "1g",
      "San\nFrancisco\n( 13h. )\nTaipei\n8*4-4\nit\nHeavy Snack\nGreen Salad\n1 8\n(13*M) A\n-8:\nChoice of Main Course\n** 1:8\nFilet with Black Mushroom\n$71VKZ**\nDarsley Potatoes\n, 47\nSnow\nDeas\n2-7\nor\nShrimp w/ Peas\nНат\n3x*-24\nFried\nRice\nButter Glazed Carrots\nOrange\nPistachio\nSet to A m\n* 7\nRoll\n- 8\nButter\n^7 -\nA Tea or Coffee AL\n1 83\n**2n3-\n(Olong Tea, Jasmine Tae, Black Tea and Decaffeinated Coffee are available for your choice)\n*Diabetic Sugar is available upon request.\nAs you will appreciate,\nstorage space in our\ngalleys is very limited.\nSometimes,\ntherefore, we are unable to offer a choice of main dish to every passenger aboard.\nShould the choice be limited aboard this flight, please accept our apologies.\n69S-003Y\n483\ndan\n4 83\nFrancisco — Taipei\n\u0026 13h\nAL -8\n+ 8\ninner\nGreen Salad\n4 83\nChoice of Main\nCourse\nBeef Filet w/ Maitre d' Butter\nDuchess: Potatoes\nButtered Broccoli\n183\nEK1138\n4·\n* 72 *\nAL\nSweet \u0026 dour\nPork\nLAL\nFried Noodles\n1, 18\nSnow Deas\nCream\nDuff\nRoll\n\u0026\nButter\n\u0026 Tea or\nCoffee 83\nAL, + 8\n4 88-\n10 2\n1, 83\n**#1*22*2\nAL\nAL -8\nAL -8\nAL -8\n2-771 L-\nAI\n- 8.\n*+›\u003e\n2 - 7\n• - ~\n^$ -\nAL\n1 83\n1 8\n4 83\n11 4 8\n- 83\n****\n4 $\n695-003Y"
    ],
    "millsfield:images_texts_ids": [
      1527843523,
      1527843525
    ],
    "millsfield:on_view": 0,
    "millsfield:primary_image": 1527843525,
    "millsfield:subcategory_id": 1511213567,
    "mz:hierarchy_label": 1,
    "mz:is_current": 1,
    "sfomuseum:accession_number": "2001.080.095",
    "sfomuseum:airline": "China Airlines",
    "sfomuseum:airline_id": [
      307
    ],
    "sfomuseum:category": "Passenger Amenity, Archive",
    "sfomuseum:classification_id": 242,
    "sfomuseum:collection": "Aviation Archive",
    "sfomuseum:continent": "World Routes",
    "sfomuseum:creditline": "Gift of Thomas G. Dragges",
    "sfomuseum:date": "1980s",
    "sfomuseum:date_acquired": "2003-01-02",
    "sfomuseum:daterange_end": "1989-12-31",
    "sfomuseum:daterange_start": "1980-01-01",
    "sfomuseum:description": "Menu issued by China Airlines, San Francisco - Taipei; color reproduction of scroll of two birds (Magpies) in a cassia tree; “heavy snack” and dinner menu items include filet with black mushrooms, shrimp with peas and ham, and sweet and sour pork; menu number: 69S-003Y; undated.",
    "sfomuseum:dimensions": "10 x 7 1/2 inches (25.4 x 19.1 cm)",
    "sfomuseum:exhibition_ids": [
      2026
    ],
    "sfomuseum:media_ids": [
      1527843523,
      1527843525
    ],
    "sfomuseum:medium": "paper, ink, fabric",
    "sfomuseum:object_id": 60950,
    "sfomuseum:on_view": 1,
    "sfomuseum:placetype": "object",
    "sfomuseum:primary_media_id": 1527843525,
    "sfomuseum:publication": ": , 1980s.",
    "sfomuseum:subcategory": "Menu",
    "src:geom": "sfomuseum#undetermined",
    "wof:belongsto": [
      1159162825,
      102527513,
      102191575,
      85633793,
      85922583,
      102087579,
      1159160869,
      85688637
    ],
    "wof:breaches": [],
    "wof:country": "XX",
    "wof:created": 1579906657,
    "wof:depicts": [
      1159284153,
      1159288057
    ],
    "wof:geomhash": "30c8a918561c84bb2daa2b97fc7c5353",
    "wof:hierarchy": [
      {
        "building_id": -1,
        "campus_id": 102527513,
        "concourse_id": 1159162825,
        "continent_id": 102191575,
        "country_id": 85633793,
        "county_id": 102087579,
        "custom_id": 1511921611,
        "locality_id": 85922583,
        "neighbourhood_id": -1,
        "object_id": 1511921611,
        "region_id": 85688637,
        "venue_id": 1511921611,
        "wing_id": 1159160869
      }
    ],
    "wof:id": 1511921611,
    "wof:lastmodified": 1787988177,
    "wof:name": "menu: China Airlines",
    "wof:parent_id": 1159162825,
    "wof:placetype": "custom",
    "wof:placetype_alt": [
      "object"
    ],
    "wof:repo": "sfomuseum-data-collection",
    "wof:superseded_by": [],
    "wof:supersedes": [],
    "wof:tags": []
  },
  "bbox": [
    -122.386155,
    37.616357,
    -122.386155,
    37.616357
  ],
  "geometry": {"type":"Point","coordinates":[-122.386155,37.616357]}
}
