{
  "id": 1763308157,
  "type": "Feature",
  "properties": {
    "date:cessation_lower": "1980-01-01",
    "date:cessation_upper": "1989-12-31",
    "date:inception_lower": "1980-01-01",
    "date:inception_upper": "1989-12-31",
    "edtf:cessation": "198X",
    "edtf:inception": "198X",
    "geom:area": 2.475047457570636e-7,
    "geom:bbox": "-122.386472,37.616105,-122.385834,37.616611",
    "geom:latitude": 37.61635747477365,
    "geom:longitude": -122.38615540108617,
    "millsfield:airline_id": [
      1159285759
    ],
    "millsfield:category_id": 1763416373,
    "millsfield:collection_id": 1511214203,
    "millsfield:company_id": [
      1159288301
    ],
    "millsfield:images": [
      1763308643,
      1763308645,
      1763308649,
      1763308651
    ],
    "millsfield:images_colors_refs": {
      "crayola": [
        {
          "hex": "#414a4c"
        },
        {
          "hex": "#714b23"
        },
        {
          "hex": "#979aaa"
        }
      ],
      "css4": [
        {
          "hex": "#a9a9a9"
        },
        {
          "hex": "#8b4513"
        },
        {
          "hex": "#2f4f4f"
        }
      ],
      "marekm4": [
        {
          "hex": "#a9a9a6"
        },
        {
          "hex": "#45382c"
        },
        {
          "hex": "#924523"
        },
        {
          "hex": "#9a3f1d"
        },
        {
          "hex": "#3f2d20"
        },
        {
          "hex": "#973f24"
        },
        {
          "hex": "#abaaa7"
        },
        {
          "hex": "#403023"
        },
        {
          "hex": "#433529"
        },
        {
          "hex": "#aaaaa7"
        },
        {
          "hex": "#914226"
        }
      ]
    },
    "millsfield:images_texts": [
      "LOS ANGELES \u003c VICTORIA A HALFA\nEDMONTON K WINNIPEG KI SANTIAG\n[SASKATOON TORONTO CHAL A\nSANTIAGO K HONOLULU K AMSTEDA\nVANCOUVER OTTAWA EDMONTO\nBUENOS AIRES SASKATOON (LISBOl\nSAN FRANCISCO K MILAN K HONG KONG\nWINNIPEG VANCOUVER CALGARY\nOTTAWA A LOS ANGELES A HONOLULU\nTA VANCOUVER",
      "LOSINGELES VICTORIA \u003c HALIFAX\nEDMONTON WINNIPEG K SANTIAGO\nKISASKATOON TORONTO \u003c HALIFAX\nSANTIAGO HONOLULU K AMSTERDAM\n(VANCOUVER OTTAWA K EDMONTON\nBUENOS AIRES SASKATOON KLISBON\nLAN FRANCISCO K MILAN K HONG KONG\nK WINNIPEG VANCOUVER 1 CALGARY\nOTTAWA K LOS ANGELES HONOLULU\nKAumaCVANCOUVER",
      "TOK FO L SASKATOON\nROME K MILAN RI VICTORIA EE FLI\nSANTIAGO K EDMONTON KI REGIN\n« MONTREAL K SANTIAGO (LISBON\nSAN FRANCISCO K SYDNEY 1 MILAN\nK MILAN [ ROME SYONEY ROM\nMILAN I BUENOS AIRES MONTREA)\nLOS ANGELES K VICTORIA ((HALIPAX\nEDMONTON WINMPEG [( SANTIAGO\n\"SASKATOON [TORONTO (HALIFAY\nSANTIAGO HONOLULU AMSTERDN)\nVANCOUVER OTTAWA (EDMONTON\nBUENOS AIRES (SASKATOON ((USBO)\nSAN FRANCISCO MILAN KHONG KOI\nK WINNIPEG I VANCOUVER CICALOAN\nR MONOLLLL",
      "TOKYO K SASKATOON\nROME KI MILAN KI VICTORIA E FIJI\nSANTIAGO K EDMONTON C REGINA\n( MONTREAL K SANTIAGO (LISBON\nSAN FRANCISCO \u003c SYDNEY \u003c MILAN\n(\\MILAN K ROME SYDNEY CROME\nMLAN \u003c BUENOS AIRES MONTREAL\n1 ANGELES K VICTORIA K HALIFAX\nEDMONTON K WINNIPEG K SANTIAGO\n[ASASKATOON S TORONTO \u0026 HALIFAX\nSANTACO LI HONOLULU AMSTERDAM\nKIANCOUVER OTTAWA CY EDMONTON\nBUENDS AIRES SASKATOON LISBON\nSAN FRANCISCO MILAN K HONG KONG\n( WIMIPEa ( VANCOUVEN I CALOARY\nOTTASMA TL\nANGELES A HONOLULU"
    ],
    "millsfield:images_texts_ids": [
      1763308643,
      1763308645,
      1763308649,
      1763308651
    ],
    "millsfield:primary_image": 1763308643,
    "millsfield:subcategory_id": 1511213155,
    "mz:is_approximate": 1,
    "mz:is_current": 1,
    "sfomuseum:accession_number": "2001.146.091",
    "sfomuseum:airline": "CP Air",
    "sfomuseum:airline_id": [
      1052
    ],
    "sfomuseum:category": "Promotional, Museum",
    "sfomuseum:classification_id": 9,
    "sfomuseum:collection": "Aviation Museum",
    "sfomuseum:creditline": "Gift of Thomas G. Dragges",
    "sfomuseum:date": "1980s",
    "sfomuseum:date_acquired": "2003-07-24",
    "sfomuseum:daterange_end": "1989-12-31",
    "sfomuseum:daterange_start": "1980-01-01",
    "sfomuseum:description": "Airline bag issued by CP Air (Canadian Pacific Air Lines), manufactured by TQ Tradex; brown background with dark brown piping, red logo and various city destinations as pattern on front pocket and back; adjustable shoulder strap with handles and top zipper closure; four plastic feet at bottom.",
    "sfomuseum:dimensions": "16 x 12 1/2 x 5 inches (40.6 x 31.8 x 12.7 cm)",
    "sfomuseum:maker": "TQ Tradex, Ltd.",
    "sfomuseum:medium": "synthetic textile, plastic, metal, fabric, paint",
    "sfomuseum:object_id": 64408,
    "sfomuseum:placetype": "object",
    "sfomuseum:publication": ": , 1980s.",
    "sfomuseum:subcategory": "Airline Bag",
    "src:geom": "sfomuseum#undetermined",
    "wof:belongsto": [
      102527513,
      1159162825,
      102191575,
      85633793,
      102087579,
      85922583,
      85688637,
      1159160869
    ],
    "wof:country": "XY",
    "wof:created": 1647675687,
    "wof:depicts": [
      1159288301,
      1159284217,
      1159285759
    ],
    "wof:geomhash": "c281b9d9eefc83b5710e64b9d646067d",
    "wof:hierarchy": [
      {
        "building_id": -1,
        "campus_id": 102527513,
        "collection_id": 1159162825,
        "concourse_id": 1159162825,
        "continent_id": 102191575,
        "country_id": 85633793,
        "county_id": 102087579,
        "custom_id": 1763308157,
        "locality_id": 85922583,
        "neighbourhood_id": -1,
        "object_id": 1763308157,
        "region_id": 85688637,
        "wing_id": 1159160869
      }
    ],
    "wof:id": 1763308157,
    "wof:lastmodified": 1787988207,
    "wof:name": "airline bag: CP Air",
    "wof:parent_id": 1159162825,
    "wof:placetype": "custom",
    "wof:placetype_alt": [
      "object"
    ],
    "wof:repo": "sfomuseum-data-collection",
    "wof:superseded_by": [],
    "wof:supersedes": []
  },
  "bbox": [
    -122.38647222518921,
    37.6161053594541,
    -122.38583385944366,
    37.61661101879963
  ],
  "geometry": {"type":"Polygon","coordinates":[[[-122.38647222518921,37.61631782178288],[-122.386434674263,37.61623283692423],[-122.38637566566466,37.61617759671399],[-122.38630056381224,37.6161308549656],[-122.38616108894348,37.6161053594541],[-122.38602161407469,37.6161308549656],[-122.38591432571411,37.61618609521055],[-122.38585531711577,37.61626683087935],[-122.38583385944366,37.61636881265146],[-122.38587141036987,37.61646654505181],[-122.38594114780425,37.61654303118856],[-122.38605380058287,37.61660252035167],[-122.38618254661559,37.61661101879963],[-122.3863059282303,37.61657277577607],[-122.3864185810089,37.61650903735973],[-122.3864668607712,37.61641130501523],[-122.38647222518921,37.61631782178288]]]}
}
