{
  "id": 1913796515,
  "type": "Feature",
  "properties": {
    "date:cessation_lower": "1933-11-08",
    "date:cessation_upper": "1933-11-08",
    "date:inception_lower": "1933-11-08",
    "date:inception_upper": "1933-11-08",
    "edtf:cessation": "1933-11-08",
    "edtf:inception": "1933-11-08",
    "geom:area": 2.475047457570636e-7,
    "geom:bbox": "-122.386472,37.616105,-122.385834,37.616611",
    "geom:latitude": 37.61635747477365,
    "geom:longitude": -122.38615540108617,
    "millsfield:airline_id": [
      1159284991,
      1159285931
    ],
    "millsfield:category_id": 1511214251,
    "millsfield:collection_id": 1511214207,
    "millsfield:company_id": [
      1159286721
    ],
    "millsfield:images": [
      1913801347,
      1913801349,
      1913801351,
      1913801353,
      1913801357,
      1913801359,
      1913801361
    ],
    "millsfield:images_colors_refs": {
      "crayola": [
        {
          "hex": "#bab86c"
        },
        {
          "hex": "#000000"
        },
        {
          "hex": "#edd19c"
        }
      ],
      "css4": [
        {
          "hex": "#eee8aa"
        },
        {
          "hex": "#f5deb3"
        },
        {
          "hex": "#bdb76b"
        },
        {
          "hex": "#000000"
        }
      ],
      "marekm4": [
        {
          "hex": "#aba66e"
        },
        {
          "hex": "#241a0c"
        },
        {
          "hex": "#b6a171"
        },
        {
          "hex": "#28230f"
        },
        {
          "hex": "#e6d3a4"
        },
        {
          "hex": "#e9d8a9"
        },
        {
          "hex": "#2d2a12"
        },
        {
          "hex": "#aba072"
        },
        {
          "hex": "#e7d4a4"
        },
        {
          "hex": "#e4d3a5"
        },
        {
          "hex": "#b5a071"
        },
        {
          "hex": "#261b0c"
        },
        {
          "hex": "#e4d3a6"
        },
        {
          "hex": "#22180c"
        },
        {
          "hex": "#201e0e"
        },
        {
          "hex": "#282511"
        },
        {
          "hex": "#b19d72"
        },
        {
          "hex": "#afa171"
        },
        {
          "hex": "#ab9f72"
        },
        {
          "hex": "#e4d3a7"
        }
      ]
    },
    "millsfield:images_texts": [
      "CABLE ADDKESS\nMANHOCO - MANILA\nALL TELEGRAPHIC CODES\nHUBERT C. ANDERSON\nMANAGER\nTHE\nSIGN OF SERVICE\nIN THE\nPHILIPPINES\nnos. 844\nMANILA HOTEL\nDrarest Deb-\nManila, Philippines\nwint\nto\na\nChinese dinne\nlay the car Consul\nCornse\n(when And was thre) re ministr\nto china eme\nfurt Americri grimany add at.\nisoner to the\nin 1899.\n\"18gg.eb He is rabid on the\nsubict of\n\"independener for the\nDolands\n- Which is probabe, all\nright. but world of cours mean\nabsolute\nruin commercially. 2 am\nnot stuck, unsyn pathetic with\nthe idea\nindependaner but\nthink the\nhowls for it hair",
      "ba largee, from decited dema.\ngogue soko\nreace, dont want\nit them seers but hair talked\nit\nas\ngood campaign matrice\n* hair\ngut to fund a tingle\nFilipino. who is\nreale, for it\nif you pin him\ndown lout\n5 or l for one i favar.,t\nthink its cout of like the\nrich gire who marries.\nvirg\n\"poor man. the wores\nratha suffer - in depdent\nof he family and 1 f222\nth and ti\nrajor tte luxurie.\nafforded he at home. Businis\nures go to Pot - no doulet\nalont that-\nthas woe be un-\nImplyn int\nsuffering - korn\nstarvation\nbut thin than wile br",
      "CABLE ADDRESS:\nMANHOCO - MANILA SE\nALL TELEGRAPHIC CODES\nHUBERT C. ANDERSON\nMANAGER\nTHE\nSIGN OF SERVICE\nIN THE\nPHILIPPINES\n_MANILA _HOTEL\nManila, Philippines\nfees and\nmay\n- work\ncut\nthan salvation\nsome\nhard boiled Amricans say -\nbe back sun\n\"\nthe tress again in\nsix\nmonths:\nto rce to return to the part, -\nI like the Chinies and was glad\nto\n- be with then again. the\nale\ncordial and frends.\nI do\nnot like the\nFilipinos\nthey\nair more like monkeys.\nThey,\nlazy - shiftles\ngood.\nThey ent\nant on rducated.\ni.es too many\nLair brin\nto\nschool (fault of 1k. U.S.) and\ncant lown.\nthemsees to do\nmanual labor..\nlabor. Abont 87% of the",
      "land is not eultwatre and wher\nthe gapanes or Chinen come in\nFilyno disapprars - he cant\nCompute at are.\nJot back to the hate\nakont ten oclick\nMand corats a\nlittre to Arthur Horkins rueloning\nA nis papre story which thought\na neis papri\nworld, appral to him lied so l\nRead our your recint litters\nagain and its in so sorry\nthat s\nyou got\n• no slittus at all\nand\nthen\nten all at oner. It\nto. much men to get them by\nones s or tio.\nSome times Inne\na littan.\nanmail just so you cont\nget them ace togeth. Ruth\nmust hair ban aufull, funny\nwith the Keran - though Du bet\nanything the likes you brat. Din not\na bit fi Dibs and reale, honest,\ntrue l\nquat glad bey goe, that\nlittle rusk. Just so long as",
      "D, TAN\nCABLE ADDRESS:\nMANHOCO - MANILA\nALL TELEGRAPHIC CODES\nHUBERT C. ANDERSON\nMANAGER\nHON STASE TEPLTE\nJU0\nTHE\nSIGN OF SERVICE\nIN THE\nPHILIPPINES\nMANILA HOTEL\nManila, Philippines\nam\nnumber\none\nI dont mine-\njact an\nglad you got youssef\nnumber tioo.\nF.a.a.\nyou o trak, liks working for\n• That litr from par morgan\nwohick I suut\nyou makes me fie\ngoad but of cours it isnt trus\nand Iin reale, not very sprond of\nthe jal whick has be done\n- It looks as though the Thieypine\nmot goig to gaas\nour fan chis.\nand\nthat parte, on\nthat\n*→ parte,\nJou goe weta otkn renon the\nusto the franeniois\nof the\nPloil Negros, Qui Express\nane tte Philppne Qural Taki Co\nwohuer\nproedurs uree put Eva,-\nthung\nlacke in\nstatus quo at",
      "at least until the heginates milt.\nagani met guns. This outcome is\nreace, brot\nDo us in the long run\nbut o regret that in had to hail\na fight. and beer me it has\nsurr\nturn one. Tomorrow, morning\nDhave to apper befor the Samar\nCommte in\na last effort to put\nthe preschis the sigh which i hai\nabrad, taca.\nthe gou gie he\nshould to roma\nI et paasis.\ntir an oppone grina paces, by the\npora fre politicals,and they think\nthat thai\nfrancer, see pass\noh approd by the goo, gri\nThen ent go to 12 ver much\n- and disapponted and\nbifour they got through wice wish\nthey had acceptrd the ir, libmal\noffer which 1z mads. A reporta\na reportre\nJhat called to tale me that the\nNour Committer had decided to\n0177",
      "CABLE ADUKESS\nMANHOCO - MANILA\nALL TELEGRAPHIC CODES\nHUBERT C. ANDERSON\nMANAGER\nTHE\nSIGN OF SERVICE\nIN THE\nPHILIPPINES\nMANILA HOTEL\nManila, Philippines\nnot appror our\nMascon.\n° am\nfranchen at the\nnaturace, disappointes\nbut or can ply to\nmanile fron Hone\nkor wackout a\nfranches. and that\nis the important considiation.\ntor offrura. to\nto infein the local compassin\nlocal passaga renue. Now when\nand istand the goo.\ngue sec ark longso to retame\nthe Gis Commua Get of the U.S.\nto the This pines and ur wont\nhar to par anytting.\nworking hard - legislater adjourns tonget\nMust go to wore mou latre\nby the same mail - this letter is\nlong nough alriady. hots of lor-"
    ],
    "millsfield:images_texts_ids": [
      1913801347,
      1913801349,
      1913801351,
      1913801353,
      1913801357,
      1913801359,
      1913801361
    ],
    "millsfield:primary_image": 1913801347,
    "millsfield:subcategory_id": 1511213489,
    "mz:is_approximate": 1,
    "mz:is_current": 1,
    "sfomuseum:accession_number": "2019.121.0777 a d",
    "sfomuseum:airline": "Pan American Airways",
    "sfomuseum:airline_id": [
      685,
      1131
    ],
    "sfomuseum:category": "Employee Career History",
    "sfomuseum:classification_id": 195,
    "sfomuseum:collection": "Aviation Archive",
    "sfomuseum:creditline": "Collection of SFO Museum",
    "sfomuseum:date": "11/08/1933",
    "sfomuseum:date_acquired": "2019-11-22",
    "sfomuseum:daterange_end": "1933-11-08",
    "sfomuseum:daterange_start": "1933-11-08",
    "sfomuseum:description": "Handwritten letter from Harold M. Bixby to his wife, Debby Bixby, dated November 8, [1933], on stationery from the Manila Hotel; includes description of dinner party for Dr. [Jacob Gould] Schurman, opinions on independence for the Philippines and Filipino people; update on delays in the negotiations with the Philippine legislature and Governor General Murpht for air franchises for Pan American Airways; mentions [Stokely W.] Morgan.",
    "sfomuseum:dimensions": "11 x 8 1/2 inches (27.9 x 21.6 cm)",
    "sfomuseum:medium": "paper, ink",
    "sfomuseum:object_id": 211125,
    "sfomuseum:placetype": "object",
    "sfomuseum:publication": ": , 11/08/1933.",
    "sfomuseum:subcategory": "Correspondence, Personal",
    "src:geom": "sfomuseum#undetermined",
    "wof:belongsto": [
      102527513,
      1159162825,
      102191575,
      85633793,
      102087579,
      85922583,
      85688637,
      1159160869
    ],
    "wof:country": "XY",
    "wof:created": 1714549116,
    "wof:depicts": [
      1159284991,
      1159285931,
      1159286721
    ],
    "wof:geomhash": "c281b9d9eefc83b5710e64b9d646067d",
    "wof:hierarchy": [
      {
        "building_id": -1,
        "campus_id": 102527513,
        "collection_id": 1159162825,
        "concourse_id": 1159162825,
        "continent_id": 102191575,
        "country_id": 85633793,
        "county_id": 102087579,
        "custom_id": 1913796515,
        "locality_id": 85922583,
        "neighbourhood_id": -1,
        "object_id": 1913796515,
        "region_id": 85688637,
        "wing_id": 1159160869
      }
    ],
    "wof:id": 1913796515,
    "wof:lastmodified": 1787988220,
    "wof:name": "correspondence: Harold M. Bixby to Debby Bixby",
    "wof:parent_id": 1159162825,
    "wof:placetype": "custom",
    "wof:placetype_alt": [
      "object"
    ],
    "wof:repo": "sfomuseum-data-collection",
    "wof:superseded_by": [],
    "wof:supersedes": []
  },
  "bbox": [
    -122.38647222518921,
    37.6161053594541,
    -122.38583385944366,
    37.61661101879963
  ],
  "geometry": {"type":"Polygon","coordinates":[[[-122.38647222518921,37.61631782178288],[-122.386434674263,37.61623283692423],[-122.38637566566466,37.61617759671399],[-122.38630056381224,37.6161308549656],[-122.38616108894348,37.6161053594541],[-122.38602161407469,37.6161308549656],[-122.38591432571411,37.61618609521055],[-122.38585531711577,37.61626683087935],[-122.38583385944366,37.61636881265146],[-122.38587141036987,37.61646654505181],[-122.38594114780425,37.61654303118856],[-122.38605380058287,37.61660252035167],[-122.38618254661559,37.61661101879963],[-122.3863059282303,37.61657277577607],[-122.3864185810089,37.61650903735973],[-122.3864668607712,37.61641130501523],[-122.38647222518921,37.61631782178288]]]}
}
