{
  "id": 1511921347,
  "type": "Feature",
  "properties": {
    "date:cessation_lower": "1954-01-01",
    "date:cessation_upper": "1954-12-31",
    "date:inception_lower": "1954-01-01",
    "date:inception_upper": "1954-12-31",
    "edtf:cessation": "1954",
    "edtf:date": "1954",
    "edtf:inception": "1954",
    "geom:area": 0,
    "geom:bbox": "-122.370943,37.617990,-122.370943,37.617990",
    "geom:latitude": 37.61799,
    "geom:longitude": -122.370943,
    "iso:country": "US",
    "millsfield:airline_id": [
      1159284989
    ],
    "millsfield:airport_id": [
      102527513
    ],
    "millsfield:category_id": 1763416397,
    "millsfield:collection_id": 1511214207,
    "millsfield:company_id": [
      1159286839
    ],
    "millsfield:images": [
      1527820693,
      1527848575,
      1527848579
    ],
    "millsfield:images_colors_refs": {
      "crayola": [
        {
          "hex": "#414a4c"
        },
        {
          "hex": "#fdd9b5"
        },
        {
          "hex": "#9f8170"
        },
        {
          "hex": "#edd19c"
        },
        {
          "hex": "#8a795d"
        }
      ],
      "css4": [
        {
          "hex": "#2f4f4f"
        },
        {
          "hex": "#808080"
        },
        {
          "hex": "#f5deb3"
        }
      ],
      "marekm4": [
        {
          "hex": "#393b3b"
        },
        {
          "hex": "#efdbae"
        },
        {
          "hex": "#837d67"
        },
        {
          "hex": "#e2cda6"
        },
        {
          "hex": "#efdbb5"
        },
        {
          "hex": "#232731"
        },
        {
          "hex": "#999075"
        },
        {
          "hex": "#928d76"
        },
        {
          "hex": "#292e28"
        }
      ]
    },
    "millsfield:images_texts": [
      "SAN FRANCISCO INTERNATIONAL AIRPORT\nDEDICATION AND FLIGHT FESTIVAL\nAUGUST 27, 28, 29, 1954\nWELCOME ABOARD!\nPAN AMERICAN\nDOUBLE\nDECKED\nStrato Clippers",
      "Basic Data on Double-Decked Clipper\nManufacturer . . .\nManufacturer's type.\nNumber flown by Pan American\nCost, per airplane\nWeight empty\nMaximum takeoff gross weight •\nMaximum landing gross weight.\nCruising altitude. •\nEstimated average cruising speed.\nTakeoff minimum runway length for maximum weight •\nLanding minimum runway length for maximum weight •\n. Boeing Aircraft Company\n\"Stratocruiser\" (B-377)\n28 airplanes\n$1,500,000\n83,123 Ibs.\n145,800 Ibs.\n121,700 Ibs.\n• 25,000 ft.\n310 mph\n7,100 ft.\n6,400 ft.\nManufacturer.\nType\nCost, per engine . . .\nTakeoff power per engine (water inject.) .\nCruising power per engine (auto lean) .\nENGINES (4)\n•\nPratt \u0026 Whitney\n28\ncyl.,\n\"Wasp Major\" (TSB3G)\n$60,000\n3,500 BHP\n1,750 BHP\nFUEL AND OIL\nTotal fuel capacity .\nTotal oil capacity\nEstimated fuel consumption (1,750 BHP, auto lean) •\n7,790 gal.\n188 gal.\n543 gal./hr.\nPROPELLERS\nManufacturer\nType\n•\nFeatures\nPropeller diameter •\n• Hamilton Standard\n• Four-blade hydromatic\n• Full-feather, reversible thrust, square-tipped blades\n16 ft., 8 in.\nPAN AMERICAN WORLD AIRWAYS\nWORLD'S MOST EXPERIENCED AIRLINE\n2001.\n00/",
      "PAN AMERICAN TRANS-PACIFIC \"STRATO\" CLIPPERS now arrive\nand depart from San Francisco's new multi-million dollar Inter-\nnational Air Terminal, providing faster, more convenient connections\nwith flights to and from all parts of the U.S... the world. Ready to\nserve you are Pan Am's new passenger service counter for informa-\ntion and reservations... improved baggage-handling facilities...\nand new, specially-designed Clipper Cargo facilities.\nOUBLE \"\nhe DECKED Strato Clipper\nNever before has so much Confor order much in atry\nbeen built into any aircraft. First to order and fly the\nClippers, Pan American has incorporated more than 1,000 im-\nprovements in the fields of service, maintenance and operation\ninto their original design.\nEverything, yes everything, has been done to provide you with\nservice unmatched in the field of commercial aviation.\nQUICK FACTS...\n• First plane ever designed with a lower-deck club lounge—\nspiral staircase leads you down to complete change of scene.\n• Flies in smooth sky\n\"above the weather.\" Cabin maintains\nlow-level air pressure even at 25,000 feet.\n• Both decks air\nconditioned and pressurized. Cabin air\nchanges every 90 seconds.\n• The four Pratt \u0026 Whitney engines develop 14,000 horse-\npower... more powerful than a locomotive.\n• Individual sleeping\naccommodations for everyone-your\nchoice of Pan American's exclusive Sleeperette Service or\nberth. By day: Sleeperette is a luxurious lounge chair quickly\nadjustable to several comfortable positions. By night: Sleep-\nerette reclines to full bed-length. Or if you prefer ... a\nlarge, single occupancy berth — wider than a railroad car's.\n(Additional charge for berth.)\nPAN AMERICAN WORLD AIRWAYS\nWORLD'S MOST EXPERIENCED AIRLINE\nClipper, Sleeperette, Trade Marks, Pan American World Airways, Inc.\n-In the Clipper's lounge passengers ca\nlax and enov highballs or sott drink\nCECO\n0n COC\nA- The control cabin was designed for max\nC-The Clipper's dressing rooms\nofter every\nconventence ane\nare luxuriously appointed.\nF-Streamlined facilities and an abundance\nClipper's galley,\nB-Comfort of its excas,\nchoose an individual berth, soft and roomy\nD-The\nmain passenger cabm nas\nusually\nchairs that are toam-rubber cushioned.\n-a spiral aire connect unge.\nthe main\n1ndd2221\n01024V"
    ],
    "millsfield:images_texts_ids": [
      1527820693,
      1527848575,
      1527848579
    ],
    "millsfield:primary_image": 1527820693,
    "millsfield:subcategory_id": 1511213687,
    "mz:hierarchy_label": 1,
    "mz:is_approximate": 1,
    "mz:is_current": 1,
    "sfomuseum:accession_number": "2001.078.001",
    "sfomuseum:airline": "Pan American World Airways",
    "sfomuseum:airline_id": [
      684
    ],
    "sfomuseum:airport": "San Francisco International Airport",
    "sfomuseum:airport_id": [
      121
    ],
    "sfomuseum:category": "Promotional, Archive",
    "sfomuseum:classification_id": 465,
    "sfomuseum:collection": "Aviation Archive",
    "sfomuseum:creditline": "Gift of Thomas G. Dragges",
    "sfomuseum:date": "1954",
    "sfomuseum:date_acquired": "2022-04-18",
    "sfomuseum:daterange_end": "1954-12-31",
    "sfomuseum:daterange_start": "1954-01-01",
    "sfomuseum:description": "Event program promoting Pan American World Airways Boeing 377 Stratocruiser at San Francisco International Airport Dedication and Flight Festival (SFO), August 27 through 29, 1954; black and white illustration on cover depicting Boeing 377 Strato-Clipper surrounded by spectators; interior pages include black and white photographic reproductions and diagrams.",
    "sfomuseum:media_ids": [
      1527848575,
      1527848579,
      1527820693
    ],
    "sfomuseum:medium": "paper, ink",
    "sfomuseum:object_id": 60353,
    "sfomuseum:placetype": "object",
    "sfomuseum:primary_media_id": 1527820693,
    "sfomuseum:publication": ": , 1954.",
    "sfomuseum:subcategory": "Event Program / Invitation",
    "sfomuseum:subject": "subject file: SFO -- Terminals -- Terminal 2 (Terminal Building)",
    "src:geom": "sfomuseum#derived",
    "src:geom_derived_from": [
      102527513
    ],
    "wof:belongsto": [
      102527513,
      102191575,
      85633793,
      85922583,
      102087579,
      85688637,
      1159162825,
      1159160869,
      554784711,
      102085387
    ],
    "wof:breaches": [],
    "wof:country": "US",
    "wof:created": 1579906674,
    "wof:depicts": [
      1159286839,
      102527513,
      1159284989
    ],
    "wof:geomhash": "bf40c3bc435019ba74db5659992d9e04",
    "wof:hierarchy": [
      {
        "building_id": -1,
        "campus_id": 102527513,
        "collection_id": 1159162825,
        "concourse_id": 1159162825,
        "continent_id": 102191575,
        "country_id": 85633793,
        "county_id": 102087579,
        "custom_id": 1511921347,
        "locality_id": 85922583,
        "neighbourhood_id": -1,
        "object_id": 1511921347,
        "region_id": 85688637,
        "wing_id": 1159160869
      },
      {
        "campus_id": 102527513,
        "continent_id": 102191575,
        "country_id": 85633793,
        "county_id": 102087579,
        "custom_id": 1511921347,
        "locality_id": 85922583,
        "object_id": 1511921347,
        "postalcode_id": 554784711,
        "region_id": 85688637
      },
      {
        "campus_id": 102527513,
        "continent_id": 102191575,
        "country_id": 85633793,
        "county_id": 102085387,
        "custom_id": 1511921347,
        "object_id": 1511921347,
        "region_id": 85688637
      }
    ],
    "wof:id": 1511921347,
    "wof:lastmodified": 1787988177,
    "wof:name": "event program: Pan American World Airways, San Francisco International Airport (SFO) dedication",
    "wof:parent_id": 1159162825,
    "wof:placetype": "custom",
    "wof:placetype_alt": [
      "object"
    ],
    "wof:repo": "sfomuseum-data-collection",
    "wof:superseded_by": [],
    "wof:supersedes": [],
    "wof:tags": []
  },
  "bbox": [
    -122.370943,
    37.61799,
    -122.370943,
    37.61799
  ],
  "geometry": {"type":"MultiPoint","coordinates":[[-122.370943,37.61799]]}
}
