{
  "id": 1511909729,
  "type": "Feature",
  "properties": {
    "date:cessation_lower": "1981-01-01",
    "date:cessation_upper": "1981-12-31",
    "date:inception_lower": "1981-01-01",
    "date:inception_upper": "1981-12-31",
    "edtf:cessation": "1981",
    "edtf:date": "1981",
    "edtf:inception": "1981",
    "geom:area": 0,
    "geom:bbox": "-122.386155,37.616357,-122.386155,37.616357",
    "geom:latitude": 37.616357,
    "geom:longitude": -122.386155,
    "iso:country": "US",
    "millsfield:airline_id": [
      1159285413
    ],
    "millsfield:category_id": 1511214223,
    "millsfield:collection_id": 1511214207,
    "millsfield:company_id": [
      1159288779
    ],
    "millsfield:images": [
      1527838835
    ],
    "millsfield:images_colors_refs": {
      "crayola": [
        {
          "hex": "#ff2b2b"
        },
        {
          "hex": "#324ab2"
        },
        {
          "hex": "#efdecd"
        }
      ],
      "css4": [
        {
          "hex": "#d3d3d3"
        },
        {
          "hex": "#b22222"
        },
        {
          "hex": "#483d8b"
        }
      ],
      "marekm4": [
        {
          "hex": "#1e369b"
        },
        {
          "hex": "#e4d9c6"
        },
        {
          "hex": "#c91114"
        }
      ]
    },
    "millsfield:images_texts": [
      "U UNITED AIRLInES\n5 Skyways\nTulsa\nEffective July 2, 1981\nLeave\nArrive\nFlight Service Via\nTo Akron, Ohio/\nCanton, Ohio. (EDT)\n5:25p\n10:06p\n552\nFrom Akron, Ohio/\nCanton, Ohio. (EDT)\n11:45a\n4:35p\n2:59p\n365 / 231\n8:31p\n534 / 363\n535-5792\n453-8201\n7X\nChi\nChi\nTo Allentown / Bethlehem /\nEaston, Penn. (EDT)\n9:00a\n2:17p\n910 / 898 7X Chi\nFrom Allentown / Bethlehem /\nEaston, Penn. (EDT)\n4:30p\n2:59p\n215-821-7870\n10:05a\n279 / 231\nChi\n8:31p\n383 / 363\nChi\nTo Baltimore, Md. (EDT)\n9:00a\n5:25p\n2:25p\n910 / 338\nChi\n10:33p\n552 / 108 : Y X • Chi\nFrom Baltimore, Md. (EDT)\n766-7600\n11:10a\n4:35p\n2:59p\n107 / 231 = 7 X• Chi\n8:31p\n391 / 363\n7X\nChi\nTo Boise, Id. (MDT)\n6:10p\n10:52p\n329 / 233\nFrom Boise, Id. (MDT)\n8:50a\n2:00p\n3.490\n726 / 330\n798 / 626\nYX Den\n342-2781\n9X\nDen\nDen\nTo Boston, Mass. (EDT)\n9:00a\n:441\n910 / 366 = 7 X • Chi\n5:25p\n11:09\n552 / 218 = 7 X• Chi\nFrom Boston, Mass. (EDT)\n482-7900\n10:45a\n2:59p\n171 / 231\n4:00p\n8:31p\nChi\n135 / 363 : Y X • Chi\nTo Buffalo, /\nNiagara Falls N.Y. (EDT)\n5:25p\n10:20p\n552 / 300\nFrom Buffalo, /\nYX Chi\n856-2900\nNiagara Falls N.Y. (EDT)\n8:25a\n2:59p\n5:22p\n8:31p\n89 / 463\n231\n289 / 363\n7X •Dtw\n/Chi\n?X Chi\nTo Chicago, III. (CDT)\n9:00a\n5:25p\n10-32(0) 962\nFrom Chicago, III. (CDT)\n569-3000\n1:10p (O)\n231\n363\nTo Cincinnati, O. (EDT)\n9:00a\n9:250 100110\n910 / 816\n552 / 778\nChi\nChi\nThe friendly skies\nUT UNITED AIRLINES\nLeave\nArrive Flight\nService Via\nFrom Cincinnati, O. (EDT)\nX6\n12:05p\n2:59p\n831 / 231\n5:40p\n8:31p\n897 / 363\nTo Cleveland, O. (EDT)\n9:00a\n5:25p\n1:38p\n910 / 304\n10:25p\n552 / 206\nFrom Cleveland, O. (EDT)\n11:45a\n5:35p\n2:59p\n711 / 231\n8:31p\n115 / 363\nTo Columbus, O. (EDT)\n5:25p\n10:06p\n552 / 608\nFrom Columbus, O. (EDT)\n12:00n\n2:59p\n217 / 231\n5:25p\n8:31 p\n675 / 363\nTo Dayton, O. (EDT)\n9:00a\n1:37p\n5:25p\n9:50p\n910 / 924\n552 / 854\nFrom Dayton, O. (EDT)\n11:55a\n2:59p\n645 / 231\nTo Denver, Colo. (MDT)\n11:15a\n11:51a\n6:10p\n6:46p\n623\n329\nFrom Denver, Colo. (MDT)\n1:15p\n3:44p\n4:50p\n7:19p\n330\n626\nTo Detroit, Mich. (EDT)\n9:00a\n1:38p\n910 / 280\n5:25p\n10:00p\n552 / 150\nFrom Detroit, Mich. (EDT)\n12:00n\n2:59₽\n463 / 231\n5:30p\n8:31p\n489 / 363\nTo Eugene, Ore. (PDT)\n11:15a\n4:22p\n721-3303\n7X\nChi\nChi\n7X\nChi\nChi\n356-1311\nCh\n7X •Chi\n7X\nChi\n228-4751\nChi\nChi\nChi\nChi\n461-4450\nChi\n398-4141\n9 X•Ch\n336-9000\n623/719л 7X\n510\nDen\n/ Sto\nFrom Eugene, Ore. (PDT)\n6:38a\n3:44p\n342-5353\n875 / 414\nY X* Sto\n12:40p\n7:19p\n330\n/Den\n564 / 626\n7X Den\nFrom Fort Myers, Fla. (EDT)\n334-3434\n2:45p\n8:31p\n817 / 363\n7X Chi\nTo Fresno, Cal. (PDT)\n6:10p\n10:17p\n329 / 597\n6:10p\nAbove Disc. Aug. 3\n10:17p\n329 / 895\n7X Der\nYX Den\nAbove Eff. Aug. 3\nFrom Fresno, Cal. (PDT)\n(209)252-5711\n7:20a\n12:05p\n3:44p\n532 / 330\n7:19p\n412 / 626\nThe friendly skies\nUV UNITED AIRLINES"
    ],
    "millsfield:images_texts_ids": [
      1527838835
    ],
    "millsfield:primary_image": 1527838835,
    "millsfield:subcategory_id": 1511213425,
    "mz:hierarchy_label": 1,
    "mz:is_current": 1,
    "sfomuseum:accession_number": "1999.047.453",
    "sfomuseum:airline": "United Airlines",
    "sfomuseum:airline_id": [
      883
    ],
    "sfomuseum:category": "Scheduling / Ticketing",
    "sfomuseum:classification_id": 158,
    "sfomuseum:collection": "Aviation Archive",
    "sfomuseum:continent": "North America",
    "sfomuseum:country": "United States",
    "sfomuseum:creditline": "Gift of United Airlines Archives",
    "sfomuseum:date": "1981",
    "sfomuseum:date_acquired": "2000-05-11",
    "sfomuseum:daterange_end": "1981-12-31",
    "sfomuseum:daterange_start": "1981-01-01",
    "sfomuseum:description": "Joint quick reference timetable issued by United Airlines and Skyways for service to and from Tulsa, effective July 2, 1981; bi-fold format.",
    "sfomuseum:dimensions": "9 x 4 inches (22.9 x 10.2 cm)",
    "sfomuseum:media_ids": [
      1527838835
    ],
    "sfomuseum:medium": "paper, ink",
    "sfomuseum:object_id": 49807,
    "sfomuseum:placetype": "object",
    "sfomuseum:primary_media_id": 1527838835,
    "sfomuseum:publication": ": , 1981.",
    "sfomuseum:subcategory": "Timetable",
    "src:geom": "sfomuseum#undetermined",
    "wof:belongsto": [
      1511214223,
      102527513,
      102191575,
      85633793,
      1511213425,
      85922583,
      102087579,
      1511214277,
      1511214207,
      85688637,
      136253057
    ],
    "wof:breaches": [],
    "wof:country": "US",
    "wof:created": 1579906676,
    "wof:depicts": [
      1159288779,
      1159285413
    ],
    "wof:geomhash": "30c8a918561c84bb2daa2b97fc7c5353",
    "wof:hierarchy": [
      {
        "arcade_id": 1511213425,
        "building_id": 1511214277,
        "campus_id": 102527513,
        "concourse_id": 1511214223,
        "continent_id": 102191575,
        "country_id": 85633793,
        "county_id": 102087579,
        "custom_id": 1511909729,
        "locality_id": 85922583,
        "neighbourhood_id": -1,
        "object_id": 1511909729,
        "region_id": 85688637,
        "venue_id": 1511909729,
        "wing_id": 1511214207
      },
      {
        "continent_id": 102191575,
        "country_id": 85633793,
        "custom_id": 1511909729,
        "empire_id": 136253057,
        "object_id": 1511909729,
        "venue_id": 1511909729
      }
    ],
    "wof:id": 1511909729,
    "wof:lastmodified": 1787988176,
    "wof:name": "timetable: United Airlines and Skyways, Tulsa",
    "wof:parent_id": 1159162825,
    "wof:placetype": "custom",
    "wof:placetype_alt": [
      "object"
    ],
    "wof:repo": "sfomuseum-data-collection",
    "wof:superseded_by": [],
    "wof:supersedes": [],
    "wof:tags": []
  },
  "bbox": [
    -122.386155,
    37.616357,
    -122.386155,
    37.616357
  ],
  "geometry": {"type":"Point","coordinates":[-122.386155,37.616357]}
}
