{
  "id": 1511908103,
  "type": "Feature",
  "properties": {
    "date:cessation_lower": "1997-01-01",
    "date:cessation_upper": "1997-12-31",
    "date:inception_lower": "1997-01-01",
    "date:inception_upper": "1997-12-31",
    "edtf:cessation": "1997",
    "edtf:date": "1997",
    "edtf:inception": "1997",
    "geom:area": 0,
    "geom:bbox": "-122.386155,37.616357,-122.386155,37.616357",
    "geom:latitude": 37.616357,
    "geom:longitude": -122.386155,
    "iso:country": "US",
    "millsfield:aircraft_id": [
      1159289915
    ],
    "millsfield:airline_id": [
      1159284025,
      1159285483
    ],
    "millsfield:category_id": 1511214223,
    "millsfield:collection_id": 1511214207,
    "millsfield:company_id": [
      1159293593,
      1159289873
    ],
    "millsfield:images": [
      1527848621,
      1527848623
    ],
    "millsfield:images_colors_refs": {
      "crayola": [
        {
          "hex": "#ff2b2b"
        },
        {
          "hex": "#414a4c"
        },
        {
          "hex": "#dbd7d2"
        },
        {
          "hex": "#1a4876"
        }
      ],
      "css4": [
        {
          "hex": "#2f4f4f"
        },
        {
          "hex": "#dcdcdc"
        },
        {
          "hex": "#ff0000"
        }
      ],
      "marekm4": [
        {
          "hex": "#dce1df"
        },
        {
          "hex": "#e2e8e6"
        },
        {
          "hex": "#216263"
        },
        {
          "hex": "#d40b0c"
        },
        {
          "hex": "#28595b"
        }
      ]
    },
    "millsfield:images_texts": [
      "Schedules - Effective 01 May - 29 June 1997\nVirgin Atlantic flights -to/from London Heathrow - Gatwick\nto/from Manchester\nvirgin atlantic\nRoute\nFrom Heathrow to\nNew York (Newark)\nFrom Heathrow to\nNew York (JFK)\nFrom Heathrow\nto Los Angeles\nFrom Heathrow\nto Tokyo\nFrom Heathrow\nto Hong Kong\nFrom Heathrow\nto Washington\nFrom Heathrow\nto San Francisco\nFrom Heathrow\nto Johannesburg\nFrom Heathrow\nto Athens\nFrom Gatwick\nto Miami\nFrom Gatwick\nto Boston\nFrom Gatwick\nto Orlando\nFrom Gatwick\nto Newark*\nFrom Gatwick\nto Athens\nFrom Manchester\nto Orlando\nDepart\n16:00\n14:00\n18:30\n12:00\n13:00\n20:30\n11:30\n11:00\n21:45\n11:00\n10:00\n*Arrives next day. *From 26 June.\nRoute\nFrom New York (Newark)\nto Heathrow\nFrom New York (JFK)\nto Heathrow\nFrom Los Angeles\nto Heathrow\nFrom Tokyo\nto Heathrow\nFrom Hong Kong\nto Heathrow\nFrom Washington\nto Heathrow\nFrom San Francisco\nto Heathrow\nFrom Johannesburg\nto Heathrow\nFrom Athens\nto Heathrow\nFrom Miami\nto Gatwick\nFrom Boston\nto Gatwick\nFrom Orlando\nto Gatwick\nFrom Newark\nto Gatwick+\nFrom Athens\nto Gatwick\nFrom Orlando\nto Manchester\nDepart\n21:25\n19:30\n22:55\n17:30\n11:00\n22:30\n18:45\n16:30\n20:15\n10:00\n18:00\n18:20\n20:20\n19:10\n18:30\n07:45\n17:10\n*Arrives next day. *From 26 June.\nArrive\nFlight No\nMon Tue Wed Thu Fri Sat Sun\n14:50\nArrive\n09:05*\n07:10*\n10:35*\n11:45*\n16:00\n05:10*\n06:45*\n10:30*\n06:35*\n12:00\n20:00\n07:25*\n07:50*\n08:15*\n06:10*\n09:45\n06:40*\nVS001\nVS003\nVS009\nVS007\nVS005\nVS011\nVS015\nVS017\nVS1002\nVS075\nFlight No\nMon\nTue\nWed\nThu\nFri\nSat\nSun\nVS002\nVS004\nVS010\nVS008\nVS901\nVS201\nVS022\nVS020\nVS602\nVS1005\nVS1001\nVS006\nVS012\nVS016\nVS018\nVS1003\nVS076\nFlights are subject to change without notice. Please check with your travel agent or Virgin Atlantic Airways Limited.",
      "Virgin Atlantic / Midwest Express Airlines\nDepart\nArrive\nRoute\nFrom Gatwick\nto Milwaukee**\nFlight No\nMon Tue Wed Thu Fri Sat Sun\n15:00\n20:50\nVS011\n**All flights involve an aircraft change at Boston.\nVirgin Atlantic / Midwest Express Airlines\nDepart\nArrive\nRoute\nFrom Milwaukee\nto Gatwick**\nFlight No\nMon\nTue\nWed Thu Fri Sat Sun\n15:25\n07:50*\nVS012\n*Arrives next day. **All flights involve an aircraft change at Boston.\nVirgin Atlantic / Malaysia Airlines\nRoute\nFrom Heathrow\nto Kuala Lumpur\nDepart\nArrive\nFlight No\nMon Tue Wed Thu Fri Sat\n08:55\n04:40*\nVS503\n11:50\n07:35*\nVS503\n12:00\n07:45*\nVS503\n12:30\n08:15*\nVS503\n21:15\n19:00*\nVS501\n22:00\n17:45*\nVS501\nFrom Heathrow\nto Melbourne**\n21:15\n05:50+\nVS501/521\n22:00\n05:50+\nVS501/521\n22:00\n05:50+\nVS501/529\n22:00\n06:20+\nVS501/529\nFrom Heathrow\nto Sydney**\n21:15\n08:35+\nVS501/521\n22:00\n08:35+\nVS501/521\n22:00\n06:15+\nVS501/523\nFrom Heathrow\nto Adelaide**\n22:00\n08:35+\nVS501/529\n22:00\n07:55+\nVS501/529\n*Arrives next day. **All flights involve an aircraft change at Kuala Lumpur. +Arrives two days later.\nSun\nVirgin Atlantic / Malaysia Airlines\nRoute\nFrom Kuala\nLumpur to\nHeathrow\nDepart\n10:30\n11:00\n11:00\n23:55\n14:30\n14:30\n11:45\n14:00\n11:30\nArrive\n16:30\n17:10\n19:00\n06:05*\n06:05*\n06:05*\n06:05*\n06:05*\n06:05*\nFlight No\nVS504\nVS504\nVS504\nVS502\nVS520/502\nVS528/502\nVS520/502\nVS522/502\nVS528/502\nMon\nTue Wed\nThu\nFrom Melbourne\nto Heathrow**\nFrom Sydney\nto Heathrow**\nFrom Adelaide\nto Heathrow**\n*Arrives next day. **All flights involve an aircraft change at Kuala Lumpur.\nVirgin Atlantic / Ansett Australia\nRoute\nLondon to Sydney\nDepart\n20:30\n19:45HKG\nArrive\n16:35HKG\n06:25*\nFlight No\nVS200\nAN888\nMon\nTue\nWed Thu\n*Arrives next day.\nVirgin Atlantic / Ansett Australia\nRoute\nSydney to London\nonwards\nDepart\n11:10\n22:30HKG\nArrive\n18:10HKG\n05:10*\nFlight No\nAN887\nVS201\nMon\nTue Wed Thu\n*Arrives next day.\nFri\nFri\nFri\nSat Sun\nSat\nSun\nSat\nSun\nFlights are subject to change without notice. Please check with your travel agent or Virgin Atlantic Airways Limited\nStops\n2\nStops\n2\nVirgin Atlantic Airways Ltd, Ashdown House, High Street, Crawley, West Sussex RH10 1DQ\nUK Reservations 01293 747 747\n1997,42.06 b"
    ],
    "millsfield:images_texts_ids": [
      1527848621,
      1527848623
    ],
    "millsfield:primary_image": 1527848621,
    "millsfield:subcategory_id": 1511213425,
    "mz:hierarchy_label": 1,
    "mz:is_current": 1,
    "sfomuseum:accession_number": "1997.42.06 b",
    "sfomuseum:aircraft": "Boeing 747-400",
    "sfomuseum:aircraft_id": [
      250
    ],
    "sfomuseum:airline": "Virgin Atlantic",
    "sfomuseum:airline_id": [
      248,
      914
    ],
    "sfomuseum:category": "Scheduling / Ticketing",
    "sfomuseum:classification_id": 158,
    "sfomuseum:collection": "Aviation Archive",
    "sfomuseum:continent": "Transatlantic",
    "sfomuseum:country": "United States",
    "sfomuseum:creditline": "Gift of Elsa Cameron",
    "sfomuseum:date": "1997",
    "sfomuseum:date_acquired": "1998-02-23",
    "sfomuseum:daterange_end": "1997-12-31",
    "sfomuseum:daterange_start": "1997-01-01",
    "sfomuseum:description": "Timetable issued by Virgin Atlantic, effective May 1 through June 29, 1997; white and gray single-sided sheet with schedules for international service.",
    "sfomuseum:dimensions": "11 1/8 x 8 1/4 inches (28.3 x 21 cm)",
    "sfomuseum:media_ids": [
      1527848621,
      1527848623
    ],
    "sfomuseum:medium": "paper, ink",
    "sfomuseum:object_id": 46252,
    "sfomuseum:placetype": "object",
    "sfomuseum:primary_media_id": 1527848621,
    "sfomuseum:publication": ": , 1997.",
    "sfomuseum:subcategory": "Timetable",
    "src:geom": "sfomuseum#undetermined",
    "wof:belongsto": [
      102191575,
      85633793,
      136253057,
      1511214223,
      102527513,
      1511213425,
      85922583,
      102087579,
      1511214277,
      1511214207,
      85688637
    ],
    "wof:breaches": [],
    "wof:country": "US",
    "wof:created": 1579906674,
    "wof:depicts": [
      1159285483,
      1159289915,
      1159288557,
      1159284025,
      1159293593,
      1159289873
    ],
    "wof:geomhash": "30c8a918561c84bb2daa2b97fc7c5353",
    "wof:hierarchy": [
      {
        "continent_id": 102191575,
        "country_id": 85633793,
        "custom_id": 1511908103,
        "empire_id": 136253057,
        "object_id": 1511908103,
        "venue_id": 1511908103
      },
      {
        "arcade_id": 1511213425,
        "building_id": 1511214277,
        "campus_id": 102527513,
        "concourse_id": 1511214223,
        "continent_id": 102191575,
        "country_id": 85633793,
        "county_id": 102087579,
        "custom_id": 1511908103,
        "locality_id": 85922583,
        "neighbourhood_id": -1,
        "object_id": 1511908103,
        "region_id": 85688637,
        "venue_id": 1511908103,
        "wing_id": 1511214207
      }
    ],
    "wof:id": 1511908103,
    "wof:lastmodified": 1787988175,
    "wof:name": "timetable: Virgin Atlantic",
    "wof:parent_id": 1159162825,
    "wof:placetype": "custom",
    "wof:placetype_alt": [
      "object"
    ],
    "wof:repo": "sfomuseum-data-collection",
    "wof:superseded_by": [],
    "wof:supersedes": [],
    "wof:tags": []
  },
  "bbox": [
    -122.386155,
    37.616357,
    -122.386155,
    37.616357
  ],
  "geometry": {"type":"Point","coordinates":[-122.386155,37.616357]}
}
