{
  "id": 1511932043,
  "type": "Feature",
  "properties": {
    "date:cessation_lower": "1980-01-01",
    "date:cessation_upper": "1980-12-31",
    "date:inception_lower": "1980-01-01",
    "date:inception_upper": "1980-12-31",
    "edtf:cessation": "1980~",
    "edtf:date": "1980~",
    "edtf:inception": "1980~",
    "geom:area": 0,
    "geom:bbox": "-122.386155,37.616357,-122.386155,37.616357",
    "geom:latitude": 37.616357,
    "geom:longitude": -122.386155,
    "iso:country": "XX",
    "millsfield:airline_id": [
      1159284959
    ],
    "millsfield:category_id": 1511214223,
    "millsfield:collection_id": 1511214207,
    "millsfield:company_id": [
      1159287535
    ],
    "millsfield:images": [
      1527845701
    ],
    "millsfield:images_colors_refs": {
      "crayola": [
        {
          "hex": "#414a4c"
        },
        {
          "hex": "#fddde6"
        },
        {
          "hex": "#1974d2"
        }
      ],
      "css4": [
        {
          "hex": "#2f4f4f"
        },
        {
          "hex": "#f5f5dc"
        },
        {
          "hex": "#4169e1"
        }
      ],
      "marekm4": [
        {
          "hex": "#2f2f22"
        },
        {
          "hex": "#086ad0"
        },
        {
          "hex": "#f1efe0"
        }
      ]
    },
    "millsfield:images_texts": [
      "BURBANK TO FRESNO\nFLT\n103\n109\nDEP\nARR\nFREQ\n9:50a\n5:00p\n10:45\n5:55p\nX6G7\nX6\u00267\nBURBANK TO OAKLAND\nFLT\nDEP\nARR\nFREQ\n109\n5:00p\n7:00p\nX6G7\nFRESNO\nTO OAKLAND\nFLT\n107\n109\nDEP\nARR\n1:30p\n2:20p\n6:10p. 7:00p\nFREQ\nX6\u00267\nX6\u00267\nRENO TO OAKLAND\nFLT\n22\n24\n26\n28\nDEP\n9:00p\n10:30a\n6:30p\n11:30a\nARR\nFREQ\n10:00p\n11:30a\n6\n7:30p 687\n12:30p\n7\nONE WAY\nPACIFIC\nCAL * AIR\nFRESNO TO BURBANK\nSTOP\nFLT\nDEP\nARR\n0\n0\n102\n108\n:8:35a\n3:45p\n9:30a\n4:40p\nFREQ\nX687\nX687\nSTOP\nFLT\nOAKLAND TO BURBANK\nDEP\nARR\n102\n108\n7:30a\n2:40p\n9:30a\n4:40p\nFREQ\nX6\u00267\nX687\nSTOP\n0\n0\nFLT\n102\n108\nOAKLAND TO FRESNO\nDEP\nARR\n7: 30a\n2:40p\n8:20a\n3: 30p\nFREQ\nX6\u00267\nX687\nSTOP\n0\n0\n0\nFLT\n21\n23\n25\nOAKLAND TO RENO..\nDEP\nARR\n7: 30p\n9:00a\n5:00p\n8:30p\n10:00a\n6:00p\nFREQ\n5\n687\n6G7\nFARES\nROUND TRIP\n$55.00\n$55.00\n$47.00\n$39.00\nQ Class - $30.00\nBURBANK - FRESNO\nBURBANK - OAKLAND\nFRESNO - OAKLAND\nRENO\n- OAKLAND\nRENO\n- OAKLAND\n$110.00\n$110.00\n$94.00\n$78.00\n$60.00 - Q Class\nSTOP\n0\n0\nSTOP\n1\n1\nSTOP\n0\n0\nSTOP\n0\n0\n* Q Class - Restrictions - Tickets must be purchased 24 hours in advance G\nTickets are Non-Refundable\nFor reservations \u0026 information call 415-430-0125 or 800-772-4047\n5 = Friday only / 687 = Saturday \u0026 Sunday only / X647 = Except Saturday \u0026 Sunday\n#1 AIRPORT DRIVE, BOX 10 • OAKLAND; CALIFORNIA 94621 • (415) 430-0125"
    ],
    "millsfield:images_texts_ids": [
      1527845701
    ],
    "millsfield:primary_image": 1527845701,
    "millsfield:subcategory_id": 1511213425,
    "mz:hierarchy_label": 1,
    "mz:is_current": 1,
    "sfomuseum:accession_number": "2008.055.980",
    "sfomuseum:airline": "Pacific Cal Air",
    "sfomuseum:airline_id": [
      671
    ],
    "sfomuseum:category": "Scheduling / Ticketing",
    "sfomuseum:classification_id": 158,
    "sfomuseum:collection": "Aviation Archive",
    "sfomuseum:creditline": "Gift of the William Hough Collection",
    "sfomuseum:date": "c. 1980",
    "sfomuseum:date_acquired": "2008-04-13",
    "sfomuseum:daterange_end": "1985-12-31",
    "sfomuseum:daterange_start": "1975-01-01",
    "sfomuseum:description": "Timetable issued by Pacific Cal Air, undated; single-sided white sheet; includes fare information.",
    "sfomuseum:dimensions": "11 x 8 1/2 inches (27.9 x 21.6 cm)",
    "sfomuseum:media_ids": [
      1527845701
    ],
    "sfomuseum:medium": "paper, ink",
    "sfomuseum:object_id": 91897,
    "sfomuseum:placetype": "object",
    "sfomuseum:primary_media_id": 1527845701,
    "sfomuseum:publication": ": , c. 1980.",
    "sfomuseum:subcategory": "Timetable",
    "sfomuseum:subject": "Airlines -- Commercial -- Pacific Cal Air",
    "src:geom": "sfomuseum#undetermined",
    "wof:belongsto": [
      1511214223,
      102527513,
      102191575,
      85633793,
      1511213425,
      85922583,
      102087579,
      1511214277,
      1511214207,
      85688637
    ],
    "wof:breaches": [],
    "wof:country": "XX",
    "wof:created": 1579906664,
    "wof:depicts": [
      1159287535,
      1159284959
    ],
    "wof:geomhash": "30c8a918561c84bb2daa2b97fc7c5353",
    "wof:hierarchy": [
      {
        "arcade_id": 1511213425,
        "building_id": 1511214277,
        "campus_id": 102527513,
        "concourse_id": 1511214223,
        "continent_id": 102191575,
        "country_id": 85633793,
        "county_id": 102087579,
        "custom_id": 1511932043,
        "locality_id": 85922583,
        "neighbourhood_id": -1,
        "object_id": 1511932043,
        "region_id": 85688637,
        "venue_id": 1511932043,
        "wing_id": 1511214207
      }
    ],
    "wof:id": 1511932043,
    "wof:lastmodified": 1787988181,
    "wof:name": "timetable / fare information: Pacific Cal Air",
    "wof:parent_id": 1159162825,
    "wof:placetype": "custom",
    "wof:placetype_alt": [
      "object"
    ],
    "wof:repo": "sfomuseum-data-collection",
    "wof:superseded_by": [],
    "wof:supersedes": [],
    "wof:tags": []
  },
  "bbox": [
    -122.386155,
    37.616357,
    -122.386155,
    37.616357
  ],
  "geometry": {"type":"Point","coordinates":[-122.386155,37.616357]}
}
