{
  "id": 2015217483,
  "type": "Feature",
  "properties": {
    "date:cessation_lower": "1983-01-01",
    "date:cessation_upper": "1983-12-31",
    "date:inception_lower": "1983-01-01",
    "date:inception_upper": "1983-12-31",
    "edtf:cessation": "1983~",
    "edtf:inception": "1983~",
    "geom:area": 2.475047457570636e-7,
    "geom:bbox": "-122.386472,37.616105,-122.385834,37.616611",
    "geom:latitude": 37.61635747477365,
    "geom:longitude": -122.38615540108617,
    "millsfield:airline_id": [
      1159284989
    ],
    "millsfield:category_id": 1763416397,
    "millsfield:collection_id": 1511214207,
    "millsfield:company_id": [
      1159286839
    ],
    "millsfield:images": [
      2015217751,
      2015217757
    ],
    "millsfield:images_texts": [
      "WIRLDCLUB FLIGHT LOG\nEvery time you sell a Client on\nPan Am you earn points toward\nfree travel for yourself.\nAs a member of Pan Am WorldClub,\nyou\nearn points for every Pan Am sector you sell\n(points are earned on the date of ticket issue).\nEarn enough points in any given quarter, and\nyou can redeem them for travel on Pan Am\nRefer to your Pan Am WorldClub Quarterly\nfor the awards you can earn.\nEvery time you make a sale on Pan Am, re-\ncord it in your Flight Log. Sector by sector.\nNote that a given trip on Pan Am may have\nseveral sectors. Log each one separately, to\nearn all the points you are entitled to. For\nevery sector sold, log in the ticket number,\npassenger's name, the sector and the date of\ntravel.\nThen circle one Base Point (every sector\nearns at least one point). Next circle 2 Pre-\nmium Points if you sold the sector First Class,\nor 1 Premium Point if you sold it Clipper®\nClass.\nIf the sector qualifies for 1 Quarterly Bonus\nPoint or for 2 Quarterly Bonus Points, circle\nthe correct number. Refer to your Pan Am\nWorldClub Quarterly for those sectors that\nqualify for Bonus Points in this quarter.\nFinally, total the points you've earned for\nthat sector.\nTo show you how fast the points can add\nup, we've used the first three lines of your\nFlight Log to run through a typical example.\nWhen you've logged enough points for the\nfree trip you want, just fill out your Pan Am\nFlight Log. Mail it in the addressed envelope\nwe've provided you.\nThat's all there is to it.\nHappy selling. And happy landing, wher-\never you choose to fly on Pan Am.\nDate Ticket\nIssued\n411/83\n4/1/83\nFlight\nNumber\nSector\nDate of\nPassenger Name\nB. BROWER\nTraveled\nTravel\nBase\nPoint\nPA8O1\nJFK - NRT\n4/3/83\nR. GIBBS\nPA80O\nNRT-JFK\n4/1/83\nPA77 JEK-ORD 4/16/83 C\nComplete your personal Flight Log as in the above example\nClipper Class\nFirst Class Quarterly\nPremium\nPremium\nBonus\nL\n2\n1\nTicket Number\n02600000004367\n026\n02600000004349\n026\n026\n026\n026\n026\n026\n026\n026\n026\n026\n026\n026\n026\n026\n026\n026\n026\n026\n026\n026\n026\n026\n026\n026\n026\n026\n026\n026\n026\n026\n026\nTotal Points Page 1\nTotal\nPoints\n4\n2\n2\n2\n2\n2\n2\n2\n2\n2\n2\n2\n2\n2\n2\n2\n1\n1\n2\n2\n2\n2\n2\n2\n2\n2\n1\n2\n2\n2\n2\n2\n2\n2\n(Please turn over.)"
    ],
    "millsfield:images_texts_ids": [
      2015217757
    ],
    "millsfield:primary_image": 2015217757,
    "millsfield:subcategory_id": 1511213323,
    "mz:is_approximate": 1,
    "mz:is_current": 1,
    "sfomuseum:accession_number": "2021.049.350 a b",
    "sfomuseum:airline": "Pan American World Airways",
    "sfomuseum:airline_id": [
      684
    ],
    "sfomuseum:category": "Promotional, Archive",
    "sfomuseum:classification_id": 103,
    "sfomuseum:collection": "Aviation Archive",
    "sfomuseum:creditline": "Gift of Christiane Magontier",
    "sfomuseum:date": "c. 1983",
    "sfomuseum:date_acquired": "2023-03-20",
    "sfomuseum:daterange_end": "1988-12-31",
    "sfomuseum:daterange_start": "1978-01-01",
    "sfomuseum:description": "Mileage program award redemption form issued by Pan American World Airways.",
    "sfomuseum:dimensions": "11 1/4 x 8 3/4 inches (28.6 x 22.2 cm)",
    "sfomuseum:medium": "paper, ink",
    "sfomuseum:object_id": 225094,
    "sfomuseum:placetype": "object",
    "sfomuseum:publication": ": , c. 1983.",
    "sfomuseum:subcategory": "Mileage Program",
    "src:geom": "sfomuseum#undetermined",
    "wof:belongsto": [
      102527513,
      1159162825,
      102191575,
      85633793,
      102087579,
      85922583,
      85688637,
      1159160869
    ],
    "wof:country": "XY",
    "wof:created": 1775547212,
    "wof:depicts": [
      1159286839,
      1159284989
    ],
    "wof:geomhash": "c281b9d9eefc83b5710e64b9d646067d",
    "wof:hierarchy": [
      {
        "building_id": -1,
        "campus_id": 102527513,
        "collection_id": 1159162825,
        "concourse_id": 1159162825,
        "continent_id": 102191575,
        "country_id": 85633793,
        "county_id": 102087579,
        "custom_id": 2015217483,
        "locality_id": 85922583,
        "neighbourhood_id": -1,
        "object_id": 2015217483,
        "region_id": 85688637,
        "wing_id": 1159160869
      }
    ],
    "wof:id": 2015217483,
    "wof:lastmodified": 1775633690,
    "wof:name": "mileage program awards form: Pan American World Airways, WorldClub",
    "wof:parent_id": 1159162825,
    "wof:placetype": "custom",
    "wof:placetype_alt": [
      "object"
    ],
    "wof:repo": "sfomuseum-data-collection",
    "wof:superseded_by": [],
    "wof:supersedes": []
  },
  "bbox": [
    -122.38647222518921,
    37.6161053594541,
    -122.38583385944366,
    37.61661101879963
  ],
  "geometry": {"type":"Polygon","coordinates":[[[-122.38647222518921,37.61631782178288],[-122.386434674263,37.61623283692423],[-122.38637566566466,37.61617759671399],[-122.38630056381224,37.6161308549656],[-122.38616108894348,37.6161053594541],[-122.38602161407469,37.6161308549656],[-122.38591432571411,37.61618609521055],[-122.38585531711577,37.61626683087935],[-122.38583385944366,37.61636881265146],[-122.38587141036987,37.61646654505181],[-122.38594114780425,37.61654303118856],[-122.38605380058287,37.61660252035167],[-122.38618254661559,37.61661101879963],[-122.3863059282303,37.61657277577607],[-122.3864185810089,37.61650903735973],[-122.3864668607712,37.61641130501523],[-122.38647222518921,37.61631782178288]]]}
}
