{
  "id": 1913871999,
  "type": "Feature",
  "properties": {
    "date:cessation_lower": "1970-04-01",
    "date:cessation_upper": "1970-04-30",
    "date:inception_lower": "1970-01-01",
    "date:inception_upper": "1970-01-31",
    "edtf:cessation": "1970-04",
    "edtf:inception": "1970-01",
    "geom:area": 2.475047457570636e-7,
    "geom:bbox": "-122.386472,37.616105,-122.385834,37.616611",
    "geom:latitude": 37.61635747477365,
    "geom:longitude": -122.38615540108617,
    "millsfield:aircraft_id": [
      1159291825
    ],
    "millsfield:airline_id": [
      1159283651
    ],
    "millsfield:category_id": 1762671311,
    "millsfield:collection_id": 1511214207,
    "millsfield:company_id": [
      1159294251
    ],
    "millsfield:images": [
      1913872233,
      1913872375
    ],
    "millsfield:images_colors_refs": {
      "crayola": [
        {
          "hex": "#bf4f51"
        },
        {
          "hex": "#2e5894"
        },
        {
          "hex": "#cdc5c2"
        },
        {
          "hex": "#1a4876"
        },
        {
          "hex": "#c46210"
        },
        {
          "hex": "#bab86c"
        }
      ],
      "css4": [
        {
          "hex": "#c0c0c0"
        },
        {
          "hex": "#2f4f4f"
        },
        {
          "hex": "#008080"
        },
        {
          "hex": "#bdb76b"
        },
        {
          "hex": "#a0522d"
        },
        {
          "hex": "#483d8b"
        },
        {
          "hex": "#b22222"
        }
      ],
      "marekm4": [
        {
          "hex": "#bdba77"
        },
        {
          "hex": "#c54208"
        },
        {
          "hex": "#ccbbb2"
        },
        {
          "hex": "#1c466d"
        },
        {
          "hex": "#1f6b8e"
        },
        {
          "hex": "#b5432c"
        },
        {
          "hex": "#cec5b5"
        },
        {
          "hex": "#225558"
        },
        {
          "hex": "#2c5c90"
        },
        {
          "hex": "#b7aa74"
        }
      ]
    },
    "millsfield:images_texts": [
      "SORTIE SUR ORDRE\nEXIT\nORDER\nPOUR TOUS LES SURVOLS MARITIMES, VOUS TROUVEREZ SOUS VOTRE SIEGE\nUN GILET DE SAUVETAGE.\nFOR ALL FLIGHTS OVER THE SEA, YOU WILL FIND A LIFE JACKET\nUNDER YOUR SEAT\nGONFLEZ VOTRE GILET DE SAUVETAGE\nSEULEMENT APRES AVOIR QUITTÉ L'AVION\nINFLATE YOUR LIFE JACKET ONLY\nAS YOU LEAVE THE AIRPLANE.\nDE BE 7000\nPRIERE DE NE PAS EMPORTER CETTE CARTE\nPLEASE DO NOT TAKE THIS CARD FROM THE AIRPLANE\nPLASTIFICATION TIP (EY 921.5492\nEN TOUTES CIRCONSTANCES L'ÉQUIPAGE EST AU COURANT DES\nMESURES A PRENDRE ET VOUS DONNERA DES INSTRUCTIONS\nPRÉCISES.\nOBEISSEZ PROMPTEMENT ET CALMEMENT AUX OR\nDRES QUI POURRONT ETRE DONNÉS. NE PERDEZ PAS VOTRE\nSANG-FROID.\nTHE CREW KNOW PERFECTLY WHAT TO DO UNDER ANY CIR-\nCUMSTANCE AND WILL INSTRUCT YOU ACCORDINGLY. COOPE\nRATE QUICKLY AND QUIETLY. FOLLOW THE CREW'S ORDERS.\nKEEP CALM.\nER\nUNE FOIS SORTI DE SON SAC IL S'UTILISE DE LA MANIERE SUIVANTE\nPASSEZ LA TETE DANS L'ENCOLURE.\nFIXEZ LE A L'AIDE DES SANGLES.\nTIREZ LA PETITE BOULE ROUGE VERS LE BAS.\nEN QUELQUES SECONDES VOTRE GILET SERA GONFLE.\nONCE IT HAS BEEN TAKEN OUT OF ITS BAG IT SHOULD BE USED\nIN THE FOLLOWING WAY:\nPASS YOUR HEAD THROUGH THE NECK...\nFIX IT BY MEANS OF THE STRAPS...\nPULL DOWN ON THE SMALL RED BALL\nIN A FEW SECONDS YOUR LIFE JACKET WILL BE INFLATED.\nCARAVELLE 12",
      "CONSIGNES DE SECURITE * SAFETY REGULATIONS\nCARAVELLE 12\nCEINTURES DE SECURITÉ...\nA SERRER LE PLUS POSSIBLE.\nSAFETY BELTS...\nTO BE FASTENED AS TIGHT AS POSSIBLE.\nOUVERT\nOPEN\nOUVERT\nOPEN\nIRTER\nRAMPE D'EVACUATION\nESCAPE SLIDE\n2\nAWAY\n10 TOURNEZ\nTURN\n2 LIFT DOOR UP\n1°\nBASCULEZ\nOPEN HANDIF\n20 OUVREZ\nOPEN DOOR\nOUVERTURE D'UN HUBLOT\nOPENING. OF A WINDOW\nPLEASE SEE OTHER SIDE\nVOIR AU VERSO\nEXIT\nPANNEAU INDIQUANT LA POSITION\nDES ISSUES DE SECOURS\nEMERGENCY EXITS\nPOSITION\nAS UNFORESEEABLE TURBULANCES MAY OCCUR, WE\nADVISE YOU TO KEEP YOUR SEAT BELTS FASTENED\nALL THE TIME YOU ARE SEATED.\nNOUS VOUS CONSEILLONS DE CONSERVER VOTRE CEIN-\nTURE ATTACHEE PENDANT TOUT LE TEMPS OU VOUS\nETES ASSIS\nDES TURBULENCES IMPRÉVUES POUVANT SE PRODUIRE\nCARAVELLE\n12\n1°\nOUVREZ LE VOLET:\nPULL COVER OPEN\nTIREZ LA POIGNÉE ROUGE\n2 GRASP RED HANDLE AND PULL\nLIBÉREZ L'ISSUE, PASSEZ-LA A L'EXTÉRIEUR\n3 DISCARD ENTIRE WINDOW THROW IT OUTARDS"
    ],
    "millsfield:images_texts_ids": [
      1913872233,
      1913872375
    ],
    "millsfield:primary_image": 1913872375,
    "millsfield:subcategory_id": 1511213703,
    "mz:is_approximate": 1,
    "mz:is_current": 1,
    "sfomuseum:accession_number": "2002.127.035",
    "sfomuseum:aircraft": "Sud Aviation 12 Caravelle",
    "sfomuseum:aircraft_id": [
      1119
    ],
    "sfomuseum:airline": "Air Inter",
    "sfomuseum:airline_id": [
      81
    ],
    "sfomuseum:category": "Passenger Amenity, Archive",
    "sfomuseum:classification_id": 581,
    "sfomuseum:collection": "Aviation Archive",
    "sfomuseum:creditline": "Gift of Thomas G. Dragges",
    "sfomuseum:date": "early 1970s",
    "sfomuseum:date_acquired": "2003-12-22",
    "sfomuseum:daterange_end": "1973-12-31",
    "sfomuseum:daterange_start": "1970-01-01",
    "sfomuseum:description": "Safety information card issued by Air Inter for the Sud Aviation 12 Caravelle fleet; double-sided card with illustrations depicting inflight safety and emergency procedures; identification code: DE BE 700d; no revision date.",
    "sfomuseum:dimensions": "12 x 8 1/4 inches (30.5 x 21 cm)",
    "sfomuseum:medium": "plastic, ink",
    "sfomuseum:object_id": 68303,
    "sfomuseum:placetype": "object",
    "sfomuseum:publication": ": , early 1970s.",
    "sfomuseum:subcategory": "Safety Information Card",
    "src:geom": "sfomuseum#undetermined",
    "wof:belongsto": [
      102527513,
      1159162825,
      102191575,
      85633793,
      102087579,
      85922583,
      85688637,
      1159160869
    ],
    "wof:country": "XY",
    "wof:created": 1715153574,
    "wof:depicts": [
      1159294251,
      1159283651,
      1159291825
    ],
    "wof:geomhash": "c281b9d9eefc83b5710e64b9d646067d",
    "wof:hierarchy": [
      {
        "building_id": -1,
        "campus_id": 102527513,
        "collection_id": 1159162825,
        "concourse_id": 1159162825,
        "continent_id": 102191575,
        "country_id": 85633793,
        "county_id": 102087579,
        "custom_id": 1913871999,
        "locality_id": 85922583,
        "neighbourhood_id": -1,
        "object_id": 1913871999,
        "region_id": 85688637,
        "wing_id": 1159160869
      }
    ],
    "wof:id": 1913871999,
    "wof:lastmodified": 1787988220,
    "wof:name": "safety information card: Air Inter, Sud Aviation 12 Caravelle",
    "wof:parent_id": 1159162825,
    "wof:placetype": "custom",
    "wof:placetype_alt": [
      "object"
    ],
    "wof:repo": "sfomuseum-data-collection",
    "wof:superseded_by": [],
    "wof:supersedes": []
  },
  "bbox": [
    -122.38647222518921,
    37.6161053594541,
    -122.38583385944366,
    37.61661101879963
  ],
  "geometry": {"type":"Polygon","coordinates":[[[-122.38647222518921,37.61631782178288],[-122.386434674263,37.61623283692423],[-122.38637566566466,37.61617759671399],[-122.38630056381224,37.6161308549656],[-122.38616108894348,37.6161053594541],[-122.38602161407469,37.6161308549656],[-122.38591432571411,37.61618609521055],[-122.38585531711577,37.61626683087935],[-122.38583385944366,37.61636881265146],[-122.38587141036987,37.61646654505181],[-122.38594114780425,37.61654303118856],[-122.38605380058287,37.61660252035167],[-122.38618254661559,37.61661101879963],[-122.3863059282303,37.61657277577607],[-122.3864185810089,37.61650903735973],[-122.3864668607712,37.61641130501523],[-122.38647222518921,37.61631782178288]]]}
}
