{
  "id": 1913822373,
  "type": "Feature",
  "properties": {
    "date:cessation_lower": "1941-01-01",
    "date:cessation_upper": "1941-12-31",
    "date:inception_lower": "1941-01-01",
    "date:inception_upper": "1941-12-31",
    "edtf:cessation": "1941",
    "edtf:inception": "1941",
    "geom:area": 0,
    "geom:bbox": "-61.264793,10.435364,-61.264793,10.435364",
    "geom:latitude": 10.435364,
    "geom:longitude": -61.264793,
    "georef:depicted": {
      "to": [
        85632271
      ]
    },
    "georef:depictions": [
      1913822939
    ],
    "georef:lastmodified": 1763509484,
    "georef:whosonfirst_belongsto": [
      85632271
    ],
    "millsfield:airline_id": [
      1159284991
    ],
    "millsfield:category_id": 1511214215,
    "millsfield:collection_id": 1511214207,
    "millsfield:company_id": [
      1159286839
    ],
    "millsfield:images": [
      1913822939,
      1913822941,
      1913822943,
      1913822945,
      1913822947,
      1913822949,
      1913822951
    ],
    "millsfield:images_colors_refs": {
      "crayola": [
        {
          "hex": "#7366bd"
        },
        {
          "hex": "#dbd7d2"
        },
        {
          "hex": "#efcdb8"
        },
        {
          "hex": "#2e5894"
        },
        {
          "hex": "#deaa88"
        },
        {
          "hex": "#bf4f51"
        },
        {
          "hex": "#9f8170"
        },
        {
          "hex": "#e7c697"
        },
        {
          "hex": "#414a4c"
        },
        {
          "hex": "#edd19c"
        }
      ],
      "css4": [
        {
          "hex": "#bc8f8f"
        },
        {
          "hex": "#a0522d"
        },
        {
          "hex": "#d3d3d3"
        },
        {
          "hex": "#2f4f4f"
        },
        {
          "hex": "#bdb76b"
        },
        {
          "hex": "#708090"
        },
        {
          "hex": "#deb887"
        },
        {
          "hex": "#483d8b"
        },
        {
          "hex": "#d2b48c"
        },
        {
          "hex": "#696969"
        },
        {
          "hex": "#f5deb3"
        },
        {
          "hex": "#556b2f"
        }
      ],
      "marekm4": [
        {
          "hex": "#e0d7c1"
        },
        {
          "hex": "#3b3d61"
        },
        {
          "hex": "#cfae75"
        },
        {
          "hex": "#b24a3a"
        },
        {
          "hex": "#d0ae75"
        },
        {
          "hex": "#413c3d"
        },
        {
          "hex": "#dfd2b9"
        },
        {
          "hex": "#dec69d"
        },
        {
          "hex": "#5c6e9b"
        },
        {
          "hex": "#565048"
        },
        {
          "hex": "#57534e"
        },
        {
          "hex": "#e1d6be"
        },
        {
          "hex": "#ded5be"
        },
        {
          "hex": "#4e5a91"
        },
        {
          "hex": "#607099"
        },
        {
          "hex": "#383752"
        },
        {
          "hex": "#e2cdaa"
        },
        {
          "hex": "#d3c6a4"
        },
        {
          "hex": "#ad9675"
        }
      ]
    },
    "millsfield:images_texts": [
      "AIR MAIL\nPavarim\nAIR\nMAIL:\n-AIR-\nEMAIL\nUNIESND\nCONS\nDRAMMRIGA\nJUCATION\nHEALTH\n6c\nCC\nFOR DEFENSE\nPOSTAGE S ORES\nMA\nMr. ld. M. Bisby\nop Pan American\n• Outwa\nPort - au: Spain\nLeinidad\nPORT OF SPAIN\nFEB-841\nAPA.",
      "Hel 3.º\nDear Matter and Daddy,\njust finished my\neist exam. It was a tiree hour\nEnglish one, and boy oh bay! I;\n'm a wreck.\nTomosoro we have the y sench wor.\nWednesday the Music and Arl, Jursday\nSine and say i mate Satuday.\nught is the dance. Whew - whal a week!\nLast Saturday we had more\nun. Al nine oclocle al muglet me all\nwent staturig. Captain Van augen pul\na big floodlight on the sile and we had\na vectiola with strauss waltzes. We\nhad cocoa when we came back. See, il\nwas jun. Ou-d forgol, we had caudy too.\nI ate a Baby Ruth\n- kuowing td be sick\nsick. Il was wonderful.\nPoor Katie has been in the intermary\nthe last week. Hub Kesuan came in to see\nher + take ler sliving al Bosgate, but sle",
      "couldut go. So she + Hul + D sal in lur\nroom in the underman + tallied. We had\nlots of mum he's angully nice.\nnow - its ascinating.\nWe are cutting the tug med boys\nme is so funny - she word touch her g\nWith her tigers\nShe tries to dissect\na frog by holding on to il with a piece o\npaper a tureezers - see, it's fum\n've been stijoting a lol latele.\nend just adore il. The Wealtur i\nabsolutely heavenl\nMy raisins are all gone now. In\nI have so many tung o wan is ask you\nbout that - lal quess oll have o wait for\nvacation. Seenis like yeats away - botta\nstudy my Trench now- wish me luce-\nLots of love cal\n2019.21370 b",
      "Vel 4th\nDear Daddy,\nHow you doin way out\nthese.?. Yee. I let it's fun flying\nall over creation like tral.\nI've just finished a\nI tench mid year exam. It was\nsometting! Now I'm studying\nfor a biology one to-mortow.\nThen, on Tuesday I'm going\nto stay in bed all day. (Jus\nother lido have Latin or berman)\nBut I riday and batunday\nhave more exams. Oh - woe -\nThe shi teacher was here\ntoday He's really swell. We\nGuill a jump the other day. It'\nwy abour a fool and a half high.\nBut it's on a quite steep lill - the\nother day I made 8!! teel. That is",
      "my heels lauded eight feel from. a\nthe ind of the jump. I stasted from\nthe top of the hill. then got a\ngood speting. Of course I landed\nin a heap aftenwards - but that\npart doesut count.\nI've told my tomates that\nyou were in Africa and they te\nall astounded. Hey seem to le\nawfully wortied too. Most of them\nhave never even been up in a\nplane. How come you touch\nour continents? You'll have\nexplain that to me wher\nyou gel back\nHope everything goes o.k.\nfor you.\nWith lots of love\nCal.\n20/9/21.1270C",
      "We went to all Whew ashin\nHere\". It was so wondful. on sleepee\nMRS. H. M. BixBY\n2 NORMANDY ROAD\nyou about it\nBRONXVILLE, N. Y.\nher you come\nDear Daddy\nhome\nHow is africa? Have\nyou seen any elephants and\nchimpanges, zebros, goriellas,\nar alligatoss, lions? glow is\nmr. Willkie: mother said\nthat you were flying home with\nhim, she also said not to lill\nanyone so i wont\nt, Yee dom pee\ngreen with eney of you Yoing\nto africa, flying too, seeing\nlions t wild animals (if you did",
      "and then the great excitient of\nflying home with mr. wilkie. Whet\nma.w. is ever so nice t interesting.\n- this must be\nvery short.\nmothe say thats why vom\nwritting so big t sloopy.\nmaid you badly for my\nin all sorts of awful things\nin Geomtry\nt even if tread\nthe problem 5o times some\nof them stump me. Jom having\na horrible time of fequers t such\nDS. Bring me oto of\nhome\nelephant\nor tion\nlove Неве\n019.121.570d"
    ],
    "millsfield:images_texts_ids": [
      1913822939,
      1913822941,
      1913822943,
      1913822945,
      1913822947,
      1913822949,
      1913822951
    ],
    "millsfield:primary_image": 1913822939,
    "millsfield:subcategory_id": 1511213159,
    "mz:is_approximate": 1,
    "mz:is_current": 1,
    "sfomuseum:accession_number": "2019.121.1370 a d",
    "sfomuseum:airline": "Pan American Airways",
    "sfomuseum:airline_id": [
      685
    ],
    "sfomuseum:category": "Philately",
    "sfomuseum:classification_id": 10,
    "sfomuseum:collection": "Aviation Archive",
    "sfomuseum:creditline": "Collection of SFO Museum",
    "sfomuseum:date": "1941",
    "sfomuseum:date_acquired": "2019-11-22",
    "sfomuseum:daterange_end": "1941-12-31",
    "sfomuseum:daterange_start": "1941-01-01",
    "sfomuseum:description": "Airmail flight cover, Pan American Airways; postmarked February 5, 1941 in Lenox, Mass. and February 8, 1941 in Port of Spain, Trinidad over two 6-cent stamps; backstamp: February 27, 1941 in Port of Spain; addressed to H.M. Bixby;\ra. envelope;\rb. handwritten letter from daughter Cat, dated February 4;\rc. handwritten letter from daughter Cat, undated;\rd. handwritten letter from daughter Hebe, dated February 3.",
    "sfomuseum:dimensions": "4 x 6 inches (10.2 x 15.2 cm)",
    "sfomuseum:medium": "paper, ink",
    "sfomuseum:object_id": 212023,
    "sfomuseum:placetype": "object",
    "sfomuseum:publication": ": , 1941.",
    "sfomuseum:subcategory": "Airmail Flight Cover",
    "src:geom": "sfomuseum",
    "wof:belongsto": [
      102191575,
      85632271
    ],
    "wof:country": "XY",
    "wof:created": 1714635140,
    "wof:depicts": [
      1159284991,
      1159286839
    ],
    "wof:geomhash": "0448187b65a43dbd675681ae6cf5bf2f",
    "wof:hierarchy": [
      {
        "continent_id": 102191575,
        "country_id": 85632271,
        "custom_id": 1913822373,
        "object_id": 1913822373
      }
    ],
    "wof:id": 1913822373,
    "wof:lastmodified": 1787988220,
    "wof:name": "airmail flight cover: Pan American Airways",
    "wof:parent_id": 1159162825,
    "wof:placetype": "custom",
    "wof:placetype_alt": [
      "object"
    ],
    "wof:repo": "sfomuseum-data-collection",
    "wof:superseded_by": [],
    "wof:supersedes": []
  },
  "bbox": [
    -61.264793,
    10.435364,
    -61.264793,
    10.435364
  ],
  "geometry": {"type":"MultiPoint","coordinates":[[-61.264793,10.435364]]}
}
