{
  "id": 1511933469,
  "type": "Feature",
  "properties": {
    "date:cessation_lower": "1989-01-01",
    "date:cessation_upper": "1989-12-31",
    "date:inception_lower": "1989-01-01",
    "date:inception_upper": "1989-12-31",
    "edtf:cessation": "1989",
    "edtf:date": "1989",
    "edtf:inception": "1989",
    "geom:area": 0,
    "geom:bbox": "-122.386155,37.616357,-122.386155,37.616357",
    "geom:latitude": 37.616357,
    "geom:longitude": -122.386155,
    "iso:country": "XX",
    "millsfield:airline_id": [
      1159284309
    ],
    "millsfield:category_id": 1511214223,
    "millsfield:collection_id": 1511214207,
    "millsfield:company_id": [
      1159287349
    ],
    "millsfield:images": [
      1527854863,
      1527854865,
      1527858735
    ],
    "millsfield:images_colors_refs": {
      "crayola": [
        {
          "hex": "#1a4876"
        },
        {
          "hex": "#efdecd"
        },
        {
          "hex": "#1974d2"
        },
        {
          "hex": "#a5694f"
        },
        {
          "hex": "#dbd7d2"
        },
        {
          "hex": "#9f8170"
        },
        {
          "hex": "#2e5894"
        },
        {
          "hex": "#414a4c"
        }
      ],
      "css4": [
        {
          "hex": "#bdb76b"
        },
        {
          "hex": "#dcdcdc"
        },
        {
          "hex": "#a0522d"
        },
        {
          "hex": "#1e90ff"
        },
        {
          "hex": "#faebd7"
        },
        {
          "hex": "#191970"
        },
        {
          "hex": "#2f4f4f"
        },
        {
          "hex": "#483d8b"
        }
      ],
      "marekm4": [
        {
          "hex": "#ebe6d8"
        },
        {
          "hex": "#1a2349"
        },
        {
          "hex": "#a29362"
        },
        {
          "hex": "#23252f"
        },
        {
          "hex": "#994e4a"
        },
        {
          "hex": "#2c3e95"
        },
        {
          "hex": "#dadcd8"
        },
        {
          "hex": "#1b2465"
        },
        {
          "hex": "#dededb"
        },
        {
          "hex": "#178dde"
        }
      ]
    },
    "millsfield:images_texts": [
      "EASTERN\nNOVEMBER 1989\nDECEMBER 1989\n12\n19\n26\nM\n6\n13\n20\n27\n7\n21\n28\n15\n22\n29\n16\n23\n30\n3\n10\n17\n24\n11\n18\n25\n3\n10\n17\n24\n31\n11\n18\n25\n5\n12\n19\n26\n6\n13\n20\n27\n14\n21\n28\n15\n22\n29\n16\n23\n30\n14\n28\nM\n15\n22\n29\nJANUARY 1990\nW\n16\n23\n30\n10\n17\n24\n31\n11\n18\n25\n12\n19\n26\n13\n20\n27\n4\n11\n18\n25\nM\n5\n12\n19\n26\nFEBRUARY 1990\nW\n6\n13\n20\n27\n14\n21\n28\n8\n15\n22\n9\n16\n23\nS\n3\n17\n24\nPrinted in U.S.A\nSchedule and fares subject to change without notice.\n2008,108.301",
      "Cities Served By EASTERN And EASTERN EXPRESS\nAkron/Canton, OH\n* Albany, GA\nAlbany, NY\nAllentown/Bethlehem/Easton, PA\nAntigua, Wi\n* Asheville, NC\nAsuncion, Paraguay\nAtlanta, GA\n* Augusta, GA\nBaltimore, MD\n* Bangor, ME\n* Bar Harbor, ME\nBarranquilla, Colombia\nBermuda (Hamilton)\nBirmingham, AL\nBogota, Colombia\nBoston, MA\nBuenos Aires, Argentina\nBuffalo, NY\nCali, Colombia\nCaracas, Venezuela\nCharleston, SC\nCharlotte, NC\n* Chattanooga, TN\nChicago, IL\nCleveland, OH\nColumbia, SC\n* Columbus, GA\nColumbus, OH\nDaytona Beach, FL\nDenver, CO\nDetroit, MI\n* Dothan, AL\nFt. Lauderdale/Hollywood, FL\n* Ft. Walton Beach, FL\n* Florence, SC\n* Freeport, Bahamas\nGainesville, FL\n* Governors Harbor, Bahamas\nGrand Cayman, WI\nGreensboro/High Point/\nWinston-Salem, NC\nGreenville/Spartanburg, SC\nGuatemala City, Guatemala\nGuayaquil, Ecuador\n* Gulfport/Biloxi, MS\nHartford, CT/Springfield, MA\n* Hilton Head Island, SC\nHuntsville, AL\n* Hyannis, MA\nIndianapolis, IN\nJacksonville, FL\nKansas City, MO\n* Key West, FL\n* Knoxville, TN\nLa Paz, Bolivia\nLima, Peru\nLos Angeles, CA\nLouisville, KY\n* Served by Eastern Express\n* Martha's Vineyard, MA\n* Mayaquez, PR\nMelbourne, FL\nMiami, FL\nMilwaukee, WI\nMobile, AL\nMontego Bay, Jamaica\n* Montgomery, AL\nMontreal, Canada\n* Myrtle Beach, SC\n* Nantucket, MA\n* Naples, FL\nNassau, Bahamas\nNew Orleans, LA\nNew York, NY\nNewark, NJ\nNorfolk/Virginia Beach, VA\nOrlando, FL\nOttawa, Canada\n* Panama City, FL\nPanama City, Panama Rep.\nPensacola, FL\nPittsburgh, PA\nPort au Prince, Haiti\n* Portland, ME\nPortland, OR\n* Presque Isle, ME\nProvidence, RI\nQuito, Ecuador\nRaleigh/Durham, NC\nRio de Janeiro, Brazil\n* Rock Sound, Bahamas\n* St. Croix, VI\n* St. Kitts, LI\nSt. Louis, MO\nSt. Maarten, N.A.\n* St. Thomas, VI\nSan Francisco, CA\nSan Jose, Costa Rica\nSan Juan, Puerto Rico\nSan Salvador, El Salvador\nSantiago, Chile\nSao Paulo, Brazil\nSarasota/Bradenton, FL\nSavannah, GA\nSeattle/Tacoma, WA\nTallahassee, FL\nTampa/St. Petersburg/\nClearwater, FL\nToronto, Canada\n* Tortola, BVI\n* Treasure Cay, Bahamas\n* Tri Cities, TN\n* Virgin Gorda, BVI\nWashington, DC\nWest Palm Beach, FL\nWilkes-Barre/Scranton, PA\n* Worcester, MA\nEASTERN\nFreq. Leave\nEASTERN\nFit.\nArrive\nNo.\nStops/\nMeal\nFrom: AKRON/CANTON,\nOHIO\nReservations:\nAkron\n762-2471\nCanton\n454-8899\nAir Freight:\nAkron\n376-0314\nCanton\n494-3425\nTicket Offices:\nAirport Terminal\nAtlanta, Ga.\n528 mi\n6 55a\n8 33a\n681 Nonstop\n4 57р\n6 38р\n685 Nonstop\nM\nBirmingham, Ala.\n585 mi\n6 55a\n9 03a\n4 57р\n9 15р\n681/517\n685/487\nC\nC\nM\nCharleston, S.C.\n6 55a\n1139a\n558 mi\n681/347\nC\nM\n457р\n900p\n685/511 C\nM\nCharlotte, N.C.\n394 mi\n6 55a\n11 37a\n681/374\n4 57р\n8 50р\n685/273\nC\nM\nM\nColumbia, S.C.\n482 mi\n655a\n10 04a\n681/546\nC\nM\nX6\n4 57р\n8 55p\n685/3211 C X M\nDaytona Beach, Fla.\n809 mi\n6 55a\n10 47a\n4 57р\n8 55р\n681/687\nM\n685/357\nM\nDenver, Colo.\n1236 mi\n6 55a\n10 44a 681/821 C\nM\nFt. Lauderdale/Hollywood, Fla.\n1025 mi\n6 55a\n12 35p\n681/147\n4 57р\n946р\n685/331\nC\nM\nM\nFort Myers, Fla.\n991 mi\n6 55a\n11.02a\n681/631\n4 57р\n1127р\n685/451\nM\nM\nGainesville, Fla.\n6 55a\n10 44a\n681/349\n175 mi\n457р\n859p\n685/515\n00\nM\nM\nGreenville/Spartanburg, S.C.\n417 mil\n6 55a\n10 04a\n681\n457р\n10 15р\nM\n685/117\nM\nHuntsville, Ala.\n522 mi\nX6\n6 55a\n907a\n681/340\nC\nM\n4 57р\n7 40р\n685/3209 С Д M\nJacksonville, Fla.\n719 mi\n655a\n1141a\n4 57р\n922р\n681/675\n685\nM\n1 M\nLos Angeles, Calif\n2073 mi\n6 55a\n1107a\n681/81\n4 57р\n10 00p\nC*-M\n685/87\nMelbourne, Fla.\n884 mil\n655a\n12 20р\n681/601\n4 57р\n925р\n685/787\nC\nM\nM\nMiami/Ft. Lauderdale, Fla.\n1044 mi\n655a\n11 25a\n6 55a\n681/98\n457p\n12 35pF 681/147\n946pF 685/331\n457р\n10 00p\n685/217\nU00u\nM\nMobile, Ala.\n801 mi\n6 55a\n10 48a\n681/373\n4.57р\n802p\n685/541\nC\nM\nC\nM\nMontego Bay, Jamaica 1558 mi\n67\n6 55a\n151p 681/971 C\nM\nNashville, Tenn.\n655a\n435 mi\n9 36a\n4 57р\n8 06р\n681/286\nM\n685/296\nM\nNassau, Bahamas\n1118 mi\n6 55a\n12 36р\n681/203 C\nM\nAIRPORT SYMBOLS\nB Baltimore-Washington\nWashington (National)\nL La Guardia\nFit.\nFreq. Leave\nArrive\nNo\nStops/\nMeal\nAll Eastern flights carry freight.\nFlt.\nStops/\nFreq. Leave\nArrive No.\nMea\nNew Orleans, La.\n901 mi\nMilwaukee, Wis.\n6 55a\n10 01a\n681/375\n720a\n10 24a\n4 57р 10 05р\n685/529\nC\nM\n12 25р\n3 12р\n4 15р\nOrlando/ (nr Walt Disney\nX6\n740p\n844p\n10 23p\n813 mi\n2914/780 C X S\n2926/782 С \u0026\n2940/786\n2952/788\nWorld® Resort), Fla.\n860 ml\nC\nM\nNashville, Tenn.\n347 mi\n655a 1101a\nX7\n720a\n9 36a\n2914/286 С Д\n4 57р\n946р\n681/335\n685/115\nC\n12 25р\n4 15р\n209р\n551р\n2926/290\n2940/294 С Д\nPensacola, Fla.\n789 mi\nX6\n7 40p\n9 31р\n2952/298 C Ø\n6 55a\n10 43a\n681/671\n457р\n950p\n685/735\nM\nNew York, N.Y./Newark, N.J.\n859 mi\nPhoenix, Ariz.\n1754 mi\n6 55a\n12 45р\n681/703\nM\nX7\nX7\n720a\n720a\n1129aL 2914/102 C \u0026 S\n11 45aN 2914/104 C 2 S\nSt. Croix, Virgin Islands 1880 mi\n12 25р\n4 40p L 2926/108\nCAS\n67\n6 55a\n3 15р\n681/995\nC\n12 25р\n4 50p N 2926/158\nIS\n225р\n633p L 3224/544\nCØ M\nSt. Thomas, Virgin Islands\n225р\n415p\n6 44p N 3224/112\n1837 mi\n8 16p L 2940/70\nCOM\n67\n655a 200p\n681/995 C\nM\nX6\n4 15р\n8 38p N 2940/152\nSan Francisco, Calif.\n2187 mi\nX6\n740p\n1145p L 2952/116 C 2\n7 40р\n11 59р N 2952/450 C X\n655a 1147a 681/71\nC\nM\nNorfolk/Va. Beach/\nSan Juan, P.R.\n1799 mi\nWilliamsburg, Va.\n588 mi\n655a\n6 55a\n148р\n321р\n681/951\n681/959\nC*-M\nX7\n720a\n10 50a\n2914/516 C\n225р\n6 00р\n3224/522 C X\nSarasota/Bradenton, Fla.\nX6\n4 15р\n920р\n2940/514 C 0\n740p\n10 53р\n2952/528\n934 mi\n6 55a\n10 58a\n681/669\nC\nM\nPhiladelphia, Pa./\n4 57р\n922р\n685/345\nC\nWilmington, Del.\n763 mi\nSavannah, Ga.\nX7\n7 20a\n1125a\n2914/122 C S\n606 mi\n12 25р\n4 09р\n2926/324 C X\nX7\n6 55a\n10 20a\n681/3181 C\u0026 M\n225р\n6 00p\n457р\n3224/602 C X S\n8 52p\n685/569\nC\nM\n4 15р\n759р\n2940/120 C 2 M\nTallahassee, Fla.\n743 mi\nX6\n740р\n11 28р\n2952/128 C 2\n6 55a\n4 57р\n1148a\n681/365\nM\nSt. Louis, Mo.\n607 mi\n9 02р\n685/329\nC\nM\nX7\n720a\n10 09а\n2914/270 C 2\nTampa, Fla.\n894 mi\n12 25p\n310р\n2926/274 C X\n6 55a\n10 54a\n681/341\nC\nM\n225p\n4 50р\n3224/276 C D\n4 57р\n937р\n685/795\nC\nM\n4 15p\n8 47р\n2940/280 C X\nWest Palm Beach, Fla.\n984 mi\nWashington, D.C./\n6 55a\n10 56a\n681/693\nC\nBaltimore, Md.\n676 mi\n4 57р\n11 18р\n685/647\nM\nX7\n720a\n10 59aB 2914/202 C X.S\nX7\n720a\n11 00a W 2914/130 C 8 M\nFrom:\nALBANY, GA.\n12 25р\n4 05р W 2926/636\n12 25р\n4 10p B 2926/206\nReservations:\nAir Freight:\n225p\n5 54p W 3224/138\n800-327-8376 431-1496\n415р\n7 40p B 2940/210 С X М\n4 15р\n8 00p W 2940/638\nTicket Offices:\nAirport Terminal\nX6\n740p\n11 13p B 2952/208\n740p\n11 30p W 2952/630 C 2\nAtlanta, Ga.\n146 mi\nX7\n720a\n8 15a\n2914 Nonstop\nFrom: ALBANY, N.Y.\n12 25p\n120р\n2926 Nonstop \u0026\nReservations:\nAir Freight:\n225р\n320р\n3224 Nonstop \u0026\n436-4721\n436-1454\n4 15р\n510р\n2940 Nonstop \u0026\nX6\n740p\n835р\n2952 Nonstop\nTicket Offices:\nAirport Terminal\nBaltimore, Md.\n676 mi\nX7\n7 20a\n10 59a\n2914/202 C 2 S\nAtlanta, Ga.\n12 25р\n415р\n4 10р\n2926/206 C X\n732a\n10 03а\n553\n7 40р\n2940/210 C 2 M\n12 37р\n3 05р\nX6\n740p\n11 13p\n2952/208 C A\n581\n600p\n830p\n589\nCharlotte, N.C.\n316 ml\nBirmingham, Ala.\n852 mi\nNonstop\nNonstop\nNonstop\n946 mi\nM\nX7\n720a\n1137a 2914/374 C X\n732a\n10 40a\nX67 12 25p\n3 05р\n2926/822 C Д\n12 37р\n4 02р\n225р\n511р\n3224/372 CA\n6 00p\n915р\n553/785\n581/379\n589/487\n4 15p\n6 54р\n2940/380 C \u0026\nX6\n740p\n10 32р\n2952/370 0 2\nCharleston, S.C.\n7 32a\n1139a\n759\nmi\nChicago, III.\n749 mi\n12 37р\n5 13р\nX7\n720a\n553/347\n581/523\n10 04a0 2914/236 C X M\n12 25р\n3 14p 0 2926/242 С Д\nColumbia, S.C.\n25\n225р\n508p0 3224/244 C 2 S\n7 32a\n1139a\n553/731\nX6\n415р\n740p\n8 54p 0 2940/248 C \u0026 S\n12 37р\n5 17р\n581/462\n10 37p0 2952/434 C 2\n6 00р\n10 28p\n589/668\n1000\nDetroit, Mich.\n738 mi\nDaytona Beach, Fla.\n1019 mi\nX7\n720a\n11 02a\n2914/614 C \u0026 S\n732a\n1217p 553/519\nC\nM\n12 25р\n4 06р\n2926/662 CA\n225p\n554р\n3224/768 C 2\nDenver, Colo.\n1622 mi\n415p\n8 05p\n2940/648\n12 37р\n705р\n581/825\nC\nM\nN Newark\n3\nF Ft. Lauderdale\n0 0'Hare\nP Islip\n• Eastern Express service\nEl InterAmericano\nService",
      "EASTERN\nSYSTEM TIMETABLE\nEffective November 1, 1989\n19,80 L\n1945\n\"THE HAT IS BACK!\" 1989\nA WHOLE NEW LOOK\nFOR A GREAT NEW AIRLINE"
    ],
    "millsfield:images_texts_ids": [
      1527854863,
      1527854865,
      1527858735
    ],
    "millsfield:primary_image": 1527858735,
    "millsfield:subcategory_id": 1511213425,
    "mz:hierarchy_label": 1,
    "mz:is_current": 1,
    "sfomuseum:accession_number": "2008.108.301",
    "sfomuseum:airline": "Eastern Air Lines",
    "sfomuseum:airline_id": [
      376
    ],
    "sfomuseum:category": "Scheduling / Ticketing",
    "sfomuseum:classification_id": 158,
    "sfomuseum:collection": "Aviation Archive",
    "sfomuseum:creditline": "Gift of the William Hough Collection",
    "sfomuseum:date": "1989",
    "sfomuseum:date_acquired": "2008-11-10",
    "sfomuseum:daterange_end": "1989-12-31",
    "sfomuseum:daterange_start": "1989-01-01",
    "sfomuseum:description": "System timetable issued by Eastern Air Lines, effective September 7, 1989; multipage booklet; white cover with color photographic images promoting new uniform and text “A whole new look for a great new airline”.",
    "sfomuseum:dimensions": "9 x 4 inches (22.9 x 10.2 cm)",
    "sfomuseum:media_ids": [
      1527854863,
      1527854865,
      1527858735
    ],
    "sfomuseum:medium": "paper, ink",
    "sfomuseum:object_id": 93680,
    "sfomuseum:placetype": "object",
    "sfomuseum:primary_media_id": 1527858735,
    "sfomuseum:publication": ": , 1989.",
    "sfomuseum:subcategory": "Timetable",
    "sfomuseum:subject": "Airlines -- Commercial -- Eastern",
    "src:geom": "sfomuseum#undetermined",
    "wof:belongsto": [
      1511214223,
      102527513,
      102191575,
      85633793,
      1511213425,
      85922583,
      102087579,
      1511214277,
      1511214207,
      85688637
    ],
    "wof:breaches": [],
    "wof:country": "XX",
    "wof:created": 1579906663,
    "wof:depicts": [
      1159287349,
      1159284309
    ],
    "wof:geomhash": "30c8a918561c84bb2daa2b97fc7c5353",
    "wof:hierarchy": [
      {
        "arcade_id": 1511213425,
        "building_id": 1511214277,
        "campus_id": 102527513,
        "concourse_id": 1511214223,
        "continent_id": 102191575,
        "country_id": 85633793,
        "county_id": 102087579,
        "custom_id": 1511933469,
        "locality_id": 85922583,
        "neighbourhood_id": -1,
        "object_id": 1511933469,
        "region_id": 85688637,
        "venue_id": 1511933469,
        "wing_id": 1511214207
      }
    ],
    "wof:id": 1511933469,
    "wof:lastmodified": 1787988181,
    "wof:name": "timetable: Eastern Air Lines",
    "wof:parent_id": 1159162825,
    "wof:placetype": "custom",
    "wof:placetype_alt": [
      "object"
    ],
    "wof:repo": "sfomuseum-data-collection",
    "wof:superseded_by": [],
    "wof:supersedes": [],
    "wof:tags": []
  },
  "bbox": [
    -122.386155,
    37.616357,
    -122.386155,
    37.616357
  ],
  "geometry": {"type":"Point","coordinates":[-122.386155,37.616357]}
}
