{
  "id": 1913796625,
  "type": "Feature",
  "properties": {
    "date:cessation_lower": "1933-02-01",
    "date:cessation_upper": "1933-02-01",
    "date:inception_lower": "1933-02-01",
    "date:inception_upper": "1933-02-01",
    "edtf:cessation": "1933-02-01",
    "edtf:inception": "1933-02-01",
    "geom:area": 2.475047457570636e-7,
    "geom:bbox": "-122.386472,37.616105,-122.385834,37.616611",
    "geom:latitude": 37.61635747477365,
    "geom:longitude": -122.38615540108617,
    "millsfield:airline_id": [
      1159284991,
      1159285931
    ],
    "millsfield:category_id": 1511214251,
    "millsfield:collection_id": 1511214207,
    "millsfield:company_id": [
      1159286721
    ],
    "millsfield:images": [
      1913800081,
      1913800085,
      1913800089,
      1913800093
    ],
    "millsfield:images_colors_refs": {
      "crayola": [
        {
          "hex": "#eceabe"
        },
        {
          "hex": "#414a4c"
        }
      ],
      "css4": [
        {
          "hex": "#2f4f4f"
        },
        {
          "hex": "#556b2f"
        },
        {
          "hex": "#f5deb3"
        }
      ],
      "marekm4": [
        {
          "hex": "#eedfbd"
        },
        {
          "hex": "#4a442f"
        },
        {
          "hex": "#ecddba"
        },
        {
          "hex": "#574e36"
        },
        {
          "hex": "#332a16"
        },
        {
          "hex": "#4a4028"
        },
        {
          "hex": "#ecdcb8"
        },
        {
          "hex": "#eedebc"
        }
      ]
    },
    "millsfield:images_texts": [
      "'33\nCANADIAN PACIFIC\nS. S. EMPRESS OF ASIA.\nwed tel,\nNearest Debbs-\nI fee very much bettr now\nAnd hair sort of found myreg\nquess. at first e\nt wino awfully\nlonesome and I was trinkel blur\nbut now I'm getting uns to it\nAs a ques one can adjust to\nany situation. The passengus art\nstee prely much confined to\ntheir stat rooms as the wrath u\nis very bad- stee sleet and\nrain or snow all the teme\ncock a cold saw wind blowing\nHair nt been one deck in tro\ndeep but just stay inside and\nread. Iaor it met an\npassengus ao the few who\nart up and around are all",
      "English or Canadians who\nprobably Expret me to be quests\nAmerican in breezy self cour anc\nand so I am fooling them by\nhaving as much resor as\nthey. Most of them them to\nte middle class and not at\nall interesting.\nI ran across the Sat.\nErming Post on ship board\nand was back surprise\nand pleana to sur Dungeas\nCrackures chawing which\nyou had described to me. It\nis very good and thape\nit wile gior him a start.\n• My English zut comes\nin ving handy as the boat\n1s\ncall arghar. in fact\nits the one time fir son bun\ncomfortable with this suit on\n2019.121.0581",
      "icloors so the revers wonel\nundoutres Is true et it if\nCANADIAN PACIFIC\nI did not LaS EMPRESS OF ASIA.\nbe viry uncomfortable. Celso\nwar your bees surate a lot\nas you she that your suggestin\nabont phoning Bie Shout to sund\nthe suit and your preont of\nthe swrath means that you\nare looking afte me way out\nher. It hard to wite beause\nthe ship is rolling so much.\nHair to prop my chair and\nhold this paper on my lap to\nwit at all.\nDidnt git the pecter\nyou had taken for me und\nTim hoping that you Either sut\nit too late to catch the bone\na wile sund it to shanghai.\nI left a forwarding addres",
      "with the Canadian Pacifie for\nany mail that missie ite\nboat.\nThe Captain said thes\nmorning that i wored\ncome wikin sight of the\nAlutian telendo this aftinoon\nif the wrath was reacon,\ngood.\nmust stop now. I'm\nreading your book on China\nand find it vray intricatin,\nand instructor. tai rene,\ngot a lat out of it. Am thinking\nIf you cat and stil all at\nBronxel and hoping th it\nyou an all wise and happy.\nAle my look to yon\ndeanst dareng ..\nHad\n201912105816"
    ],
    "millsfield:images_texts_ids": [
      1913800081,
      1913800085,
      1913800089,
      1913800093
    ],
    "millsfield:primary_image": 1913800081,
    "millsfield:subcategory_id": 1511213489,
    "mz:is_approximate": 1,
    "mz:is_current": 1,
    "sfomuseum:accession_number": "2019.121.0581 a b",
    "sfomuseum:airline": "Pan American Airways",
    "sfomuseum:airline_id": [
      685,
      1131
    ],
    "sfomuseum:category": "Employee Career History",
    "sfomuseum:classification_id": 195,
    "sfomuseum:collection": "Aviation Archive",
    "sfomuseum:creditline": "Collection of SFO Museum",
    "sfomuseum:date": "02/01/1933",
    "sfomuseum:date_acquired": "2019-11-22",
    "sfomuseum:daterange_end": "1933-02-01",
    "sfomuseum:daterange_start": "1933-02-01",
    "sfomuseum:description": "Handwritten letter from Harold M. Bixby to his wife, Debby Bixby, dated Wednesday, February 1, [1933], on stationery from the Canadian Pacific Steamship Lines, S.S. Empress of Asia; includes personal and family matters.",
    "sfomuseum:dimensions": "8 x 5 inches (20.3 x 12.7 cm)",
    "sfomuseum:medium": "paper, ink",
    "sfomuseum:object_id": 210856,
    "sfomuseum:placetype": "object",
    "sfomuseum:publication": ": , 02/01/1933.",
    "sfomuseum:subcategory": "Correspondence, Personal",
    "src:geom": "sfomuseum#undetermined",
    "wof:belongsto": [
      102527513,
      1159162825,
      102191575,
      85633793,
      102087579,
      85922583,
      85688637,
      1159160869
    ],
    "wof:country": "XY",
    "wof:created": 1714549148,
    "wof:depicts": [
      1159284991,
      1159285931,
      1159286721
    ],
    "wof:geomhash": "c281b9d9eefc83b5710e64b9d646067d",
    "wof:hierarchy": [
      {
        "building_id": -1,
        "campus_id": 102527513,
        "collection_id": 1159162825,
        "concourse_id": 1159162825,
        "continent_id": 102191575,
        "country_id": 85633793,
        "county_id": 102087579,
        "custom_id": 1913796625,
        "locality_id": 85922583,
        "neighbourhood_id": -1,
        "object_id": 1913796625,
        "region_id": 85688637,
        "wing_id": 1159160869
      }
    ],
    "wof:id": 1913796625,
    "wof:lastmodified": 1787988220,
    "wof:name": "correspondence: Harold M. Bixby to Debby Bixby",
    "wof:parent_id": 1159162825,
    "wof:placetype": "custom",
    "wof:placetype_alt": [
      "object"
    ],
    "wof:repo": "sfomuseum-data-collection",
    "wof:superseded_by": [],
    "wof:supersedes": []
  },
  "bbox": [
    -122.38647222518921,
    37.6161053594541,
    -122.38583385944366,
    37.61661101879963
  ],
  "geometry": {"type":"Polygon","coordinates":[[[-122.38647222518921,37.61631782178288],[-122.386434674263,37.61623283692423],[-122.38637566566466,37.61617759671399],[-122.38630056381224,37.6161308549656],[-122.38616108894348,37.6161053594541],[-122.38602161407469,37.6161308549656],[-122.38591432571411,37.61618609521055],[-122.38585531711577,37.61626683087935],[-122.38583385944366,37.61636881265146],[-122.38587141036987,37.61646654505181],[-122.38594114780425,37.61654303118856],[-122.38605380058287,37.61660252035167],[-122.38618254661559,37.61661101879963],[-122.3863059282303,37.61657277577607],[-122.3864185810089,37.61650903735973],[-122.3864668607712,37.61641130501523],[-122.38647222518921,37.61631782178288]]]}
}
