{
  "id": 1913795249,
  "type": "Feature",
  "properties": {
    "date:cessation_lower": "1933-09-18",
    "date:cessation_upper": "1933-09-18",
    "date:inception_lower": "1933-09-18",
    "date:inception_upper": "1933-09-18",
    "edtf:cessation": "1933-09-18",
    "edtf:inception": "1933-09-18",
    "geom:area": 2.475047457570636e-7,
    "geom:bbox": "-122.386472,37.616105,-122.385834,37.616611",
    "geom:latitude": 37.61635747477365,
    "geom:longitude": -122.38615540108617,
    "millsfield:airline_id": [
      1159284991,
      1159285931
    ],
    "millsfield:category_id": 1511214251,
    "millsfield:collection_id": 1511214207,
    "millsfield:company_id": [
      1159286721
    ],
    "millsfield:images": [
      1913800947,
      1913800949,
      1913800951,
      1913800953,
      1913800955,
      1913800957,
      1913800961,
      1913800963
    ],
    "millsfield:images_colors_refs": {
      "crayola": [
        {
          "hex": "#efcdb8"
        },
        {
          "hex": "#9f8170"
        },
        {
          "hex": "#414a4c"
        }
      ],
      "css4": [
        {
          "hex": "#f5deb3"
        },
        {
          "hex": "#2f4f4f"
        },
        {
          "hex": "#808080"
        }
      ],
      "marekm4": [
        {
          "hex": "#e5d5ac"
        },
        {
          "hex": "#42463b"
        },
        {
          "hex": "#41473e"
        },
        {
          "hex": "#3f4948"
        },
        {
          "hex": "#3b4544"
        },
        {
          "hex": "#e6d6ae"
        },
        {
          "hex": "#e4d6b0"
        },
        {
          "hex": "#3f453b"
        },
        {
          "hex": "#3d4135"
        },
        {
          "hex": "#3b484f"
        },
        {
          "hex": "#e7d6ad"
        },
        {
          "hex": "#9e9471"
        },
        {
          "hex": "#e6d6ad"
        },
        {
          "hex": "#e4d5ad"
        },
        {
          "hex": "#3d494a"
        }
      ]
    },
    "millsfield:images_texts": [
      "33\nMETROPOLE HOTEL\nSHANGHAI, CHINA.\nSept. 18\nDebs dearests -\nLots of excitement\ntonight for thris a\ntyphoon approaching\nThis afternoon ur\ndecided to mor\nthe Sikorskys\nto\nRanking\nand I thought\nI wones go alon\nusing the excuss\nto visit Nanking\nwhile T.V. S. is their",
      "The wratha bureau\ntold us us really\nwoned not hair to\nhurry\nas the storm\n250 miles\nsouth near winchoes\nThe centu one, moves\nabont 10 to 15 miles\npur hour. Then us\ngot to the an port\nabont 2 Pin the\nwind\nwas blowing\nso hard that grooch\ndid not\ndars try\nto\nmove\nthe ships\nthem\n2019.121.0715a",
      "HAY HOTELS\nMETROPOLE HOTEL\nSHANGHAI, CHINA.\ndown, lashed the\nControlo, stationre\number of men\nat the air got\nand hop for the\nbest. It may be\nlucky that us did\nnot go to Nanking\nas the typhron is\nnow repatro\npassing nearer\nto\nthur than Shanghai.\nNow at 11: 20 O.m\nthe wind\nis blowing",
      "abont leo miles par\nhour with the centu\ndue in this section\nalont 4 to 5 Q.m.\nOut my\nwindow\nI can the the red\nsignae legit on the\ncustoms benedin.\nwhich is the sign\nfor all shipping to\ntie up. monda, is\nalway a hole in\nfor eNAC so thun\nwe no ships in\nthe air\nane\n- ale\nschedules for tomorrow\n201912\n715",
      "ATHAY HOTELS LID\nMETROPOLE HOTEL\nSHANGHAI, CHINA\nhavz\nbern\n- Caled ft.\nA typhoon looks like\nthes\n- 10 mile sund\n100\"\nthe\nrea in the centr\nis calm and when\nthe\ncentu paons ora\nprofile think the\nstorm is\novEr\nbut\nare suddenly caught\nby a wind of 100\nto 120 mile velocit\nfrom the opposited",
      "dirzetion ane ele the\ndebus which has\nburn blows flat be,\nthe wist wind takes\noff in the rast wind\nand dos most of\nthe damage. Shop\nthe\nSikoraky uree\nride\nthe storm cout-\nonly\nmo\nming wile\ntree.\ngot your litte\nfrom\nglouceste thi\nmorning.\nI thank your\nFathe is the most\nthought fee man 9 in\nknew and I cant\nsir why ma is for ton",
      "ATHAY HOTE!\nMETROPOLE HOTEL\nSHANGHAI, CHINA.\nfindi, fanet rapacial,\nwhen ke\ntris so hard\nto plean her. Your\nstory of the hazy fusan\nmade\nme fee ver\nsad. Shops your trip\nto Canada wett\nMa man hai barn\ngood for her. Sipa-atin\nin her cast may be\na good thing. glad\nSets liked the gane\nlucky to\nhair Bo stay with\nthan\nand ser what",
      "a break then daught\ngot in i room mat\nlotti. your spraking\nof mocking in the gandan\nhoun looking like a\nwu goves stor reminds\nme that all the up\nto date Chimiss homes\nlook liker\na win dow\nin the thay Co on 12t\nthis idea in\nto hair\nbut\namerican\nor german\nattrocities - when their\nown preturio and art\nobjiets arz the 1m\nmost brautifue. Had a\ngrand lettu from Ruck \u0026\na mie one from Theron\nCatti - inclord. Lots of lorr\n1.0715 d\nHad"
    ],
    "millsfield:images_texts_ids": [
      1913800947,
      1913800949,
      1913800951,
      1913800953,
      1913800955,
      1913800957,
      1913800961,
      1913800963
    ],
    "millsfield:primary_image": 1913800947,
    "millsfield:subcategory_id": 1511213489,
    "mz:is_approximate": 1,
    "mz:is_current": 1,
    "sfomuseum:accession_number": "2019.121.0715 a d",
    "sfomuseum:airline": "Pan American Airways",
    "sfomuseum:airline_id": [
      685,
      1131
    ],
    "sfomuseum:category": "Employee Career History",
    "sfomuseum:classification_id": 195,
    "sfomuseum:collection": "Aviation Archive",
    "sfomuseum:creditline": "Collection of SFO Museum",
    "sfomuseum:date": "09/18/1933",
    "sfomuseum:date_acquired": "2019-11-22",
    "sfomuseum:daterange_end": "1933-09-18",
    "sfomuseum:daterange_start": "1933-09-18",
    "sfomuseum:description": "Handwritten letter from Harold M. Bixby to his wife, Debby Bixby, dated September 18, [1933] on stationery from the Metropole Hotel in Shanghai; includes description of approaching typhoon and plans to move Sikorsky aircraft to Nanking [Nanjing] foiled by the storm, procedures to protect the aircraft during the storm.",
    "sfomuseum:dimensions": "7 1/2 x 5 inches (19.1 x 12.7 cm)",
    "sfomuseum:medium": "paper, ink",
    "sfomuseum:object_id": 211063,
    "sfomuseum:placetype": "object",
    "sfomuseum:publication": ": , 09/18/1933.",
    "sfomuseum:subcategory": "Correspondence, Personal",
    "src:geom": "sfomuseum#undetermined",
    "wof:belongsto": [
      102527513,
      1159162825,
      102191575,
      85633793,
      102087579,
      85922583,
      85688637,
      1159160869
    ],
    "wof:country": "XY",
    "wof:created": 1714548738,
    "wof:depicts": [
      1159285931,
      1159286721,
      1159284991
    ],
    "wof:geomhash": "c281b9d9eefc83b5710e64b9d646067d",
    "wof:hierarchy": [
      {
        "building_id": -1,
        "campus_id": 102527513,
        "collection_id": 1159162825,
        "concourse_id": 1159162825,
        "continent_id": 102191575,
        "country_id": 85633793,
        "county_id": 102087579,
        "custom_id": 1913795249,
        "locality_id": 85922583,
        "neighbourhood_id": -1,
        "object_id": 1913795249,
        "region_id": 85688637,
        "wing_id": 1159160869
      }
    ],
    "wof:id": 1913795249,
    "wof:lastmodified": 1787988219,
    "wof:name": "correspondence: Harold M. Bixby to Debby Bixby",
    "wof:parent_id": 1159162825,
    "wof:placetype": "custom",
    "wof:placetype_alt": [
      "object"
    ],
    "wof:repo": "sfomuseum-data-collection",
    "wof:superseded_by": [],
    "wof:supersedes": []
  },
  "bbox": [
    -122.38647222518921,
    37.6161053594541,
    -122.38583385944366,
    37.61661101879963
  ],
  "geometry": {"type":"Polygon","coordinates":[[[-122.38647222518921,37.61631782178288],[-122.386434674263,37.61623283692423],[-122.38637566566466,37.61617759671399],[-122.38630056381224,37.6161308549656],[-122.38616108894348,37.6161053594541],[-122.38602161407469,37.6161308549656],[-122.38591432571411,37.61618609521055],[-122.38585531711577,37.61626683087935],[-122.38583385944366,37.61636881265146],[-122.38587141036987,37.61646654505181],[-122.38594114780425,37.61654303118856],[-122.38605380058287,37.61660252035167],[-122.38618254661559,37.61661101879963],[-122.3863059282303,37.61657277577607],[-122.3864185810089,37.61650903735973],[-122.3864668607712,37.61641130501523],[-122.38647222518921,37.61631782178288]]]}
}
