{
  "id": 1511941357,
  "type": "Feature",
  "properties": {
    "date:cessation_lower": "1937-01-01",
    "date:cessation_upper": "1937-12-31",
    "date:inception_lower": "1937-01-01",
    "date:inception_upper": "1937-12-31",
    "edtf:cessation": "1937",
    "edtf:date": "1937",
    "edtf:inception": "1937",
    "geom:area": 0,
    "geom:bbox": "-122.386155,37.616357,-122.386155,37.616357",
    "geom:latitude": 37.616357,
    "geom:longitude": -122.386155,
    "iso:country": "XX",
    "millsfield:airline_id": [
      1159284991
    ],
    "millsfield:category_id": 1762671311,
    "millsfield:collection_id": 1511214207,
    "millsfield:company_id": [
      1159286839
    ],
    "millsfield:images": [
      1527818335,
      1527818339,
      1527818341
    ],
    "millsfield:images_colors_refs": {
      "crayola": [
        {
          "hex": "#757575"
        },
        {
          "hex": "#cdc5c2"
        },
        {
          "hex": "#9f8170"
        },
        {
          "hex": "#a5694f"
        },
        {
          "hex": "#414a4c"
        },
        {
          "hex": "#dbd7d2"
        }
      ],
      "css4": [
        {
          "hex": "#2f4f4f"
        },
        {
          "hex": "#c0c0c0"
        },
        {
          "hex": "#696969"
        },
        {
          "hex": "#808080"
        },
        {
          "hex": "#a0522d"
        },
        {
          "hex": "#bc8f8f"
        },
        {
          "hex": "#dcdcdc"
        }
      ],
      "marekm4": [
        {
          "hex": "#e3dcd1"
        },
        {
          "hex": "#9a6653"
        },
        {
          "hex": "#ae916c"
        },
        {
          "hex": "#555554"
        },
        {
          "hex": "#c9c5bc"
        },
        {
          "hex": "#52514e"
        },
        {
          "hex": "#e3dccf"
        },
        {
          "hex": "#53484f"
        },
        {
          "hex": "#84827e"
        }
      ]
    },
    "millsfield:images_texts": [
      "CO OUR PATRONS\nPARTIES \u0026 DINNERS with specially prepared menus may be\narranged with our maitre d'hotel.\nKindly ask the head waiter for souvenir menus ready for mailing.\nTHE ENTERTAINMENT AND INFORMATION DESKS are lo-\ncated in the lobby, where arrangements may be made for sports\nactivities and motor tours.\nTHE QUIET RESTFUL SIXTH FLOOR SUN LOUNGE:\nHigh\nabove the street, a rare view of the Broad Pacific and the Beau-\ntiful Koolau Mountain Range may be had.\nTHE WAIALAE GOLF COURSE offers you the finest 18-hole\ngolf links in the Territory. Completely equipped clubhouse. Ted\nBenedict, Professional. Green fees $2.00 on Mondays, Tuesdays,\nThursdays and Fridays and $2.50 on Wednesdays, Saturdays,\nSundays and Holidays.\nMonthly rates quoted.\nDinner-dance\nevery Tuesday and Friday.\nSpecial parties arranged.\nTENNIS: The Royal Hawaiian Hotel Courts are available to\nguests of the Moana\nHotel. Tennis Instruction by Phil Bagby,\nProfessional. Courts may be reserved and appointments for in-\nstruction made through the front office.\nA VISIT to the pineapple cannery is interesting.\nPlease see\nthe clerk at the front desk.\nA CRATE OF FRESH HAWAIIAN PINEAPPLES can be\nshipped by refrigerated express anywhere in the mainland. In-\nformation at the front office.\nEVENTS OF THE DAY\nHAWAIIAN CONCERT IN DINING ROOM\nBy Al Perry's Surf-riders.\n... 7:15 P.M.\nMOANA HOTEL\nLUNCHEON\nPoi Cocktail, Chef's Special\nPapaia Health Juice\nMarinated Sprats\nPickled Pig's Feet\nGreen Onions \u0026 Radishes\nSpiced Pineapple\nPineapple Juice\nSalad Russe\nConsomme Madrilene\nCream of Chicken a la Reine\nJellied Beef, Chicken or Tomato Broth\nFrench Onion Soup au Gratin\nFISH\nSteamed Finnan Haddie, Parsley Potatoes\nENTREES\nHam \u0026 Eggs, Country Style\nChicken Chop Suey, Moana Special\nFresh Vegetable Plate with Lamb Chop\nCoconut Waffle, Little Pig Sausages, Ono Syrup\nCold Dutch Luncheon Plate\nBroiled Top Sirloin Steak, Tyrolienne\nVEGETABLE\nButtered Cabbage\nFried Egg-plant\nSpinach with Hard Boiled Egg\nGreen Beans Saute\nBoiled Rice\nWainaku Lehua Poi\nPotatoes - Baked, Hashed Brown, Mashed or New Boiled\nCOLD BUFFET\nAssorted Cold Cuts\nCorned Beef\nSugar Cured Ham\nHead Cheese\nSpring Lamb, Mint Jelly\nSmoked Beef Tongue\nPrime Ribs of Beef\nImported Salami\nBismark Herring\nGalantine of Capon\nSALAD\nTropical Fruit\nVegetable Mayonnaise\nDESSERT\nDeepdish Fresh Apple Pie\nCompote of Preserved Fruit\nPeach \u0026 Vermicelli Pudding\nOrange Jello\nPetit Fours\nVanilla Cup Custard\nFrench Vanilla, Chocolate or Coconut Ice Cream\nApples\nCHEESE\nAmerican, Cottage, Roquefort, Swiss, Monterey or Philadelphia Cream\nButtermilk\nSanka Coffee \u0026 Ovaltine\nPineapple Juice Frappee\nDishes ordered that are not on the Menu will be charged extra.\nRoom Service 25\ncents each person.\nBreakfast 7 to 10\nLuncheon 12 to 2\nDinner 6 to 8.\nHonolulu, Hawaii, U.S. A.\nSunday, December 26th, 1937",
      "A HONOLULU LEI VENDER",
      "ROYAL\nHAWAllAN HOTEL\nMOANA HOTEL\nAL WAIALAE GOLF CLUB I!\nSEASIDE HOTEL\nTHE TERRITORIAL HOTEL CO., LTD.-HONOLULU, HAWAII"
    ],
    "millsfield:images_texts_ids": [
      1527818335,
      1527818339,
      1527818341
    ],
    "millsfield:primary_image": 1527818339,
    "millsfield:subcategory_id": 1511213567,
    "mz:hierarchy_label": 1,
    "mz:is_current": 1,
    "sfomuseum:accession_number": "2009.175.108 a c",
    "sfomuseum:airline": "Pan American Airways",
    "sfomuseum:airline_id": [
      685
    ],
    "sfomuseum:category": "Passenger Amenity, Archive",
    "sfomuseum:classification_id": 242,
    "sfomuseum:collection": "Aviation Archive",
    "sfomuseum:creditline": "Gift of Richard McLean",
    "sfomuseum:date": "1937",
    "sfomuseum:date_acquired": "2010-03-03",
    "sfomuseum:daterange_end": "1937-12-31",
    "sfomuseum:daterange_start": "1937-01-01",
    "sfomuseum:description": "Digital scans of menu issued by Pan American Airways for the Moana Hotel in Honolulu; white cover with color illustration of woman holding floral leis; lunch menu items include ham and eggs, chicken chop suey, and coconut waffle; date: December 26, 1937.\ra. cover scan\rb. interior scan; includes menu items and list of hotel activities\rc. reverse; black and white photographic images of Hawaiian sights and activities",
    "sfomuseum:dimensions": "10 1/2 x 7 inches (26.7 x 17.8 cm)",
    "sfomuseum:media_ids": [
      1527818335,
      1527818339,
      1527818341
    ],
    "sfomuseum:medium": "paper, ink",
    "sfomuseum:object_id": 103671,
    "sfomuseum:placetype": "object",
    "sfomuseum:primary_media_id": 1527818339,
    "sfomuseum:publication": ": , 1937.",
    "sfomuseum:subcategory": "Menu",
    "src:geom": "sfomuseum#undetermined",
    "wof:belongsto": [
      1159162825,
      102527513,
      102191575,
      85633793,
      85922583,
      102087579,
      1159160869,
      85688637
    ],
    "wof:breaches": [],
    "wof:country": "XX",
    "wof:created": 1579906678,
    "wof:depicts": [
      1159284991,
      1159286839
    ],
    "wof:geomhash": "30c8a918561c84bb2daa2b97fc7c5353",
    "wof:hierarchy": [
      {
        "building_id": -1,
        "campus_id": 102527513,
        "concourse_id": 1159162825,
        "continent_id": 102191575,
        "country_id": 85633793,
        "county_id": 102087579,
        "custom_id": 1511941357,
        "locality_id": 85922583,
        "neighbourhood_id": -1,
        "object_id": 1511941357,
        "region_id": 85688637,
        "venue_id": 1511941357,
        "wing_id": 1159160869
      }
    ],
    "wof:id": 1511941357,
    "wof:lastmodified": 1787988185,
    "wof:name": "menu: Pan American Airways, Moana Hotel, Hawaii [digital scan]",
    "wof:parent_id": 1159162825,
    "wof:placetype": "custom",
    "wof:placetype_alt": [
      "object"
    ],
    "wof:repo": "sfomuseum-data-collection",
    "wof:superseded_by": [],
    "wof:supersedes": [],
    "wof:tags": []
  },
  "bbox": [
    -122.386155,
    37.616357,
    -122.386155,
    37.616357
  ],
  "geometry": {"type":"Point","coordinates":[-122.386155,37.616357]}
}
