{
  "id": 1913795327,
  "type": "Feature",
  "properties": {
    "date:cessation_lower": "1937-04-07",
    "date:cessation_upper": "1937-04-07",
    "date:inception_lower": "1937-04-07",
    "date:inception_upper": "1937-04-07",
    "edtf:cessation": "1937-04-07",
    "edtf:inception": "1937-04-07",
    "geom:area": 2.475047457570636e-7,
    "geom:bbox": "-122.386472,37.616105,-122.385834,37.616611",
    "geom:latitude": 37.61635747477365,
    "geom:longitude": -122.38615540108617,
    "millsfield:airline_id": [
      1159284991
    ],
    "millsfield:category_id": 1511214251,
    "millsfield:collection_id": 1511214207,
    "millsfield:company_id": [
      1159286839
    ],
    "millsfield:images": [
      1913799853,
      1913799855
    ],
    "millsfield:images_colors_refs": {
      "crayola": [
        {
          "hex": "#efdecd"
        },
        {
          "hex": "#e7c697"
        },
        {
          "hex": "#714b23"
        },
        {
          "hex": "#edd19c"
        },
        {
          "hex": "#f8d568"
        }
      ],
      "css4": [
        {
          "hex": "#deb887"
        },
        {
          "hex": "#f0e68c"
        },
        {
          "hex": "#556b2f"
        },
        {
          "hex": "#faebd7"
        }
      ],
      "marekm4": [
        {
          "hex": "#666437"
        },
        {
          "hex": "#686530"
        },
        {
          "hex": "#f3eed7"
        },
        {
          "hex": "#e9dc9b"
        },
        {
          "hex": "#dbcb78"
        },
        {
          "hex": "#dece72"
        }
      ]
    },
    "millsfield:images_texts": [
      "Wed aprie 7\nDearst Deb.-\nCalled up the Lances toda\nand mated them to Kirt Kongo\nfor lunch. They is delighted.\nCalled Max Polin to ask him to\nresera room and orda his menu\nand incidentally invited him to\nfor mus.\nAlso\nI called up tibe\nand the came along - max P.\ninciated on sending his car for\nher, The Lancis an viry eit\nold couple and was wild abont\nNate - abo most enthusiastic\nabout the chow. theis fust\nexpirines. Mr was gond with the\nslicks while ms coned nt do a\nthing -\nthe old boy lord that.\nThey win most appreciatin. goi\nthem a card to Mellie Nam, abso\nto m.s. Hwang - The, want to ply back.\nel Nite came to offer wick me\nfor the afternoon. i\nShe wrots a\nlun to jon - inclord which\n- took neare\nall aptinoon - also a\n\"thank you\" not to the Bando\nThen at 5:30 us want to sur\nane Arctur in \"More than a Secretary\ntir did nt gre\nEight and\nNate was in bed and\nsurp ley 8:30, I had phoned nest",
      "England from the office of an plan\nand askrd her to not, amal.\nSomorrow\nI am\nHongkong and .\nback\nTridan\nwrathi permitting in the S-43.\nQue of 96, an comprting for\ni a Banes for emmer!\nShe is goon\n- Bone\nwe cale for he and taks her\nhome afterian do.\nShe is, will\nand\njust as cute and good\nas she can It. Of cours shel\nreally misso yos but the is\nHe brair and\ndoro it complain\nabont anything.\nI was delights to learn\nmarrial.\non the Emp p\nJapan that the\nCherry Blossoms\nanc\nactuall, in bloom a a 9\nknow now that gon wice ace\nloor the trip\nat least\nmost\nit -\nLots\nand lots of lore-\nBix\n2019.121.1013"
    ],
    "millsfield:images_texts_ids": [
      1913799853,
      1913799855
    ],
    "millsfield:primary_image": 1913799853,
    "millsfield:subcategory_id": 1511213489,
    "mz:is_approximate": 1,
    "mz:is_current": 1,
    "sfomuseum:accession_number": "2019.121.1013",
    "sfomuseum:airline": "Pan American Airways",
    "sfomuseum:airline_id": [
      685
    ],
    "sfomuseum:category": "Employee Career History",
    "sfomuseum:classification_id": 195,
    "sfomuseum:collection": "Aviation Archive",
    "sfomuseum:creditline": "Collection of SFO Museum",
    "sfomuseum:date": "04/07/1937",
    "sfomuseum:date_acquired": "2019-11-22",
    "sfomuseum:daterange_end": "1937-04-07",
    "sfomuseum:daterange_start": "1937-04-07",
    "sfomuseum:description": "Handwritten letter from Harold M. Bixby to his wife, Debby Bixby, dated April 7, [1937]; mentions Max Polin and [William L.] Bond.",
    "sfomuseum:dimensions": "13 x 8 inches (33 x 20.3 cm)",
    "sfomuseum:medium": "paper, ink",
    "sfomuseum:object_id": 211376,
    "sfomuseum:placetype": "object",
    "sfomuseum:publication": ": , 04/07/1937.",
    "sfomuseum:subcategory": "Correspondence, Personal",
    "src:geom": "sfomuseum#undetermined",
    "wof:belongsto": [
      102527513,
      1159162825,
      102191575,
      85633793,
      102087579,
      85922583,
      85688637,
      1159160869
    ],
    "wof:country": "XY",
    "wof:created": 1714548760,
    "wof:depicts": [
      1159284991,
      1159286839
    ],
    "wof:geomhash": "c281b9d9eefc83b5710e64b9d646067d",
    "wof:hierarchy": [
      {
        "building_id": -1,
        "campus_id": 102527513,
        "collection_id": 1159162825,
        "concourse_id": 1159162825,
        "continent_id": 102191575,
        "country_id": 85633793,
        "county_id": 102087579,
        "custom_id": 1913795327,
        "locality_id": 85922583,
        "neighbourhood_id": -1,
        "object_id": 1913795327,
        "region_id": 85688637,
        "wing_id": 1159160869
      }
    ],
    "wof:id": 1913795327,
    "wof:lastmodified": 1787988219,
    "wof:name": "correspondence: Harold M. Bixby to Debby Bixby",
    "wof:parent_id": 1159162825,
    "wof:placetype": "custom",
    "wof:placetype_alt": [
      "object"
    ],
    "wof:repo": "sfomuseum-data-collection",
    "wof:superseded_by": [],
    "wof:supersedes": []
  },
  "bbox": [
    -122.38647222518921,
    37.6161053594541,
    -122.38583385944366,
    37.61661101879963
  ],
  "geometry": {"type":"Polygon","coordinates":[[[-122.38647222518921,37.61631782178288],[-122.386434674263,37.61623283692423],[-122.38637566566466,37.61617759671399],[-122.38630056381224,37.6161308549656],[-122.38616108894348,37.6161053594541],[-122.38602161407469,37.6161308549656],[-122.38591432571411,37.61618609521055],[-122.38585531711577,37.61626683087935],[-122.38583385944366,37.61636881265146],[-122.38587141036987,37.61646654505181],[-122.38594114780425,37.61654303118856],[-122.38605380058287,37.61660252035167],[-122.38618254661559,37.61661101879963],[-122.3863059282303,37.61657277577607],[-122.3864185810089,37.61650903735973],[-122.3864668607712,37.61641130501523],[-122.38647222518921,37.61631782178288]]]}
}
