{
  "id": 1913796275,
  "type": "Feature",
  "properties": {
    "date:cessation_lower": "1949-12-07",
    "date:cessation_upper": "1949-12-07",
    "date:inception_lower": "1949-12-07",
    "date:inception_upper": "1949-12-07",
    "edtf:cessation": "1949-12-07",
    "edtf:inception": "1949-12-07",
    "geom:area": 2.475047457570636e-7,
    "geom:bbox": "-122.386472,37.616105,-122.385834,37.616611",
    "geom:latitude": 37.61635747477365,
    "geom:longitude": -122.38615540108617,
    "millsfield:airline_id": [
      1159284991
    ],
    "millsfield:category_id": 1511214251,
    "millsfield:collection_id": 1511214207,
    "millsfield:company_id": [
      1159286839
    ],
    "millsfield:images": [
      1913799617,
      1913799619
    ],
    "millsfield:images_colors_refs": {
      "crayola": [
        {
          "hex": "#efdecd"
        },
        {
          "hex": "#414a4c"
        },
        {
          "hex": "#4a646c"
        },
        {
          "hex": "#1a4876"
        }
      ],
      "css4": [
        {
          "hex": "#483d8b"
        },
        {
          "hex": "#f5f5dc"
        },
        {
          "hex": "#2f4f4f"
        },
        {
          "hex": "#708090"
        },
        {
          "hex": "#faebd7"
        }
      ],
      "marekm4": [
        {
          "hex": "#36416e"
        },
        {
          "hex": "#f1ecd6"
        },
        {
          "hex": "#53658e"
        },
        {
          "hex": "#f2eddb"
        },
        {
          "hex": "#383f63"
        }
      ]
    },
    "millsfield:images_texts": [
      "Dearest Dros.\nDie 7 Enront ST.L.\n1949\nAftu a rather hectic morning\nI eft on TWA at\n1:30. Lur ana due un St.L. at 4:40 but a strong headwris\nder an ETA of 5:10. At the airport o spotted air\nCachoun reall, done up in the most funeras clattes you\nEn taw. A bluck our coat - black homburg - black suit with\ntis and shors to match. In his upper left hand pockd\nthe tops of dace tan gloos was perping out - ace sair\nthon was black. Then he had a viry dark red carnation\nin the button hole of his our coat. He didnt see me leut\nafter ur got on the plane and o saw that torry seat\nwas occupied (beaun 9 har a lot of work to do and\ndid n't want to yap tap all the way I want up to spock\nto him.\nHe's all right bout I wores it want to trave\naround the wores with him.\ndid it go oat what. He real, shred nt work any\ncompani\n521-522\nmore and I'm sus he cones heep sten Van along the\nright road.\nThe latth has told out of the White Rock\nbusins and is looking for some other line to hundle\nhelp him but dont tnow of anything.\nf.T.T. trid to charm me into running the\nState Co\nbut o tad him that I wonto not get\nundu that load. Whit he wantas to do was fee\nWalae. Whitaker or rather aenyat his resignation, Wallac\n(Weet some coaching from me) had demanded that thi\nhatre company (now whole, Owned leg Old) shored te bit up\nseparate corporation and then essie Prefered stock",
      "+. Paa for $1.500,000 which is Gaas tatal inratmut\nand also ssue 1,000,000 shares of Common stock with\n750.000 tho for Gas and 250,000 the to go to the\nmen like wallace who make the profact a succies.\ng. T.t. was going to his a laugh to run the company\nat a salary of 15.000. When O refused to Reed the\ncompany he wastes to lenor whe and I Bad a chana.\nto fur him the works. Told him that he comes sit\nEpact to run a hundas million dallar enterprige\nwith medioes prople its ste. Wee to male a\nlog ston, that he calad in walese turned on the\ncharm - ager to the plan \"in principe\" an\nErybody is happy.\ntulace was tend enough\nafteds to say that I had said the wtol\nsitu at un.\nIncidentally 9 1op to get 10.000 shares\nof the common etock for a nominal. - if any-\npayment. Of cour its present book value is o bet\nit coned Easing tarn\none or two dollars our shark.\nI may go on the Boas of tricctors lent wile not\nI may go on the\nacept am responsibies bryand that.\nwise write yain sour and fur you all\nthe St.L. news. Men whit take care of your of\nand fit \"our room\" back for the 18t! Ern\nif you has to pay single occupany for a\nWhile\nIf you and\nHe want to go to the\nRurra\nfor Xemen vacates\nanywhere\nit wise be ox les me-\nLets and lots of lor to you and lth-\n\u0026 PHILLS/ PIOS"
    ],
    "millsfield:images_texts_ids": [
      1913799617,
      1913799619
    ],
    "millsfield:primary_image": 1913799617,
    "millsfield:subcategory_id": 1511213489,
    "mz:is_approximate": 1,
    "mz:is_current": 1,
    "sfomuseum:accession_number": "2019.121.1149 a b",
    "sfomuseum:airline": "Pan American Airways",
    "sfomuseum:airline_id": [
      685
    ],
    "sfomuseum:category": "Employee Career History",
    "sfomuseum:classification_id": 195,
    "sfomuseum:collection": "Aviation Archive",
    "sfomuseum:creditline": "Collection of SFO Museum",
    "sfomuseum:date": "12/07/1949",
    "sfomuseum:date_acquired": "2019-11-22",
    "sfomuseum:daterange_end": "1949-12-07",
    "sfomuseum:daterange_start": "1949-12-07",
    "sfomuseum:description": "Handwritten letter from Harold M. Bixby to his wife, Debby Bixby, dated December 7, [1949], en route to St. Louis; includes description of meeting with J.T.T. [Juan Trippe] about separating the Pan American Airways hotel division from the airline, a request that Bixby lead it, and the conclusion.",
    "sfomuseum:dimensions": "11 x 8 1/2 inches (27.9 x 21.6 cm)",
    "sfomuseum:medium": "paper, ink",
    "sfomuseum:object_id": 211512,
    "sfomuseum:placetype": "object",
    "sfomuseum:publication": ": , 12/07/1949.",
    "sfomuseum:subcategory": "Correspondence, Personal",
    "src:geom": "sfomuseum#undetermined",
    "wof:belongsto": [
      102527513,
      1159162825,
      102191575,
      85633793,
      102087579,
      85922583,
      85688637,
      1159160869
    ],
    "wof:country": "XY",
    "wof:created": 1714549041,
    "wof:depicts": [
      1159284991,
      1159286839
    ],
    "wof:geomhash": "c281b9d9eefc83b5710e64b9d646067d",
    "wof:hierarchy": [
      {
        "building_id": -1,
        "campus_id": 102527513,
        "collection_id": 1159162825,
        "concourse_id": 1159162825,
        "continent_id": 102191575,
        "country_id": 85633793,
        "county_id": 102087579,
        "custom_id": 1913796275,
        "locality_id": 85922583,
        "neighbourhood_id": -1,
        "object_id": 1913796275,
        "region_id": 85688637,
        "wing_id": 1159160869
      }
    ],
    "wof:id": 1913796275,
    "wof:lastmodified": 1787988219,
    "wof:name": "correspondence: Harold M. Bixby to Debby Bixby",
    "wof:parent_id": 1159162825,
    "wof:placetype": "custom",
    "wof:placetype_alt": [
      "object"
    ],
    "wof:repo": "sfomuseum-data-collection",
    "wof:superseded_by": [],
    "wof:supersedes": []
  },
  "bbox": [
    -122.38647222518921,
    37.6161053594541,
    -122.38583385944366,
    37.61661101879963
  ],
  "geometry": {"type":"Polygon","coordinates":[[[-122.38647222518921,37.61631782178288],[-122.386434674263,37.61623283692423],[-122.38637566566466,37.61617759671399],[-122.38630056381224,37.6161308549656],[-122.38616108894348,37.6161053594541],[-122.38602161407469,37.6161308549656],[-122.38591432571411,37.61618609521055],[-122.38585531711577,37.61626683087935],[-122.38583385944366,37.61636881265146],[-122.38587141036987,37.61646654505181],[-122.38594114780425,37.61654303118856],[-122.38605380058287,37.61660252035167],[-122.38618254661559,37.61661101879963],[-122.3863059282303,37.61657277577607],[-122.3864185810089,37.61650903735973],[-122.3864668607712,37.61641130501523],[-122.38647222518921,37.61631782178288]]]}
}
