{
  "id": 1762831585,
  "type": "Feature",
  "properties": {
    "date:cessation_lower": "1926-01-01",
    "date:cessation_upper": "1926-12-31",
    "date:inception_lower": "1926-01-01",
    "date:inception_upper": "1926-12-31",
    "edtf:cessation": "1926",
    "edtf:inception": "1926",
    "geom:area": 0,
    "geom:bbox": "-122.391953,37.624731,-122.391953,37.624731",
    "geom:latitude": 37.624731,
    "geom:longitude": -122.391953,
    "iso:country": "US",
    "millsfield:airport_id": [
      1360695653
    ],
    "millsfield:category_id": 1511214239,
    "millsfield:collection_id": 1511214207,
    "millsfield:images": [
      1762897255
    ],
    "millsfield:images_colors_refs": {
      "crayola": [
        {
          "hex": "#9f8170"
        },
        {
          "hex": "#85754e"
        },
        {
          "hex": "#efcdb8"
        }
      ],
      "css4": [
        {
          "hex": "#f5deb3"
        },
        {
          "hex": "#696969"
        },
        {
          "hex": "#808080"
        }
      ],
      "marekm4": [
        {
          "hex": "#9b9473"
        },
        {
          "hex": "#d9d0af"
        },
        {
          "hex": "#746f53"
        }
      ]
    },
    "millsfield:images_texts": [
      "Задату 27. 2927.\nadditional two years.\nterma or the lone provide tor a rental that\ndecreases per unit o2 time for each mucceeding unit so that for a three\nyoar period the rental,\ninoluding naintenance of lovees and umal\npumping, wil1 be 08,350.00 total.\nthe entinate below is to provide zoe levaling and sodding\n150 sozes o2 reclaimed nazeh land in Seotion 26 5. B 5. Ra 5 To and\nSootion 8, 3. 45 Be 5 Te lying 3808 or the 3ay Shoze isghway, and so\nprovide temporary spoons facilities.\nThe Srset o2 land provided w113\nDe 4000 It long in approximately the direation or the\nby approximately 1500 Teet wide.\nprovalling wind\n411 portione of thie traot will be\navailable tor use an a runway.\nThoze are no obstructione neaz she nargine\nof Shie Ilelde\nthe 21eld will be in a 2it condision to lana on in\nIrom the beginning of conetzuation operations•\n30 даув\n150 more impoved by 2111ing depressons, levoling.\n20111ng and graine\n1 Steel hangar 66% by 1401 (temporary) at 028,000\nSesentin1 equipment\n1 aviation beacon, 24\" - 7,300,000 067• as $1,200\n10\nObetrosion 11gita at 0100,\n50033neal Loot or truck road From Higg so nangaz at\nContingoney Tund and inoidentala\nEngineering\n28, 000•\n2,5,000•\n8,000%\n1,800g\n3,000g\n3,000g\n30,8000\n4,000g.\n50,000\nAll of the above 21gures are approxinate only\nand are based on partly annuned data.\nBefore a\ntinal {igure la made the projcos should be sue-\nvoyed: in detail.\n400 to Pis\n000-4"
    ],
    "millsfield:images_texts_ids": [
      1762897255
    ],
    "millsfield:primary_image": 1762897255,
    "millsfield:subcategory_id": 1511213717,
    "mz:is_approximate": 1,
    "mz:is_current": 1,
    "sfomuseum:accession_number": "2000.018.079.006",
    "sfomuseum:airport": "Mills Field Municipal Airport of San Francisco",
    "sfomuseum:airport_id": [
      162
    ],
    "sfomuseum:category": "Company Record / Document",
    "sfomuseum:classification_id": 479,
    "sfomuseum:collection": "Aviation Archive",
    "sfomuseum:creditline": "Collection of SFO Museum",
    "sfomuseum:date": "1926",
    "sfomuseum:date_acquired": "2009-12-11",
    "sfomuseum:daterange_end": "1926-12-31",
    "sfomuseum:daterange_start": "1926-01-01",
    "sfomuseum:description": "Document titled “Estimated Cost of Temporary Landing Field at Site No. 6,” January 27, 1927, containing summary and list of projected operating costs; from report prepared by City and County of San Francisco, Department of Public Works, Bureau of Engineering, to Board of Supervisors concerning proposed airport sites.",
    "sfomuseum:dimensions": "11 x 8 1/2 inches (27.9 x 21.6 cm)",
    "sfomuseum:medium": "paper, ink",
    "sfomuseum:object_id": 148072,
    "sfomuseum:placetype": "object",
    "sfomuseum:publication": ": , 1926.",
    "sfomuseum:subcategory": "Report",
    "src:geom": "sfomuseum#derived",
    "src:geom_derived_from": [
      1360695653
    ],
    "wof:belongsto": [
      102527513,
      1159162825,
      102191575,
      85633793,
      102087579,
      85922583,
      85688637,
      1159160869,
      1360695653,
      554784711,
      102085387
    ],
    "wof:country": "US",
    "wof:created": 1642730260,
    "wof:depicts": [
      1360695653
    ],
    "wof:geomhash": "3abf1c04b00c12d6593e9cd3c35f0056",
    "wof:hierarchy": [
      {
        "campus_id": 1360695653,
        "continent_id": 102191575,
        "country_id": 85633793,
        "county_id": 102085387,
        "custom_id": 1762831585,
        "object_id": 1762831585,
        "region_id": 85688637
      },
      {
        "building_id": -1,
        "campus_id": 102527513,
        "collection_id": 1159162825,
        "concourse_id": 1159162825,
        "continent_id": 102191575,
        "country_id": 85633793,
        "county_id": 102087579,
        "custom_id": 1762831585,
        "locality_id": 85922583,
        "neighbourhood_id": -1,
        "object_id": 1762831585,
        "region_id": 85688637,
        "wing_id": 1159160869
      },
      {
        "campus_id": 1360695653,
        "continent_id": 102191575,
        "country_id": 85633793,
        "county_id": 102087579,
        "custom_id": 1762831585,
        "locality_id": 85922583,
        "object_id": 1762831585,
        "postalcode_id": 554784711,
        "region_id": 85688637
      }
    ],
    "wof:id": 1762831585,
    "wof:lastmodified": 1787988201,
    "wof:name": "report: San Francisco Department of Public Works, Bureau of Engineering, proposed airport site",
    "wof:parent_id": 1159162825,
    "wof:placetype": "custom",
    "wof:placetype_alt": [
      "object"
    ],
    "wof:repo": "sfomuseum-data-collection",
    "wof:superseded_by": [],
    "wof:supersedes": []
  },
  "bbox": [
    -122.391953,
    37.624731,
    -122.391953,
    37.624731
  ],
  "geometry": {"type":"MultiPoint","coordinates":[[-122.391953,37.624731]]}
}
