{
  "id": 1913795525,
  "type": "Feature",
  "properties": {
    "date:cessation_lower": "1936-08-04",
    "date:cessation_upper": "1936-08-04",
    "date:inception_lower": "1936-08-04",
    "date:inception_upper": "1936-08-04",
    "edtf:cessation": "1936-08-04",
    "edtf:inception": "1936-08-04",
    "geom:area": 2.475047457570636e-7,
    "geom:bbox": "-122.386472,37.616105,-122.385834,37.616611",
    "geom:latitude": 37.61635747477365,
    "geom:longitude": -122.38615540108617,
    "millsfield:airline_id": [
      1159284991
    ],
    "millsfield:category_id": 1511214251,
    "millsfield:collection_id": 1511214207,
    "millsfield:company_id": [
      1159286839
    ],
    "millsfield:images": [
      1913802311,
      1913802313,
      1913802315,
      1913802317,
      1913802319
    ],
    "millsfield:images_colors_refs": {
      "crayola": [
        {
          "hex": "#e7c697"
        },
        {
          "hex": "#bab86c"
        },
        {
          "hex": "#deaa88"
        }
      ],
      "css4": [
        {
          "hex": "#bdb76b"
        },
        {
          "hex": "#deb887"
        }
      ],
      "marekm4": [
        {
          "hex": "#d2bb79"
        },
        {
          "hex": "#dfcb91"
        },
        {
          "hex": "#dfcb90"
        },
        {
          "hex": "#cdb776"
        },
        {
          "hex": "#cdb676"
        },
        {
          "hex": "#d4bc79"
        },
        {
          "hex": "#ccb676"
        },
        {
          "hex": "#e0cc92"
        },
        {
          "hex": "#e0cb8f"
        },
        {
          "hex": "#e0cd92"
        }
      ]
    },
    "millsfield:images_texts": [
      "Aug 4'36\nDearest Debs darling -\nI am so tirribly sov that I hair\nnot written more - dont know what got into\nme leut just hair not bern able to druz\nmysef to wit letters. Ordinaril, I loor to\ncute, to you rapreially, but this trip it ale\nsarms so futile. It sums stuped to write\nch wee is read after my arrese\nserra yet that \"arrive\" may still br another\nwicks away twin though my own\nmental procroses hair always ident fil the\nEnd of this trip as Manila. Actuale the\nEnd of my wanderings well be only when I\nmany of them - akon\nam: reuntre with y my try aaron the\nDa made mates -\nJacific and fir compons many citro to\nwould or to carry them with me. Now\n\" me ta ning the me.\nas er are flying.\ntoward Manila I wish\nthat I had witten to you Every day and\nsialed up Each letter as\n2 frisked it with\na number on the outside and then Ant\nmanila.\nthem debut I aid this boot sailing from\nWhen I wet that\nDu coon as one phase this trans-\nPacific round trip. Sm in dosing.\na sort of\nlog of my\ntrails - just imagine a lebr\nEach day and imagine also Each dan a\nApprent or mayor the same words to till\non how much I lair you.\nits dear this trip t\nhas made many",
      "things quite clear in my mind which huttfre\nwire not uree defined. The most important\nthing silled in my own mind is a ele\nthongst out defentr program for my. futine\nacturtes which plan swant to go\nour with you\nas soon as porible maker such\nadjutmento as , wise in our combine.\njustment and then work toward that idea\nas pomble. I belier he will want me to\ntu into the Atlantia derlopments. Deal. I do\nnot want anyone to know that 2 kai any\nthoughts of leaving P.a.a. Not corn Frances o\nBo. In fact I want you to tree Everyone that\nour job in China is\nCompeted and wire\nyou back to NY. With P.A.Q. Actually\nworls like to stay witt Paa, for a few\nwakes after returning home if thee apprans\nto be a chana of bring chosen as a\nVia Pendent,\nThat may possibe, haggn before\nur get home - it woned add some face. 2\nwoned not want to midead g.T.T.\nbut am\nto make mat lie ar\ngram 5 mor\nand by way of\nOutlining and initiating a program at manila\nfor lan Zanet to follow and an other at\nShanghai for Bond\nto follow. then the Bix:\npushing home side.",
      "My trip home a decide, wak kie fat\nsittled many questions concerming which\nspont much\neffort and hard work - some of\nthe negotiations which was of quathet intrat\nto Q.T.T. Thee yars ago and on which I hair\nworkrd like a turk ant no longn of much\nintreet. In short S now know just how\njiTit. is\nthinking, on what is worth working\non and what is not. He sermed\nvery\nmuch pleand with the work thai done\nand considers that job pret, wile compets.\nListon's - stupid politicos - refuse to\nappron contract which ur negotiate at\nmacao. The Air Ministry made suan drastia\nchang that the revind contract is\nwholly unacceptable to Paa. I thought\nfor a while f.T.T. wones taks me up on\noffer to\ngo to histor and armpt to\nstraighten out the mess but inquiry des.\nEloprd the fact that all Portuguen officis\nlair Liabor for gue and Anguit and scatte\nto London, Franco\nso a trip thes\nconed accomplish mothing, ace this is\nfits confidential - the net of it is that\nur shall probably mot go to\nmacao -\nat least not fi stirral months anyway.\nHongkon\nis apparenel all slead -\nFui contracts to te negotiated and thats\nall.\nShoned finish up Met quickly.",
      "June 1q Shi Left manda for guan\n20 Sat Guam to waks\n21 Sun Wake to Medway\n21S Aid. Water Medway to Honolula\n22\nMonday 1 Pm left Honocula\n23\nTuesday Our Alameda 10:30 QM\n24\n25\nWedandy Alamera Left lPini for StiL.\nThursday Arred St.L 10:25 a.m.\nFriday\nLeft St.L 10:35 An N.Y. 6 Am\n27\n28\nSatinday\nLarchmont wit morgan\nSunday\nmonday\n30\nJuly\n1\nTuesday\nund\nThun day\nFriday\n4\n5\nSaturday\nNew York Knighton a Orths\nDunna Whitlemou.\n\" Hobetzion + Coopu\nBie Day\ntrain to L.G.\nL. G.\nSunday\nmonday\nTuesday\nurd\nn.g.\n\"\n\"\n9\nThurs\nFriday\n/ 1\nSat\n1 V\n13\n14\n15\n14\n7\nSun.\nnon\nTuesday\nWord\nIle back to NY will g.T.T,\nN.Y.\n4\nThurs\nFriday\nSat\n19\nSun\nto L.G len train\nL.G\n\"",
      "jarly\n20\n21\n22\n13\n25\n27\n28\n29\n30\n31\nAny\nAny\n3\nCng 4\n31\nmon. Nix\nTheoday\ntird\nThunday\nFriday\nSat\nSun\nmon\nTuesday\nwird\nThurdy\nlift for S.7.\naur\n11 Pim\n4:15 Pm.\nSan Francisco ' Youngs for dinner\nYoung + Leslies\nLos gator wit younge to weit Brittey.\nSar I. dinnin with Stormat\nmusicks\nLeft San Fi\n3 Am Hawaii Clippi\nArr\n10: 30 cals on gre Pu\nCome yarn Tea danie\nFriday Left Honolulu tatia Our midway\nSat and Sunday\nGunz in route wake\nMonday wake to quam (Dunn at gav.Paloer\nTurday Juan to\nManila"
    ],
    "millsfield:images_texts_ids": [
      1913802311,
      1913802313,
      1913802315,
      1913802317,
      1913802319
    ],
    "millsfield:primary_image": 1913802311,
    "millsfield:subcategory_id": 1511213489,
    "mz:is_approximate": 1,
    "mz:is_current": 1,
    "sfomuseum:accession_number": "2019.121.0926 a e",
    "sfomuseum:airline": "Pan American Airways",
    "sfomuseum:airline_id": [
      685
    ],
    "sfomuseum:category": "Employee Career History",
    "sfomuseum:classification_id": 195,
    "sfomuseum:collection": "Aviation Archive",
    "sfomuseum:creditline": "Collection of SFO Museum",
    "sfomuseum:date": "08/04/1936",
    "sfomuseum:date_acquired": "2019-11-22",
    "sfomuseum:daterange_end": "1936-08-04",
    "sfomuseum:daterange_start": "1936-08-04",
    "sfomuseum:description": "Handwritten letter from Harold M. Bixby to his wife, Debby Bixby, dated August 4, [1936]; includes thoughts about his future, including a possible departure from Pan American Airways, [Juan] Trippe’s plans for Bixby, potential for promotion to Vice President; contract negotiation challenges in Macao; itinerary for June to August 1936; mentions [William L.] Bond, George Merck, Ed Musick.",
    "sfomuseum:dimensions": "14 x 8 1/2 inches (35.6 x 21.6 cm)",
    "sfomuseum:medium": "paper, ink",
    "sfomuseum:object_id": 211289,
    "sfomuseum:placetype": "object",
    "sfomuseum:publication": ": , 08/04/1936.",
    "sfomuseum:subcategory": "Correspondence, Personal",
    "src:geom": "sfomuseum#undetermined",
    "wof:belongsto": [
      102527513,
      1159162825,
      102191575,
      85633793,
      102087579,
      85922583,
      85688637,
      1159160869
    ],
    "wof:country": "XY",
    "wof:created": 1714548818,
    "wof:depicts": [
      1159284991,
      1159286839
    ],
    "wof:geomhash": "c281b9d9eefc83b5710e64b9d646067d",
    "wof:hierarchy": [
      {
        "building_id": -1,
        "campus_id": 102527513,
        "collection_id": 1159162825,
        "concourse_id": 1159162825,
        "continent_id": 102191575,
        "country_id": 85633793,
        "county_id": 102087579,
        "custom_id": 1913795525,
        "locality_id": 85922583,
        "neighbourhood_id": -1,
        "object_id": 1913795525,
        "region_id": 85688637,
        "wing_id": 1159160869
      }
    ],
    "wof:id": 1913795525,
    "wof:lastmodified": 1787988219,
    "wof:name": "correspondence: Harold M. Bixby to Debby Bixby",
    "wof:parent_id": 1159162825,
    "wof:placetype": "custom",
    "wof:placetype_alt": [
      "object"
    ],
    "wof:repo": "sfomuseum-data-collection",
    "wof:superseded_by": [],
    "wof:supersedes": []
  },
  "bbox": [
    -122.38647222518921,
    37.6161053594541,
    -122.38583385944366,
    37.61661101879963
  ],
  "geometry": {"type":"Polygon","coordinates":[[[-122.38647222518921,37.61631782178288],[-122.386434674263,37.61623283692423],[-122.38637566566466,37.61617759671399],[-122.38630056381224,37.6161308549656],[-122.38616108894348,37.6161053594541],[-122.38602161407469,37.6161308549656],[-122.38591432571411,37.61618609521055],[-122.38585531711577,37.61626683087935],[-122.38583385944366,37.61636881265146],[-122.38587141036987,37.61646654505181],[-122.38594114780425,37.61654303118856],[-122.38605380058287,37.61660252035167],[-122.38618254661559,37.61661101879963],[-122.3863059282303,37.61657277577607],[-122.3864185810089,37.61650903735973],[-122.3864668607712,37.61641130501523],[-122.38647222518921,37.61631782178288]]]}
}
