{
  "id": 1762831261,
  "type": "Feature",
  "properties": {
    "date:cessation_lower": "1927-01-01",
    "date:cessation_upper": "1927-12-31",
    "date:inception_lower": "1927-01-01",
    "date:inception_upper": "1927-12-31",
    "edtf:cessation": "1927",
    "edtf:inception": "1927",
    "geom:area": 0,
    "geom:bbox": "-122.391953,37.624731,-122.391953,37.624731",
    "geom:latitude": 37.624731,
    "geom:longitude": -122.391953,
    "iso:country": "US",
    "millsfield:airport_id": [
      1360695653
    ],
    "millsfield:category_id": 1511214239,
    "millsfield:collection_id": 1511214207,
    "millsfield:images": [
      1762897039
    ],
    "millsfield:images_colors_refs": {
      "crayola": [
        {
          "hex": "#414a4c"
        },
        {
          "hex": "#9f8170"
        },
        {
          "hex": "#edd19c"
        }
      ],
      "css4": [
        {
          "hex": "#bdb76b"
        },
        {
          "hex": "#2f4f4f"
        },
        {
          "hex": "#eee8aa"
        }
      ],
      "marekm4": [
        {
          "hex": "#a69f6a"
        },
        {
          "hex": "#e9db9d"
        },
        {
          "hex": "#3b3b1c"
        }
      ]
    },
    "millsfield:images_texts": [
      "Copy\n531.9\nsan Francisco,\nCalif.\nDecember 10, 1927.\nMI. Fred Shutts,\nwoervising ane neer\nlity Hall, san Francisco.\nDear Sir:\nFor your information regarding the cutting of hay and\ndaise you that 1 n\nadvise you\nSan Francisco's Municipal Air Port, I wish to\n\", at no time, been informed that our office had\nauthorized the cutting of same.\nI arrived at the Air Port on April 7th and the hay on\nthe North end of the Field was being cut. At that time it was de-\ncided to concentrate our efforts in making Runway \"A\" and roadways\nfrom the bridge in front of the Administration Building to adjoining\ndepressions.\nwas on the\nMr. Longwell that he would co-operate with us to\nground, stated\nSuperintendent of the Mills Estate, who\nexpedite\nthe work,\nand I suggested\ncutting the hay in way of proposed fi11.\nThis was\ndone and thereafter they worked where and when they pleased.\nitter cutting,\nthe hay was raked into small piles and later was moved\nin wagons to the Field on the West side of the State Highway.\nour Mr. Burr laid\nAbout three days prev on to the mening dao, eyeth,\nout a large area South of Runway \"A\" to\nfor parking about sixty planes.\nThere were numerous piles of hay in this prescribed area\nwhich had to be moved._\nI informed the foreman of our plans and he 1m-\nmediately took steps to clear same.\nI wish to\nstate that any suggestions made by me were due\ntitle taot that the Nile setate vished to 881 vage as auch hay as pos-\nRespectfully yours,\n(Signed) Thomas J. Keenan.\nInspector of Streets \u0026 Sewers\nTJK: MK: H"
    ],
    "millsfield:images_texts_ids": [
      1762897039
    ],
    "millsfield:primary_image": 1762897039,
    "millsfield:subcategory_id": 1511213483,
    "mz:is_approximate": 1,
    "mz:is_current": 1,
    "sfomuseum:accession_number": "2000.018.021.003",
    "sfomuseum:airport": "Mills Field Municipal Airport of San Francisco",
    "sfomuseum:airport_id": [
      162
    ],
    "sfomuseum:category": "Company Record / Document",
    "sfomuseum:classification_id": 190,
    "sfomuseum:collection": "Aviation Archive",
    "sfomuseum:creditline": "Collection of SFO Museum",
    "sfomuseum:date": "1927",
    "sfomuseum:date_acquired": "1999-06-30",
    "sfomuseum:daterange_end": "1927-12-31",
    "sfomuseum:daterange_start": "1927-01-01",
    "sfomuseum:description": "Facsimile of correspondence from Thomas J. Keenan, Inspector of Streets \u0026 Sewers, to Frederick Shutts, Supervising Engineer, concerning removal of grass and hay by Millbrae Dairy Company at Mills Field Municipal Airport; copy of File 531.9, not signed.",
    "sfomuseum:dimensions": "11 x 8 1/2 inches (27.9 x 21.6 cm)",
    "sfomuseum:medium": "paper, ink",
    "sfomuseum:object_id": 165140,
    "sfomuseum:placetype": "object",
    "sfomuseum:publication": ": , 1927.",
    "sfomuseum:subcategory": "Correspondence, Company",
    "src:geom": "sfomuseum#derived",
    "src:geom_derived_from": [
      1360695653
    ],
    "wof:belongsto": [
      102527513,
      1159162825,
      102191575,
      85633793,
      102087579,
      85922583,
      85688637,
      1159160869,
      1360695653,
      554784711,
      102085387
    ],
    "wof:country": "US",
    "wof:created": 1642730171,
    "wof:depicts": [
      1360695653
    ],
    "wof:geomhash": "3abf1c04b00c12d6593e9cd3c35f0056",
    "wof:hierarchy": [
      {
        "building_id": -1,
        "campus_id": 102527513,
        "collection_id": 1159162825,
        "concourse_id": 1159162825,
        "continent_id": 102191575,
        "country_id": 85633793,
        "county_id": 102087579,
        "custom_id": 1762831261,
        "locality_id": 85922583,
        "neighbourhood_id": -1,
        "object_id": 1762831261,
        "region_id": 85688637,
        "wing_id": 1159160869
      },
      {
        "campus_id": 1360695653,
        "continent_id": 102191575,
        "country_id": 85633793,
        "county_id": 102087579,
        "custom_id": 1762831261,
        "locality_id": 85922583,
        "object_id": 1762831261,
        "postalcode_id": 554784711,
        "region_id": 85688637
      },
      {
        "campus_id": 1360695653,
        "continent_id": 102191575,
        "country_id": 85633793,
        "county_id": 102085387,
        "custom_id": 1762831261,
        "object_id": 1762831261,
        "region_id": 85688637
      }
    ],
    "wof:id": 1762831261,
    "wof:lastmodified": 1787988201,
    "wof:name": "correspondence: City and County of San Francisco, Millbrae Dairy Company",
    "wof:parent_id": 1159162825,
    "wof:placetype": "custom",
    "wof:placetype_alt": [
      "object"
    ],
    "wof:repo": "sfomuseum-data-collection",
    "wof:superseded_by": [],
    "wof:supersedes": []
  },
  "bbox": [
    -122.391953,
    37.624731,
    -122.391953,
    37.624731
  ],
  "geometry": {"type":"MultiPoint","coordinates":[[-122.391953,37.624731]]}
}
