{
  "id": 1511928587,
  "type": "Feature",
  "properties": {
    "date:cessation_lower": "1996-01-01",
    "date:cessation_upper": "1996-12-31",
    "date:inception_lower": "1996-01-01",
    "date:inception_upper": "1996-12-31",
    "edtf:cessation": "1996",
    "edtf:date": "1996",
    "edtf:inception": "1996",
    "geom:area": 0,
    "geom:bbox": "-122.386155,37.616357,-122.386155,37.616357",
    "geom:latitude": 37.616357,
    "geom:longitude": -122.386155,
    "iso:country": "XX",
    "millsfield:airline_id": [
      1159285413
    ],
    "millsfield:category_id": 1762671311,
    "millsfield:collection_id": 1511214207,
    "millsfield:company_id": [
      1159288779
    ],
    "millsfield:images": [
      1527848341,
      1527848345
    ],
    "millsfield:images_colors_refs": {
      "crayola": [
        {
          "hex": "#ffffff"
        },
        {
          "hex": "#000000"
        },
        {
          "hex": "#c46210"
        },
        {
          "hex": "#414a4c"
        }
      ],
      "css4": [
        {
          "hex": "#8b4513"
        },
        {
          "hex": "#000000"
        },
        {
          "hex": "#f5f5f5"
        },
        {
          "hex": "#2f4f4f"
        }
      ],
      "marekm4": [
        {
          "hex": "#100805"
        },
        {
          "hex": "#343434"
        },
        {
          "hex": "#f8f4f6"
        },
        {
          "hex": "#faf6f5"
        },
        {
          "hex": "#a24b15"
        }
      ]
    },
    "millsfield:images_texts": [
      "MENU\nF\nUNITED AIRLINES",
      "I N\nE\nLIST\nYOUR FLIGHT ATTENDANT WILL INFORM YOU\nOF TODAY'S SELECTIONS.\nWE ARE PLEASED TO PRESENT AN ARRAY OF FINE WINES\nCAREFULLY SELECTED FOR THEIR EXCELLENCE BY UNITED'S\nCELLAR COMMITTEE UNDER THE GUIDANCE OF WINE JUDGE\nAND AUTHOR, BOB THOMPSON.\nSPARKLING WINE\nDomaine Chandon Napa Valley Brut\nWHITE WINES\nGeyser Peak Chardonnay 1995\nor\nColumbia Crest Columbia Valley Chardonnay 1994\nRED WINES\nFortant de France Cabernet Sauvignon 1994\nor\nMichel Lynch Bordeaux 1994\nI N\nTASTEFUL SAMPLING\nPrawns and Shallots with a roasted Pepper Sauce,\nmarinated Cucumber and a Carrot and Leek Slaw\nGARDEN FRESH SALAD\nLollo Rosso. Frisée and Boston Lettuce\nwith Plum Tomatoes, julienned Carrots and Chives,\naccompanied by Raspberry Vinaigrette\nor Honey Peppercorn Dressing\nAn assortment of Rolls\n103D005-4\nM\nMARINATED FILET MIGNON\nPopular nationwide,\nserved with traditional American Honey Mustard Sauce,\nAngel Hair Pasta Frittata and sautéed Vegetables\nROASTED ATLANTIC SALMON STEAK\nFrom the waters of the Eastern seaboard.\noffered with Marinara Sauce, a Vegetable Medley\nand an Oyster Vegetable Tart with Parmesan Cheese\nROSEMARY PAPPARDELLE PASTA\nAccompanied by a Tomato Olive Compote\nand Northern White Beans with Green Beans\nPARMESAN STUFFED CHICKEN\nAn American version of an Italian classic,\ngrilled Chicken Breast\nfilled with aged Prosciutto and Parmesan Cheese,\nenhanced by a roasted Pepper Sauce,\nserved with Asparagus and Wild Rice with Pecans\nE\nALL\nICE CREAM SUNDAE\nBEN\u0026JERRY'S. Vanilla and Coffee Ice Cream\nwith Hot Fudge Sauce, Wafers and Whipped Cream\nSTARBUCKS. freshly brewed Coffee\nCrystal Geyser Natural Alpine Spring Water\nPRIO\nR\nTO\nA R\nRIVAL\nWazilds Cookies warm from the oven\nTRANS-CON (D01)\n1030005-4\n11/96"
    ],
    "millsfield:images_texts_ids": [
      1527848341,
      1527848345
    ],
    "millsfield:primary_image": 1527848341,
    "millsfield:subcategory_id": 1511213567,
    "mz:hierarchy_label": 1,
    "mz:is_current": 1,
    "sfomuseum:accession_number": "2006.059.307.187",
    "sfomuseum:airline": "United Airlines",
    "sfomuseum:airline_id": [
      883
    ],
    "sfomuseum:category": "Passenger Amenity, Archive",
    "sfomuseum:classification_id": 242,
    "sfomuseum:collection": "Aviation Archive",
    "sfomuseum:creditline": "Gift of the Paul Edward Fair Estate",
    "sfomuseum:date": "1996",
    "sfomuseum:date_acquired": "2006-10-19",
    "sfomuseum:daterange_end": "1996-12-31",
    "sfomuseum:daterange_start": "1996-01-01",
    "sfomuseum:description": "Menu and wine list issued by United Airlines, transcontinental route; off-white cover with color photographic images of a walking path and onions; menu items include filet mignon, salmon steak, and rosemary pappardelle pasta; menu number: 103D005-4 TRANS-CON (D01); class: First; date: 11/96.",
    "sfomuseum:dimensions": "9 1/2 x 6 3/4 inches (24.1 x 17.1 cm)",
    "sfomuseum:media_ids": [
      1527848341,
      1527848345
    ],
    "sfomuseum:medium": "paper, ink",
    "sfomuseum:object_id": 81994,
    "sfomuseum:placetype": "object",
    "sfomuseum:primary_media_id": 1527848341,
    "sfomuseum:publication": ": , 1996.",
    "sfomuseum:subcategory": "Menu",
    "src:geom": "sfomuseum#undetermined",
    "wof:belongsto": [
      1159162825,
      102527513,
      102191575,
      85633793,
      85922583,
      102087579,
      1159160869,
      85688637
    ],
    "wof:breaches": [],
    "wof:country": "XX",
    "wof:created": 1579906673,
    "wof:depicts": [
      1159288779,
      1159285413
    ],
    "wof:geomhash": "30c8a918561c84bb2daa2b97fc7c5353",
    "wof:hierarchy": [
      {
        "building_id": -1,
        "campus_id": 102527513,
        "concourse_id": 1159162825,
        "continent_id": 102191575,
        "country_id": 85633793,
        "county_id": 102087579,
        "custom_id": 1511928587,
        "locality_id": 85922583,
        "neighbourhood_id": -1,
        "object_id": 1511928587,
        "region_id": 85688637,
        "venue_id": 1511928587,
        "wing_id": 1159160869
      }
    ],
    "wof:id": 1511928587,
    "wof:lastmodified": 1787988180,
    "wof:name": "menu: United Airlines, First Class",
    "wof:parent_id": 1159162825,
    "wof:placetype": "custom",
    "wof:placetype_alt": [
      "object"
    ],
    "wof:repo": "sfomuseum-data-collection",
    "wof:superseded_by": [],
    "wof:supersedes": [],
    "wof:tags": []
  },
  "bbox": [
    -122.386155,
    37.616357,
    -122.386155,
    37.616357
  ],
  "geometry": {"type":"Point","coordinates":[-122.386155,37.616357]}
}
