{
  "id": 1913795905,
  "type": "Feature",
  "properties": {
    "date:cessation_lower": "1933-02-18",
    "date:cessation_upper": "1933-02-18",
    "date:inception_lower": "1933-02-18",
    "date:inception_upper": "1933-02-18",
    "edtf:cessation": "1933-02-18",
    "edtf:inception": "1933-02-18",
    "geom:area": 2.475047457570636e-7,
    "geom:bbox": "-122.386472,37.616105,-122.385834,37.616611",
    "geom:latitude": 37.61635747477365,
    "geom:longitude": -122.38615540108617,
    "millsfield:airline_id": [
      1159284991,
      1159285931
    ],
    "millsfield:category_id": 1511214251,
    "millsfield:collection_id": 1511214207,
    "millsfield:company_id": [
      1159286721
    ],
    "millsfield:images": [
      1913800165
    ],
    "millsfield:images_colors_refs": {
      "crayola": [
        {
          "hex": "#efcdb8"
        },
        {
          "hex": "#414a4c"
        },
        {
          "hex": "#9f8170"
        }
      ],
      "css4": [
        {
          "hex": "#808080"
        },
        {
          "hex": "#f5deb3"
        },
        {
          "hex": "#556b2f"
        }
      ],
      "marekm4": [
        {
          "hex": "#978f74"
        },
        {
          "hex": "#5a5542"
        },
        {
          "hex": "#e2d8b9"
        }
      ]
    },
    "millsfield:images_texts": [
      "stu an\nett and tal s henael rust stere\npitapuno ab at pijurt\n• sites toverus\n. sal to stal\nstal\nbott\nCATHAY HOTEL SHANGHAI FEB. 18, 1933\nDear ast Obs\nWe were \"shanghaied\" by cable when the Empress\nof Asia arrived here. •\nWill probably remain for another week or ten days and then go on to Manila,\nby way of Hong Kong. I hope very much that we may arrive there before John\nHolliday starts for home.\nShanghai is a most facinating place. The Bund which you have seen so\noften in pictures, stretches for about ten long blocks along the river or\nThis street is flanked on one side by a parkway along the river\nand on the other side by a row of modern office buildings, hotels and stores.\nIt is the center of the International Section. The government is directed by\na commission on which there are five Chinese, a like number of Englishmen,\nJapanese, one American and\none Dane. The harbor is full of Chinese Junks,\nbattleships of the principal foreign powers,\nfreighters from all over the wide\nworld, oil tankers, and a meriad of what I call water-rickshas, small one man\npropelled craft built somewhat along the lines of a gondola only not so neat\nor well made.\nThe streets are filled with people of all nationalities. Traf-\nfic runs, or rather crawls, on the wrong side of the\nstreet to our way of think-\ning, and I find myself being on the point of steping in front of automobiles\nseveral t imes a day.\nThe ricksha boys are legion. You pay about four cents,\nour money, for the average ride. You have to ride almost everywhere in order\nnot to lose \"face\" which\nseems to be the one thing to remember in this country.\n* he men who operate their own automöbiles or do anything elae for themselv es\nhave no standing with\nth e Chinese - they have committed the unpardonable sin\nof losin heation on the you walk anyhere you are bound to be looked down on\n', a custom which is dumb like a fox,\nnot for such t aboo there would be lots more unemployment here.\nI have a terrible time with the monetary system.\nThey have \"Big money \"\nand \"little money\". The big money being paper and\nthe little money being sil-\nver, that is\nif y ou are fortunate enough to get hold of a real piece of money.\noney Money\" is the rule and not t he exception here. The rate of exchange on\nget for little money ch a nges every day. It is not a very\nserioud matter however for the Shanghai dollar is now worth about twenty cents\nand you get about 270 coppers for one Shangh ai dollar, so if y ou happen to get\nout among the money changers and get gipped out of a few coppers, there is no\nreason to lose sleep over it.\nYesterday the East Lancastershire Regiment moved out of Shanghai bound\nfor England. They marched along the Bund with their Scotch Band leading the\npa rade and an American Marine band bringing up the rear.\nIt was quite a sight.\nI am steping out\nsocially tonight with a man whom I ha ve met here, a\nformer Capt ain in the Navy , later Naval Attach e at Peking and now engaged in\nprivate bus iness. We aru ha ving dinner at the French Club and then go to a\nat the English Club.\nIt is very comfortable here in the hotel - a thoroughly modern well\nrun hotel, The number of servants\nand the attention they pay you is some-\nthing beally\nto write home about.\nIn the morning my Chink comes around with\ncup of what they call coffee and the morning pa\ndraws my bath, put s\nclothes, presses the\nday before, shines my\neaven if I give him a\nfour cent tip for all that\nservice. Must stop now and\ncome back from the shop and\njust skipped\nressed for dinner. Th is typewriter has just\naots worse than it\never has before. For merly it\nother unknowns to ite\n- so please pardon the looks of this letter. I\nsome of t he misses\nthem all, espe cially when I am trying to make a little\nDibs. this late is most unsatisfactory - its hard to wit\nwith the Corona. acting up. Han had it repaired twick but it\nauton from n.y. a dean neared in o\nhaut made. Communecation is difficult on account of\nthe dyfines in time. night have and day that.\nHad a good time last night at the English Country Clat\nand met a lot\n- attractur English and Ambicano.\nmy worke\nhas has been delayed account of th\nabruce of T.V. Soong who is the real power in Chin"
    ],
    "millsfield:images_texts_ids": [
      1913800165
    ],
    "millsfield:primary_image": 1913800165,
    "millsfield:subcategory_id": 1511213489,
    "mz:is_approximate": 1,
    "mz:is_current": 1,
    "sfomuseum:accession_number": "2019.121.0592",
    "sfomuseum:airline": "Pan American Airways",
    "sfomuseum:airline_id": [
      685,
      1131
    ],
    "sfomuseum:category": "Employee Career History",
    "sfomuseum:classification_id": 195,
    "sfomuseum:collection": "Aviation Archive",
    "sfomuseum:creditline": "Collection of SFO Museum",
    "sfomuseum:date": "02/18/1933",
    "sfomuseum:date_acquired": "2019-11-22",
    "sfomuseum:daterange_end": "1933-02-18",
    "sfomuseum:daterange_start": "1933-02-18",
    "sfomuseum:description": "Typewritten letter from Harold M. Bixby to his wife, Debby Bixby, dated February 18, 1933, from the Cathay Hotel in Shanghai, with handwritten note at the end; includes description of Shanghai, mentions T.V. Soong.",
    "sfomuseum:dimensions": "14 x 8 1/2 inches (35.6 x 21.6 cm)",
    "sfomuseum:medium": "paper, ink",
    "sfomuseum:object_id": 210867,
    "sfomuseum:placetype": "object",
    "sfomuseum:publication": ": , 02/18/1933.",
    "sfomuseum:subcategory": "Correspondence, Personal",
    "src:geom": "sfomuseum#undetermined",
    "wof:belongsto": [
      102527513,
      1159162825,
      102191575,
      85633793,
      102087579,
      85922583,
      85688637,
      1159160869
    ],
    "wof:country": "XY",
    "wof:created": 1714548928,
    "wof:depicts": [
      1159285931,
      1159286721,
      1159284991
    ],
    "wof:geomhash": "c281b9d9eefc83b5710e64b9d646067d",
    "wof:hierarchy": [
      {
        "building_id": -1,
        "campus_id": 102527513,
        "collection_id": 1159162825,
        "concourse_id": 1159162825,
        "continent_id": 102191575,
        "country_id": 85633793,
        "county_id": 102087579,
        "custom_id": 1913795905,
        "locality_id": 85922583,
        "neighbourhood_id": -1,
        "object_id": 1913795905,
        "region_id": 85688637,
        "wing_id": 1159160869
      }
    ],
    "wof:id": 1913795905,
    "wof:lastmodified": 1787988219,
    "wof:name": "correspondence: Harold M. Bixby to Debby Bixby",
    "wof:parent_id": 1159162825,
    "wof:placetype": "custom",
    "wof:placetype_alt": [
      "object"
    ],
    "wof:repo": "sfomuseum-data-collection",
    "wof:superseded_by": [],
    "wof:supersedes": []
  },
  "bbox": [
    -122.38647222518921,
    37.6161053594541,
    -122.38583385944366,
    37.61661101879963
  ],
  "geometry": {"type":"Polygon","coordinates":[[[-122.38647222518921,37.61631782178288],[-122.386434674263,37.61623283692423],[-122.38637566566466,37.61617759671399],[-122.38630056381224,37.6161308549656],[-122.38616108894348,37.6161053594541],[-122.38602161407469,37.6161308549656],[-122.38591432571411,37.61618609521055],[-122.38585531711577,37.61626683087935],[-122.38583385944366,37.61636881265146],[-122.38587141036987,37.61646654505181],[-122.38594114780425,37.61654303118856],[-122.38605380058287,37.61660252035167],[-122.38618254661559,37.61661101879963],[-122.3863059282303,37.61657277577607],[-122.3864185810089,37.61650903735973],[-122.3864668607712,37.61641130501523],[-122.38647222518921,37.61631782178288]]]}
}
