{
  "id": 1913822447,
  "type": "Feature",
  "properties": {
    "date:cessation_lower": "1935-04-27",
    "date:cessation_upper": "1935-04-27",
    "date:inception_lower": "1935-04-27",
    "date:inception_upper": "1935-04-27",
    "edtf:cessation": "1935-04-27",
    "edtf:inception": "1935-04-27",
    "geom:area": 2.475047457570636e-7,
    "geom:bbox": "-122.386472,37.616105,-122.385834,37.616611",
    "geom:latitude": 37.61635747477365,
    "geom:longitude": -122.38615540108617,
    "millsfield:category_id": 1511214251,
    "millsfield:collection_id": 1511214207,
    "millsfield:images": [
      1913822767
    ],
    "millsfield:images_colors_refs": {
      "crayola": [
        {
          "hex": "#85754e"
        },
        {
          "hex": "#714b23"
        },
        {
          "hex": "#cd9575"
        },
        {
          "hex": "#fddde6"
        }
      ],
      "css4": [
        {
          "hex": "#696969"
        },
        {
          "hex": "#2f4f4f"
        },
        {
          "hex": "#faf0e6"
        },
        {
          "hex": "#bdb76b"
        }
      ],
      "marekm4": [
        {
          "hex": "#f2f0ec"
        },
        {
          "hex": "#8c7649"
        },
        {
          "hex": "#3f3218"
        },
        {
          "hex": "#be9f69"
        }
      ]
    },
    "millsfield:images_texts": [
      "THE CHINA PRESS, SATURDAY, APRIL 27,\nNews Of Interest To Women-Clubs, Fashions\nA. U. C. IS\nHOST AT\nBIG PARTY\nWhen Chinese Women Entertain\nC.W.C. PLAI\nHOST T\nVISITOE\nU.C. Alumni Visitors And\nU.S. Economic Mission\nAre Special Guests\nFour Tables Of G\nEntertained\nW\nChinese Mus\nMany hundreds of Shanghai re-\nsidents, members of the American\nUniversity Club, mingled with\nvisi-\ntors,\nmembers of the\nAmerican\nEconomic Mission and the Univer-\nsity\nof California Alumni\ncruise\nparty,\nlast night at the\nannual\nspring dinner and dance of the local\nAmerican University Club at the\nCanidrome.\nThe annual\nsocial\nevent of the\nclub is usually held\nearlier in the\nyear, but this year it was especially\nput off until last night in order to\nhonor the visitors from America.\nDr. Esson M.\nGale is president\nof the club, and headed\nthe com-\nmittee\nof\narrangements,\nwhich\nprovided a delightful program\nof\nprofessional and amateur entertain-\nment. (\nMr. William P. Hunt, George\nWashington University, was master\nof ceremonies, and Mr. Ivy Rid\n*niversity of North Caroiina,\npe of dinner arrange-\nA\ngroup picture of members of the Chinese\nWomen's Cil, as they entertained five women mem-\nbers of the American Economic\nMission to China at tiffin ja the beautiful home\nof Mrs. Tsuyee Pei\non Route Ferguson.—Photo by Wei Fong.\nDr., Mrs. Kung Giving\nLargest Reception\nComing Events\nMiss Mary Fong Gives\nGraduation Recital\nFive women\nmembe\nAmerican Economic Miss\nsent visiting in China,\nguests of\nthe\nChir\nSlub\nat a most c\nparty yesterday\n| Mrs. Tsuyee Pei\nson.\nMrs. Y. C.\nman\nof\nthe\nwhen all the\nbroke\nthe\ncoming\nHuggins\nham of\nto the\nwere:\nJulian\nham.\nOt!\nfor\nJ. I\nin\nJU\nU.S. Trade Mission\nHonor fue\n• VAL\nTo\nlots Of Day\nBe\nSaturday, April 27\n\"Fantasies\"\nto be presented by\nBateman-King School of Dan-\ncing.\nConcert is\nAssisted\nYang Voong-Ising\nBy\nLO\nAlumni\nDr. and\nwere\nMrs.\nH. H. Kung\nare\ngiving the largest\natin-\nand\nmost\nim-\nportant of\ntheir spring receptions\nia\nthis afternoon at 5 o'clock at their\nne at 383 Route de Sieyes. The\nof the afternoon will\nthe American Trade\nsts\nale ex-\nhis is the\nfinance\nin for\nlies,\nSunday, April 28\nLabor day\nprogram by\nindus-\ntrial\ndepartment\nof\nShanghai\nY.W.C.A. at 1:30 p.m., 55\nYuen\nMing Yuen Road.\nMonday, April 29\nB.W.A. sports\nsection\nending\nseason\nwith\nbridge and man\njongg tea at 3 p.m.\nTuesday, April 30\nInternational\nArts\nTheater\nStudio lecture by\nDr. R.\nD.\nLoewenberg on \"Genius, Insanity,\nRame.\"\nAs a prelude to her graduatio\nfrom MeTyeire School\nfor\nGir\nMiss Mary Fong, daughter of\nFong\nF.\nSec,\nentertained\npianoforte recital last\nnio\"\no'clock in the school al\nShe was assisted\nbr\nVoong-Tsing.\nFollowing was tr\nPar\n1. Preludio and\nLargo\n2. Rejoice\nMessir\nPace,\nWednesday, May 1\nSylvain\nBoekebinder,\n*ologist\ngiving\nde-\n845"
    ],
    "millsfield:images_texts_ids": [
      1913822767
    ],
    "millsfield:primary_image": 1913822767,
    "millsfield:subcategory_id": 1511213505,
    "mz:is_approximate": 1,
    "mz:is_current": 1,
    "sfomuseum:accession_number": "2019.121.1257",
    "sfomuseum:category": "Employee Career History",
    "sfomuseum:classification_id": 203,
    "sfomuseum:collection": "Aviation Archive",
    "sfomuseum:creditline": "Collection of SFO Museum",
    "sfomuseum:date": "04/27/1935",
    "sfomuseum:date_acquired": "2019-11-22",
    "sfomuseum:daterange_end": "1935-04-27",
    "sfomuseum:daterange_start": "1935-04-27",
    "sfomuseum:dimensions": "11 x 10 inches (27.9 x 25.4 cm)",
    "sfomuseum:medium": "paper, ink",
    "sfomuseum:object_id": 211910,
    "sfomuseum:placetype": "object",
    "sfomuseum:publication": ": , 04/27/1935.",
    "sfomuseum:subcategory": "Other, Employee Career History",
    "src:geom": "sfomuseum#undetermined",
    "wof:belongsto": [
      102527513,
      1159162825,
      102191575,
      85633793,
      102087579,
      85922583,
      85688637,
      1159160869
    ],
    "wof:country": "XY",
    "wof:created": 1714635160,
    "wof:geomhash": "c281b9d9eefc83b5710e64b9d646067d",
    "wof:hierarchy": [
      {
        "building_id": -1,
        "campus_id": 102527513,
        "collection_id": 1159162825,
        "concourse_id": 1159162825,
        "continent_id": 102191575,
        "country_id": 85633793,
        "county_id": 102087579,
        "custom_id": 1913822447,
        "locality_id": 85922583,
        "neighbourhood_id": -1,
        "object_id": 1913822447,
        "region_id": 85688637,
        "wing_id": 1159160869
      }
    ],
    "wof:id": 1913822447,
    "wof:lastmodified": 1787988220,
    "wof:name": "newspaper photograph: When Chinese women entertain [China Press, April 27, 1935]",
    "wof:parent_id": 1159162825,
    "wof:placetype": "custom",
    "wof:placetype_alt": [
      "object"
    ],
    "wof:repo": "sfomuseum-data-collection",
    "wof:superseded_by": [],
    "wof:supersedes": []
  },
  "bbox": [
    -122.38647222518921,
    37.6161053594541,
    -122.38583385944366,
    37.61661101879963
  ],
  "geometry": {"type":"Polygon","coordinates":[[[-122.38647222518921,37.61631782178288],[-122.386434674263,37.61623283692423],[-122.38637566566466,37.61617759671399],[-122.38630056381224,37.6161308549656],[-122.38616108894348,37.6161053594541],[-122.38602161407469,37.6161308549656],[-122.38591432571411,37.61618609521055],[-122.38585531711577,37.61626683087935],[-122.38583385944366,37.61636881265146],[-122.38587141036987,37.61646654505181],[-122.38594114780425,37.61654303118856],[-122.38605380058287,37.61660252035167],[-122.38618254661559,37.61661101879963],[-122.3863059282303,37.61657277577607],[-122.3864185810089,37.61650903735973],[-122.3864668607712,37.61641130501523],[-122.38647222518921,37.61631782178288]]]}
}
