{
  "id": 1779488439,
  "type": "Feature",
  "properties": {
    "date:cessation_lower": "1980-01-01",
    "date:cessation_upper": "1989-12-31",
    "date:inception_lower": "1980-01-01",
    "date:inception_upper": "1989-12-31",
    "edtf:cessation": "198X",
    "edtf:inception": "198X",
    "geom:area": 2.475047457570636e-7,
    "geom:bbox": "-122.386472,37.616105,-122.385834,37.616611",
    "geom:latitude": 37.61635747477365,
    "geom:longitude": -122.38615540108617,
    "millsfield:airline_id": [
      1159285163
    ],
    "millsfield:category_id": 1763416373,
    "millsfield:collection_id": 1511214203,
    "millsfield:company_id": [
      1159288903
    ],
    "millsfield:images": [
      1779489271
    ],
    "millsfield:images_colors_refs": {
      "crayola": [
        {
          "hex": "#bab86c"
        },
        {
          "hex": "#efdecd"
        },
        {
          "hex": "#414a4c"
        }
      ],
      "css4": [
        {
          "hex": "#dcdcdc"
        },
        {
          "hex": "#2f4f4f"
        },
        {
          "hex": "#bdb76b"
        }
      ],
      "marekm4": [
        {
          "hex": "#b7c173"
        },
        {
          "hex": "#e5e8d6"
        },
        {
          "hex": "#414542"
        }
      ]
    },
    "millsfield:images_texts": [
      "SINGAPORE'S NEW INTERNATIONAL AIRPORT\nONE OF THE BEST AIRPORTS IN THE WORLD. FOR A LONG TIME TO COME.\nSIA GROUP\nCARGO TERMINAL\nocone with the cirren volite\nof 160,000 tonnes of cargo per year and\nthe anticipated volume of more than\n500,000 tonnes at the end of this decade,\ned and computerised for\nspeed and efficiency.\nINGAPORE AIRLINE\nSILVER KRIS LOUNGE\nFirst Class and other important\ntransit passengers will enjoy the luxury\nothe siver us Lounge which oler\norivate bathrooms are s umperettes\nas well asa viewing room tor televisio\nprogrammes and movies. Two bars\nSINGAPORE AIRLINES AIRCRAFT\nMAIN IRANCE HANGAR\nsilkaoore shew internationa\nAirport will have the world's largest\nclear-span hangar\nand several smaller aircraft simulta-\nneously.\nEvery contingency is catered tor\n- from sealed workshops with purified\nand aenumiched almospheres tor the\ntearche maineman a delicate\norecision instruments. to X-rav and\nultrasonic non-destructive machines for\nTRANSFER DESKS\nSimple transfer procedures have\nbeen devised to facilitate pass\nsengers\nlocated transter Desks.\nDAY ROOMS\nThere will be thirteen Day Rooms\nCOMMUNICATION FACILITIES\nExtensive international telephone\ntelegram and postal services are\nof intercom booths to enable passengers\nin transit to speak to friends or\nrelatives outside.\nSHOPS AND MONEY CHANGE\nCOUNTERS\nThere will be 30 shops offering a\nouvenirs and\noys to pertumes and\nishion wear. tor those with foreig\ncurrency or travelers cheques\nHere au Moroy nate Counter\nfacilities. Each booking can be up to\nsix nours duration and rates are\nHE RUNWAY SYSTEMI\nThis 4) meir minway the fire!\nof two such runways to be constructed\nat Singapore's new International\nAirport, is capable of handling 35 take-\nbecoma runway opens to tan,\nTHE PASSENGER\nTERMINAL BUILDING\nNo less than 5.0 wassencers and\n10.00 visitors can be accommodated\ncomfortably and efficiently in this\nbiggest and cheapest duty-free shop in\nine region\nArriving passengers will ride\nmovina walkwavs to customs andl\nimmicration. while departing nascen\ngers will take the walkways to large,\ncomfortable embarkation lounges where\nTHE CONTROL TOWER\nGulcine 35 passenger planes onto\nor off the minway during a noak hour\nand having the capacity to cope with\ntwice that number, requires great skill\ncommunications equipment in the\nThe Air Traffic Controllers in this\n16-sided tower are at the focal point of a\nnetwork o. racar stations. he nour\ndisplayee on their monitors allows them\nnrecision.\n\"PRORRINGIC\nTo facilitate passenger boarding,\nthat ole a cater\nobridges\nthe connect aluat to.\nNURSERY ROOMS\nNursery rooms\ns are available\nnee-of-charge, to c\nwith babies ge, mall children.\nsenders\nSIA GROUP INFLIGHT\nCATERING CENTRE\nFor any single kitchen to be camble of\nproducing 30.000 meals in one day is a remarkahle\nAlmost in call Howardr\nwhon and\nconsiders the exacting standards of hyaiene that must\nbe met, and the superb quality and infinite variety of\nmeals offered by most airlines today, the achieve\nent of this Inflight Catering Centre, the biggest in\nthe world, becomes even more impressive.\niving to and from the Passenge:\nTerminal laiding to be treaten to pare sight\ngiant 747s passing slowly overhead, using the Over-\nhead Taxiway Bridge that sang the onese mad\nEXPRESSWAYS\nThe airport is served by two Expressways. The\n20 km East Coast Parkway will link it to the city and\nprone mousman sale. while the Pan is ang\nHymnaesway will link it to the rest ot the Renublic\nPeople using the Expressways will not only find them\nconvenient, but will also enjoy a panoramic view of\nthe city's skyline.\nCAR PARKS\nAirpost has 10761 car pateing tos ir\nas 1,757 car parking lots in two\ncar parking areas, with the main\nTurnin Bulling by actede the\nalroort also has he coach barking lord\nand in cueueing lots tor taxis.\n4 parking space counting system\nhae bon incallas to intorm matanici\nof the number of vacant lots available at\nSINGAPORE AIRLINES"
    ],
    "millsfield:images_texts_ids": [
      1779489271
    ],
    "millsfield:primary_image": 1779489271,
    "millsfield:subcategory_id": 1511213365,
    "mz:is_approximate": 1,
    "mz:is_current": 1,
    "sfomuseum:accession_number": "2006.010.291",
    "sfomuseum:airline": "Singapore Airlines",
    "sfomuseum:airline_id": [
      764
    ],
    "sfomuseum:category": "Promotional, Museum",
    "sfomuseum:classification_id": 128,
    "sfomuseum:collection": "Aviation Museum",
    "sfomuseum:creditline": "Gift of the William Hough Collection",
    "sfomuseum:date": "1980s",
    "sfomuseum:date_acquired": "2010-07-30",
    "sfomuseum:daterange_end": "1989-12-31",
    "sfomuseum:daterange_start": "1980-01-01",
    "sfomuseum:description": "Poster produced by Singapore Airlines promoting Singapore Changi Airport; full color illustration of aerial view of airport with areas and services diagram and descriptions, with text, “Singapore’s new international airport, one of the best airports in the world. For a long time to come”; airline servicemark at bottom right corner.",
    "sfomuseum:dimensions": "39 x 27 inches (99.1 x 68.6 cm)",
    "sfomuseum:medium": "paper, ink",
    "sfomuseum:object_id": 82120,
    "sfomuseum:placetype": "object",
    "sfomuseum:publication": ": , 1980s.",
    "sfomuseum:subcategory": "Poster, Airline",
    "src:geom": "sfomuseum#undetermined",
    "wof:belongsto": [
      102527513,
      1159162825,
      102191575,
      85633793,
      102087579,
      85922583,
      85688637,
      1159160869
    ],
    "wof:country": "XY",
    "wof:created": 1652946600,
    "wof:depicts": [
      1159285163,
      1159288903
    ],
    "wof:geomhash": "c281b9d9eefc83b5710e64b9d646067d",
    "wof:hierarchy": [
      {
        "building_id": -1,
        "campus_id": 102527513,
        "collection_id": 1159162825,
        "concourse_id": 1159162825,
        "continent_id": 102191575,
        "country_id": 85633793,
        "county_id": 102087579,
        "custom_id": 1779488439,
        "locality_id": 85922583,
        "neighbourhood_id": -1,
        "object_id": 1779488439,
        "region_id": 85688637,
        "wing_id": 1159160869
      }
    ],
    "wof:id": 1779488439,
    "wof:lastmodified": 1787988208,
    "wof:name": "poster: Singapore Airlines, Singapore Changi Airport",
    "wof:parent_id": 1159162825,
    "wof:placetype": "custom",
    "wof:placetype_alt": [
      "object"
    ],
    "wof:repo": "sfomuseum-data-collection",
    "wof:superseded_by": [],
    "wof:supersedes": []
  },
  "bbox": [
    -122.38647222518921,
    37.6161053594541,
    -122.38583385944366,
    37.61661101879963
  ],
  "geometry": {"type":"Polygon","coordinates":[[[-122.38647222518921,37.61631782178288],[-122.386434674263,37.61623283692423],[-122.38637566566466,37.61617759671399],[-122.38630056381224,37.6161308549656],[-122.38616108894348,37.6161053594541],[-122.38602161407469,37.6161308549656],[-122.38591432571411,37.61618609521055],[-122.38585531711577,37.61626683087935],[-122.38583385944366,37.61636881265146],[-122.38587141036987,37.61646654505181],[-122.38594114780425,37.61654303118856],[-122.38605380058287,37.61660252035167],[-122.38618254661559,37.61661101879963],[-122.3863059282303,37.61657277577607],[-122.3864185810089,37.61650903735973],[-122.3864668607712,37.61641130501523],[-122.38647222518921,37.61631782178288]]]}
}
