{
  "id": 1913928231,
  "type": "Feature",
  "properties": {
    "date:cessation_lower": "1985-01-01",
    "date:cessation_upper": "1985-12-31",
    "date:inception_lower": "1985-01-01",
    "date:inception_upper": "1985-12-31",
    "edtf:cessation": "1985~",
    "edtf:inception": "1985~",
    "geom:area": 2.475047457570636e-7,
    "geom:bbox": "-122.386472,37.616105,-122.385834,37.616611",
    "geom:latitude": 37.61635747477365,
    "geom:longitude": -122.38615540108617,
    "millsfield:aircraft_id": [
      1159289873
    ],
    "millsfield:airline_id": [
      1159283849
    ],
    "millsfield:category_id": 1762671311,
    "millsfield:collection_id": 1511214207,
    "millsfield:company_id": [
      1159293593
    ],
    "millsfield:images": [
      1913928639,
      1913928641,
      1913928643
    ],
    "millsfield:images_colors_refs": {
      "crayola": [
        {
          "hex": "#7366bd"
        },
        {
          "hex": "#cdc5c2"
        },
        {
          "hex": "#efdecd"
        },
        {
          "hex": "#ff2b2b"
        },
        {
          "hex": "#324ab2"
        },
        {
          "hex": "#926eae"
        }
      ],
      "css4": [
        {
          "hex": "#dc143c"
        },
        {
          "hex": "#c0c0c0"
        },
        {
          "hex": "#faebd7"
        },
        {
          "hex": "#483d8b"
        },
        {
          "hex": "#778899"
        },
        {
          "hex": "#ff0000"
        },
        {
          "hex": "#d3d3d3"
        }
      ],
      "marekm4": [
        {
          "hex": "#4047a1"
        },
        {
          "hex": "#dacdc3"
        },
        {
          "hex": "#e91e1d"
        },
        {
          "hex": "#ede4d4"
        },
        {
          "hex": "#cbc4c9"
        },
        {
          "hex": "#2e3daa"
        },
        {
          "hex": "#7e81b1"
        },
        {
          "hex": "#7d82b9"
        },
        {
          "hex": "#2d42a4"
        },
        {
          "hex": "#e32313"
        },
        {
          "hex": "#ed1614"
        }
      ]
    },
    "millsfield:images_texts": [
      "The 4 Astroliner\nAmericanAirlines\nFOR YOUR SAFETY - Know how to move out of\nthis airplane fast. There is fire-danger any time a landing\nis other than normal-particularly when the airplane structure\nis damaged. On the back of this card is a floor plan of the\nplane you are in. Familiarize yourself with the location of\nthe exits. Note particularly the exits nearest you. Study\nthe brace position you should assume during an emergency\nlanding and also how the doors are opened as shown in the\nfigures below. When leaving, move immediately to the exits.\nDo not go back for coats, purses or other personal items.\nYOUR SEAT BELT - It is recommended that seat belts be kept fastened at all times - even when the seat\nbelt sign is off.\n1 Rotate door handle 180 degrees.\nDoor initially moves inward slight-\nly and then is automatically pow-\nered outward to a fully open posi-\ntion.\n2 Escape slide automatically drops\nand begins inflating\nwhen door\nis opening.\n3 The slide is fully inflated\nready for\nand\nuse in a few seconds.\nJump onto the slide in a sitting\nposition using the\nclosest of the two slide lanes. Do not sit down in the\ndoorway. Do not try to slow yourself down; special\npads at the bottom will reduce your speed. Move\naway from the bottom of the slide quickly.\n5\nOver-wing door is equipped with inflatable ramp and\nslide.\nThey inflate automatically when the door is\nopened Waken down ramp and\nenter\nslide\nas\nshown.\n0000\nJUMP\nONTO SLIDE\nHERE\n00000000000000000\nWALK RUN\nTO SLIDE\nJUMP\nTO SLIDE\nHERE\nDECELERATION\nPADS\nDECELERATION PADS\nRUN TO\nCLEAR AREA\nRUN TO\nCLEAR\nAREA\nPLEASE DO NOT REMOVE THIS CARD FROM AIRPLANE",
      "OXYGEN MASK\nTEN EMERGENCY EXIT ROUTES\nShould a change in cabin pressure occur while at high\naltitude, a door above you will open and an oxygen\nmask will automatically drop within your reach.\nSTOP ALL SMOKING. Take the nearest mask and\npull toward you, this starts flow of oxygen.\nPlace\nmask over nose and mouth\nand breathe normally.\nDOUBLE-LANE\nSLIDE\nOVERWING\nRAMP AND\n3-LANE\nSLIDE\nEMERGENCY LANDING BRACE POSITIONS\nOR\nDOUBLE-LANE\nSLIDE\n7+ →\nFASTEN SEAT BELT SECURELY - Retain\nbrace position until all forward motion has stopped.\nUPPER DECK EMERGENCY EXIT ROUTES\nIn the event of an emergency evacuation, descend\nthe spiral staircase to the main deck and then move\nswiftly to one of the door exits.\nIf you are unable to do so, the crew service door is\nalso an emergency exit. It is located forward and to\nthe right of the upper deck lavatory. A crew member\nwill open the door and inflate the slide if it should be\nrequired.\nPLEASE DO NOT REMOVE THIS CARD FROM AIRPLANE\n2002.127.119\nOP 112\nPRINTED IN U.S.A.",
      "WHAT TO DO IN CASE\nAN EMERGENCY WATER\nLANDING IS NECESSARY\nHOW TO LAUNCH AND INFLATE RAFTS\nCEILING RAFT COMPARTMENTS\n1. To open ceiling raft compart-\nment, pull this handle down.\n2. Release buckles and lift raft off\ndoor. Launch out nearest exit.\nYOUR LIFE VEST\nIndividual life vest is in a\npouch under seat. Pull Tab\nto open for access to vest.\n1. NO SMOKING. Adjust your seat back to upright\nposition.\n2. Remove high heeled shoes, shoes with metal cleats\nand all cumbersome, restrictive clotning.\nLoosen your\ncollar and tie. Remove things that obviously could hurt\nyou, suen as glasses and taise teen, sharp objects such\nas pens, pencils and brooches.\n3. Put on your life vest. It is stowed under your seat.\nDo not inflate Life Vest inside Airplane.\n4. Sit down and fasten your seat belt. Pull it up good\nand tight; this is important. Locate the emergency exits\nnearest you.\n5. Before landing, your Captain will issue a \"Brace for\nDitching\" order.\nAssume brace position as shown on\nback of this card. This position will reduce the shock of\nsudden deceleration.\n6. After all forward motion has stopped, not before,\nunfasten your seatbelt and proceed immediately to\nnearest exit. Your crew will direct you to rafts.\n1. Put on life vest over your\nhead.\nThe\nclearly\nmarked.\n=\n2. pull waist straps from back\nand fasten hooks into rings.\nOne on each side.\nHOW TO INFLATE RAFTS\nAttach restraining line to assist handle-on cabin wall.\nCarry raft down slide and then throw raft into water.\nTo avoid\ninflating the raft inside the airplane\ndo not lift or drag the raft by this line.\nINFLATED RAFT\nHeaving line. Quickly throw this lifeline to people in\nthe water who need help to reach the raft.\n25 MAN RAFT\nDO NOT\nINFLATE VEST\nINSIDE THE\nAIRPLANE\n3. Pull\nstraps\nuntil vest is\nsnug around waist.\n4. Inflate by downward pull\non two knobs in tront or vest.\nOral inflation is accomplished\nby blowing into tubes located\nat upper sides of vest.\nTo inflate raft lift this flap and pull ring and cable all\nthe way out.\nPOSSIBLE PATHS OF ESCAPE\nAND RAFT BOARDING POINTS\nOODDOODDDODODO\n0000000000000000\n006660000\n000000000000000\n00000aa\n000000000\nDD000000000000000000000\nDO NOT USE EXITS OVER WINGS\nBECAUSE\nTHERE\nARE NO LIFE\nRAFTS AT\nEXITS."
    ],
    "millsfield:images_texts_ids": [
      1913928639,
      1913928641,
      1913928643
    ],
    "millsfield:primary_image": 1913928639,
    "millsfield:subcategory_id": 1511213703,
    "mz:is_approximate": 1,
    "mz:is_current": 1,
    "sfomuseum:accession_number": "2002.127.119",
    "sfomuseum:aircraft": "Boeing 747",
    "sfomuseum:aircraft_id": [
      231
    ],
    "sfomuseum:airline": "American Airlines",
    "sfomuseum:airline_id": [
      169
    ],
    "sfomuseum:category": "Passenger Amenity, Archive",
    "sfomuseum:classification_id": 581,
    "sfomuseum:collection": "Aviation Archive",
    "sfomuseum:creditline": "Gift of Thomas G. Dragges",
    "sfomuseum:date": "c. 1985",
    "sfomuseum:date_acquired": "2003-12-22",
    "sfomuseum:daterange_end": "1990-12-31",
    "sfomuseum:daterange_start": "1980-01-01",
    "sfomuseum:description": "Safety information card issued by American Airlines for its Boeing 747 Astroliner fleet; double-sided bi-fold card with photographic images and illustrations demonstrating inflight safety and emergency procedures; identification code: OP 112; revision date: .",
    "sfomuseum:dimensions": "10 x 8 inches (25.4 x 20.3 cm)",
    "sfomuseum:medium": "paper, ink",
    "sfomuseum:object_id": 68513,
    "sfomuseum:placetype": "object",
    "sfomuseum:publication": ": , c. 1985.",
    "sfomuseum:subcategory": "Safety Information Card",
    "src:geom": "sfomuseum#undetermined",
    "wof:belongsto": [
      102527513,
      1159162825,
      102191575,
      85633793,
      102087579,
      85922583,
      85688637,
      1159160869
    ],
    "wof:country": "XY",
    "wof:created": 1715650035,
    "wof:depicts": [
      1159293593,
      1159283849,
      1159289873
    ],
    "wof:geomhash": "c281b9d9eefc83b5710e64b9d646067d",
    "wof:hierarchy": [
      {
        "building_id": -1,
        "campus_id": 102527513,
        "collection_id": 1159162825,
        "concourse_id": 1159162825,
        "continent_id": 102191575,
        "country_id": 85633793,
        "county_id": 102087579,
        "custom_id": 1913928231,
        "locality_id": 85922583,
        "neighbourhood_id": -1,
        "object_id": 1913928231,
        "region_id": 85688637,
        "wing_id": 1159160869
      }
    ],
    "wof:id": 1913928231,
    "wof:lastmodified": 1787988220,
    "wof:name": "safety information card: American Airlines, Boeing 747",
    "wof:parent_id": 1159162825,
    "wof:placetype": "custom",
    "wof:placetype_alt": [
      "object"
    ],
    "wof:repo": "sfomuseum-data-collection",
    "wof:superseded_by": [],
    "wof:supersedes": []
  },
  "bbox": [
    -122.38647222518921,
    37.6161053594541,
    -122.38583385944366,
    37.61661101879963
  ],
  "geometry": {"type":"Polygon","coordinates":[[[-122.38647222518921,37.61631782178288],[-122.386434674263,37.61623283692423],[-122.38637566566466,37.61617759671399],[-122.38630056381224,37.6161308549656],[-122.38616108894348,37.6161053594541],[-122.38602161407469,37.6161308549656],[-122.38591432571411,37.61618609521055],[-122.38585531711577,37.61626683087935],[-122.38583385944366,37.61636881265146],[-122.38587141036987,37.61646654505181],[-122.38594114780425,37.61654303118856],[-122.38605380058287,37.61660252035167],[-122.38618254661559,37.61661101879963],[-122.3863059282303,37.61657277577607],[-122.3864185810089,37.61650903735973],[-122.3864668607712,37.61641130501523],[-122.38647222518921,37.61631782178288]]]}
}
