{
  "id": 1762889757,
  "type": "Feature",
  "properties": {
    "date:cessation_lower": "1938-01-01",
    "date:cessation_upper": "1938-12-31",
    "date:inception_lower": "1938-01-01",
    "date:inception_upper": "1938-12-31",
    "edtf:cessation": "1938",
    "edtf:inception": "1938",
    "geom:area": 2.475047457570636e-7,
    "geom:bbox": "-122.386472,37.616105,-122.385834,37.616611",
    "geom:latitude": 37.61635747477365,
    "geom:longitude": -122.38615540108617,
    "millsfield:aircraft_id": [
      1159291191
    ],
    "millsfield:airline_id": [
      1159284991
    ],
    "millsfield:category_id": 1511214233,
    "millsfield:collection_id": 1511214207,
    "millsfield:company_id": [],
    "millsfield:images": [
      1763445495
    ],
    "millsfield:images_colors_refs": {
      "crayola": [
        {
          "hex": "#979aaa"
        },
        {
          "hex": "#8a795d"
        },
        {
          "hex": "#6e5160"
        },
        {
          "hex": "#9f8170"
        }
      ],
      "css4": [
        {
          "hex": "#a9a9a9"
        },
        {
          "hex": "#808080"
        },
        {
          "hex": "#556b2f"
        },
        {
          "hex": "#bc8f8f"
        }
      ],
      "marekm4": [
        {
          "hex": "#8b7560"
        },
        {
          "hex": "#ac9275"
        },
        {
          "hex": "#645549"
        },
        {
          "hex": "#b2aca6"
        }
      ]
    },
    "millsfield:images_texts": [
      "ROSS KIDNAPER\nSTILL REFUSES\nTOTELLPAST\nMaintains Silence About Why\nHe Selected Chicagoan\nVictim: Cold Bloodstains Told\nTHE SAN FRANCISCO EXAMINER: SUNDAY, IANUARY 23. 1938\nOver Home Port, and All's Well\nSECTION 1 3\nCHINA CLIPPER Private Fight Turns\nDASHES BACK\nInto Public\nFOR REPAIRS\nBrawl\nCouple Get Suspended\nPassengers Awakened When Big\nTerms; Policeman\nLiner Neare San Pedro\nGets Revenge\nThought News Was a Joke\nBut then a neighbor heard t\n(Continued from Page One)\nme, aboard her, the pas- be tokl\nmak\nnu landin\nmile safety dash to San Pecro, for eme\nduring night to Honol cle: Fedatial scapine diade ord\nuled to put out on interrupted trip today\nAubrey hit m\nwere Reinhart Named\nSports Director\nRUBENS • SECLUSION\n\"REMLER\n204\nMORGEN JEWELRY CO., 88B MARKET ST\nFRANK NEWMAN B\nHOMEI\nFURNISHINGS\nEgypt Tomb, 5,000\nYears Old, Found\nLost Hunter Found\nFrozen to Death\nHere Is a Real Range Value!\nNew Spark Range\nYou have never\nseen a better\nrange for so lit-\nSmartly styled. Fin-\nwhite or ivory por-\ncelain\nREMLER\n\"Transatlantic\"\n10 TUBES\nBOTONEMISTANRS\nOnLy $6950\n•.•\nfor this beautiful\n14 Diamond Ensemble!\nSaminer\nHowell Renamed\nFuneral Director\nCinderella Model\nwith the\nnew\ndivided top\n$89.50\nand Clock Extra\nLiberal\nTerms\nBe sure and see the\nbefore you buy. es\nFrank Newman Co.\nNot associated with any othe\nstore in San Francisce\nPAY $1.50\nA WEEK\nHagen\nJEWELRY COMPANY\n888 Market Street... Just Below Powel\n7490\nBudaet Term\nHALE BROS\nMarket at Fifth\ncite say\nAlso on Sale at Hale Bros. Appllance Store\n235 Man Sintere o San Out Mane\nOutina Place Se\nHale Bros"
    ],
    "millsfield:images_texts_ids": [
      1763445495
    ],
    "millsfield:primary_image": 1763445495,
    "millsfield:subcategory_id": 1511213233,
    "mz:is_current": 1,
    "sfomuseum:accession_number": "2012.149.1081",
    "sfomuseum:aircraft": "Martin M-130",
    "sfomuseum:aircraft_id": [
      834
    ],
    "sfomuseum:airline": "Pan American Airways",
    "sfomuseum:airline_id": [
      685
    ],
    "sfomuseum:category": "Published Media",
    "sfomuseum:classification_id": 50,
    "sfomuseum:collection": "Aviation Archive",
    "sfomuseum:creditline": "Gift of the Captain John B. Russell Family",
    "sfomuseum:date": "1938",
    "sfomuseum:date_acquired": "2013-05-31",
    "sfomuseum:daterange_end": "1938-12-31",
    "sfomuseum:daterange_start": "1938-01-01",
    "sfomuseum:description": "Newspaper article with image depicting Martin M-130 China Clipper in flight over San Francisco.",
    "sfomuseum:dimensions": "22 x 17 inches (55.9 x 43.2 cm)",
    "sfomuseum:medium": "paper, ink",
    "sfomuseum:object_id": 138225,
    "sfomuseum:placetype": "object",
    "sfomuseum:publication": ": , 1938.",
    "sfomuseum:subcategory": "Article / Clipping",
    "src:geom": "sfomuseum#undetermined",
    "wof:belongsto": [
      102527513,
      1159162825,
      102191575,
      85633793,
      102087579,
      85922583,
      85688637,
      1159160869
    ],
    "wof:country": "XY",
    "wof:created": 1643412396,
    "wof:depicts": [
      1159284991,
      1159286839,
      1159291191
    ],
    "wof:geomhash": "c281b9d9eefc83b5710e64b9d646067d",
    "wof:hierarchy": [
      {
        "building_id": -1,
        "campus_id": 102527513,
        "collection_id": 1159162825,
        "concourse_id": 1159162825,
        "continent_id": 102191575,
        "country_id": 85633793,
        "county_id": 102087579,
        "custom_id": 1762889757,
        "locality_id": 85922583,
        "neighbourhood_id": -1,
        "object_id": 1762889757,
        "region_id": 85688637,
        "wing_id": 1159160869
      }
    ],
    "wof:id": 1762889757,
    "wof:lastmodified": 1787988203,
    "wof:name": "newspaper article: “Over home port, and all’s well” [San Francisco Examiner, January 23, 1938]",
    "wof:parent_id": 1159162825,
    "wof:placetype": "custom",
    "wof:placetype_alt": [
      "object"
    ],
    "wof:repo": "sfomuseum-data-collection",
    "wof:superseded_by": [],
    "wof:supersedes": []
  },
  "bbox": [
    -122.38647222518921,
    37.6161053594541,
    -122.38583385944366,
    37.61661101879963
  ],
  "geometry": {"type":"Polygon","coordinates":[[[-122.38647222518921,37.61631782178288],[-122.386434674263,37.61623283692423],[-122.38637566566466,37.61617759671399],[-122.38630056381224,37.6161308549656],[-122.38616108894348,37.6161053594541],[-122.38602161407469,37.6161308549656],[-122.38591432571411,37.61618609521055],[-122.38585531711577,37.61626683087935],[-122.38583385944366,37.61636881265146],[-122.38587141036987,37.61646654505181],[-122.38594114780425,37.61654303118856],[-122.38605380058287,37.61660252035167],[-122.38618254661559,37.61661101879963],[-122.3863059282303,37.61657277577607],[-122.3864185810089,37.61650903735973],[-122.3864668607712,37.61641130501523],[-122.38647222518921,37.61631782178288]]]}
}
