{
  "id": 1913795609,
  "type": "Feature",
  "properties": {
    "date:cessation_lower": "1949-07-01",
    "date:cessation_upper": "1949-07-01",
    "date:inception_lower": "1949-07-01",
    "date:inception_upper": "1949-07-01",
    "edtf:cessation": "1949-07-01",
    "edtf:inception": "1949-07-01",
    "geom:area": 2.475047457570636e-7,
    "geom:bbox": "-122.386472,37.616105,-122.385834,37.616611",
    "geom:latitude": 37.61635747477365,
    "geom:longitude": -122.38615540108617,
    "millsfield:airline_id": [
      1159284991
    ],
    "millsfield:category_id": 1511214251,
    "millsfield:collection_id": 1511214207,
    "millsfield:company_id": [
      1159286839
    ],
    "millsfield:images": [
      1913799529,
      1913799531,
      1913799533,
      1913799535
    ],
    "millsfield:images_colors_refs": {
      "crayola": [
        {
          "hex": "#efdecd"
        },
        {
          "hex": "#414a4c"
        },
        {
          "hex": "#4a646c"
        }
      ],
      "css4": [
        {
          "hex": "#696969"
        },
        {
          "hex": "#2f4f4f"
        },
        {
          "hex": "#faebd7"
        }
      ],
      "marekm4": [
        {
          "hex": "#4b4d4b"
        },
        {
          "hex": "#4f514f"
        },
        {
          "hex": "#515350"
        },
        {
          "hex": "#eee8cf"
        },
        {
          "hex": "#5c6168"
        },
        {
          "hex": "#efe9d3"
        },
        {
          "hex": "#efe9d2"
        },
        {
          "hex": "#f0ead4"
        }
      ]
    },
    "millsfield:images_texts": [
      "Tokyo - Friday - gue,, 1a49\nCharles Hollmann\nGENERAL MANAGER\nMANILA\nMANILA HOTEL\nOVERLOOKING\nTHE MANILA BAY\n\" THE ARISTOCRAT OF THE ORIENT\"~ CABLE \"MANHOCO\"\nManila. Philippines\nDearnst Dibs.\nUr eft Hongkong at 5:30 Wranenden\nafternoon the 29 and amirs hus at 5:3.\na.m. after a refueling stop at Okinawa.\nTokyo is much coole than tongkorg\nand that is a reliy\nesprcial, to Bondy. un\nhar a very nia sitting room bed room and\nbatt on the 54 floor of the Ga-Jo-En Hatre -\nwith a brautifue view in two direction.\nThen is a lore Japanes gade witt walk -\nwath faces - stone stips- bridges gado and mass\nof flowns fans and bantue old trass. The\nsorich is good and the food Excrest. In fact\nur - as the Els bar. \"aut never lad it so\ngood.\nSaturday -\ngot to bed tang to catch\nup on our sleep.\nWhat out to the airport\nto meet the plane from San Francisco and\nthe man O. I.T. Sant out - a lawyn from\nn.g. who lurs in Broskiice and knows\nAnd and Caddy. His mame is Pride.",
      "I sumo to be a very decrat fellow ans\nan able lawyer.\nЯЗОАНАМ\nЗАЯЗИЗа\nparesigame, sinoho is President of bikimoto\ngrave 'on\nand a greet frind of ki chum. The eith.\nin typical Chincor fashion - asks me if ?\nwined mind carrying a small package to\na find an Tokyo. The frend was hikineto\nand the smale package was two large\nassorts crackus and one\nof candy. Mitimato was thy nice and add\nus down to his Gundfattro. men Nagaya - ta\nand meet the ded man\nWho is stie hale\nand heart, at qi on. afr\nor 92 Japane system.. Cat please take matr!\nwise go if ur can.\nWint to Me and tars Les tolerams fo\ndamn tonigit with Bond, and the Shermans\ncocain is\nan old Paa pilat who is nou\nin change of al\nopmations at Tokyo. They Lan\na Jupanen hours with garden whics is on\nattractor. a la 9\nComing home 3 found you lette of",
      "26\nand 2)\nalso\nCats of the 215. Of comr\nlettes for home and\nCharles Hollmann\nGENERAL MANAGER\nmor\nthan urecom\nMANILA HOTEL\nOVERLOOKING THE MANILA BAY ~\n\"THE ARISTOCRAT OF THE ORIENT\"- CABLE \"MANHOCO\"\n→ just lon\nto hear whats fung\nanila Philippies, sin.\nreace moving and a do hope this\nth at\nturible drought is oon.\nTe ren my the lettes i\nlong in transit\nhales au air mail\nfor pAL. the Pilgrim.\nairline which flis one one one wack. This\nnot with standing the\nlong acapted rule of the\nIntratin ae Portal Union which requerto that the\nmaie he dispated ly the fist amaring means.\nJust one more head ache for Paa. O caces\non\nP.m. G. Ruiz who was very fuende, an\nadmitted that I was right. that the in ail\nshones not is hild for PAL but said that\nhe had orders from topside.\nSunday gue, 3. Tr hair an appointment\nthis afternoon with gine marquat chick of the\nEcononic Seetin of\nSCAP. Tomorrow - Inonda\nJue, 4th thee is to tr a big parade with\nGive mac Arter and seption tatine off ale the\nAlied Pouns in the recewing stand. Us ars",
      "in vitro\nto\nparade and attend a recitin\neptrwards. Ine an while all\nCharles Hollmann\nGENERAL MANAGER\nTokyo is talking an\nMANILA HOTEL\nOVERLOOKING\nTHE MANILA BAY -\nTH€\nARISTOCRAT OF THE ORIENT\"- CABLE \"MANHOCO\"\nManila, Philippines\npreparing for the thou and\nI suppore after it is\nour the\n'i all take a day or so to rest\nup.\nout hunk and\nThe arm trades pation is seas, in empe\n- Which in our status -\nare treated wash than civilians during the was.\nThe\n\"tradus\" har to eir in \"tradu hotel.\"\nWhen the\nshad trader serif good one in then\nhatres.\nEszwhue - including the movies. shops-\nChits its you has to hair \"mietary scrip\n\" which\nit is agamit the law for us traders to oun\nSo our log - Who hair to hir in this\ncommunity. are comprico to break the law ace\nthe time.\nNer has the world sea to many\nplanaers - \"libraes\n\"\n- staris. eyed throusts - antouctic\nBeaurocrats - Go u SCAR. Its the one wick\npoint in mac Arturs armor.\nmust clon now. wil weit ya abot\nom 4% op gue activitin- Let of con\nto yn\nyou."
    ],
    "millsfield:images_texts_ids": [
      1913799529,
      1913799531,
      1913799533,
      1913799535
    ],
    "millsfield:primary_image": 1913799529,
    "millsfield:subcategory_id": 1511213489,
    "mz:is_approximate": 1,
    "mz:is_current": 1,
    "sfomuseum:accession_number": "2019.121.1132 a d",
    "sfomuseum:airline": "Pan American Airways",
    "sfomuseum:airline_id": [
      685
    ],
    "sfomuseum:category": "Employee Career History",
    "sfomuseum:classification_id": 195,
    "sfomuseum:collection": "Aviation Archive",
    "sfomuseum:creditline": "Collection of SFO Museum",
    "sfomuseum:date": "07/01/1949",
    "sfomuseum:date_acquired": "2019-11-22",
    "sfomuseum:daterange_end": "1949-07-01",
    "sfomuseum:daterange_start": "1949-07-01",
    "sfomuseum:description": "Handwritten letter from Harold M. Bixby to his wife, Debby Bixby, dated July 1, [1949], on stationery from the Manila Hotel, written in Tokyo; includes description of meetings with Pan American Airways lawyer named Pride and with Y. Mikimoto; includes description of air mail delays in Manila; upcoming July 4 parade with General Douglas A. MacArthur; includes description of difference in status in Tokyo between military personnel and “traders”; mentions [William L.] Bond, Mr. and Mrs. Lee Williams.",
    "sfomuseum:dimensions": "11 x 8 1/2 inches (27.9 x 21.6 cm)",
    "sfomuseum:medium": "paper, ink",
    "sfomuseum:object_id": 211495,
    "sfomuseum:placetype": "object",
    "sfomuseum:publication": ": , 07/01/1949.",
    "sfomuseum:subcategory": "Correspondence, Personal",
    "src:geom": "sfomuseum#undetermined",
    "wof:belongsto": [
      102527513,
      1159162825,
      102191575,
      85633793,
      102087579,
      85922583,
      85688637,
      1159160869
    ],
    "wof:country": "XY",
    "wof:created": 1714548842,
    "wof:depicts": [
      1159284991,
      1159286839
    ],
    "wof:geomhash": "c281b9d9eefc83b5710e64b9d646067d",
    "wof:hierarchy": [
      {
        "building_id": -1,
        "campus_id": 102527513,
        "collection_id": 1159162825,
        "concourse_id": 1159162825,
        "continent_id": 102191575,
        "country_id": 85633793,
        "county_id": 102087579,
        "custom_id": 1913795609,
        "locality_id": 85922583,
        "neighbourhood_id": -1,
        "object_id": 1913795609,
        "region_id": 85688637,
        "wing_id": 1159160869
      }
    ],
    "wof:id": 1913795609,
    "wof:lastmodified": 1787988219,
    "wof:name": "correspondence: Harold M. Bixby to Debby Bixby",
    "wof:parent_id": 1159162825,
    "wof:placetype": "custom",
    "wof:placetype_alt": [
      "object"
    ],
    "wof:repo": "sfomuseum-data-collection",
    "wof:superseded_by": [],
    "wof:supersedes": []
  },
  "bbox": [
    -122.38647222518921,
    37.6161053594541,
    -122.38583385944366,
    37.61661101879963
  ],
  "geometry": {"type":"Polygon","coordinates":[[[-122.38647222518921,37.61631782178288],[-122.386434674263,37.61623283692423],[-122.38637566566466,37.61617759671399],[-122.38630056381224,37.6161308549656],[-122.38616108894348,37.6161053594541],[-122.38602161407469,37.6161308549656],[-122.38591432571411,37.61618609521055],[-122.38585531711577,37.61626683087935],[-122.38583385944366,37.61636881265146],[-122.38587141036987,37.61646654505181],[-122.38594114780425,37.61654303118856],[-122.38605380058287,37.61660252035167],[-122.38618254661559,37.61661101879963],[-122.3863059282303,37.61657277577607],[-122.3864185810089,37.61650903735973],[-122.3864668607712,37.61641130501523],[-122.38647222518921,37.61631782178288]]]}
}
