{
  "id": 1511938351,
  "type": "Feature",
  "properties": {
    "date:cessation_lower": "1984-01-01",
    "date:cessation_upper": "1984-12-31",
    "date:inception_lower": "1984-01-01",
    "date:inception_upper": "1984-12-31",
    "edtf:cessation": "1984",
    "edtf:date": "1984",
    "edtf:inception": "1984",
    "geom:area": 0,
    "geom:bbox": "-122.370943,37.617990,-122.370943,37.617990",
    "geom:latitude": 37.61799,
    "geom:longitude": -122.370943,
    "iso:country": "US",
    "millsfield:airline_id": [
      1159285141
    ],
    "millsfield:airport_id": [
      102527513
    ],
    "millsfield:category_id": 1511214223,
    "millsfield:collection_id": 1511214207,
    "millsfield:company_id": [
      1159288051
    ],
    "millsfield:images": [
      1527838031,
      1527851111
    ],
    "millsfield:images_colors_refs": {
      "crayola": [
        {
          "hex": "#757575"
        },
        {
          "hex": "#dbd7d2"
        },
        {
          "hex": "#000000"
        },
        {
          "hex": "#b0b7c6"
        }
      ],
      "css4": [
        {
          "hex": "#dcdcdc"
        },
        {
          "hex": "#808080"
        },
        {
          "hex": "#c0c0c0"
        },
        {
          "hex": "#000000"
        }
      ],
      "marekm4": [
        {
          "hex": "#171519"
        },
        {
          "hex": "#867b84"
        },
        {
          "hex": "#dedcd4"
        },
        {
          "hex": "#bdbaba"
        },
        {
          "hex": "#1d1c18"
        }
      ]
    },
    "millsfield:images_texts": [
      "SFO\nHELICOPTER\nAIRLINES\nThe BEELINE to your Airline.\nSCHEDULES\nAND FARES\nRESERVATIONS\n415/BEE-LINE\n(415) 430-8666\nOR CALL YOUR TRAVEL AGENT\n(AIRLINE CODE FN)\nEffective Oct. 15, 1984",
      "SFO HELICOPTER SCHEDULE\nOAK/SFO\nFLT.\n101\n102\n103\n105\n106\n107\n108\n109\n111\n112\n113\n115\n116\n117\n119\n120*\n121*\n123\n124\n126\n127*\n128*\nDEP.\nARR.\nMONDAY - FRIDAY\n6:05\n6:10\n6:45\n6:50\n7:30\n7:35\n8:10\n8:15\n8:50\n8:55\n9:30\n9:35\n10:20\n10:25\n11:10\n11:15\n12:00\n12:05\n12:40\n12:45\n1:40\n1:45\n2:10\n2:15\n3:05\n3:10\n3:45\n3:50\n4:20\n4:25\n5:00\n5:15*\n5:45\n6:00\n6:25\n6:30\n7:05\n7:10\n7:45\n7:50\n8:45\n9:00\n9:30\n9:45\nSATURDAY\n160*\n161\n162*\n163*\n164*\n165\n10:45\n12:35\n1:05\n3:05\n4:00\n5:30\n11:05\n12:40\n1•20\n3:20\n4:15\n5:35\nSUNDAY\n170\n171*\n173\n174\n175*\n176*\n177\n178*\nGATE\n10\n9:20\n11:00\n11:40\n12:20\n1:10\n3:00\n4:55\n6:00\n9:25\n11:15\n11:45\n12:25\n1:25\n3:15\n5:00\n6:15\nSFO/OAK\nFLT.\n102*\n103*\n104\n106*\n107*\n108*\n109*\n110\n112*\n113*\n114\n116*\n117*\n118\n120\n121\n122\n124*\n125\n127\n128\n129\nDEP.\nMONDAY - FRIDAY\n6:20\n7:00\n7:55\n8:25\n9:05\n9:55\n10:45\n11:45\n12:15\n1:15\n1:55\n2:40\n3:20\n4:05\n4:45\n5:30\n6:10\n6:40\n7:30\n8:30\n9:15\n10:05\nARR.\n6:40\n7:20\n8:00\n8:45\n9:25\n10:15\n11:05\n11:50\n12:35\n1:35\n2:00\n3:00\n3:40\n4:10\n4:50\n5:35\n6:15\n7:00\n7:35\n8:35\n9:20\n10:10\nSATURDAY\n161*\n162\n163\n164\n165*\n166*\n12:10\n12:50\n2:50\n3:45\n5:00\n6:35\n12:30\n12:55\n2:55\n3:50\n5:20\n6:55\nSUNDAY\n171\n172\n174*\n175\n176\n177*\n178\n179\n10:45\n11•25\n11:55\n12:55\n2:45\n4:30\n5:45\n6:35\n10:50\n11:30\n12:15\n1:00\n2:50\n4:50\n5:50\n6:40\nCatch The BEELINE to your Airline\nOAK/JCE\nFLT.\nDEP.\nMONDAY - FRIDAY\n101/102*\n6:05\n102/103*\n6:45\n105/106*\n8:10\n106/107*\n8:50\n107/108*\n9:30\n108/109\n10:20\n111/112*\n12:00\n115/116*\n2:10\n116/117*\n3:05\n120\n5:00\n121\n5:45\n123/124\n6:25\n127\n8:45\n128\n9:30\nARR.\n6:25\n7:05\n8:30\n9:10\n10:00\n10:50\n12:20\n2:45\n3:25\n5:05\n5:50\n6:45\n8:50\n9:35\n160\n162\n163\n164\n171\n173/174*\n175\n176\n178\nGATE\n78\nSATURDAY\n10:45\n1:05\n3:05\n4:00\nSUNDAY\n11:00\n11:40\n1:10\n3:00\n6:00\n10:50\n1:10\n3:10\n4:05\n11:05\n12:00\n1:15\n3:05\n6:05\nJCE/OAK\nFLT.\n102\n103\n106\n107\n108\n109\n112\n113\n116\n117\n120/121*\n121/122*\n124\n127/128*\n128/129*\nDEP.\nMONDAY - FRIDAY\n6:35\n7:15\n8:40\n9:20\n10:10\n11:00\n12:30\n1:30\n2:55\n3:35\n5:10\n5:55\n6:55\n8:55\n9:40\nARR.\n6:40\n7:20\n8:45\n9:25\n10:15\n11:05\n12:35\n1:35\n3:00\n3:40\n5:35\n6:15\n7:00\n9:20\n10:10\nSATURDAY\n161\n163/164*\n165\n166\n12:25\n3:15\n5:15\n6:50\n12:30\n3:50\n5:20\n6:55\nSUNDAY\n171/172*\n174\n177\n178/179*\n11:10\n12:10\n4:45\n6:10\n11:30\n12:15\n4:50\n6:40\nSFO/JCE\nFLT.\n101\n103\n106\n107\n108\n109\n112\n113\n116\n117\n120*\n121*\n124\n127*\n128*\nDEP.\nMONDAY - FRIDAY\n6:20\n7:00\n8:25\n9:05\n9:55\n10:45\n12:15\n1:15\n2:40\n3:20\n4:45\n5:30\n6:40\n8:30\n9:15\nARR.\n6:25\n7:05\n8:30\n9:10\n10:00\n10:50\n12:20\n1:20\n2:45\n3:25\n5:05\n5:50\n6:45\n8:50\n9:35\nSATURDAY\n161\n162*\n163*\n164*\n165\n166\n12:10\n12:50\n2:50\n3:45\n5:00\n6:35\n12:15\n1:10\n3:10\n4:05\n5:05\n6:40\nSUNDAY\n171*\n174\n175*\n176\n177\n178*\n10:45\n11:55\n12:55\n2:45\n4:30\n5:45\n11:05\n12:00\n1:15\n3:05\n4:35\n6:05\n*ONE STOP\nJCE/SFO\nFLT.\n102*\n103*\n106*\n107*\n108*\n109*\n112*\n113*\n116*\n117*\n120\n121\n124*\n127\n128\nDEP.\nMONDAY - FRIDAY\n6:35\n7:15\n8:40\n9:20\n10:10\n11:00\n12:30\n1:30\n2:55\n3:35\n5:10\n5:55\n6:55\n8:55\n9:40\nARR.\n6:50\n7:35\n8:55\n9:35\n10:25\n11:15\n12:45\n1:45\n3:10\n3:50\n5:15\n6:00\n7:10\n9:00\n9:45\nSATURDAY\n160\n161\n162\n163\n164\n165\n11:00\n12:25\n1:15\n3:15\n4:10\n5:15\n11:05\n12:40\n1:20\n3:20\n4:15\n5:35\nSUNDAY\n171\n174*\n175\n176\n177*\n178\n11:10\n12:10\n1:20\n3:10\n4:45\n6:10\n11:15\n12:25\n1:25\n3:15\n5:00\n6:15\nBay Tours\nWine Country Tours\nCharter Service Available\nCONVENTION\nGENTS R\nHELEPORT\nGATE 10\nSFO CHECK-IN-\nDEPARTURES - ARRIVALS\nNORTH TERMINAL\nUNITED AIRLINES\nCATE 70\nSFO CHECK-IN -\nDEPARTURES\nARRIVALS\nDOWNTOWN OAKLAND\nUNITED\nSO CHECK-IN\nBAGGAGE CLAIM\nOAKLAND AIRPORT\nPARKING\nSAN FRANCISCO INT'L"
    ],
    "millsfield:images_texts_ids": [
      1527838031,
      1527851111
    ],
    "millsfield:primary_image": 1527838031,
    "millsfield:subcategory_id": 1511213425,
    "mz:hierarchy_label": 1,
    "mz:is_approximate": 1,
    "mz:is_current": 1,
    "sfomuseum:accession_number": "2002.135.028.010",
    "sfomuseum:airline": "SFO Helicopter Airlines",
    "sfomuseum:airline_id": [
      754
    ],
    "sfomuseum:airport": "San Francisco International Airport",
    "sfomuseum:airport_id": [
      121
    ],
    "sfomuseum:category": "Scheduling / Ticketing",
    "sfomuseum:classification_id": 158,
    "sfomuseum:collection": "Aviation Archive",
    "sfomuseum:creditline": "Gift of Thomas G. Dragges",
    "sfomuseum:date": "1984",
    "sfomuseum:date_acquired": "2022-04-18",
    "sfomuseum:daterange_end": "1984-12-31",
    "sfomuseum:daterange_start": "1984-01-01",
    "sfomuseum:description": "Timetable issued by SFO Helicopter Airlines, effective October 15, 1983; gray cover with illustration of a bee as a helicopter in flight.",
    "sfomuseum:dimensions": "9 x 4 inches (22.9 x 10.2 cm)",
    "sfomuseum:media_ids": [
      1527838031,
      1527851111
    ],
    "sfomuseum:medium": "paper, ink",
    "sfomuseum:object_id": 99695,
    "sfomuseum:placetype": "object",
    "sfomuseum:primary_media_id": 1527838031,
    "sfomuseum:publication": ": , 1984.",
    "sfomuseum:subcategory": "Timetable",
    "src:geom": "sfomuseum#derived",
    "src:geom_derived_from": [
      102527513
    ],
    "wof:belongsto": [
      102527513,
      102191575,
      85633793,
      85922583,
      102087579,
      85688637,
      1159162825,
      1159160869,
      554784711,
      102085387
    ],
    "wof:breaches": [],
    "wof:country": "US",
    "wof:created": 1579906674,
    "wof:depicts": [
      1159288051,
      1159285141,
      102527513
    ],
    "wof:geomhash": "bf40c3bc435019ba74db5659992d9e04",
    "wof:hierarchy": [
      {
        "building_id": -1,
        "campus_id": 102527513,
        "collection_id": 1159162825,
        "concourse_id": 1159162825,
        "continent_id": 102191575,
        "country_id": 85633793,
        "county_id": 102087579,
        "custom_id": 1511938351,
        "locality_id": 85922583,
        "neighbourhood_id": -1,
        "object_id": 1511938351,
        "region_id": 85688637,
        "wing_id": 1159160869
      },
      {
        "campus_id": 102527513,
        "continent_id": 102191575,
        "country_id": 85633793,
        "county_id": 102087579,
        "custom_id": 1511938351,
        "locality_id": 85922583,
        "object_id": 1511938351,
        "postalcode_id": 554784711,
        "region_id": 85688637
      },
      {
        "campus_id": 102527513,
        "continent_id": 102191575,
        "country_id": 85633793,
        "county_id": 102085387,
        "custom_id": 1511938351,
        "object_id": 1511938351,
        "region_id": 85688637
      }
    ],
    "wof:id": 1511938351,
    "wof:lastmodified": 1787988184,
    "wof:name": "timetable: SFO Helicopter Airlines",
    "wof:parent_id": 1159162825,
    "wof:placetype": "custom",
    "wof:placetype_alt": [
      "object"
    ],
    "wof:repo": "sfomuseum-data-collection",
    "wof:superseded_by": [],
    "wof:supersedes": [],
    "wof:tags": []
  },
  "bbox": [
    -122.370943,
    37.61799,
    -122.370943,
    37.61799
  ],
  "geometry": {"type":"MultiPoint","coordinates":[[-122.370943,37.61799]]}
}
