{
  "id": 1914430767,
  "type": "Feature",
  "properties": {
    "date:cessation_lower": "1970-01-01",
    "date:cessation_upper": "1970-12-31",
    "date:inception_lower": "1970-01-01",
    "date:inception_upper": "1970-12-31",
    "edtf:cessation": "1970",
    "edtf:inception": "1970",
    "geom:area": 2.475047457570636e-7,
    "geom:bbox": "-122.386472,37.616105,-122.385834,37.616611",
    "geom:latitude": 37.61635747477365,
    "geom:longitude": -122.38615540108617,
    "millsfield:airline_id": [
      1159286455
    ],
    "millsfield:category_id": 1762671311,
    "millsfield:collection_id": 1511214207,
    "millsfield:company_id": [
      1159286951
    ],
    "millsfield:images": [
      1914430891,
      1914430893,
      1914430895,
      1914430897,
      1914430899
    ],
    "millsfield:images_colors_refs": {
      "crayola": [
        {
          "hex": "#fddde6"
        },
        {
          "hex": "#000000"
        },
        {
          "hex": "#efdecd"
        },
        {
          "hex": "#c8385a"
        }
      ],
      "css4": [
        {
          "hex": "#000000"
        },
        {
          "hex": "#faebd7"
        },
        {
          "hex": "#f5f5dc"
        },
        {
          "hex": "#dc143c"
        }
      ],
      "marekm4": [
        {
          "hex": "#edeada"
        },
        {
          "hex": "#f0ecdc"
        },
        {
          "hex": "#c31652"
        },
        {
          "hex": "#efe8db"
        },
        {
          "hex": "#f2eddd"
        },
        {
          "hex": "#22221d"
        },
        {
          "hex": "#f1eede"
        },
        {
          "hex": "#22231e"
        },
        {
          "hex": "#1f1d19"
        }
      ]
    },
    "millsfield:images_texts": [
      "DITCHING ETIQUETTE\nETIQUETA DE EMERGENCIA\n\"ETIQUETA\" PARA POUSO NAGUA\n•.. or what to do in an emergency\nwater landing\n... o como actuar en caso de un\naterrizaje forzoso en el mar.\n•.. ou como proceder em caso de pouso\nde emergência no mar.\nBRANIFF INTERNATIONAL",
      "PUT ON YOUR LIFE JACKET:\nYour life jacket is located under the seat in a sealed\ntransparent bag. When instructed to by crew, put arms\nthrough loops, then place jacket over head. (This jacket\nis designed to be worn by either adults or children.)\nUTILIZAÇÃO DO COLÊTE SALVA-VIDAS:\nEm saco transparente e fechado, sob a poltrona, encon-\ntra-se o seu colête salva-vidas. Quando aconselhado pela\ntripulação recolha-o, enfie os braços pelas correias e\nvista-o pela cabeça. Esse colête serve tanto para adultos\ncomo para crianças.\nCOLOQUESE EL CHALECO SALVAVIDAS:\nSu chaleco salvavidas se encuentra debajo del asiento en\nuna bolsa transparente. Colóqueselo cuando sea ordenado\npor la tripulación. Pase los brazos por los tirantes y la\ncabeza por el chaleco. (Este chaleco está diseñado para\nel uso de todo adulto y niño.)\nSECURING LIFE JACKET:\nGrasp straps under arms, pull down front and back of\njacket. Attach D-rings to hooks at front of vest. Pull tab-\nend straps in outward motion until jacket is snug.\nAJUSTE DO COLETE SALVAVIDAS:\nAgarre as correias que estao sob os bracos e puxe-as\npara baixo, na frente e atrás. Prenda as argolas D nos\nganchos a frente do colete salva-vidas. Puxe para fora as\nextremidades da correia até que o colete se ajuste\nao\ncorpo.\nFORMA DE SUJETAR EL CHALECO SALVA-VIDAS:\nEnganche las anillas que están al final del cinturón en\nlos corchetes de la parte inferior delantera del chaleco\ny ajústeselo bien a la cintura. Abroche los anillos D a los\nganchos en el frente del chaleco.\nINFLATE LIFE JACKET:\nWhen outside the aircraft, inflate life jacket by a sharp\npull down on the two inflation knobs. To turn on jacket\nlight pull tab marked \"PULL TO LIGHT\". DO NOT IN-\nFLATE JACKET INSIDE CABIN. Ask crew for any further\nexplanation.\nPARA INFLAR O COLETE SALVAVIDAS:\nDepois de sair do avião, puxe os dois pequenos cabos\nlogo abaixo do colete, e éste se inflará automáticamente.\nPara iluminar o colete, puxe o cabo onde se lê: \"PULL",
      "TO LIGHT\". (Que Significa: \"Puxe para Acender\".) NÃO\nINFLE O COLETE DENTRO DO AVIÃO. Em caso de dúvida,\npeça esclarecimentos as aeromoças.\nNODO DE INFLAR EL CHALECO SALVA-VIDAS:\nUna vez fuera del avión, infle el chaleco tirando rápid-\namente hacia abajo de las dos perillas que están en la\nparte inferior. Para hacer funcionar la luz del chaleco\ntire de la lengueta \"PULL TO LIGHT\"' (tire para encender).\nNo infle el chaleco dentro del avión. Solicite de los\ntripulantes cualquier explicación.\nAn adult jacket may also be worn by a child. Put child's\nleg through the strap loops so that the loops are between\nthe legs.\nOs coletes de adultos servem também\npara\nas criancas.\nFaça a criança passar um pé\nsôbre\nas duas correias, de\nmodo a que ambas fiquem entre as suas pernas.\nUn niño puede usar el mismo chaleco de adulto. Coloque\nlas piernas del niño entre los tirantes para que estos\nqueden entre las mismas.\nPull jacket on over head. Make certain the loops are still\nbetween the legs.\nEnfie o colete pela cabeça da criança. Certifique-se de\nque as correias estão entre as pernas.\nPase el chaleco por la cabeza. Asegúrese que los tirantes\nesten entre sus piernas.\nPlace the tab strap loops around the waist, tighten and\ntie in back.\nPasse as extremidades da correia pela cintura da criança,\najuste e amarre-as nas costas.\nColoque las anillas de los tirantes alrededor de la cintura,\napriete y cierre fuertemente por la espalda.\nInflate only one tube by pulling down sharply on one of\nthe inflation knobs.\nInfle sòmente um dos gomos do colete, puxando firm-\nemente apenas um dos pequenos cabos logo abaixo do\ncolete.\nInfle solamente un tubo tirando rápidamente de una de\nlas anillas para inflar el salvavidas.",
      "Your seat cushion is a flotation device.\nA almofada de sua poltrona é um ob-\njeto flutuante.\nEl cojin de su asiento es una unidad\nque flota.\nLIFE RAFTS:\nEnough rafts are aboard for everyone,\neach with room for twenty-five people.\nEvery raft contains emergency rations,\nfirst aid and water distilling kits\nand\nmany other useful items.\nYour highly\ntrained crew will explain their use.\nBALSAS SALVA-VIDAS:\nExistem a bordo balsas\nem\nnúmero\nsuficiente para todos,\ncada uma\nquais com\ncapacidade para\ndas\nvinte\ncinco\npassageiros.\nCada\ne\nbalsa\nestá\nequipada com\nracões e com\nestojos\nmédicos de emergência,\nalém\nde apa\nrelhos\ndestinados\nà distilação de água\ne muitos\noutros\nrecursos\nde\nextrema\nutilidade. Os tripulantes, altamente pre-\nparados,\ndarão detalhes sôbre a\nsua\nutilização.\nBOTES SALVAVIDAS:\nHay suficientes botes salvavidas a bor-\ndo para todos los\nocupantes\nde\nla\nnave, cada uno con capacidad para 25\npersonas.\nCada uno\nde estos\nbotes\ncontiene raciones de emergencia, boti-\nquines completos, destiladores\nespe-\nciales para el agua salada,\nasi como\notros artículos que puedan necesitarse.\nLa tripulación, altamente entrenada, le\nindicara su uso apropiado.",
      "BRANIFF INTERNATIONAL\nIN THE EVENT OF AN EMERGENCY:\nFASTEN SEAT BELT, REMAIN CALM, — Loosen collar and tie, but do not remove\nclothing. Remove sharp items and high heel shoes. Please follow instructions!\nEM SITUAÇÕES DE EMERGÊNCIA:\nAperte o cinto, mantenha-se calmo, desabotoe o colarinho e afrouxe a gravata,\nmas conserve-se vestido.\nTire os sapatos e livre-se de quaisquer objetos pontia.\ngudos. Obedeça as instruções!\nEN CASO DE EMERGENCIA:\nAbroata sure into se despread a rope ears delete.\ncorbata pero no se desprenda de la ropa\npuntiagudos y cortantes y quitese los zapatos de tacon alto. Este atento a las\nCAUTION:\nYou are kindly requested not to use cigarette lighters with a built-in reservoir for\nliquid fuel, as these constitute a serious fire hazard at higher altitude.\nATENÇÃO:\nFavor não utilizar-se isqueiro com reservatório de combustivel liquido, por con-\nstituir sério perigo de incêndio a grandes altitudes.\nPRECAUCION:\nFavor de no usar encendedor con tanque de combustible líquido por constituir\nun serio peligro de incendio al volar a grandes alturas.\nPORTABLE RADIO AND TELEVISION RECEIVERS:\nAre you carrying a portable radio or television receiver? Portable radio and TV\nreceivers may not be operated while the aircraft is in flight. (Dictating devices,\nhowever, may be used.) The reason radios and TV receivers cannot be used is\nthat many of them have circuits which transmit signals. These act like miniature\nbroadcasting stations. In some cases, these signals are strong enough to inter-\nfere with the aircraft navigation system and\ncause erroneous readings.\nrecognition of this fact, the Federal Aviation Agency (FAA) has issued a Specia\nSafety Regulation (No. S.R. 446) prohibiting the operation of portable receiver:\non airline aircraft of the United States.\nRECEPTORES PORTÁTEIS DE RÁDIO OU TELEVISÃO:\nTransporta V.S. um rádio, ou um televisor portátil? Rádios e televisores portáteis\nnão podem ser ligados durante o vôo. É permitido, entretanto, o uso de ditafones.\nA razão pela qual não se permite o uso de rádios ou televisores, é que muitos\ndêsses aparelhos possuem circuitos que emitem sinais, atuando como estações\nde rádio, em miniatura. Em alguns casos êsses sinais so suficientemente fortes\npara interferir com o sistema de navegação da aeronave, ocasionando obstáculos\nà leitura de iostrumentos. Por essa mesma razão, a Agência Federal de Aviação,\ninstituiu o Regulamento Especial de Segurança,\nnúmero 446, proibindo a\nutilizaçáo de receptores portáteis em aeronaves dos Estados Unidos.\nRECEPTORES DE RADIO Y DE TELEVISION PORTATILES:\nLleva usted un radio o un televisor portátiles? Si los lleva, debemos recordarle\n(Magnetofonos\nexcluidos.) La razón por la cual se prohibe activar radios y aparatos de tele-\nvisión, es que muchos de ellos tienen circuitos que transmiten señales y se\nconvierten en pequeñas estaciones de radio. En algunos casos estas señales son\nlo suficientemente fuertes para interferir en el sistema de navegación del avión\ny ocasionan lecturas erróneas en los instrumentos. Por este motivo, la Agencia\nFederal de Aviación (FAA) ha impuesto una medida especial de seguridad (No.\nS.R. 446) prohibiendo el uso de receptores portátiles a bordo de los aviones\nciviles de bandera norteamericana."
    ],
    "millsfield:images_texts_ids": [
      1914430891,
      1914430893,
      1914430895,
      1914430897,
      1914430899
    ],
    "millsfield:primary_image": 1914430891,
    "millsfield:subcategory_id": 1511213703,
    "mz:is_approximate": 1,
    "mz:is_current": 1,
    "sfomuseum:accession_number": "2002.127.181",
    "sfomuseum:airline": "Braniff International",
    "sfomuseum:airline_id": [
      1378
    ],
    "sfomuseum:category": "Passenger Amenity, Archive",
    "sfomuseum:classification_id": 581,
    "sfomuseum:collection": "Aviation Archive",
    "sfomuseum:creditline": "Gift of Thomas G. Dragges",
    "sfomuseum:date": "1970",
    "sfomuseum:date_acquired": "2003-12-22",
    "sfomuseum:daterange_end": "1970-12-31",
    "sfomuseum:daterange_start": "1970-01-01",
    "sfomuseum:description": "Safety information card issued by Braniff International, titled “Ditching etiquette”; pink, black, and white double-sided tri-fold card with illustrations depicting inflight safety and emergency procedures; no identification code; no revision date.",
    "sfomuseum:dimensions": "9 1/2 x 5 inches (24.1 x 12.7 cm)",
    "sfomuseum:medium": "paper, ink",
    "sfomuseum:object_id": 68682,
    "sfomuseum:placetype": "object",
    "sfomuseum:publication": ": , 1970.",
    "sfomuseum:subcategory": "Safety Information Card",
    "src:geom": "sfomuseum#undetermined",
    "wof:belongsto": [
      102527513,
      1159162825,
      102191575,
      85633793,
      102087579,
      85922583,
      85688637,
      1159160869
    ],
    "wof:country": "XY",
    "wof:created": 1719300724,
    "wof:depicts": [
      1159286455,
      1159286951
    ],
    "wof:geomhash": "c281b9d9eefc83b5710e64b9d646067d",
    "wof:hierarchy": [
      {
        "building_id": -1,
        "campus_id": 102527513,
        "collection_id": 1159162825,
        "concourse_id": 1159162825,
        "continent_id": 102191575,
        "country_id": 85633793,
        "county_id": 102087579,
        "custom_id": 1914430767,
        "locality_id": 85922583,
        "neighbourhood_id": -1,
        "object_id": 1914430767,
        "region_id": 85688637,
        "wing_id": 1159160869
      }
    ],
    "wof:id": 1914430767,
    "wof:lastmodified": 1787988220,
    "wof:name": "safety information card: Braniff International",
    "wof:parent_id": 1159162825,
    "wof:placetype": "custom",
    "wof:placetype_alt": [
      "object"
    ],
    "wof:repo": "sfomuseum-data-collection",
    "wof:superseded_by": [],
    "wof:supersedes": []
  },
  "bbox": [
    -122.38647222518921,
    37.6161053594541,
    -122.38583385944366,
    37.61661101879963
  ],
  "geometry": {"type":"Polygon","coordinates":[[[-122.38647222518921,37.61631782178288],[-122.386434674263,37.61623283692423],[-122.38637566566466,37.61617759671399],[-122.38630056381224,37.6161308549656],[-122.38616108894348,37.6161053594541],[-122.38602161407469,37.6161308549656],[-122.38591432571411,37.61618609521055],[-122.38585531711577,37.61626683087935],[-122.38583385944366,37.61636881265146],[-122.38587141036987,37.61646654505181],[-122.38594114780425,37.61654303118856],[-122.38605380058287,37.61660252035167],[-122.38618254661559,37.61661101879963],[-122.3863059282303,37.61657277577607],[-122.3864185810089,37.61650903735973],[-122.3864668607712,37.61641130501523],[-122.38647222518921,37.61631782178288]]]}
}
