{
  "id": 1511910057,
  "type": "Feature",
  "properties": {
    "date:cessation_lower": "1927-01-01",
    "date:cessation_upper": "1927-12-31",
    "date:inception_lower": "1927-01-01",
    "date:inception_upper": "1927-12-31",
    "edtf:cessation": "1927",
    "edtf:date": "1927",
    "edtf:inception": "1927",
    "geom:area": 0,
    "geom:bbox": "-122.391953,37.624731,-122.391953,37.624731",
    "geom:latitude": 37.624731,
    "geom:longitude": -122.391953,
    "iso:country": "US",
    "millsfield:airport_id": [
      1360695653
    ],
    "millsfield:category_id": 1511214239,
    "millsfield:collection_id": 1511214207,
    "millsfield:images": [
      1527856755,
      1527856757
    ],
    "millsfield:images_colors_refs": {
      "crayola": [
        {
          "hex": "#efcdb8"
        },
        {
          "hex": "#9f8170"
        },
        {
          "hex": "#414a4c"
        },
        {
          "hex": "#efdecd"
        },
        {
          "hex": "#4a646c"
        }
      ],
      "css4": [
        {
          "hex": "#808080"
        },
        {
          "hex": "#ffe4c4"
        },
        {
          "hex": "#2f4f4f"
        },
        {
          "hex": "#696969"
        },
        {
          "hex": "#f5deb3"
        }
      ],
      "marekm4": [
        {
          "hex": "#938d76"
        },
        {
          "hex": "#e9dfc7"
        },
        {
          "hex": "#e0d4b6"
        },
        {
          "hex": "#3e3d39"
        },
        {
          "hex": "#56585c"
        }
      ]
    },
    "millsfield:images_texts": [
      "South San Francisco Chamber of Commerce\nSouth San Francisco, San Mateo County, Calif\nMarch 17, 1927\nAirport Committee\nBoard of Supervisors\nCity and County of San reneloco\nGentlemen:\nHerewith record of weather at South san Francisco\nas kept by the Chember of Comerce from October 30, 1926\ntoilerch 12, 1927.\nlie are sending you this record for the\nreason that it may be or some value in constructing \u0026\nrecond of the peather for the tangorary siport site on\nthe 1111a Property which adjoin the proposed pemanent\nsite et South san Frare isco .\nThe record shows that during this period Chere\nwore about ten days on which we hed fog darlug a part of\nthe day and on five of these dajs the fog ries a tule fogs\nand me belleve that the year's record will show that the\nfog at South San francisco during the year wt12 compare\ntevombly with Oila nå, which the government record show\nhas about 100 hours of fog per year and, if anythins, the\nrecord we believe will be under this at South \"m Praz-\nBe would be pleased to contime keeping this\nrecond untll the government has established its westher\nstation on\nthe South an ironcisco site, 12 you desire\nus to do so•\nToure very truly,\nSOUTH SAN BRAICISCO CHAIBER OF COMMERCE\n\u0026 them\ncanager\nC.C. JOSEPH J. PHILLIPS\n\"THE INDUSTRIAL CITY WHERE RAIL, ROAD AND WATER MEET\"\n210\n310",
      "BATHER RECORD PROM DOTOBER S0, 19 6\n1.30 - Sun and slight haze,\n51 - Sunny and hazey a.m., clear p-m.\nv. 1 -\nJan.\nclear by ll:30 a.m.\n- Tule fog a.m.,\nhaney p.m.\n-\nsunny at noon, hazey\n5\n- Tule fog early a.m.\n- Sunny and hazey.\n7\n- Warm and clear.\n- Sunny•\n9\n- Sunny a.m. cloudy and hazey p.m.\n10\n- Hazey am.,clear p.m. Rain in night\n11 - Sunshine and clear. Rain in night•\n12 -\nRain afternoon.\n13 -\n14\n-\n15 -\n16-\n17\n-\n18 - Hazey\nsun and hazey p.m.\n19 - Rain am., cloudy p•m.\n20 - Sunshine and cleer.\n21 - Sunny am., cloudy and showers p•m.\n22\n- Cloudy and\nshowers\n23\n24\n- Cloudy and windy a.m., sunny p.m.\n25\n- Rain\n26 - Rain a.m., sunny and showers p.m.,\nlightning storm in night.\n27 - Rain and sun intermittent\n28 - Rain\n29 - Sumy a.m., cloudy p.m.\n30 - Sunny all day•\nec. 1 - Foggy 9-11 a.m., clear p.m.\n2 - Cloudy am., rain p.m.\n3 - Sunny\n4 -\n5\n11.\nRain in night\nand windy\n11\n7\ntt\n-\nwindy a.m. only\n10 -\n11\n- Clear am., high fog p.m.\n12 - Sunny and warm, rain in night.\n13 -\n14 - Haze early a•m., sunny and warm.\n15 - Frost a.m., sunny all day•\n16 -\n\"1\n\"1\n17 - Foggy and rain a.m., clear p.m.\n18 - Sunny and clear•\n19 - Frost a.m., sunny and cler\n20 -\n11\nsunny am., high fog p.m.\n21 - Rain a.m., sunny and clear p.m.\n22 - Sunny and clear all day•\n23\n- Sunny and\nnorth wind.\n24 - Sunny and clear.\n25\n-\n26\n27\n28\n29\n30 -\n31 - High fog a.m.\n- Fog a.m., high tog p.m.\n4 -\n5 - Clear e.m., showers 2.m\n6 -\nClear all day\n7 - Sunny\nand clear all day.\n8\n- C1 CEr\nall day\n9 - Cloudy.\n10 - Cloudy and showers.\n11 - Cloudy and showers em., sun F..\n12 - Tule fog 8:30-11 z•m.,sunny aul cloc\n13 - Tule fog carly a.m.,\nclear and suns\n14 - Fog am., clear at noon\nL by !\n15 - Cloudy and showers.\n16 -\n\"1\n17\n- Sunny and clear.\n18 -\n11\n, rain in night.\n19 - Cloudy am., sunny p.m., rain at 4 p.\n20 - Sunny and clear.\n21\n-\n22\n-\n23\n24 -\n25\n- Hazey a.m., clear and sunny p•m•\n26 - Sunny\nand\nshowers intermittent•\n27\n- Cloudy.\n28\n- Sunny and clear.\n29 -\n30 -\n31\nFeb. 1 - Sunny\na•m...\ncloudy p.m.\n2 - Cloudy a.m., sunny p.m.\n3 - Rain\n4 - Sunny and clear\n5 - Rain\n6 - Showers and sunny intemittent.\n7 - Sunny\n8 - Hazey\nearly am., sunny at ll a.m.\n- Sunny\nand clear.\n10\n-\n11\n11\n12 -\nshowers p.m.\n13 - Cloudy\nand showers.\n14\n- Lightning storm \u0026 m., rain, windy\n15\n- Cloudy and showers,\n16\n17\n, storm at night.\n18 - Sunny and\nclear.\n19\n- Cloudy, showers\np.m.\n20 - Cloudy and showers.\n21\n11\n22\nSunny all day, rain at night.\n23\n- Cloudy, showers p.m.\n24 - Cloudy.\n25\n-\n26 - Sunny\nand clear\n27\n-\n11\n28 -\nMer. 1 - Hasey early selleg sunny and clear\n2 - Rain ame, cloudy and showore parte\n- Cloudy elle, Clear Detle rain night•\nSunny Boleg\ncloudy pete\n5\n-\nSunny and cler•\n-\n8\n-\nCloudy\n9 - Showers sale, sunny and windy Dom.\n10 Sunny and clear.\nwindy.\n11 - Sunny\n18 - loudy."
    ],
    "millsfield:images_texts_ids": [
      1527856755,
      1527856757
    ],
    "millsfield:primary_image": 1527856755,
    "millsfield:subcategory_id": 1511213483,
    "mz:hierarchy_label": 1,
    "mz:is_approximate": 1,
    "mz:is_current": 1,
    "sfomuseum:accession_number": "2000.018.013 a b",
    "sfomuseum:airport": "Mills Field Municipal Airport of San Francisco",
    "sfomuseum:airport_id": [
      162
    ],
    "sfomuseum:category": "Company Record / Document",
    "sfomuseum:classification_id": 190,
    "sfomuseum:collection": "Aviation Archive",
    "sfomuseum:creditline": "Collection of SFO Museum",
    "sfomuseum:date": "1927",
    "sfomuseum:date_acquired": "1999-06-30",
    "sfomuseum:daterange_end": "1927-12-31",
    "sfomuseum:daterange_start": "1927-01-01",
    "sfomuseum:description": "a. Typed correspondence from South San Francisco Chamber of Commerce to Airport Committee of Board of Supervisors, City and County of San Francisco, dated March 17, 1927, concerning construction of meteorological station in conjunction with temporary airport on Mills Estate property;\rb. weather report from October 30, 1926 through February (1927?).",
    "sfomuseum:dimensions": "13 x 8 1/2 inches (33 x 21.6 cm)",
    "sfomuseum:media_ids": [
      1527856755,
      1527856757
    ],
    "sfomuseum:medium": "paper, ink",
    "sfomuseum:object_id": 50619,
    "sfomuseum:placetype": "object",
    "sfomuseum:primary_media_id": 1527856755,
    "sfomuseum:publication": ": , 1927.",
    "sfomuseum:subcategory": "Correspondence, Company",
    "src:geom": "sfomuseum#derived",
    "src:geom_derived_from": [
      1360695653
    ],
    "wof:belongsto": [
      102527513,
      102191575,
      85633793,
      85922583,
      102087579,
      85688637,
      1159162825,
      1159160869,
      1360695653,
      554784711,
      102085387
    ],
    "wof:breaches": [],
    "wof:country": "US",
    "wof:created": 1579906670,
    "wof:depicts": [
      1360695653
    ],
    "wof:geomhash": "3abf1c04b00c12d6593e9cd3c35f0056",
    "wof:hierarchy": [
      {
        "campus_id": 1360695653,
        "continent_id": 102191575,
        "country_id": 85633793,
        "county_id": 102087579,
        "custom_id": 1511910057,
        "locality_id": 85922583,
        "object_id": 1511910057,
        "postalcode_id": 554784711,
        "region_id": 85688637
      },
      {
        "campus_id": 1360695653,
        "continent_id": 102191575,
        "country_id": 85633793,
        "county_id": 102085387,
        "custom_id": 1511910057,
        "object_id": 1511910057,
        "region_id": 85688637
      },
      {
        "building_id": -1,
        "campus_id": 102527513,
        "collection_id": 1159162825,
        "concourse_id": 1159162825,
        "continent_id": 102191575,
        "country_id": 85633793,
        "county_id": 102087579,
        "custom_id": 1511910057,
        "locality_id": 85922583,
        "neighbourhood_id": -1,
        "object_id": 1511910057,
        "region_id": 85688637,
        "wing_id": 1159160869
      }
    ],
    "wof:id": 1511910057,
    "wof:lastmodified": 1787988176,
    "wof:name": "correspondence: South San Francisco Chamber of Commerce, City and County of San Francisco, temporary airport site",
    "wof:parent_id": 1159162825,
    "wof:placetype": "custom",
    "wof:placetype_alt": [
      "object"
    ],
    "wof:repo": "sfomuseum-data-collection",
    "wof:superseded_by": [],
    "wof:supersedes": [],
    "wof:tags": []
  },
  "bbox": [
    -122.391953,
    37.624731,
    -122.391953,
    37.624731
  ],
  "geometry": {"type":"MultiPoint","coordinates":[[-122.391953,37.624731]]}
}
