{
  "id": 1913795671,
  "type": "Feature",
  "properties": {
    "date:cessation_lower": "1933-04-23",
    "date:cessation_upper": "1933-04-23",
    "date:inception_lower": "1933-04-23",
    "date:inception_upper": "1933-04-23",
    "edtf:cessation": "1933-04-23",
    "edtf:inception": "1933-04-23",
    "geom:area": 2.475047457570636e-7,
    "geom:bbox": "-122.386472,37.616105,-122.385834,37.616611",
    "geom:latitude": 37.61635747477365,
    "geom:longitude": -122.38615540108617,
    "millsfield:airline_id": [
      1159284991,
      1159285931
    ],
    "millsfield:category_id": 1511214251,
    "millsfield:collection_id": 1511214207,
    "millsfield:company_id": [
      1159286721
    ],
    "millsfield:images": [
      1913800441
    ],
    "millsfield:images_colors_refs": {
      "crayola": [
        {
          "hex": "#9f8170"
        },
        {
          "hex": "#414a4c"
        },
        {
          "hex": "#8a795d"
        },
        {
          "hex": "#edd19c"
        }
      ],
      "css4": [
        {
          "hex": "#696969"
        },
        {
          "hex": "#bc8f8f"
        },
        {
          "hex": "#2f4f4f"
        },
        {
          "hex": "#eee8aa"
        }
      ],
      "marekm4": [
        {
          "hex": "#857a57"
        },
        {
          "hex": "#a3966e"
        },
        {
          "hex": "#ecd9a5"
        },
        {
          "hex": "#413b26"
        }
      ]
    },
    "millsfield:images_texts": [
      "CATHAY\nHOTEL\nCABLE ADDRESS\nCATHOTEL\"\nSHANGHAI. CHINA.\nSunday April 23'33\nDearest Debs\nGroeger, the lucky dog, has finished his part\nof our job in China and is leaving tonight for home.\nI am asking him to take this letter to you and to get\nin touch with you in person as soon as possible to\ntell you ab out our trip and the present status of\nnegotiations. The cable ordering Groeger home came this\nmorning and you never saw a happier man in your life\nthan that Dutchman. Of course it has been a sad day for\nme not that I will mind missing G but the thought of\nhim and his luck has made me plenty jealous and terr-\nibly homesick. I am sending some night gowns by G\nwhich cost about $ 3.00 each. If they are any good\nyou can write me and\nI will get some more - better ones\nif you like which cost about twice as much but are very\nelab orate. It was for that reason that I bought these.\nMaybe you can give them away if they are no good. I am\nalso sending with the nighties some cock tail sets. I\nam terribly sorry but I can not remember whether I sent\nthe blue ones to Ruth or to 4904. Please send them all\nout to Ma and ask her to get together with Ruth.\nI have been very busy and believe have made some\nreal progress. You see I was really unable to do any-\nthing until the deal for the acquisition of China Air\nby PAA on April Ist. Now am making some real strides.\nHad a grand party for the Doolittles Friday. Everyone\nsaid it was the best party which has been given. Had\nlots of people to whom I was under obligations.Dr.Fearn\nthe Hutchins, Howards, Jouetts, Arnolds and others. All\nseemed to enjoy the dinner and\ndancing •\nGroeger and I\nare now going over reports and later I will go out to\nthe boat with him to say\n\"good bye\"\nLots and lots of love\nand\nthe kids -\nHad\nP. S.\nAlso raelor hirt wek laat of 12 dole\nand\nthe\nlatter\na cay handka cod on or had dec\ngood luck!"
    ],
    "millsfield:images_texts_ids": [
      1913800441
    ],
    "millsfield:primary_image": 1913800441,
    "millsfield:subcategory_id": 1511213489,
    "mz:is_approximate": 1,
    "mz:is_current": 1,
    "sfomuseum:accession_number": "2019.121.0636",
    "sfomuseum:airline": "Pan American Airways",
    "sfomuseum:airline_id": [
      685,
      1131
    ],
    "sfomuseum:category": "Employee Career History",
    "sfomuseum:classification_id": 195,
    "sfomuseum:collection": "Aviation Archive",
    "sfomuseum:creditline": "Collection of SFO Museum",
    "sfomuseum:date": "04/23/1933",
    "sfomuseum:date_acquired": "2019-11-22",
    "sfomuseum:daterange_end": "1933-04-23",
    "sfomuseum:daterange_start": "1933-04-23",
    "sfomuseum:description": "Typewritten letter from Harold M. Bixby to his wife, Debby Bixby, dated Sunday, April 23, 1933, on stationery from Cathay Hotel in Shanghai, with handwritten note at end; includes description of [Paul] Groeger leaving China and brief update on his work with CNAC, party for [James “Jimmy” and Josephine] Doolittle.",
    "sfomuseum:dimensions": "8 1/4 x 5 1/4 inches (21 x 13.3 cm)",
    "sfomuseum:medium": "paper, ink",
    "sfomuseum:object_id": 210974,
    "sfomuseum:placetype": "object",
    "sfomuseum:publication": ": , 04/23/1933.",
    "sfomuseum:subcategory": "Correspondence, Personal",
    "src:geom": "sfomuseum#undetermined",
    "wof:belongsto": [
      102527513,
      1159162825,
      102191575,
      85633793,
      102087579,
      85922583,
      85688637,
      1159160869
    ],
    "wof:country": "XY",
    "wof:created": 1714548860,
    "wof:depicts": [
      1159286721,
      1159284991,
      1159285931
    ],
    "wof:geomhash": "c281b9d9eefc83b5710e64b9d646067d",
    "wof:hierarchy": [
      {
        "building_id": -1,
        "campus_id": 102527513,
        "collection_id": 1159162825,
        "concourse_id": 1159162825,
        "continent_id": 102191575,
        "country_id": 85633793,
        "county_id": 102087579,
        "custom_id": 1913795671,
        "locality_id": 85922583,
        "neighbourhood_id": -1,
        "object_id": 1913795671,
        "region_id": 85688637,
        "wing_id": 1159160869
      }
    ],
    "wof:id": 1913795671,
    "wof:lastmodified": 1787988219,
    "wof:name": "correspondence: Harold M. Bixby to Debby Bixby",
    "wof:parent_id": 1159162825,
    "wof:placetype": "custom",
    "wof:placetype_alt": [
      "object"
    ],
    "wof:repo": "sfomuseum-data-collection",
    "wof:superseded_by": [],
    "wof:supersedes": []
  },
  "bbox": [
    -122.38647222518921,
    37.6161053594541,
    -122.38583385944366,
    37.61661101879963
  ],
  "geometry": {"type":"Polygon","coordinates":[[[-122.38647222518921,37.61631782178288],[-122.386434674263,37.61623283692423],[-122.38637566566466,37.61617759671399],[-122.38630056381224,37.6161308549656],[-122.38616108894348,37.6161053594541],[-122.38602161407469,37.6161308549656],[-122.38591432571411,37.61618609521055],[-122.38585531711577,37.61626683087935],[-122.38583385944366,37.61636881265146],[-122.38587141036987,37.61646654505181],[-122.38594114780425,37.61654303118856],[-122.38605380058287,37.61660252035167],[-122.38618254661559,37.61661101879963],[-122.3863059282303,37.61657277577607],[-122.3864185810089,37.61650903735973],[-122.3864668607712,37.61641130501523],[-122.38647222518921,37.61631782178288]]]}
}
