{
  "id": 2048162257,
  "type": "Feature",
  "properties": {
    "date:cessation_lower": "1956-01-01",
    "date:cessation_upper": "1956-12-31",
    "date:inception_lower": "1956-01-01",
    "date:inception_upper": "1956-12-31",
    "edtf:cessation": "1956",
    "edtf:inception": "1956",
    "geom:area": 2.475047457570636e-7,
    "geom:bbox": "-122.386472,37.616105,-122.385834,37.616611",
    "geom:latitude": 37.61635747477365,
    "geom:longitude": -122.38615540108617,
    "millsfield:aircraft_id": [
      1159291963
    ],
    "millsfield:airline_id": [
      1159284093
    ],
    "millsfield:category_id": 1511214215,
    "millsfield:collection_id": 1511214207,
    "millsfield:company_id": [
      1159293777
    ],
    "millsfield:images": [
      2048164829,
      2048166839
    ],
    "millsfield:images_texts": [
      "The Viscount is the world's\nCapital Airlines\nUNITED\nUNITED\nfirst turbo-prop airliner. Four\nSTATES\nVISCOUNT\npowerful Rolls-Royce engines\nSTATES\ngive the Viscount swiftness\nPOSTAGE\nDOSTAGE\nwith the highest degree of\nG\nPOWERED BY\nSmoothnes:\nPOLLSROCE\nwe took off3t9:20 ErRe 1956\n2 CENTS 2\nPilot just announced we'd\n2 CENTS 2\nond Chicago at 10: 33 C.S.711.5\nARMATL\n(or 11: 33 D.C.time). We've\nflying above the clouds\nFlying above the clouds\nMr. David A. Abercrombie\nat 16M-t it's smooth\n25 can be. No whistling\n603 Malcolm Place\nsound is audible aFter\ntake-of. Had strawberries,\nAlexandria, Va.\nhot cakes, \u0026 sausage for bhit\n1 should connect ok with my\nUnited Flight - 11:05 C.S. T.\nLove to all,\nAIRMAIL\nDad.",
      "Capital Airlines\nTHE CAPITAL VISCOUNT....\n...A NEW CONCEPT IN FLIGHT"
    ],
    "millsfield:images_texts_ids": [
      2048164829,
      2048166839
    ],
    "millsfield:primary_image": 2048166839,
    "millsfield:subcategory_id": 1511213363,
    "mz:is_approximate": 1,
    "mz:is_current": 1,
    "sfomuseum:accession_number": "2024.046.120",
    "sfomuseum:aircraft": "Vickers Viscount",
    "sfomuseum:aircraft_id": [
      1181
    ],
    "sfomuseum:airline": "Capital Airlines",
    "sfomuseum:airline_id": [
      280
    ],
    "sfomuseum:category": "Philately",
    "sfomuseum:classification_id": 127,
    "sfomuseum:collection": "Aviation Archive",
    "sfomuseum:creditline": "Gift of David Armstrong Abercrombie",
    "sfomuseum:date": "1956",
    "sfomuseum:date_acquired": "2024-06-26",
    "sfomuseum:daterange_end": "1956-12-31",
    "sfomuseum:daterange_start": "1956-01-01",
    "sfomuseum:description": "Color postcard depicting photographic image of Capital Airlines Vickers Viscount in flight; air-to-air three-quarter frontal view; text at bottom “The Captial Viscount ......... A new concept in flight”.",
    "sfomuseum:dimensions": "3 1/2 x 5 1/2 inches (8.9 x 14 cm)",
    "sfomuseum:medium": "paper, ink",
    "sfomuseum:object_id": 245321,
    "sfomuseum:placetype": "object",
    "sfomuseum:publication": ": , 1956.",
    "sfomuseum:subcategory": "Postcard",
    "src:geom": "sfomuseum#undetermined",
    "wof:belongsto": [
      102527513,
      1159162825,
      102191575,
      85633793,
      102087579,
      85922583,
      85688637,
      1159160869
    ],
    "wof:country": "XY",
    "wof:created": 1787792123,
    "wof:depicts": [
      1159293777,
      1159284093,
      1159291963
    ],
    "wof:geomhash": "c281b9d9eefc83b5710e64b9d646067d",
    "wof:hierarchy": [
      {
        "building_id": -1,
        "campus_id": 102527513,
        "collection_id": 1159162825,
        "concourse_id": 1159162825,
        "continent_id": 102191575,
        "country_id": 85633793,
        "county_id": 102087579,
        "custom_id": 2048162257,
        "locality_id": 85922583,
        "neighbourhood_id": -1,
        "object_id": 2048162257,
        "region_id": 85688637,
        "wing_id": 1159160869
      }
    ],
    "wof:id": 2048162257,
    "wof:lastmodified": 1787901828,
    "wof:name": "postcard: Capital Airlines, Vickers Viscount",
    "wof:parent_id": 1159162825,
    "wof:placetype": "custom",
    "wof:placetype_alt": [
      "object"
    ],
    "wof:repo": "sfomuseum-data-collection",
    "wof:superseded_by": [],
    "wof:supersedes": []
  },
  "bbox": [
    -122.38647222518921,
    37.6161053594541,
    -122.38583385944366,
    37.61661101879963
  ],
  "geometry": {"type":"Polygon","coordinates":[[[-122.38647222518921,37.61631782178288],[-122.386434674263,37.61623283692423],[-122.38637566566466,37.61617759671399],[-122.38630056381224,37.6161308549656],[-122.38616108894348,37.6161053594541],[-122.38602161407469,37.6161308549656],[-122.38591432571411,37.61618609521055],[-122.38585531711577,37.61626683087935],[-122.38583385944366,37.61636881265146],[-122.38587141036987,37.61646654505181],[-122.38594114780425,37.61654303118856],[-122.38605380058287,37.61660252035167],[-122.38618254661559,37.61661101879963],[-122.3863059282303,37.61657277577607],[-122.3864185810089,37.61650903735973],[-122.3864668607712,37.61641130501523],[-122.38647222518921,37.61631782178288]]]}
}
