{
  "id": 1914579719,
  "type": "Feature",
  "properties": {
    "date:cessation_lower": "1980-01-01",
    "date:cessation_upper": "1989-12-31",
    "date:inception_lower": "1980-01-01",
    "date:inception_upper": "1989-12-31",
    "edtf:cessation": "198X",
    "edtf:inception": "198X",
    "geom:area": 2.475047457570636e-7,
    "geom:bbox": "-122.386472,37.616105,-122.385834,37.616611",
    "geom:latitude": 37.61635747477365,
    "geom:longitude": -122.38615540108617,
    "millsfield:aircraft_id": [
      1159290417
    ],
    "millsfield:airline_id": [
      1159285003
    ],
    "millsfield:category_id": 1762671311,
    "millsfield:collection_id": 1511214207,
    "millsfield:company_id": [],
    "millsfield:images": [
      1914580121,
      1914580123
    ],
    "millsfield:images_colors_refs": {
      "crayola": [
        {
          "hex": "#1a4876"
        },
        {
          "hex": "#efdecd"
        },
        {
          "hex": "#2e5894"
        },
        {
          "hex": "#324ab2"
        }
      ],
      "css4": [
        {
          "hex": "#faebd7"
        },
        {
          "hex": "#191970"
        },
        {
          "hex": "#483d8b"
        }
      ],
      "marekm4": [
        {
          "hex": "#f1e7d2"
        },
        {
          "hex": "#f1e5da"
        },
        {
          "hex": "#100d74"
        },
        {
          "hex": "#302f91"
        },
        {
          "hex": "#2324a0"
        }
      ]
    },
    "millsfield:images_texts": [
      "DOUGLAS DC-3\nYou are flying aboard a Douglas DC-3. It is unlikely we will\nencounter a situation requiring emergency preparations, but it\nis good practice to be acquainted with the safety features pro-\nvided for you on this aircraft.\nEMERGENCY EXITS\nFRONT\nWINDOW EXITS\n1. Remove celuloid\ncover by pulling\nfree.\n2. Turn handle\nclockwise s\nshown.\n3. Push window\noutward\nWINDOW\nEXITS\nWINDOW\nEXIT\n4. Grasp sides\nof window-\nleg-body-leg.\n5. Roll over as\nyou go out\nwindow\nDOOR\nEXIT\n6. Sit and slide\noff the wing\nREAR\nMAIN CABIN ENTRANCE DOOR\nTo operate door, grasp handle\nand turn clockwise. Push door\noutward.",
      "FLOTATION EQUIPMENT\n(Life Vests)\nLife Vest\nLocation\nFOR FLIGHTS OVER WATER, LIFE VESTS ARE\nLOCATED BENEATH THE SEATS. DONNING IN-\nSTRUCTIONS ARE ON THE VESTS.\nSEAT BELTS\nWhen the seat belt sign if off you may move around in the\ncabin as much as you like. However, we suggest you keep\nyour seat belt loosely fastened at all times while in your\n. seats.\nBRACE POSITION\nIn an emergency situation your\nflight attendant may request\nyou to assume the Bracing\nposition.\nPORTABLE ELECTRONIC DEVICES\nAre you carrying a portable radio or recorder? Federal\nAviation Agency (FAA) regulation prohibits the operation\nof in-flight of certain portable electronic devices since they\ncan interfere with the aircrafts's navigation system. Please\ncheck with the flight attendant before operating your\nradio, dictating machine or recorder.\nPLEASE DO NOT REMOVE THIS CARD\nFROM AIRCRAFT"
    ],
    "millsfield:images_texts_ids": [
      1914580121,
      1914580123
    ],
    "millsfield:primary_image": 1914580121,
    "millsfield:subcategory_id": 1511213703,
    "mz:is_approximate": 1,
    "mz:is_current": 1,
    "sfomuseum:accession_number": "2002.127.482",
    "sfomuseum:aircraft": "Douglas DC-3",
    "sfomuseum:aircraft_id": [
      487
    ],
    "sfomuseum:airline": "PBA (Provincetown-Boston Airlines)",
    "sfomuseum:airline_id": [
      693
    ],
    "sfomuseum:category": "Passenger Amenity, Archive",
    "sfomuseum:classification_id": 581,
    "sfomuseum:collection": "Aviation Archive",
    "sfomuseum:creditline": "Gift of Thomas G. Dragges",
    "sfomuseum:date": "1980s",
    "sfomuseum:date_acquired": "2003-12-22",
    "sfomuseum:daterange_end": "1989-12-31",
    "sfomuseum:daterange_start": "1980-01-01",
    "sfomuseum:description": "Safety information card issued by PBA (Provincetown-Boston Airline) for the Douglas DC-3 fleet; white double-sided card with illustrations depicting inflight safety and emergency procedures; no identification code; no revision date.",
    "sfomuseum:dimensions": "9 x 5 inches (22.9 x 12.7 cm)",
    "sfomuseum:medium": "paper, ink",
    "sfomuseum:object_id": 69250,
    "sfomuseum:placetype": "object",
    "sfomuseum:publication": ": , 1980s.",
    "sfomuseum:subcategory": "Safety Information Card",
    "src:geom": "sfomuseum#undetermined",
    "wof:belongsto": [
      102527513,
      1159162825,
      102191575,
      85633793,
      102087579,
      85922583,
      85688637,
      1159160869
    ],
    "wof:country": "XY",
    "wof:created": 1720683219,
    "wof:depicts": [
      1159290417,
      1159285003
    ],
    "wof:geomhash": "c281b9d9eefc83b5710e64b9d646067d",
    "wof:hierarchy": [
      {
        "building_id": -1,
        "campus_id": 102527513,
        "collection_id": 1159162825,
        "concourse_id": 1159162825,
        "continent_id": 102191575,
        "country_id": 85633793,
        "county_id": 102087579,
        "custom_id": 1914579719,
        "locality_id": 85922583,
        "neighbourhood_id": -1,
        "object_id": 1914579719,
        "region_id": 85688637,
        "wing_id": 1159160869
      }
    ],
    "wof:id": 1914579719,
    "wof:lastmodified": 1787988221,
    "wof:name": "safety information card: PBA (Provincetown-Boston Airline), Douglas DC-3",
    "wof:parent_id": 1159162825,
    "wof:placetype": "custom",
    "wof:placetype_alt": [
      "object"
    ],
    "wof:repo": "sfomuseum-data-collection",
    "wof:superseded_by": [],
    "wof:supersedes": []
  },
  "bbox": [
    -122.38647222518921,
    37.6161053594541,
    -122.38583385944366,
    37.61661101879963
  ],
  "geometry": {"type":"Polygon","coordinates":[[[-122.38647222518921,37.61631782178288],[-122.386434674263,37.61623283692423],[-122.38637566566466,37.61617759671399],[-122.38630056381224,37.6161308549656],[-122.38616108894348,37.6161053594541],[-122.38602161407469,37.6161308549656],[-122.38591432571411,37.61618609521055],[-122.38585531711577,37.61626683087935],[-122.38583385944366,37.61636881265146],[-122.38587141036987,37.61646654505181],[-122.38594114780425,37.61654303118856],[-122.38605380058287,37.61660252035167],[-122.38618254661559,37.61661101879963],[-122.3863059282303,37.61657277577607],[-122.3864185810089,37.61650903735973],[-122.3864668607712,37.61641130501523],[-122.38647222518921,37.61631782178288]]]}
}
