{
  "id": 1763248575,
  "type": "Feature",
  "properties": {
    "date:cessation_lower": "1949-01-01",
    "date:cessation_upper": "1949-12-31",
    "date:inception_lower": "1949-01-01",
    "date:inception_upper": "1949-12-31",
    "edtf:cessation": "1949~",
    "edtf:inception": "1949~",
    "geom:area": 2.475047457570636e-7,
    "geom:bbox": "-122.386472,37.616105,-122.385834,37.616611",
    "geom:latitude": 37.61635747477365,
    "geom:longitude": -122.38615540108617,
    "millsfield:airline_id": [
      1763248423
    ],
    "millsfield:category_id": 1511214223,
    "millsfield:collection_id": 1511214207,
    "millsfield:images": [
      1763248971,
      1763248973
    ],
    "millsfield:images_colors_refs": {
      "crayola": [
        {
          "hex": "#414a4c"
        },
        {
          "hex": "#9f8170"
        },
        {
          "hex": "#efcdb8"
        }
      ],
      "css4": [
        {
          "hex": "#2f4f4f"
        },
        {
          "hex": "#f5deb3"
        },
        {
          "hex": "#808080"
        }
      ],
      "marekm4": [
        {
          "hex": "#e0d6b7"
        },
        {
          "hex": "#948d72"
        },
        {
          "hex": "#322c19"
        },
        {
          "hex": "#e0d7b9"
        },
        {
          "hex": "#433d27"
        }
      ]
    },
    "millsfield:images_texts": [
      "HOUGHTON\nMARQUETTE\nNATIONWIDE AIRLINES\nIRON MOUNTAIN\nDESCANAE\nMENOMINEE\nLANSING\nDETROIT\nTICKET OFFICES\nCITY\nDETROIT\nLANSING\nMENOMINEE..\nESCANABA.\nIRON MOUNTAIN\nMARQUETTE...\nISHPEMING\nHOUGHTON\nOFFICE\nDetroit City Airport..\nCapital City Airport.\nAirport Manager...\nAirport Manager..\nAirport Restaurant...\nChamber of Commerce.\nNorthland Bus Line...\nMemorial Road..\nThe Aerial Bridge\nAcross Lake Michigan\nNORTHBOUND\nSCHEDULES\nSOUTHBOUND\n102\nRead Down\nRead Up\nDaily\nAM\n10\n10\n00\nL DETROIT..\nAr LANSING\nAr MENOMINEE\n(EST) Ar\nAr\nAr\nAr ESCANABA\nAr IRON MOUNTAIN\nAr MARQUETTE\nAr HOU TON/HANC'K/CAL'MET (EST) Lv\n101\nDaily\nPM\n1 00\nPM\nTELEPHONE\nVEnice 9-4030\n9-7010\n4664\n1067\n2550\n411\n8\n148\nPM\nAll times shown are Eastern Standard Time.\nSYSTEM FARES*\nDETROIT OR LANSING\nTO:\nNOTE\nNationwide Airlines is an Intrastate Carrier.\nInterline Tickets are not sold or accepted.\nReservations must be made through authorized\nagents or the company.\nMENOMINEE..\nESCANABA\nIRON MOUNTAIN\nMARQUETTE\nHOUGHTON/HANCOCK/CALUMET\n*-All fares are subject to 15% Federal Tax.\nRound Trip fares offer approximately a 10% saving.\nINQUIRE ABOUT OUR FAMILY PLAN\nONE\nWAY\n$24.95\n24.95\n24.95\n27.44\n27.44\nROUND\nTRIP\n$45\n.00\nFor Reservations in Detroit\nPhone\nNationwide VE 9-4030",
      "Member Or MIA-UnIversal Air travel Caras nonoreu\nrarry to interine licketing and baggage Agreement\nPASSENGERS-AIR MAIL-AIR EXPRESS\nLockheed Electra Equipment All Flights\nRESERVATIONS-INFORMATION-TICKETS\nCITY\nAIRPORT\nPHONE\nBrainerd, Minn.\nBrainerd-Crow Wing..\n10%\nCHISHOLM\nSAKE SUPERIOR\nDULUTH -\n5531\nChicago,\nMunicipal\nMICHIGAN\nO'LAKES\nPortsmouth 7-8800\nChicago, III.\nCity Ticket Office\nFranklin 2-8660\nChisholm, Minn..\nHibbing Municipal\nHibbing 1250-W\nREDUCTION ON\nRHINELANDER O\nClintonville, Wis.\n-\nST. CLOUD j\nSI N\nMunicipal\n210\nDuluth, Minn...\nWilliamson-Johnson\nMelrose 3000\nEau Claire, Wis.\nMunicipal\n4633\nGreen Bay, Wis.\nAustin Straubel\nHoward 8160\nRETURN TRIPS\nINNEAPOLIS-\nT. PAUI\nC WAUSAU•\nEAU CLAIRE\nO STEVENS POINT\nWISCONSIN\nCLINTONVILLE\nHibbing, Minn..\nMunicipal\n1250-W\nMadison, Wis..\nMunicipal.\nGifford 7343\nMilwaukee, Wis..\nGen. Mitchell\nHumboldt 3-5100\nOSHKOSH\nMinneapolis, Minn..\nWold-Chamberlain\nParker 6691\nA\nOshkosh, Wis.\nWinnebago County.\nStanley 5\nRhinelander, Wis.\nMunicipal..\n98- X\nSt. Cloud, Minn..\nWhitney Memorial\n4580\nSt. Paul, Minn..\nCity Ticket Office.\nGarfield 5909\nStevens Point, Wis..\nMunicipal..\n2510\nSuperior, Wis..\nWilliamson-Johnson..\nMelrose 3000\nRECOMMEND THE\nPLANE-AUTO PLAN TO\nYOUR PASSENGERS.\nFOR DETAILS ON HOW\nTHIS PLAN WORKS-\nSEE PAGE 4.\nU. S. AIR MAIL\nROUTE No. 86\n- C. A. B. authorized route\nbeing served.\n•Wausau temporarily served\nthrough Stevens Point dus-\ning airport construction.\nKENOSHA\nCAKE MICHIGAN\nWausau,\nWis.\nCity Ticket Office..\n4550\nI NOTS\nWis. Rapids, Wis.\nStevens Pt. Municipal\nStevens Pt. 2510\nV\nONE WAY AND ROUND TRIP PASSENGER FARES\nAND\nBrainerd Chicago\nClinton-\nville\nDuluth-\nSuperior\nEau\nClaire\nGreen\nBay\nMinne-\nRhine-\napolis-\nOshkosh\nlander\nSt. Paul\nSt.\nCloud\nStevens\nPoint\nBETWEEN\nBRAINERD\nCHICAGO\nCLINTONVILLE\nDULUTH-SUPERIOR\nEAU CLAIRE.\nGREEN BAY\nHIBBING-CHISHOLM\nMADISON\nMILWAUKEE\nMINNEAPOLIS-ST. PAUL\nOSHKOSH..\nRHINELANDER\nST. CLOUD.\nSTEVENS PT.-WIS. RAPIDS\nMadison\nMil-\nwaukee\n26\n• 65\n20.65\n8.55\n12.20\n22.50\n5.60\n20.95\n23.60\n7.10\n23.60\n17.85\n3.10\n17.70\n$50.70\n14.00\n25.50\n17.20\n12.15\n28.45\n7.50\n4.95\n19.55\n9.75\n18.00\n23.55\n13.40\n$39.30\n26.60\n15.25\n8.45\n1.85\n18.20\n8.85\n9.05\n13\n.55\n4.25\n5\n17\n2.95\n$16.30\n48.\n.50\n29.00\n17.80\n17.10\n2.95\n19.80\n22.45\n14.35\n19.50\n9.30\n11\n- 65\n13\n.90\n$23.20\n32\n.70\n16.10\n10\n1.30\n16\n.50\n10.30\n13.70\n5\n.25\n12.70\n8\n.50\n9\n.10\n5.50\n$42.80\n23.10\n3\ng\n32\n.50\n19\n. 60\n20.05\n10.70\n7.20\n15.40\n2.40\n7.80\n19\n.40\n4.80\nHibbing\nChis-\nholm\n$10.70\n54.10\n34.60\n5\n.70\n31\n.40\n38.\n.10\n22.75\n25.40\n11\n.40\n22.45\n12\n.25\n8.70\n16.85\n$39\n.90\n14.30\n16\n:90\n37\n70\n19\n. 60\n20\n.40\n43\n. 30\n4.40\n13.85\n9.20\n10.50\n17.85\n5.90\n$44.90\n9.50\n17\n•20\n42\n.70\n26\n.10\n13\n.70\n48\n.30\n8.40\n16.50\n4.80\n14.90\n20\n.50\n10.30\n$13\n37\n.50\n25\n27\n10\n.00\n29\n•30\n21\n26\n31\n16\n13\n4\n10.\n$44.90\n18.60\n8.10\n37.10\n24.20\n4\n. 60\n42\n.70\n17\n.50\n.20\n.40\n10\n.20\n20\n.50\n7.20\n$34.00\n34.20\n11\n.40\n17\n.70\n16\n:20\n14\n.90\n23\n20\n.30\n28\n.00\n.40\n25\n.90\n19\n.40\n17\n• 60\n4.60\n$ 5.90\n44\n.80\n33\n.40\n22\n•20\n17\n.30\n36\n.90\n16\n34\n. 60\n. 00\n.00\n. 60\n$33\n.70\n.50\n5\n. 70\n26\n.50\n10\n.50\n9\n32\n11\nLight face figures are One Way Fares. Bold face figures are Round Trip.\nChildren 2 to 12—half fare.\nAll fares subject to 15% Federal Tax."
    ],
    "millsfield:images_texts_ids": [
      1763248971,
      1763248973
    ],
    "millsfield:primary_image": 1763248971,
    "millsfield:subcategory_id": 1511213425,
    "mz:is_approximate": 1,
    "mz:is_current": 1,
    "sfomuseum:accession_number": "2014.084.1449",
    "sfomuseum:airline": "Nationwide Airlines",
    "sfomuseum:airline_id": [
      1543
    ],
    "sfomuseum:category": "Scheduling / Ticketing",
    "sfomuseum:classification_id": 158,
    "sfomuseum:collection": "Aviation Archive",
    "sfomuseum:creditline": "Gift of Thomas G. Dragges",
    "sfomuseum:date": "c. 1949",
    "sfomuseum:date_acquired": "2015-07-02",
    "sfomuseum:daterange_end": "1954-12-31",
    "sfomuseum:daterange_start": "1944-01-01",
    "sfomuseum:description": "Timetable issued by OAG (Online Airline Guide) for service routes by Nationwide Airlines, undated (c. 1949); partial page cut from OAG with route map and schedule information (incomplete); includes fare information.",
    "sfomuseum:dimensions": "5 1/4 x 7 1/4 inches (13.3 x 18.4 cm)",
    "sfomuseum:medium": "paper, ink",
    "sfomuseum:object_id": 159064,
    "sfomuseum:placetype": "object",
    "sfomuseum:publication": ": , c. 1949.",
    "sfomuseum:subcategory": "Timetable",
    "src:geom": "sfomuseum#undetermined",
    "wof:belongsto": [
      102527513,
      1159162825,
      102191575,
      85633793,
      102087579,
      85922583,
      85688637,
      1159160869
    ],
    "wof:country": "XY",
    "wof:created": 1646987904,
    "wof:depicts": [
      1763248423
    ],
    "wof:geomhash": "c281b9d9eefc83b5710e64b9d646067d",
    "wof:hierarchy": [
      {
        "building_id": -1,
        "campus_id": 102527513,
        "collection_id": 1159162825,
        "concourse_id": 1159162825,
        "continent_id": 102191575,
        "country_id": 85633793,
        "county_id": 102087579,
        "custom_id": 1763248575,
        "locality_id": 85922583,
        "neighbourhood_id": -1,
        "object_id": 1763248575,
        "region_id": 85688637,
        "wing_id": 1159160869
      }
    ],
    "wof:id": 1763248575,
    "wof:lastmodified": 1787988205,
    "wof:name": "timetable: Nationwide Airlines",
    "wof:parent_id": 1159162825,
    "wof:placetype": "custom",
    "wof:placetype_alt": [
      "object"
    ],
    "wof:repo": "sfomuseum-data-collection",
    "wof:superseded_by": [],
    "wof:supersedes": []
  },
  "bbox": [
    -122.38647222518921,
    37.6161053594541,
    -122.38583385944366,
    37.61661101879963
  ],
  "geometry": {"type":"Polygon","coordinates":[[[-122.38647222518921,37.61631782178288],[-122.386434674263,37.61623283692423],[-122.38637566566466,37.61617759671399],[-122.38630056381224,37.6161308549656],[-122.38616108894348,37.6161053594541],[-122.38602161407469,37.6161308549656],[-122.38591432571411,37.61618609521055],[-122.38585531711577,37.61626683087935],[-122.38583385944366,37.61636881265146],[-122.38587141036987,37.61646654505181],[-122.38594114780425,37.61654303118856],[-122.38605380058287,37.61660252035167],[-122.38618254661559,37.61661101879963],[-122.3863059282303,37.61657277577607],[-122.3864185810089,37.61650903735973],[-122.3864668607712,37.61641130501523],[-122.38647222518921,37.61631782178288]]]}
}
