{
  "id": 1762680889,
  "type": "Feature",
  "properties": {
    "date:cessation_lower": "1970-01-01",
    "date:cessation_upper": "1979-12-31",
    "date:inception_lower": "1970-01-01",
    "date:inception_upper": "1979-12-31",
    "edtf:cessation": "197X",
    "edtf:inception": "197X",
    "geom:area": 0,
    "geom:bbox": "-157.918416,21.332508,-157.918416,21.332508",
    "geom:latitude": 21.332508,
    "geom:longitude": -157.918416,
    "iso:country": "US",
    "millsfield:airport_id": [
      102533997
    ],
    "millsfield:category_id": 1511214215,
    "millsfield:collection_id": 1511214207,
    "millsfield:images": [
      1762711051,
      1762711053
    ],
    "millsfield:images_colors_refs": {
      "crayola": [
        {
          "hex": "#2e5894"
        },
        {
          "hex": "#000000"
        },
        {
          "hex": "#dbd7d2"
        },
        {
          "hex": "#414a4c"
        },
        {
          "hex": "#9f8170"
        },
        {
          "hex": "#6699cc"
        },
        {
          "hex": "#8a795d"
        },
        {
          "hex": "#a5694f"
        }
      ],
      "css4": [
        {
          "hex": "#778899"
        },
        {
          "hex": "#000000"
        },
        {
          "hex": "#bc8f8f"
        },
        {
          "hex": "#dcdcdc"
        },
        {
          "hex": "#483d8b"
        },
        {
          "hex": "#2f4f4f"
        },
        {
          "hex": "#a0522d"
        },
        {
          "hex": "#d3d3d3"
        },
        {
          "hex": "#cd853f"
        }
      ],
      "marekm4": [
        {
          "hex": "#4d5f8e"
        },
        {
          "hex": "#3e3850"
        },
        {
          "hex": "#1d5197"
        },
        {
          "hex": "#996354"
        },
        {
          "hex": "#6f8aa8"
        },
        {
          "hex": "#e2d8c4"
        },
        {
          "hex": "#e0ded3"
        },
        {
          "hex": "#a68e74"
        },
        {
          "hex": "#9b9252"
        },
        {
          "hex": "#1c1c14"
        }
      ]
    },
    "millsfield:images_texts": [
      "Honolulu International Airport",
      "CARD #3 4-17-59-Iuday\nHonolulu International Airport\nHIA WAM\nArrivals and departures for the East and West make\nthis airport one of the busiest in the world.\nJust finished beakfast!\njust finished beak fast\nVE CARD\nand have tire to mite this\ncard befne \"pict. up tude bling) oberts.\nat the hotel to the airport,\nReave Honolulu at1100G.m. for\nmanila on Pan Am Flight\n4835, Que arrive at manila\nat biosa. mon dundanyt the\nday is lost by crooking the\nInternatina Date Line, Huck\nIce find it on reture to the\nStates hetween Listm and\nNew yah,\ncleanie\nC7073\nDistributed by Movie Supply of Hawaii. Honolulu, T.H.\nAsSincoln-\nACEMAIL\nRMAIL\n5€\n6754\n3.\nUNITED STATES POSTAGE\nMR. AL SIMMONS\n9. S.D. BirDERy\n760 INDIA ST.\nBERKELEY 2,\nSAN DIEGO - CALIF.\nCALIF\n4. S, A.\n197"
    ],
    "millsfield:images_texts_ids": [
      1762711051,
      1762711053
    ],
    "millsfield:primary_image": 1762711051,
    "millsfield:subcategory_id": 1511213363,
    "mz:is_approximate": 1,
    "mz:is_current": 1,
    "sfomuseum:accession_number": "2015.166.1977",
    "sfomuseum:airport": "Honolulu International Airport",
    "sfomuseum:airport_id": [
      53
    ],
    "sfomuseum:category": "Philately",
    "sfomuseum:classification_id": 127,
    "sfomuseum:collection": "Aviation Archive",
    "sfomuseum:creditline": "Gift of Thomas G. Dragges",
    "sfomuseum:date": "1970s",
    "sfomuseum:date_acquired": "2017-01-13",
    "sfomuseum:daterange_end": "1979-12-31",
    "sfomuseum:daterange_start": "1970-01-01",
    "sfomuseum:description": "Postcard with color photographic image depicting Honolulu Airport air traffic control tower; mailed.",
    "sfomuseum:dimensions": "3 1/2 x 5 1/2 inches (8.9 x 14 cm)",
    "sfomuseum:medium": "paper, ink",
    "sfomuseum:object_id": 181738,
    "sfomuseum:placetype": "object",
    "sfomuseum:publication": ": , 1970s.",
    "sfomuseum:subcategory": "Postcard",
    "src:geom": "sfomuseum#derived",
    "src:geom_derived_from": [
      102533997
    ],
    "wof:belongsto": [
      102527513,
      1159162825,
      102191575,
      85633793,
      102087579,
      85922583,
      85688637,
      1159160869,
      102533997,
      102085417,
      85937601,
      85869065,
      85688671
    ],
    "wof:country": "US",
    "wof:created": 1641339822,
    "wof:depicts": [
      102533997
    ],
    "wof:geomhash": "382edc22b29c8aed42538ed9679487ca",
    "wof:hierarchy": [
      {
        "building_id": -1,
        "campus_id": 102527513,
        "collection_id": 1159162825,
        "concourse_id": 1159162825,
        "continent_id": 102191575,
        "country_id": 85633793,
        "county_id": 102087579,
        "custom_id": 1762680889,
        "locality_id": 85922583,
        "neighbourhood_id": -1,
        "object_id": 1762680889,
        "region_id": 85688637,
        "wing_id": 1159160869
      },
      {
        "campus_id": 102533997,
        "continent_id": -1,
        "country_id": 85633793,
        "county_id": 102085417,
        "custom_id": 1762680889,
        "locality_id": 85937601,
        "neighbourhood_id": 85869065,
        "object_id": 1762680889,
        "region_id": 85688671
      }
    ],
    "wof:id": 1762680889,
    "wof:lastmodified": 1787988192,
    "wof:name": "postcard: Honolulu International Airport",
    "wof:parent_id": 1159162825,
    "wof:placetype": "custom",
    "wof:placetype_alt": [
      "object"
    ],
    "wof:repo": "sfomuseum-data-collection",
    "wof:superseded_by": [],
    "wof:supersedes": []
  },
  "bbox": [
    -157.918416,
    21.332508,
    -157.918416,
    21.332508
  ],
  "geometry": {"type":"MultiPoint","coordinates":[[-157.918416,21.332508]]}
}
