{
  "id": 1511955337,
  "type": "Feature",
  "properties": {
    "date:cessation_lower": "1969-01-01",
    "date:cessation_upper": "1969-12-31",
    "date:inception_lower": "1969-01-01",
    "date:inception_upper": "1969-12-31",
    "edtf:cessation": "1969",
    "edtf:date": "1969",
    "edtf:inception": "1969",
    "geom:area": 0,
    "geom:bbox": "-122.386155,37.616357,-122.386155,37.616357",
    "geom:latitude": 37.616357,
    "geom:longitude": -122.386155,
    "iso:country": "XX",
    "millsfield:airline_id": [
      1159285043
    ],
    "millsfield:category_id": 1511214223,
    "millsfield:collection_id": 1511214207,
    "millsfield:company_id": [
      1159287479
    ],
    "millsfield:images": [
      1527841653,
      1527850713
    ],
    "millsfield:images_colors_refs": {
      "crayola": [
        {
          "hex": "#9c2542"
        },
        {
          "hex": "#efdecd"
        },
        {
          "hex": "#414a4c"
        },
        {
          "hex": "#cdc5c2"
        },
        {
          "hex": "#000000"
        },
        {
          "hex": "#ff2b2b"
        }
      ],
      "css4": [
        {
          "hex": "#d3d3d3"
        },
        {
          "hex": "#2f4f4f"
        },
        {
          "hex": "#000000"
        },
        {
          "hex": "#dcdcdc"
        },
        {
          "hex": "#ff0000"
        },
        {
          "hex": "#b22222"
        }
      ],
      "marekm4": [
        {
          "hex": "#db130f"
        },
        {
          "hex": "#231627"
        },
        {
          "hex": "#dbcbc1"
        },
        {
          "hex": "#e8dbc8"
        },
        {
          "hex": "#312a3e"
        },
        {
          "hex": "#c72121"
        }
      ]
    },
    "millsfield:images_texts": [
      "QANTAS\nSCHEDULES \u0026 FARES\nMarch 29th to April 26th\n1969\nAUSTRALIA'S ROUND-THE-WORD AIRLINE",
      "LONDON\nTo New York\nTo Bermuda\nPras\nAMSTERDAM\nLANKFURT\nVIENNA\nMoscow\nGene\nISTANBOL\nROME\nATHENS\nel Aviy\nReiru\nCAIRO O\nKuwait\nBAHRAIN\nJeddak\nTEHERAN\nConnections are available\non associate carriers\nbetween all major African\nand European centres.\nCOLOMBOO\nMAURITIUS\nWeather Worldwide\n(APRIL)\n(AVERAGE)\nTEMPERATURE\nMax Min Max Min\nRelative\nHumidity\nACAPULCO\nAMSTERDAM\nAUCKLAND\nBAHRAIN\nBANGKOK\nBERMUDA\nBRISBANE\nCAIRO\nCALCUTTA\nCHRISTCHURCH\nCOLOMS\nDARWIN\nDELHI\nDJAKARTA\nC DANKAS RAI\nHONG KONG\nHONOLULU\nISTANBUL\nJOHANNESBURG\nKEU ALA\nLONDON\nMANILA\nMAURITIUS\nMELBOURNE\nMEXICO CITY\nNAS\nNASSAU\nNEW YORK\nNORFOLK ISLAND\nPAPEETE\nPERTH\nPORT MORESBY\nROME\nSAN\nFRANCISCO\nSINGAPORE\nSYDNEY\nTEHERAN\nVANCOUVER\nVIENNA\nWELLINGTON\nJOHANNESBURG\nNEW GUINEA\nTo Manila\nTo Hong Kong\n*\nPORT MORESBY\nTo Sydney\nTOKYO\nNEW DELHI\nHONG KONG\nCALCUTTA\nngoon\nMANILA\nBANGKOK\nKota\nKUALA\nO SINGAPORE\nLUMPUR\nDJAKARTA O\nO\nDARWINO\nBRISBAN\nSYDNEY\nPERTH\nMELBOURNEO\nFIJI AIRWAYS-Local Services\nNauru\nTarawa\nGILBERT ISLANDS\nELLICE ISLANDS\nFunafuti\nSOLOMON ISLANDS\n• Honiara\nEspiritu Santo\nTo London\nApia\nSAMOAN ISLANDS\nLabasa\nNEW HEBRIDES\nVila\nMatei\nSavu\nSavu\nNADI\nSuva\no Auckland\nTonga\nHONOLULU\nVANCOUVER\nSAN FRANCISCO\nNEW YORK\nTo\nLondon\nLos Angeles\nTO\nBERMUDA\nLondon\nMEXICO CITY ONASSAU\nACAPULCO\nConnections are available\non associate carriers\nbetween North America\nBritain and the Caribbean.\ne subiect to Gova\nPORT MORÉSBY\nFIJV\nOTAHITI\nConnections are available\non associate carriers\nbetween major South\nand North American centres.\nQANTAS ROUTES\nONOUMEA\nNORFOLK IS.\nOAUCKLAND\nOWELLINGTON\n•CHRISTCHURCH\nASSOCIATE CARRIERS'\nCONNECTIONS\nMALAYSIA-SINGAPORE AIRLINES —Local Services\nTo.\nPnom\nTo Bangkok\nTo Hong Kong, Taipei \u0026 Tokyo\nTo Hong Kong\nKota Kinabalu\nTo Manila\nKota\nBharu\nAlor Star\nLabuan\nPenang\nSandakan a\nLahad Datu\nBrunei\nIpoh\nMiri\nTawau\n• Medan\nKuaka Lumpur\nS Bintulu\nSibu\nSINGAPORE\nKuching\nDiakarta\n- Perth\nDjakarta Sydney"
    ],
    "millsfield:images_texts_ids": [
      1527841653,
      1527850713
    ],
    "millsfield:primary_image": 1527841653,
    "millsfield:subcategory_id": 1511213425,
    "mz:hierarchy_label": 1,
    "mz:is_current": 1,
    "sfomuseum:accession_number": "2012.173.345",
    "sfomuseum:airline": "Qantas Airways",
    "sfomuseum:airline_id": [
      710
    ],
    "sfomuseum:category": "Scheduling / Ticketing",
    "sfomuseum:classification_id": 158,
    "sfomuseum:collection": "Aviation Archive",
    "sfomuseum:creditline": "Gift of Willard F. Keeney",
    "sfomuseum:date": "1969",
    "sfomuseum:date_acquired": "2013-03-28",
    "sfomuseum:daterange_end": "1969-12-31",
    "sfomuseum:daterange_start": "1969-01-01",
    "sfomuseum:description": "Timetable issued Qantas Airways, effective March 29 through April 26, 1969; fold-out format; red and white cover with image of aircraft within spiraling lines; includes route map.",
    "sfomuseum:dimensions": "9 1/4 x 4 inches (23.5 x 10.2 cm)",
    "sfomuseum:media_ids": [
      1527841653,
      1527850713
    ],
    "sfomuseum:medium": "paper, ink",
    "sfomuseum:object_id": 141449,
    "sfomuseum:placetype": "object",
    "sfomuseum:primary_media_id": 1527841653,
    "sfomuseum:publication": ": , 1969.",
    "sfomuseum:subcategory": "Timetable",
    "sfomuseum:subject": "Airlines -- Commercial -- Qantas Airways",
    "src:geom": "sfomuseum#undetermined",
    "wof:belongsto": [
      1511214223,
      102527513,
      102191575,
      85633793,
      1511213425,
      85922583,
      102087579,
      1511214277,
      1511214207,
      85688637
    ],
    "wof:breaches": [],
    "wof:country": "XX",
    "wof:created": 1579906684,
    "wof:depicts": [
      1159285043,
      1159287479
    ],
    "wof:geomhash": "30c8a918561c84bb2daa2b97fc7c5353",
    "wof:hierarchy": [
      {
        "arcade_id": 1511213425,
        "building_id": 1511214277,
        "campus_id": 102527513,
        "concourse_id": 1511214223,
        "continent_id": 102191575,
        "country_id": 85633793,
        "county_id": 102087579,
        "custom_id": 1511955337,
        "locality_id": 85922583,
        "neighbourhood_id": -1,
        "object_id": 1511955337,
        "region_id": 85688637,
        "venue_id": 1511955337,
        "wing_id": 1511214207
      }
    ],
    "wof:id": 1511955337,
    "wof:lastmodified": 1787988189,
    "wof:name": "timetable: Qantas Airways",
    "wof:parent_id": 1159162825,
    "wof:placetype": "custom",
    "wof:placetype_alt": [
      "object"
    ],
    "wof:repo": "sfomuseum-data-collection",
    "wof:superseded_by": [],
    "wof:supersedes": [],
    "wof:tags": []
  },
  "bbox": [
    -122.386155,
    37.616357,
    -122.386155,
    37.616357
  ],
  "geometry": {"type":"Point","coordinates":[-122.386155,37.616357]}
}
