{
  "id": 1762688845,
  "type": "Feature",
  "properties": {
    "date:cessation_lower": "1977-01-01",
    "date:cessation_upper": "1977-12-31",
    "date:inception_lower": "1977-01-01",
    "date:inception_upper": "1977-12-31",
    "edtf:cessation": "1977",
    "edtf:inception": "1977",
    "geom:area": 0,
    "geom:bbox": "7.202743,43.664368,7.202743,43.664368",
    "geom:latitude": 43.664368,
    "geom:longitude": 7.202743,
    "iso:country": "",
    "millsfield:aircraft_id": [
      1159289653,
      1159292791
    ],
    "millsfield:airline_id": [
      1159283627
    ],
    "millsfield:airport_id": [
      102544451
    ],
    "millsfield:category_id": 1511214215,
    "millsfield:collection_id": 1511214207,
    "millsfield:company_id": [
      1159294251
    ],
    "millsfield:images": [
      1762710691,
      1762710693
    ],
    "millsfield:images_colors_refs": {
      "crayola": [
        {
          "hex": "#9f8170"
        },
        {
          "hex": "#cdc5c2"
        },
        {
          "hex": "#e7c697"
        },
        {
          "hex": "#6e5160"
        },
        {
          "hex": "#8a795d"
        },
        {
          "hex": "#85754e"
        },
        {
          "hex": "#5d76cb"
        },
        {
          "hex": "#2e5894"
        },
        {
          "hex": "#000000"
        }
      ],
      "css4": [
        {
          "hex": "#deb887"
        },
        {
          "hex": "#c0c0c0"
        },
        {
          "hex": "#a0522d"
        },
        {
          "hex": "#4682b4"
        },
        {
          "hex": "#483d8b"
        },
        {
          "hex": "#808080"
        },
        {
          "hex": "#000000"
        },
        {
          "hex": "#696969"
        },
        {
          "hex": "#bc8f8f"
        }
      ],
      "marekm4": [
        {
          "hex": "#8b6a4c"
        },
        {
          "hex": "#416e9d"
        },
        {
          "hex": "#5b5951"
        },
        {
          "hex": "#867961"
        },
        {
          "hex": "#aa9774"
        },
        {
          "hex": "#465f9e"
        },
        {
          "hex": "#518ab5"
        },
        {
          "hex": "#23231e"
        },
        {
          "hex": "#dbc59c"
        },
        {
          "hex": "#c9cbc7"
        }
      ]
    },
    "millsfield:images_texts": [
      "AU SOLEIL DE LA COTE D'AZUR\n02N Vue Aérienne de l'Aéroport\nd'Azur.\nRestaurant, Tour de\netles Avions au Parking.\n\\trôle\n1977\n1/n/à\nDean\nInterdite\nchecking through the great\narmulation ip traved info candsete. %.\nGive the Ride some idias for this Suinmer,\nse Yangat this would gine yo ve lift.\"\nReproduction\nYu'11 de down on the 28% instaud 17\"\nNice\nis well leane the hinds with the klis, ines\n10.55\n~ Imm us haring a set tegethe french on the\n85.\n30Th se No'll Stay in S.R. Thurs might then cone\nto San ontes fa my fitting ver Ye Des Check\nEdition\nTél.\nat the notes on ethe 280 kils den You inten\nwe te There se, dets pim ecinnat -ox5\nthage your tests are pad today Front!\nGled to heas Janice had a geod sade too.\nSec you seon-\nLove,\nEly 7mmk\nFRANK LLOYD WRIGHT\n2c\nUS POSTAGE\n50\n¢\n1979 Harris Axe\nSan Jose Calif 95124\n2015.166.1897"
    ],
    "millsfield:images_texts_ids": [
      1762710693
    ],
    "millsfield:primary_image": 1762710691,
    "millsfield:subcategory_id": 1511213363,
    "mz:is_approximate": 1,
    "mz:is_current": 1,
    "sfomuseum:accession_number": "2015.166.1897",
    "sfomuseum:aircraft": "Sud Aviation Caravelle",
    "sfomuseum:aircraft_id": [
      133,
      1571
    ],
    "sfomuseum:airline": "Air France",
    "sfomuseum:airline_id": [
      70
    ],
    "sfomuseum:airport": "Nice Côte d’Azur Airport",
    "sfomuseum:airport_id": [
      232
    ],
    "sfomuseum:category": "Philately",
    "sfomuseum:classification_id": 127,
    "sfomuseum:collection": "Aviation Archive",
    "sfomuseum:creditline": "Gift of Thomas G. Dragges",
    "sfomuseum:date": "1977",
    "sfomuseum:date_acquired": "2017-01-13",
    "sfomuseum:daterange_end": "1977-12-31",
    "sfomuseum:daterange_start": "1977-01-01",
    "sfomuseum:description": "Postcard with color photographic image depicting Nice - Cote d’Azur airport aerial view, Air France Sud Aviation Caravelle and Boeing 707 on ground; mailed.",
    "sfomuseum:dimensions": "3 1/2 x 5 1/2 inches (8.9 x 14 cm)",
    "sfomuseum:medium": "paper, ink",
    "sfomuseum:object_id": 181658,
    "sfomuseum:placetype": "object",
    "sfomuseum:publication": ": , 1977.",
    "sfomuseum:subcategory": "Postcard",
    "src:geom": "sfomuseum#derived",
    "src:geom_derived_from": [
      102544451
    ],
    "wof:belongsto": [
      102527513,
      1159162825,
      102191575,
      85633793,
      102087579,
      85922583,
      85688637,
      1159160869,
      102544451,
      102191581,
      85633147,
      102072439,
      1159322131,
      101749273,
      404227807,
      404227445,
      85683323
    ],
    "wof:country": "",
    "wof:created": 1641342443,
    "wof:depicts": [
      102544451,
      1360700617,
      1159283627,
      1159289653,
      1159292791,
      1159294251
    ],
    "wof:geomhash": "d205a9ba65e777896d75fe47ec25b868",
    "wof:hierarchy": [
      {
        "building_id": -1,
        "campus_id": 102527513,
        "collection_id": 1159162825,
        "concourse_id": 1159162825,
        "continent_id": 102191575,
        "country_id": 85633793,
        "county_id": 102087579,
        "custom_id": 1762688845,
        "locality_id": 85922583,
        "neighbourhood_id": -1,
        "object_id": 1762688845,
        "region_id": 85688637,
        "wing_id": 1159160869
      },
      {
        "campus_id": 102544451,
        "continent_id": 102191581,
        "country_id": 85633147,
        "county_id": 102072439,
        "custom_id": 1762688845,
        "localadmin_id": 1159322131,
        "locality_id": 101749273,
        "macrocounty_id": 404227807,
        "macroregion_id": 404227445,
        "neighbourhood_id": -1,
        "object_id": 1762688845,
        "region_id": 85683323
      }
    ],
    "wof:id": 1762688845,
    "wof:lastmodified": 1787988196,
    "wof:name": "postcard: Air France, Sud Aviation Caravelle, Boeing 707, Nice - Cote d’Azur airport",
    "wof:parent_id": 1159162825,
    "wof:placetype": "custom",
    "wof:placetype_alt": [
      "object"
    ],
    "wof:repo": "sfomuseum-data-collection",
    "wof:superseded_by": [],
    "wof:supersedes": []
  },
  "bbox": [
    7.202743,
    43.664368,
    7.202743,
    43.664368
  ],
  "geometry": {"type":"MultiPoint","coordinates":[[7.202743,43.664368]]}
}
