{
  "id": 1511910109,
  "type": "Feature",
  "properties": {
    "date:cessation_lower": "1927-01-01",
    "date:cessation_upper": "1927-12-31",
    "date:inception_lower": "1927-01-01",
    "date:inception_upper": "1927-12-31",
    "edtf:cessation": "1927~",
    "edtf:date": "1927~",
    "edtf:inception": "1927~",
    "geom:area": 0,
    "geom:bbox": "-122.391953,37.624731,-122.391953,37.624731",
    "geom:latitude": 37.624731,
    "geom:longitude": -122.391953,
    "iso:country": "US",
    "millsfield:airport_id": [
      1360695653
    ],
    "millsfield:category_id": 1511214239,
    "millsfield:collection_id": 1511214207,
    "millsfield:images": [
      1527856871,
      1527856873
    ],
    "millsfield:images_colors_refs": {
      "crayola": [
        {
          "hex": "#e7c697"
        },
        {
          "hex": "#414a4c"
        },
        {
          "hex": "#bab86c"
        }
      ],
      "css4": [
        {
          "hex": "#bdb76b"
        },
        {
          "hex": "#deb887"
        },
        {
          "hex": "#2f4f4f"
        }
      ],
      "marekm4": [
        {
          "hex": "#c1b377"
        },
        {
          "hex": "#d9d091"
        },
        {
          "hex": "#d9cd92"
        },
        {
          "hex": "#bfb476"
        },
        {
          "hex": "#33311b"
        }
      ]
    },
    "millsfield:images_texts": [
      "150\n15io Stifat fili\n30\n·500\nPlou\u0026 Cultucti, ete at\n2250 Matema s lue .\n2 2 50\n993°\ntem es pastin\nMâlena- f luce?\nNi in : levce- mt refinabe fa damase .\nlint grasser. Sht canhe unh.\nJumping in exces unal amrit tole fal s you.\nSatelu\ni ding unh. semal if same.\nsampel int larou file.\nyenly abvane.\nPulasa fusio aladd\nlenen f fill matennh.\nslankent g leare. F25,..\n* 10%%.\nRight t antret tat.\na aâg. land.\n2 yn áobe- ti\nR.W.\nsanjü, maken füji.\nfurta pope.\n37-50\n1500\n-\n6350.-\n-\n825009750\n34750\n3000\n675. -.\n5\n11 2500\n2500\n3500\n42 -u",
      "980 ' 910 '000%\n7600(2)Wdufs ay0 lil$2800.\nĐ10o. rữngnh so M D. Tnh Sóo L ân 2000\n103.000"
    ],
    "millsfield:images_texts_ids": [
      1527856871,
      1527856873
    ],
    "millsfield:primary_image": 1527856871,
    "millsfield:subcategory_id": 1511213487,
    "mz:hierarchy_label": 1,
    "mz:is_approximate": 1,
    "mz:is_current": 1,
    "sfomuseum:accession_number": "2000.018.035",
    "sfomuseum:airport": "Mills Field Municipal Airport of San Francisco",
    "sfomuseum:airport_id": [
      162
    ],
    "sfomuseum:category": "Company Record / Document",
    "sfomuseum:classification_id": 192,
    "sfomuseum:collection": "Aviation Archive",
    "sfomuseum:creditline": "Collection of SFO Museum",
    "sfomuseum:date": "c. 1927",
    "sfomuseum:date_acquired": "1999-06-30",
    "sfomuseum:daterange_end": "1932-12-31",
    "sfomuseum:daterange_start": "1922-01-01",
    "sfomuseum:description": "Handwritten document containing mathematical calculations and notes on estimated cost of site improvements for airfield conversion and use.",
    "sfomuseum:dimensions": "11 x 8 1/2 inches (27.9 x 21.6 cm)",
    "sfomuseum:media_ids": [
      1527856871,
      1527856873
    ],
    "sfomuseum:medium": "paper, ink",
    "sfomuseum:object_id": 50642,
    "sfomuseum:placetype": "object",
    "sfomuseum:primary_media_id": 1527856871,
    "sfomuseum:publication": ": , c. 1927.",
    "sfomuseum:subcategory": "Other, Company Record / Document",
    "src:geom": "sfomuseum#derived",
    "src:geom_derived_from": [
      1360695653
    ],
    "wof:belongsto": [
      102527513,
      102191575,
      85633793,
      85922583,
      102087579,
      85688637,
      1159162825,
      1159160869,
      1360695653,
      554784711,
      102085387
    ],
    "wof:breaches": [],
    "wof:country": "US",
    "wof:created": 1579906670,
    "wof:depicts": [
      1360695653
    ],
    "wof:geomhash": "3abf1c04b00c12d6593e9cd3c35f0056",
    "wof:hierarchy": [
      {
        "campus_id": 1360695653,
        "continent_id": 102191575,
        "country_id": 85633793,
        "county_id": 102087579,
        "custom_id": 1511910109,
        "locality_id": 85922583,
        "object_id": 1511910109,
        "postalcode_id": 554784711,
        "region_id": 85688637
      },
      {
        "campus_id": 1360695653,
        "continent_id": 102191575,
        "country_id": 85633793,
        "county_id": 102085387,
        "custom_id": 1511910109,
        "object_id": 1511910109,
        "region_id": 85688637
      },
      {
        "building_id": -1,
        "campus_id": 102527513,
        "collection_id": 1159162825,
        "concourse_id": 1159162825,
        "continent_id": 102191575,
        "country_id": 85633793,
        "county_id": 102087579,
        "custom_id": 1511910109,
        "locality_id": 85922583,
        "neighbourhood_id": -1,
        "object_id": 1511910109,
        "region_id": 85688637,
        "wing_id": 1159160869
      }
    ],
    "wof:id": 1511910109,
    "wof:lastmodified": 1787988176,
    "wof:name": "document: San Mateo airport site",
    "wof:parent_id": 1159162825,
    "wof:placetype": "custom",
    "wof:placetype_alt": [
      "object"
    ],
    "wof:repo": "sfomuseum-data-collection",
    "wof:superseded_by": [],
    "wof:supersedes": [],
    "wof:tags": []
  },
  "bbox": [
    -122.391953,
    37.624731,
    -122.391953,
    37.624731
  ],
  "geometry": {"type":"MultiPoint","coordinates":[[-122.391953,37.624731]]}
}
