{
  "id": 1511930629,
  "type": "Feature",
  "properties": {
    "date:cessation_lower": "2006-01-01",
    "date:cessation_upper": "2006-12-31",
    "date:inception_lower": "2006-01-01",
    "date:inception_upper": "2006-12-31",
    "edtf:cessation": "2006",
    "edtf:date": "2006",
    "edtf:inception": "2006",
    "geom:area": 0,
    "geom:bbox": "-122.386155,37.616357,-122.386155,37.616357",
    "geom:latitude": 37.616357,
    "geom:longitude": -122.386155,
    "iso:country": "XX",
    "millsfield:airline_id": [
      1159284389
    ],
    "millsfield:category_id": 1762671311,
    "millsfield:collection_id": 1511214207,
    "millsfield:company_id": [
      1159287841
    ],
    "millsfield:images": [
      1527845063,
      1527845315
    ],
    "millsfield:images_colors_refs": {
      "crayola": [
        {
          "hex": "#ffffff"
        },
        {
          "hex": "#2e5894"
        },
        {
          "hex": "#6699cc"
        },
        {
          "hex": "#1a4876"
        },
        {
          "hex": "#c5d0e6"
        }
      ],
      "css4": [
        {
          "hex": "#6495ed"
        },
        {
          "hex": "#191970"
        },
        {
          "hex": "#b0e0e6"
        },
        {
          "hex": "#f5f5f5"
        },
        {
          "hex": "#483d8b"
        }
      ],
      "marekm4": [
        {
          "hex": "#121d52"
        },
        {
          "hex": "#5c92d9"
        },
        {
          "hex": "#63a2e8"
        },
        {
          "hex": "#bbd8f7"
        },
        {
          "hex": "#f7f5f6"
        },
        {
          "hex": "#456198"
        }
      ]
    },
    "millsfield:images_texts": [
      "wines",
      "1999#Joseph Perrier Cuvée Royale Brut Vintage#f \u0026 1\n1999$Joseph Perrier Cuvée Royale Brut Vintage Fe IR\n2003 Chablis Premier Cru Les Vaucopinse25\nPOAler BichotX\n2003#Riesling Zöbinger Heiligenstein E 15 20725\n2003#Riesling Zöbinger Heiligenstein E 1 20725\n2001#Grandarella Apassimento IGTÉ # 2 129\nGrandarella Apsme d·\n2000 #Château Guiraud \u00268 *\n2000 Château Guiraud 30\n*ASauternes/tXPremier Cru Classét\n200Chteau Gura Premier CrA\nNiepoort (Vinhos) S.A.2-i5\n20EN0$4*0*0 ≤ 08Ф, , ®\nNiepoort (Vinhos) S.A.4208#"
    ],
    "millsfield:images_texts_ids": [
      1527845063,
      1527845315
    ],
    "millsfield:primary_image": 1527845063,
    "millsfield:subcategory_id": 1511213567,
    "mz:hierarchy_label": 1,
    "mz:is_current": 1,
    "sfomuseum:accession_number": "2007.086.060",
    "sfomuseum:airline": "Finnair",
    "sfomuseum:airline_id": [
      412
    ],
    "sfomuseum:category": "Passenger Amenity, Archive",
    "sfomuseum:classification_id": 242,
    "sfomuseum:collection": "Aviation Archive",
    "sfomuseum:creditline": "Gift of Ian H. Dally of Auckland, New Zealand",
    "sfomuseum:date": "2006",
    "sfomuseum:date_acquired": "2009-08-08",
    "sfomuseum:daterange_end": "2006-12-31",
    "sfomuseum:daterange_start": "2006-01-01",
    "sfomuseum:description": "Wine list issued by Finnair; blue and white cover with illustration of a champagne flute; menu number: WL/603; class: business; undated.",
    "sfomuseum:dimensions": "12 1/4 x 7 inches (31.1 x 17.8 cm)",
    "sfomuseum:media_ids": [
      1527845063,
      1527845315
    ],
    "sfomuseum:medium": "paper, ink, metal",
    "sfomuseum:object_id": 87537,
    "sfomuseum:placetype": "object",
    "sfomuseum:primary_media_id": 1527845063,
    "sfomuseum:publication": ": , 2006.",
    "sfomuseum:subcategory": "Menu",
    "src:geom": "sfomuseum#undetermined",
    "wof:belongsto": [
      1159162825,
      102527513,
      102191575,
      85633793,
      85922583,
      102087579,
      1159160869,
      85688637
    ],
    "wof:breaches": [],
    "wof:country": "XX",
    "wof:created": 1579906662,
    "wof:depicts": [
      1159287841,
      1159284389
    ],
    "wof:geomhash": "30c8a918561c84bb2daa2b97fc7c5353",
    "wof:hierarchy": [
      {
        "building_id": -1,
        "campus_id": 102527513,
        "concourse_id": 1159162825,
        "continent_id": 102191575,
        "country_id": 85633793,
        "county_id": 102087579,
        "custom_id": 1511930629,
        "locality_id": 85922583,
        "neighbourhood_id": -1,
        "object_id": 1511930629,
        "region_id": 85688637,
        "venue_id": 1511930629,
        "wing_id": 1159160869
      }
    ],
    "wof:id": 1511930629,
    "wof:lastmodified": 1787988180,
    "wof:name": "menu: Finnair, Business Class",
    "wof:parent_id": 1159162825,
    "wof:placetype": "custom",
    "wof:placetype_alt": [
      "object"
    ],
    "wof:repo": "sfomuseum-data-collection",
    "wof:superseded_by": [],
    "wof:supersedes": [],
    "wof:tags": []
  },
  "bbox": [
    -122.386155,
    37.616357,
    -122.386155,
    37.616357
  ],
  "geometry": {"type":"Point","coordinates":[-122.386155,37.616357]}
}
