{
  "id": 1511933645,
  "type": "Feature",
  "properties": {
    "date:cessation_lower": "1986-01-01",
    "date:cessation_upper": "1986-12-31",
    "date:inception_lower": "1986-01-01",
    "date:inception_upper": "1986-12-31",
    "edtf:cessation": "1986",
    "edtf:date": "1986",
    "edtf:inception": "1986",
    "geom:area": 0,
    "geom:bbox": "-122.386155,37.616357,-122.386155,37.616357",
    "geom:latitude": 37.616357,
    "geom:longitude": -122.386155,
    "iso:country": "XX",
    "millsfield:airline_id": [
      1159284505
    ],
    "millsfield:category_id": 1511214223,
    "millsfield:collection_id": 1511214207,
    "millsfield:company_id": [
      1159287275
    ],
    "millsfield:images": [
      1527854881,
      1527854883,
      1527854885
    ],
    "millsfield:images_colors_refs": {
      "crayola": [
        {
          "hex": "#dbd7d2"
        },
        {
          "hex": "#414a4c"
        },
        {
          "hex": "#000000"
        },
        {
          "hex": "#9f8170"
        },
        {
          "hex": "#b4674d"
        },
        {
          "hex": "#cdc5c2"
        }
      ],
      "css4": [
        {
          "hex": "#c0c0c0"
        },
        {
          "hex": "#000000"
        },
        {
          "hex": "#bdb76b"
        },
        {
          "hex": "#2f4f4f"
        },
        {
          "hex": "#a0522d"
        },
        {
          "hex": "#d3d3d3"
        }
      ],
      "marekm4": [
        {
          "hex": "#e1dac6"
        },
        {
          "hex": "#232119"
        },
        {
          "hex": "#a68d5e"
        },
        {
          "hex": "#d0c8be"
        },
        {
          "hex": "#dcd9c8"
        },
        {
          "hex": "#302f25"
        },
        {
          "hex": "#ac5947"
        },
        {
          "hex": "#4c352e"
        }
      ]
    },
    "millsfield:images_texts": [
      "EFFECTIVE AUGUST 17, 1986\nHORIZON\nAIR\nSERVING THE WORLD'S\nGREAT CITIES\nTIME TABLE\nFor reservations call your travel agent or\nIn Seattle 762-3646\nIn Portland 249-4480\nNationwide Toll-Free 1-800-547-9308\nNEW\nSERVICE TO MISSOULA, MONTANA!\nRodeo, Missoula, Montana.",
      "Discover!\nWindmill Inns\nof America\n# ASHLAND\nHILLS INN\nWindmill's Ashland Hills Inn is southern Oregon's\nlargest meeting and convention inn with 159 queen and\nking rooms, plus affordable suites. Free airport pickup\nin Medford and Ashland. Free tennis, golf nearby.\nfree in-room movies, plus new affordable rates.\n#MEDFORD\nWINDMILL\nFree airport shuttle, free in-room movies,\ncomplimentary morning coffee and newspaper to\nbusiness travelers, indoor jacuzzi, sauna, heated pool,\nrestaurant and lounge adjacent.\n# ROSEBURG\nWINDMILL\nRoseburg's most complete motor inn. Free in-room\nmovies, cable TV, complimentary morning cottee and\nnewspaper to business travelers, indoor jacuzzi, sauna,\nheated pool, plus the brand-new Piper Café\nand Sandpiper dinner house.\nDiscover the Growing Family of\nWindmill Inns - All our Inns feature free use\nof ten speed bikes, best selling novels from\nthe Windmill Library, free Showtime in-room\nmovies, and a warm Windmill welcome.\nIn Oregon: 1-800-452-5315\nOutside Oregon: 1-800-547-4747\nCOMING SOON: Windmill Inn - Olympia, Washington\n2008.108,379",
      "Budget\nand the\nHorizon\nConnection\nECONOMY\nPERFORMANCE\nLUXURY\nAVAILABLE IN THESE HORIZON CITIES\nWASHINGTON\nMoses Lake\nPasco\nPullman\nSeattle\nSpokane\nWalla Walla\nWenatchee\nYakima\nIDAHO\nBoise\nLewiston\nSun Valley\nTwin Falls\nOREGON\nEugene\nMedford\nPortland\nRedmond\nCALIFORNIA\nSacramento\nSan Francisco\n- Budget-\nrent a car\nSEARS Rent a Car\nFor reservations and information, please\ncontact your travel consultant or call\nBudget 1-800-527-0700.\n15\nSUPER SHUTTLE\nThe most flights between\nSeattle and Portland.\nFrom Boise (MDT)\nRESERVATIONS: (800) 547-9308\nAIR CARGO: (208) 383-3163\nLv.\nArr.\nFIt. #\nFreq.\nStops/\nConex\nEquip.\nTO EUGENE/SPRINGFIELD (PDT)\n7:30a 10:05a\n2581/2463\n7 PDX\nM3\nAbove Flight Discontinued after Sep 6\n7:30a\n10:05a\n2631/2463\nPDX F28/M3\n11:35a\n4:10p\n2523/2447\n12345\nSEA\nDH8\n11:40a\n11:40a\n1:55p\n2505/2465\n6\nPDX\nF27 /M3\n1:55p\n2579/2465\n7 PDX\nM3\nAbove Flight Effective Sep 7\n12:30p\n2:45p\n2597/2411\n12345\nPDX\nF28/M3\n4:30p\n6:30p\n2637/2379\n12345 7 PDX F28/M3\n9:00p\n10:45p\n2596/2441 12345 7 PDX\nM3\nTO IDAHO FALLS (MDT)\n8:30a\n9:30a\n2530\n123456\nDH8\n8:30a\n9:30a\n2563\n12:40p\n12:50p\n2:00p\n2534\n12345 7\nM3\nM3\n2:15p\n2572\nM3\n4:35p\n6:00p\n2466\n12345 7\nDH8\n4:35p\n9:45p\n6:00p\n2567\nM3\n11:10p\n2608\n12345 7\nDH8\nTO KALISPELL/WHITEFISH/COLUMBIA\nFALLS (MDT)\n7:25a 10:35a\n2531/2614 123456\n8:40a\n1:00p 2625/2616\n12345\nGEG\nM3\nGEG\nM3\nTO KLAMATH FALLS (PDT)\n7:30a 10:20a 2631/2301\n12345\nPDX F28/F27\n11:40a\n12:30p\n3:10p\n2505/2423\n6\nPDX\nF27\n3:10p\n2597/2423 12345\nPDX F28/F27\nTO LEWISTON/CLARKSTON (PDT)\n7:40a\n7:35a\n2539\n12345\nM3\n8:40a\n8:30a\n2625\n123456\n0\nM3\n12:00n\n11:55a\n2541\n1234567\nM3\n4:40p\n7:59p\n4:35p\n2393\n12345 7\nM3\n7:55p\n2598\n12345 7\nM3\nTO MEDFORD (PDT)\n7:30a\n9:35a\n2631/2301\n12345\nPDX F28/F27\n7:30a\n10:55a\n2581/2477\n7 PDX\nM3/F27\nAbove Flight Discontinued after Sep 6\n11:40a\n12:30p\n2:30p\n2505/2423\nPDX\nF27\n2:30p\n2597/2423\n12345\n4:30p\n7:20p\n2637/2511\n12345\nPDX\nF28/F27\nPDX\nF28/M3\n4:30p\n7:25p\n2600/2612\n6\nPDX\nM3/F27\n9:00p\n11:10p\n2596/2427\n12345 7 PDX\nM3\nTO MISSOULA (MDT)\n7:25a\n9:55a\n2531/2614 123456 GEG\nM3\nTO NORTH BEND/COOS BAY (PDT)\n7:30a\n10:30a\n2631/2429\n12345\nPDX F28/M3\n2581/2463\nM3\nAbove Flight Discontinued after Sep 6\n7:30a\n10:50a\n2631/2463\nPDX F28/M3\n2597/2357\nPDX\nF28/M3\n9:00p\n2596/2441\n12345 7 PDX\nM3\nTO PASCO/RICHLAND/KENNEWICK (PDT)\n7:40a\n8:25a\n2539\n12345\n11:40a 11:40a\n2505\nM3\n12:00n\n1:15p\n2541\n12345 7\n2\nF27\nM3\nTO POCATELLO (MDT)\n8:30a\n10:00a\n2530\n8:30a\n10:00a\n2563\n12:40p\n1:30p\n2534\n12:50p\n2572\n4:35p\n1:45p\n4:35p\n5:30p\n2466\n5:30p\n2567\n9:45p\n10:40p\n2608\n123456\n12345\n12345\n12345 7\nDH8\nM3\nM3\nM3\nDH8\n0\nM3\nDH8\nTO PORTLAND\n(PDT)\n7:30a\n7:35a\n2631\n123456\nF28\n7:30a\n8:05a\n2581\nM3\nAbove Flight Discontinued after Sep 6\n11:40a\n12:15p\n2579\n7\n0\nM3\nAbove Flight Effective Sep 7\n11:40a\n12:50p\n2505\n12:50p\n1:25p\n2579\n12345\nF27\n12:30p\n12:35p\n2597\nF28\nM3\n4:30p\nAbove Flight Discontinued after Sep 6\n4:30p\n4:35p\n5:05p\n2637\n12345 7\n2600\nF28\nM3\n9:00p\n9:35p\n2596\n12345 7\n0\nM3\nSchedules and equipment subject to change.\nFrom Boise (continued)\nLv.\nArr.\nStops/\nFIt. #\nFreq.\nConex\nEquip.\nTO PULLMAN/MOSCOW (PDT)\n8:40a\n9:05a\n2625\n12345\nM3\n12:00n\n12:30p\n4:40p\n5:10p\n2541\n1234567\nM3\n2393\n12345\nM3\n7:59p\n8:30p\n2598\n12345\n7\nM3\nTO REDMOND/BEND (PDT)\n7:30a\n10:00a\n2581/2420\n7 PDX\nM3\nAbove Flight Discontinued after Sep 6\n7:30a\n10:00a\n2631/2420\nPDX\nF28/M3\n7:30a\n10:05a\n2631/2415\n12345\nPDX F28/F27\n11:40a\n1:35p\n2579/2417\n7 PDX\nM3\nAbove Flight Effective Sep 7\n12:30p\n12:50p\n1:35p\n2597/2417\n12345\nPDX F28/M3\n3:35p\n2579/2421\n7 PDX\nM3\nAbove Flight Discontinued after Sep 6\n4:30p\n7:10p\n2637/2379\n12345 7 PDX F28/M3\nTO SACRAMENTO (PDT)\n7:30a\n9:50a 2631/2571\nPDX\nF28\n4:15p\n7:25p\n2633\n12345 7\n2\nF28\nTO SALEM (PDT)\n7:30a\n9:40a\n2631/2429 12345\nPDX\nF28/M3\n4:15p\n7:15p 2633/2435\n12345\n7 PDX\nF28/M3\nTO SALT LAKE CITY (MDT)\n7:40a\n9:20a\n2549\n123456\n11:25a\n12:40p\n2595\n1234567\nM3\nM3\n4:25p\n8:10p\n6:05p\n2547\n12345\nM3\n9:25p\n2630\n12345\nM3\nTO SEATTLE/TACOMA\n(PDT)\n7:30a\n7:30a\n8:20a\n2623\n123456\nDH8\n9:43a\n2581/2402\n7 PDX\nM3\nAbove Flight Discontinued after Sep 6\n11:35a\n12:20p\n2523\n12345\nDH8\n11:40a\n1:43p\n2579/2392\n7 PDX\nM3\nAbove Flight Effective Sep 7\n12:30p\n1:43p\n2597/2392\n12345\nPDX\nF28/M3\n12:50p\n3:48p\n2579/2307\n7 PDX\nM3/DH8\nAbove Flight Discontinued after Sep 6\n4:15p\n4:35p\n2633\n12345\nF28\n4:15p\n9:00p\n5:05p\n2552\nDH8\n10:43p\n2596\n12345\nM3\nTO SPOKANE (PDT)\n7:25a\n7:40a\n2531\n123456\n8:40a\n9:40a\n2625\n12345\n12:30p\n12:50p\n5:00p\n5:20p\n2586\n12345\n2564\n0\n0\n0\nM3\nM3\nM3\nM3\n5:00p\n5:20p\n2590\n12345\nDH8\nTO SUN VALLEY (MDT)\n5:45a\n6:20a\n2622\n123456\nDH8\nAbove Flight Discontinued after Aug 22\n9:30a\n12:50p\n10:05a\n2432\n1234567\nM3\n1:25p\n4:05p\n4:40p\n2556\n2568\n1234567\n0\n457\nDH8\nM3\nAbove Flight Discontinued after\nOct 4\n4:55p\n5:30p\n2592\n123\nM3\nAbove Flight Discontinued after Oct 4\n4:55p\n5:30p\n2592\n1234567\n0\nM3\nAbove Flight Effective Oct 5\n5:50p\n6:25p\n2594\n45 7\nM3\nAbove Flight Discontinued after Oct 4\nTO TWIN FALLS (MDT)\n7:40a\n8:20a\n2549\n123456\n4:25p\n5:05p\n2547\n12345\nM3\nM3\n9:55p 10:35p\n2565\n12345\nM3\nTO WALLA WALLA (PDT)\n7:40a\n9:10a 2539/2488\n12345\n11:40a\n2:55p\n2505/2468\nPSC\nM3\nPDX F27/M3\n12:00n\n2:20p\n2541/2332\n12345\n7 PSC\n4:30p\n6:40p\n2637 2506\n12345\nM3\n7 PDX F28/M3\nTO WENATCHEE (PDT)\n7:30a\n10:45a\n2623/2402\n12345\nSEA\nDH8/M3\n11:35a\n1:50p\n2523/2336\n4:30p\n7:15p\n2637/2514\n12345\nSEA\nDH8/M3\n12345\n7 SEA\nF28/M3\nTO YAKIMA (PDT)\n7:25a\n9:45a\n2531/2374\n123456\n11:35a\n1:45p\n2523/2620\n12345\nGEG\nM3\nSEA\nDH8\n12:30p\n12:50p\n2:45p\n2597/2308\n12345\nPDX\nF28/M3\n4:50p\n2579/2307\n7 PDX\nM3/DH8\nAbove Flight Discontinued after Sep 6\n4:30p\n5:50p\n2637/2457\n12345 7 PDX\nF28/M3\n5:00p\n6:50p 2590/2478 12345 7 GEG DH8/M3\nPage 3"
    ],
    "millsfield:images_texts_ids": [
      1527854881,
      1527854883,
      1527854885
    ],
    "millsfield:primary_image": 1527854881,
    "millsfield:subcategory_id": 1511213425,
    "mz:hierarchy_label": 1,
    "mz:is_current": 1,
    "sfomuseum:accession_number": "2008.108.379",
    "sfomuseum:airline": "Horizon Air",
    "sfomuseum:airline_id": [
      465
    ],
    "sfomuseum:category": "Scheduling / Ticketing",
    "sfomuseum:classification_id": 158,
    "sfomuseum:collection": "Aviation Archive",
    "sfomuseum:creditline": "Gift of the William Hough Collection",
    "sfomuseum:date": "1986",
    "sfomuseum:date_acquired": "2008-11-10",
    "sfomuseum:daterange_end": "1986-12-31",
    "sfomuseum:daterange_start": "1986-01-01",
    "sfomuseum:description": "Timetable issued by Horizon Air, effective August 17, 1986; brown cover with color photographic image of a man riding a rodeo horse and text announcing new service to Missoula, Montana.",
    "sfomuseum:dimensions": "9 x 4 inches (22.9 x 10.2 cm)",
    "sfomuseum:media_ids": [
      1527854881,
      1527854883,
      1527854885
    ],
    "sfomuseum:medium": "paper, ink",
    "sfomuseum:object_id": 93758,
    "sfomuseum:placetype": "object",
    "sfomuseum:primary_media_id": 1527854881,
    "sfomuseum:publication": ": , 1986.",
    "sfomuseum:subcategory": "Timetable",
    "sfomuseum:subject": "Airlines -- Commercial -- Horizon ",
    "src:geom": "sfomuseum#undetermined",
    "wof:belongsto": [
      1511214223,
      102527513,
      102191575,
      85633793,
      1511213425,
      85922583,
      102087579,
      1511214277,
      1511214207,
      85688637
    ],
    "wof:breaches": [],
    "wof:country": "XX",
    "wof:created": 1579906663,
    "wof:depicts": [
      1159284505,
      1159287275
    ],
    "wof:geomhash": "30c8a918561c84bb2daa2b97fc7c5353",
    "wof:hierarchy": [
      {
        "arcade_id": 1511213425,
        "building_id": 1511214277,
        "campus_id": 102527513,
        "concourse_id": 1511214223,
        "continent_id": 102191575,
        "country_id": 85633793,
        "county_id": 102087579,
        "custom_id": 1511933645,
        "locality_id": 85922583,
        "neighbourhood_id": -1,
        "object_id": 1511933645,
        "region_id": 85688637,
        "venue_id": 1511933645,
        "wing_id": 1511214207
      }
    ],
    "wof:id": 1511933645,
    "wof:lastmodified": 1787988181,
    "wof:name": "timetable: Horizon Air",
    "wof:parent_id": 1159162825,
    "wof:placetype": "custom",
    "wof:placetype_alt": [
      "object"
    ],
    "wof:repo": "sfomuseum-data-collection",
    "wof:superseded_by": [],
    "wof:supersedes": [],
    "wof:tags": []
  },
  "bbox": [
    -122.386155,
    37.616357,
    -122.386155,
    37.616357
  ],
  "geometry": {"type":"Point","coordinates":[-122.386155,37.616357]}
}
