{
  "id": 1511923865,
  "type": "Feature",
  "properties": {
    "date:cessation_lower": "1955-01-01",
    "date:cessation_upper": "1955-12-31",
    "date:inception_lower": "1955-01-01",
    "date:inception_upper": "1955-12-31",
    "edtf:cessation": "1955~",
    "edtf:date": "1955~",
    "edtf:inception": "1955~",
    "geom:area": 0,
    "geom:bbox": "-122.370943,37.617990,-122.370943,37.617990",
    "geom:latitude": 37.61799,
    "geom:longitude": -122.370943,
    "iso:country": "US",
    "millsfield:airport_id": [
      102527513
    ],
    "millsfield:category_id": 1762671311,
    "millsfield:collection_id": 1511214207,
    "millsfield:images": [
      1527843127,
      1527843129,
      1527843131
    ],
    "millsfield:images_colors_refs": {
      "crayola": [
        {
          "hex": "#efdecd"
        },
        {
          "hex": "#cd4a4c"
        },
        {
          "hex": "#ffcf48"
        },
        {
          "hex": "#414a4c"
        },
        {
          "hex": "#000000"
        },
        {
          "hex": "#cdc5c2"
        },
        {
          "hex": "#f0e891"
        }
      ],
      "css4": [
        {
          "hex": "#eee8aa"
        },
        {
          "hex": "#f4a460"
        },
        {
          "hex": "#000000"
        },
        {
          "hex": "#a0522d"
        },
        {
          "hex": "#c0c0c0"
        },
        {
          "hex": "#dcdcdc"
        },
        {
          "hex": "#2f4f4f"
        }
      ],
      "marekm4": [
        {
          "hex": "#f4e09e"
        },
        {
          "hex": "#1c1c13"
        },
        {
          "hex": "#e3bf49"
        },
        {
          "hex": "#e8cb50"
        },
        {
          "hex": "#c5bdab"
        },
        {
          "hex": "#e9c64b"
        },
        {
          "hex": "#e5e3d0"
        },
        {
          "hex": "#2e2519"
        },
        {
          "hex": "#383740"
        },
        {
          "hex": "#c2413c"
        }
      ]
    },
    "millsfield:images_texts": [
      "Fountain\nSpecials\nHOT FUDGE\nSUNDAE ....\n.. .50\nEXTRA LUSCIOUS\nSUNDAES. .45\n(Chocolate, Fresh\nStrawberry, Pineapple)\nSODAS\n..35\n(Chocolate, Fresh\nStrawberry, Pineapple)\nMALTS\n•40\n(Chocolate, Fresh\nStrawberry, Pineapple)\nMILK SHAKES.....35\n(Chocolate, Fresh\nStrawberry, Pineapple)\nROOT BEER\n...15\n.....15\nADES AND\nRICKEYS\n.25\n(Lime, Lemon,\nCherry,\nOrange)\nCoffee Shop\nSAN FRANCISCO\nINTERNATIONAL AIRPORT\nSACRAMENTO MUNICIPAL AIRPORT\n\"10% of our profits before taxes and even before\ndividends are payable into a trust fund in which we\nemployees share. We are happy to serve you.\"\nTHE STAFF\nCOCKTAIL SERVICE\nAVAILABLE AT\nYOUR REQUEST\nCOFFEE HOUSE\nSPECIAL\nStrawberry Short Cake\nServed in Vanilla\nCupcake with Vanilla\nIce Cream and Crushed\nStrawberries\n.65",
      "ppetizers\nORANGE JUICE\nTOMATO JUICE\nFRUIT COCKTAIL\nSHRIMP COCKTAIL\nCRABMEAT COCKTAIL\n.25\n.25\n.65\n90\n.90\nSandwiches\nHAMBURGER STEAK SANDWICH\nOn toasted milk bun, pickle, lettuce,\ntomato and french fried potatoes\nCHEESEBURGER\nWith slice of American cheese and\nfrench fried potatoes\n.90\n.95\nCHILI SIZE\n1.00\nDelicious home made chili served with a grilled\nhamburger on a toasted milk bun.\nCLUB SANDWICH\n1.35\nCrisp bacon, tomato, sliced turkey\nlettuce and mayonnaise\nGRILLED HAM AND CHEESE\nSANDWICH\n.90\nGRILLED AMERICAN CHEESE\nSANDWICH\n.55\nFRIED EGG SANDWICH\n.55\nWith Ham or Bacon..\n.90\nFRIED HAM SANDWICH\n.75\nBACON \u0026 TOMATO SANDWICH\n.80\nSLICED TURKEY SANDWICH\n1.00\nBAKED HAM SANDWICH.\n75\nAMERICAN CHEESE SANDWICH..\n.50\nSWISS CHEESE ON RUSSIAN RYE\n.65\nCHICKEN SALAD SANDWICH.... .75\nTUNA SALAD SANDWICH\n.65\nEGG SALAD SANDWICH\n.55\nPEANUT BUTTER SANDWICH\n.30\nDaily Specials\nDE LUXE GROUND SIRLOIN STEAK\nOne half pound of choice beef\nground fresh\naily. Served with french fried potatoes, crist\nonion rings\nand topped with\nour special\nmusbroom sauce.\n1.65\nHOT CORNED BEEF SANDWICH\nServed on fresh Russian rye bread with po-\ntato salad set in crisp lettuce\ncup and gar-\nnished with flavorful horseradish sauce.\n1.25\nHOT ROAST BEEF SANDWICH\nServed piping hot with rich brown gravy and\ncreamy, whipped potatoes.\n1.30\nMELTED CHEDDAR CHEESE\nSANDWICH\nA new taste treat-served on crunchy toasted\nEnglish muffn with two strips of thick-sliced\nbacon, and garnished with a crisp lettuce cup,\nsliced tomato and pickle.\n.95\nCHICKEN POT PIE en CASSEROLE\nTender cubes of chicken, fresh vegetables and\nsucculent mushroom buttons topped with a\nflaky crust combine to make this dish a per-\nennial favorite.\n1.60\nGRILLED NEW YORK CUT STEAK\nA prize steak cut from the finest of beef. Tell\nus how you want it and that's how it'll reach\nthe table, sizzling and tender.\nServed with\ncrisp onion rings, french fried potatoes and\nbarbecue relish.\nHOT TURKEY SANDWICH\nThe king of birds served with tart cranberry\nsauce,\ngravy.\nfluffy\nwhipped potatoes\nand brown\n1.50\nGRILLED TOP SIRLOIN\nA full half bound steak sandwich served on\nfreshly toasted french bread with french fried\npotatoes and tomato slice on\nCAKE\nFRUIT JELLO\nSHERBET\nAPPLE PIE\nFRUIT PIE\nPUDDINGS\n.25\n25\n.20\n.25\n.25\n.25\nCHICKEN A LA KING\nImagine large chunks of chicken, juicy mush-\nrooms and colorful pimentos,\ncombined\nin a delicious special cream sauce atop crun-\nchy toast points.\nServed with fresh garden\nvegetables and sliced tomato in lettuce cup.\n1,30\nBARBECUED\nBEEF SANDWICH\nThe tangy sauce served with tender slices of\nbeef makes this dish a treat for tired palates!\nServed on a toasted milk bun\nwith french\nfried\npotatoes and a lettuce cup\nof sliced\ntomato, and pickle.\n.90\nFISH 'N CHIPS\nThese delectable morsles are fried to a crisp\ngolden\nbrown and served piping hot\nwith\nfrench fried potatoes, tartar sauce and lemon.\n1.35\nHAM AND EGGS\nA large center cut of juicy premium ham\nserved\nwith french fried potatoes, fried or\nscrambled eggs and buttered toast with jelly. 1.70\nSCRAMBLED EGGS WITH\nTOMATOES\nTwo farm-fresh eggs, scrambled in butter and\nserved with french fried potatoes, sliced toma-\ntoes and buttered toast with jelly.\n1.15\nBREADED JUMBO SHRIMP\nThese are the choice srimp of the icy gulf\nwaters-the best obtainable, served with our\nspecial tangy brimp sauce and french fried\npotatoes.\n1.70\nCOMBINATION COLD PLATE\nFor a tempting variety of food, try this tasty\ncombination of\nsliced\nroast turkey,\nsugar\ncured ham and cheddar cheese,\nby\npotato salad,\naccompanied\ncool, fresh sliced tomatoes\nand pickles.\n1.75\nBRAISED\nSIRLOIN TIPS\nMade from\nour chef's special recipe,\nthese\nsirloin tibs from choice beef are served in a\nnest of buttered egg-noodles with fresh gar-\nden vegetables.\n1.70\nserts\nICE CREAM\nPIE A LA MODE OR WITH\nCHEDDAR CHEESE\nOUR OWN SPECIAL CHEESE\nCAKE\nSTRAWBERRY SHORTCAKE\nSKY HIGH CREAM PIE.....\n.20\n.40\n55\n.65\n.35\nSide Order Tossed Green Salad.. 35c\nSide Order Coleslaw...\nSide Order Onion Rings.\n20c\n35c\nSide Order French Fried Potatoes 25c\nHOME MADE CHILI CON CARNE\nServed with Crackers\n.50\nSalads\nPINEAPPLE AND COTTAGE\nCHEESE SALAD\n1.35\nCHEF'S SPECIAL SALAD BOWL....\n1.35\nCrisp mixed\nCheese, side greens, julienne of dae,\ntomato wedges,\nparsley\n(Salads served with French, 1000 Island Dressing\nRoquefort or Mayonnaise)\nHEARTS OF LETTUCE\nSLICED TOMATOES\n.75\n.60\nMIXED GREEN SALAD BOWL\n.75\nCHICKEN SALAD, Tomato Wedges 1.35\nTUNA SALAD\nCRAB SALAD\n1.25\n1.60\nSHRIMP SALAD.\n1.60\nCRAB LOUIE\n1.85\nSHRIMP LOUIE\n1.85\nCALIFORNIA FRUIT PLATE\n1.65\nWith select California fruit topped\nwith cottage cheese or sherbet. Rolls\nor crackers and butter\nTODAY'S SOUP CUP....\n.25 BOWL .40\nFRENCH ONION SOUP AU GRATIN\nCUP\n.30 BOWL .50\nBeverages\nICED\nCOFFEE\nICED TEA\nBUTTERMILK\nPOSTUM\nROOT BEER\nCOFFEE\nTEA (Pot)\nMILK\nSANKA\nCoca-Cola\nHOT CHOCOLATE\n.20\n20\nFountain\nSpecials\nHOT FUDGE\nSUNDAE\n.50\nEXTRA LUSCIOUS\nSUNDAES\n.....45\n(Chocolate, Fresh\nStrawberry, Pineapple)\nSODAS\n.35\n(Chocolate, Fresh\nStrawberry, Pineapple)\nMALTS\n(Chocolate, Fresh\nStrawberry, Pineapple)\nMILK SHAKES... .35\n(Chocolate, Fresh\nStrawberry, Pineapple)\nROOT BEER.......15\nCoca-Cola\n.....15\nADES AND\nRICKEYS\n25\n(Lime, Lemon, Cherry,\nOrange)\nCOCKTAIL SERVICE\nAVAILABLE AT\nYOUR REUEST\nCOFFEE HOUSE\nSPECIAL\nStrawberry Short Cake\nServed in Vanilla\nCubcake with Vanilla\nIce Cream and Crushed\nStrawberries\n65",
      "We invite you to visit our other Airport facilities\nThe Hut\nIntimate Cocktail Lounge on the Ground\nFloor opposite Baggage Counter.\nMain Cocktail Lounge\nSouth End of Lobby Floor opposite\nCoffee Shop.\nInternational Roam\nFamous for its delightful cuisine and\ncocktails... Located on third floor\nwhere the panoramic view of the Bay\nArea is at its best...\n2001.191•001"
    ],
    "millsfield:images_texts_ids": [
      1527843127,
      1527843129,
      1527843131
    ],
    "millsfield:primary_image": 1527843127,
    "millsfield:subcategory_id": 1511213567,
    "mz:hierarchy_label": 1,
    "mz:is_approximate": 1,
    "mz:is_current": 1,
    "sfomuseum:accession_number": "2001.191.001",
    "sfomuseum:airport": "San Francisco International Airport",
    "sfomuseum:airport_id": [
      121
    ],
    "sfomuseum:category": "Passenger Amenity, Archive",
    "sfomuseum:classification_id": 242,
    "sfomuseum:collection": "Aviation Archive",
    "sfomuseum:continent": "North America",
    "sfomuseum:country": "United States",
    "sfomuseum:creditline": "Collection of SFO Museum",
    "sfomuseum:date": "c. 1955",
    "sfomuseum:date_acquired": "2001-12-31",
    "sfomuseum:daterange_end": "1960-12-31",
    "sfomuseum:daterange_start": "1950-01-01",
    "sfomuseum:description": "Lunch menu for the Coffee Shop at San Francisco International Airport (SFO) and Sacramento Municipal Airport; yellow cover color illustration of flags; menu items include sandwiches, salads, steaks, and desserts.",
    "sfomuseum:dimensions": "11 x 9 1/4 inches (27.9 x 23.5 cm)",
    "sfomuseum:media_ids": [
      1527843127,
      1527843129,
      1527843131
    ],
    "sfomuseum:medium": "paper, ink",
    "sfomuseum:object_id": 68184,
    "sfomuseum:placetype": "object",
    "sfomuseum:primary_media_id": 1527843127,
    "sfomuseum:publication": ": , c. 1955.",
    "sfomuseum:subcategory": "Menu",
    "src:geom": "sfomuseum#derived",
    "src:geom_derived_from": [
      102527513
    ],
    "wof:belongsto": [
      1159162825,
      102527513,
      102191575,
      85633793,
      85922583,
      102087579,
      1159160869,
      85688637,
      102085387,
      554784711
    ],
    "wof:breaches": [],
    "wof:country": "US",
    "wof:created": 1579906656,
    "wof:depicts": [
      102527513
    ],
    "wof:geomhash": "bf40c3bc435019ba74db5659992d9e04",
    "wof:hierarchy": [
      {
        "building_id": -1,
        "campus_id": 102527513,
        "collection_id": 1159162825,
        "concourse_id": 1159162825,
        "continent_id": 102191575,
        "country_id": 85633793,
        "county_id": 102087579,
        "custom_id": 1511923865,
        "locality_id": 85922583,
        "neighbourhood_id": -1,
        "object_id": 1511923865,
        "region_id": 85688637,
        "wing_id": 1159160869
      },
      {
        "campus_id": 102527513,
        "continent_id": 102191575,
        "country_id": 85633793,
        "county_id": 102087579,
        "custom_id": 1511923865,
        "locality_id": 85922583,
        "object_id": 1511923865,
        "postalcode_id": 554784711,
        "region_id": 85688637
      },
      {
        "campus_id": 102527513,
        "continent_id": 102191575,
        "country_id": 85633793,
        "county_id": 102085387,
        "custom_id": 1511923865,
        "object_id": 1511923865,
        "region_id": 85688637
      }
    ],
    "wof:id": 1511923865,
    "wof:lastmodified": 1787988178,
    "wof:name": "menu: San Francisco International Airport (SFO), Coffee Shop",
    "wof:parent_id": 1159162825,
    "wof:placetype": "custom",
    "wof:placetype_alt": [
      "object"
    ],
    "wof:repo": "sfomuseum-data-collection",
    "wof:superseded_by": [],
    "wof:supersedes": [],
    "wof:tags": []
  },
  "bbox": [
    -122.370943,
    37.61799,
    -122.370943,
    37.61799
  ],
  "geometry": {"type":"MultiPoint","coordinates":[[-122.370943,37.61799]]}
}
