{
  "id": 1913795263,
  "type": "Feature",
  "properties": {
    "date:cessation_lower": "1944-04-16",
    "date:cessation_upper": "1944-04-16",
    "date:inception_lower": "1944-04-16",
    "date:inception_upper": "1944-04-16",
    "edtf:cessation": "1944-04-16",
    "edtf:inception": "1944-04-16",
    "geom:area": 2.475047457570636e-7,
    "geom:bbox": "-122.386472,37.616105,-122.385834,37.616611",
    "geom:latitude": 37.61635747477365,
    "geom:longitude": -122.38615540108617,
    "millsfield:airline_id": [
      1159284991
    ],
    "millsfield:category_id": 1511214251,
    "millsfield:collection_id": 1511214207,
    "millsfield:company_id": [
      1159286839
    ],
    "millsfield:images": [
      1913799203,
      1913799205
    ],
    "millsfield:images_colors_refs": {
      "crayola": [
        {
          "hex": "#efdecd"
        },
        {
          "hex": "#4a646c"
        },
        {
          "hex": "#dbd7d2"
        }
      ],
      "css4": [
        {
          "hex": "#f5deb3"
        },
        {
          "hex": "#696969"
        },
        {
          "hex": "#2f4f4f"
        }
      ],
      "marekm4": [
        {
          "hex": "#435d6e"
        },
        {
          "hex": "#e2dac1"
        },
        {
          "hex": "#536870"
        },
        {
          "hex": "#e1dac0"
        }
      ]
    },
    "millsfield:images_texts": [
      "Sunday.\n16t\nPAN AMERICAN WORLD AIRWAYS SYSTEM\nCHRYSLER BUILDING, T35 EAST 42ND STREET, NEW YORK 17, N. Y.\nJarlin\nKECUTIVE OFFICE\nCaddy\narris Earlin than Expectrd this morning\nbicaus of a mistake by the man who told her her\nticket. 8o\n- abort 9 a.m. she just wacked in, she\nlooks wondertull, url and of cours was full of store.\nbout fare lane Van\nElsanor and 2kr:\nI thought\nAnd and caad, might like to hair a Sunday\nalone\nin then own home\nme the so den\nand Dir new gone that\ncalled her\nup to ask y\n-o cones come. She was\nI came in Early and worked her (at\ndelighted. \"\nthe office untie nearer one.\nthen to Kittys. The\nCrina was a nia litt bag-\nSerphen Clack very\ndule, mis cake ery nia, a mus woodin (consin\nAtings) brought along.\nsome drift wood (which\nKitty\nExplained to the Clarks, when Mrs woodinß wa.\nont of the room, was Don\nsale but they did st\nhair to buy No one in this right mind ones!)\nAnattu guest was a dopry looking is mais whom\nEir met\nbefore at the coopers. She has seraggh,\nhair, un\nbangs our his forsad of it was a ford\nrelia to hide\nbang mich\nmuch of her face a pontle\nand fet\nI suppon that wont identy,\nher vag we for you\nis met plast of thon at\nNary was.\nlooks\n- fine.\nand\nwas wooden frest eat gust et him\ntalke it wores\nhar\nten fine\nas it was the",
      "concusation\nuninthrating and o wa.\nplenty boird.\nIn fact o am whees froup\nWick Ny and want to get ont as toon as\n9 car.\nwackd back her after dinnu. Then\nBar bagon\non my way he Singh logo an\n$ 3 to\nfrom.\n$4.50 pr day anet to come 330\n- able to\n-take fir\nthis tummes yoo the wish!\nHad a not from\nmary Spading par endo\nmust call her up.\nShe said.\nQuit was away?\nfor two\nbut shed lo to hair meitip\nfor dennis which was very nece of here sham\nsaid up -\nat andys\ndock thy cal\nneignbor to the north\n\"Barrettovie of course\nit looks like a wile a with then four\nstructures.\nguin mean head, to put in\nthat\ndig! apparan relations\nrelatino way strains. Righ\nsaid.\n• Ik at\nВій В.\nsaid he had thes regeons\nyou wanting a\ntwo star, hour the fut was\nthat habitually he\nlins to go upstairs tast\nbee and seconds\ndid nit like somete\nwindow then the was\nsitting on the John.\nHe taed Cat that he was\ngoing\nto instaceto\nhed\ngate.\ngur\nMust step now a cater\nthe trap tho\nBrons vice. Que my lor te\nthe one to me and the one, one ament gustes\nyou N"
    ],
    "millsfield:images_texts_ids": [
      1913799203,
      1913799205
    ],
    "millsfield:primary_image": 1913799203,
    "millsfield:subcategory_id": 1511213489,
    "mz:is_approximate": 1,
    "mz:is_current": 1,
    "sfomuseum:accession_number": "2019.121.1078",
    "sfomuseum:airline": "Pan American Airways",
    "sfomuseum:airline_id": [
      685
    ],
    "sfomuseum:category": "Employee Career History",
    "sfomuseum:classification_id": 195,
    "sfomuseum:collection": "Aviation Archive",
    "sfomuseum:creditline": "Collection of SFO Museum",
    "sfomuseum:date": "04/16/1944",
    "sfomuseum:date_acquired": "2019-11-22",
    "sfomuseum:daterange_end": "1944-04-16",
    "sfomuseum:daterange_start": "1944-04-16",
    "sfomuseum:description": "Handwritten letter from Harold M. Bixby to his wife, Debby Bixby, dated April 16, [1944], on Pan American World Airways System stationery; includes family matters. ",
    "sfomuseum:dimensions": "11 x 8 1/2 inches (27.9 x 21.6 cm)",
    "sfomuseum:medium": "paper, ink",
    "sfomuseum:object_id": 211441,
    "sfomuseum:placetype": "object",
    "sfomuseum:publication": ": , 04/16/1944.",
    "sfomuseum:subcategory": "Correspondence, Personal",
    "src:geom": "sfomuseum#undetermined",
    "wof:belongsto": [
      102527513,
      1159162825,
      102191575,
      85633793,
      102087579,
      85922583,
      85688637,
      1159160869
    ],
    "wof:country": "XY",
    "wof:created": 1714548742,
    "wof:depicts": [
      1159284991,
      1159286839
    ],
    "wof:geomhash": "c281b9d9eefc83b5710e64b9d646067d",
    "wof:hierarchy": [
      {
        "building_id": -1,
        "campus_id": 102527513,
        "collection_id": 1159162825,
        "concourse_id": 1159162825,
        "continent_id": 102191575,
        "country_id": 85633793,
        "county_id": 102087579,
        "custom_id": 1913795263,
        "locality_id": 85922583,
        "neighbourhood_id": -1,
        "object_id": 1913795263,
        "region_id": 85688637,
        "wing_id": 1159160869
      }
    ],
    "wof:id": 1913795263,
    "wof:lastmodified": 1787988219,
    "wof:name": "correspondence: Harold M. Bixby to Debby Bixby",
    "wof:parent_id": 1159162825,
    "wof:placetype": "custom",
    "wof:placetype_alt": [
      "object"
    ],
    "wof:repo": "sfomuseum-data-collection",
    "wof:superseded_by": [],
    "wof:supersedes": []
  },
  "bbox": [
    -122.38647222518921,
    37.6161053594541,
    -122.38583385944366,
    37.61661101879963
  ],
  "geometry": {"type":"Polygon","coordinates":[[[-122.38647222518921,37.61631782178288],[-122.386434674263,37.61623283692423],[-122.38637566566466,37.61617759671399],[-122.38630056381224,37.6161308549656],[-122.38616108894348,37.6161053594541],[-122.38602161407469,37.6161308549656],[-122.38591432571411,37.61618609521055],[-122.38585531711577,37.61626683087935],[-122.38583385944366,37.61636881265146],[-122.38587141036987,37.61646654505181],[-122.38594114780425,37.61654303118856],[-122.38605380058287,37.61660252035167],[-122.38618254661559,37.61661101879963],[-122.3863059282303,37.61657277577607],[-122.3864185810089,37.61650903735973],[-122.3864668607712,37.61641130501523],[-122.38647222518921,37.61631782178288]]]}
}
