{
  "id": 1914590251,
  "type": "Feature",
  "properties": {
    "date:cessation_lower": "1970-01-01",
    "date:cessation_upper": "1970-12-31",
    "date:inception_lower": "1970-01-01",
    "date:inception_upper": "1970-12-31",
    "edtf:cessation": "1970~",
    "edtf:inception": "1970~",
    "geom:area": 2.475047457570636e-7,
    "geom:bbox": "-122.386472,37.616105,-122.385834,37.616611",
    "geom:latitude": 37.61635747477365,
    "geom:longitude": -122.38615540108617,
    "millsfield:aircraft_id": [
      1159291185
    ],
    "millsfield:airline_id": [
      1159285199
    ],
    "millsfield:category_id": 1762671311,
    "millsfield:collection_id": 1511214207,
    "millsfield:company_id": [],
    "millsfield:images": [
      1914590379
    ],
    "millsfield:images_colors_refs": {
      "crayola": [
        {
          "hex": "#efdecd"
        },
        {
          "hex": "#000000"
        }
      ],
      "css4": [
        {
          "hex": "#000000"
        },
        {
          "hex": "#faebd7"
        }
      ],
      "marekm4": [
        {
          "hex": "#221c12"
        },
        {
          "hex": "#eee6d6"
        }
      ]
    },
    "millsfield:images_texts": [
      "FORM 0-71\nEXIT LOCATIONS\nSOUTHERN\nAIRWAYS\nMARTIN 404\nEVACUATION PROCEDURES\nFerward\nCargo Doe\nTO OUR PASSENGERS\nYou are flying aboard a Martin 404 with a skilled and\nexperienced Captain and Crew who are thoroughly\ntrained\nto cope with and handle any emergency\nsituation which might arise.\nAircraft emergencies are infrequent; however, pro-\ncedures have been established in advance as pre-\ncautionary measures.\nTo acquaint yourself with the safety features of\nthis airplane, we ask that you familiarize yourself\nwith the information provided on this card.\nIn the event of an emergency, remain calm. Listen\nand follow carefully the instructions given by your\nStewardess or other Crew Members.\nSEAT BELTS\nSeat belts are provided for your safety and comfort.\nThey must be fastened securely during all taxiings,\ntakeoffs and landings. It is recommended that your\nseat belt be fastened at any time you are seated.\nSeats must be in an upright position during all :\ntakeoffs, and landings.\nSMOKING\nWhenever the \"NO SMOKING\" sign is on, all smokes\nare to be extinguished.\nLIFE VESTS\nLife Vests are located in a pouch under each seat\nfor use in the event of an emergency water landing.\nREGULATIONS PROHIBIT THE USE OF ANY AM OR\nFM RADIO OR TV RECEIVERS IN FLIGHT.\nDO NOT REMOVE THIS CARD FROM AIRCRAFT\nWindow\nExit\nExit\nWindow\nExit\nWindow\nExit\nWindow\nExit\nWindow\nExit\nPassenge\nCabin Doo\nWINDOW EXIT OPERATION\nFORWARD CARGO DOOR\nThe Forward Cargo Door is\nequipped with an inflatable\nemergency evacuation slide.\nOperation Procedures:\n1. Rotate Handle in direction of\narrow to \"OPEN.\"\n2. Push door outward.\n3. Grasp Red Handle on floor and\npull to inflate evacuation slide.\nEVACUATION SLIDE\nBefore using slide, remove high-\nheeled shoes.\nThe correct way to use slide is to\nsit on sill and push off, feet first.\nDo not hold onto sides of slide\nand in no instance jump onto it.\n1.\nInsert Hand in Slot\n2.\nPull Handle down\n3. Grasp Bottom and Top\nof Window\n4. Lift inward.\nBRACING POSITION"
    ],
    "millsfield:images_texts_ids": [
      1914590379
    ],
    "millsfield:primary_image": 1914590379,
    "millsfield:subcategory_id": 1511213703,
    "mz:is_approximate": 1,
    "mz:is_current": 1,
    "sfomuseum:accession_number": "2002.127.534",
    "sfomuseum:aircraft": "Martin 4-0-4",
    "sfomuseum:aircraft_id": [
      831
    ],
    "sfomuseum:airline": "Southern Airways",
    "sfomuseum:airline_id": [
      780
    ],
    "sfomuseum:category": "Passenger Amenity, Archive",
    "sfomuseum:classification_id": 581,
    "sfomuseum:collection": "Aviation Archive",
    "sfomuseum:creditline": "Gift of Thomas G. Dragges",
    "sfomuseum:date": "c. 1970",
    "sfomuseum:date_acquired": "2003-12-22",
    "sfomuseum:daterange_end": "1975-12-31",
    "sfomuseum:daterange_start": "1965-01-01",
    "sfomuseum:description": "Safety information card issued by Southern Airways for Martin 4-0-4 fleet; double-sided card with illustrations depicting inflight safety and emergency procedures; identification code: O-71; no revision date.",
    "sfomuseum:dimensions": "8 1/2 x 5 1/4 inches (21.6 x 13.3 cm)",
    "sfomuseum:medium": "paper, ink",
    "sfomuseum:object_id": 69575,
    "sfomuseum:placetype": "object",
    "sfomuseum:publication": ": , c. 1970.",
    "sfomuseum:subcategory": "Safety Information Card",
    "src:geom": "sfomuseum#undetermined",
    "wof:belongsto": [
      102527513,
      1159162825,
      102191575,
      85633793,
      102087579,
      85922583,
      85688637,
      1159160869
    ],
    "wof:country": "XY",
    "wof:created": 1720769582,
    "wof:depicts": [
      1159291185,
      1159285199
    ],
    "wof:geomhash": "c281b9d9eefc83b5710e64b9d646067d",
    "wof:hierarchy": [
      {
        "building_id": -1,
        "campus_id": 102527513,
        "collection_id": 1159162825,
        "concourse_id": 1159162825,
        "continent_id": 102191575,
        "country_id": 85633793,
        "county_id": 102087579,
        "custom_id": 1914590251,
        "locality_id": 85922583,
        "neighbourhood_id": -1,
        "object_id": 1914590251,
        "region_id": 85688637,
        "wing_id": 1159160869
      }
    ],
    "wof:id": 1914590251,
    "wof:lastmodified": 1787988221,
    "wof:name": "safety information card: Southern Airways, Martin 4-0-4",
    "wof:parent_id": 1159162825,
    "wof:placetype": "custom",
    "wof:placetype_alt": [
      "object"
    ],
    "wof:repo": "sfomuseum-data-collection",
    "wof:superseded_by": [],
    "wof:supersedes": []
  },
  "bbox": [
    -122.38647222518921,
    37.6161053594541,
    -122.38583385944366,
    37.61661101879963
  ],
  "geometry": {"type":"Polygon","coordinates":[[[-122.38647222518921,37.61631782178288],[-122.386434674263,37.61623283692423],[-122.38637566566466,37.61617759671399],[-122.38630056381224,37.6161308549656],[-122.38616108894348,37.6161053594541],[-122.38602161407469,37.6161308549656],[-122.38591432571411,37.61618609521055],[-122.38585531711577,37.61626683087935],[-122.38583385944366,37.61636881265146],[-122.38587141036987,37.61646654505181],[-122.38594114780425,37.61654303118856],[-122.38605380058287,37.61660252035167],[-122.38618254661559,37.61661101879963],[-122.3863059282303,37.61657277577607],[-122.3864185810089,37.61650903735973],[-122.3864668607712,37.61641130501523],[-122.38647222518921,37.61631782178288]]]}
}
