{
  "id": 1763248939,
  "type": "Feature",
  "properties": {
    "date:cessation_lower": "1949-10-15",
    "date:cessation_upper": "1949-10-15",
    "date:inception_lower": "1949-10-15",
    "date:inception_upper": "1949-10-15",
    "edtf:cessation": "1949-10-15",
    "edtf:inception": "1949-10-15",
    "geom:area": 2.475047457570636e-7,
    "geom:bbox": "-122.386472,37.616105,-122.385834,37.616611",
    "geom:latitude": 37.61635747477365,
    "geom:longitude": -122.38615540108617,
    "millsfield:airline_id": [
      1159285663
    ],
    "millsfield:category_id": 1511214223,
    "millsfield:collection_id": 1511214207,
    "millsfield:company_id": [
      1159287595
    ],
    "millsfield:images": [
      1763249331
    ],
    "millsfield:images_colors_refs": {
      "crayola": [
        {
          "hex": "#324ab2"
        },
        {
          "hex": "#cdc5c2"
        }
      ],
      "css4": [
        {
          "hex": "#483d8b"
        },
        {
          "hex": "#d3d3d3"
        }
      ],
      "marekm4": [
        {
          "hex": "#dbd3be"
        },
        {
          "hex": "#3a43a3"
        }
      ]
    },
    "millsfield:images_texts": [
      "Eff. Oct. 15, 1949\nWESTERN DIVISION\nNORTHBOUND\nLos Angeles\nSan Bernardino\nPalm Springs.\nLas Vegas\nCedar City\nSalt Lake City\nFlight Number\nSalt Lake City.\nOgden.\nLogan\nPocatello\nIdaho Falls.\nButte.\nHelena\nGreat Falls.\nGreat Falls\nCut Bank-Shelby\nLethbridge\nSOUTHBOUND\nLethbridge\nCut Bank-Shelby\nGreat Falls\nGreat Falls\nHelena\nButte\nIdaho Falls\nPocatello.\nLogan.\nOgden\nSalt Lake City\nFlight Number\nSalt Lake City\nCedar City.\nLas Vegas\nFlight Number\nLas Vegas..\nPalm Springs\nSan Bernardino@\nLos Angeles\nRead Down\n•14\n26\n(PST) Lv\nLV\nLv\n(PST) Ar\n(MST) Lv\nАг\n14\n04\n*8 30 *8 30 11 40\n·\n9\n30\n10\n40|10\n10 12\n12\n55\n12\n55\n25\n2 20\n1\n50\n3\n50\n6 30\n1 25\n8\n00\n3 05\n6\nLv\nLv\nLV\nLv\nLV\nLv\nLv\nАг\nLv\nLv\n(MST) Ar\n4 30\n5\ni 45\n*6\n20\n7\n8\n40\n00\n5\n(MST) Lv\nLv\nLv\nLv\nLv\nLv\nLV\nLv\n11 10\n11 55\n12*35\n1\n55\n30\n3\n15\n45\n05\n13\n63\n•5\n4 50\nLv\n(MST) Lv\n(PST) Ar\n8 30\n9 00\n10 00 10 30\n10 05 10 35\n5 30\n3\n96 30\n26\n7\n20\n7\n45\n8\n15\n9\n05\n9\n40\n11 00\n11\n40\n12°15\n1\n2\n30\n40\n3 15\n23\n4\n00\n5\n$5\n00\n45\n6\n20\n05\n9\n50\n/ 10\n9\n145\n10 45\n23\n11 30\n12 35\n• 5\n5 45\n•15\n23\n8 30\n12 45\nLv\nLv\nLV\nLv\n10 15 10\n45\n11 35\n12 30 12 20\n7 00|10\n1 00\n2 25\nWESTERN AIR LINES\nEffective October 15-31, 1949\nRead Down\nNORTHBOUND\n600\n606\n614\nSan Diego. ... (PST) Lv\nPalm Springs\nSan BernardinoD\nLv\nLv\nLong Beach..\nLv\nLos Angeles\nAr\n8 10\nLos Angeles\nAll Non-stop\nService\nSan Francisco.\nSan Francisco\nOakland\nPortland\nSeattle-Tacoma\nSOUTHBOUND\nSeattle-Tacoma\nPortland\nOakland\nSan Francisco\nSan Francisco.\n(\nAll Non-stop)\nService\nLos Angeles.\nLos Angeles.\nLong Beach.\nSan Bernardino@\nPalm Springs\nSan Diego.\n8\n51\n08\nLu *\n30\n9 30 12*01\n9 15 11\n15\n45\nLV\n9 35 11*35\nAr\nАг\n12\n: 05\n1\n10\n3\n05\n10\n2 05\n21\n05\n10\n301\n615\n*8\n00\n07\n317\nLv\nLv\nLv\nAr\n8\n00\n8\n15\n|11\n45\nLv\n*g\n30\n12*05\nAr 10\n15\nLv\n10 35\nAr: 10\n55\nAr\nAr\n(PST) Ar|11 39\n1\n50\n2\n: 15\n2\n, 35\n3\n19\n2\n: 25\n48\n25\n316\n318\n628\n334\n336\nCoach\n740\n4 10\n6\n40\nC\n4\n· 00\n4 35\n4 55\n4\n46\n4\n51\n7\n7\n21\n38\nC\nH\n1 30\n*5\n30\n*6 15\n8\n00 10 30\n3 15\n7 15\n8\n00\n9\n45\n12 30\n7 35\n10\n05\n11\n10\n10\n00\n10 15\n1 00\n1\n15\n4\n20\n5\n30\n319\n625\n627\n12*30\n3\n1\n37\n4\n*4\n00\n07\n: 25\n4\n. 40\n6\n45\n4 00*5\n00\n7\n05\n329\n635\nCoach\n741\n00|10\n00\n07 11\n10\n10\n15\n1 45\n2\n30\n30 11\n05\n3\n00\n5\n:45\n45\n8\n50\n10\n15 12\n50\n5\n00\n7\n15\n35\n8\n19"
    ],
    "millsfield:images_texts_ids": [
      1763249331
    ],
    "millsfield:primary_image": 1763249331,
    "millsfield:subcategory_id": 1511213425,
    "mz:is_approximate": 1,
    "mz:is_current": 1,
    "sfomuseum:accession_number": "2015.167.884",
    "sfomuseum:airline": "Western Air Lines",
    "sfomuseum:airline_id": [
      1005
    ],
    "sfomuseum:category": "Scheduling / Ticketing",
    "sfomuseum:classification_id": 158,
    "sfomuseum:collection": "Aviation Archive",
    "sfomuseum:creditline": "Gift of Thomas G. Dragges",
    "sfomuseum:date": "10/15/1949",
    "sfomuseum:date_acquired": "2016-07-06",
    "sfomuseum:daterange_end": "1949-10-15",
    "sfomuseum:daterange_start": "1949-10-15",
    "sfomuseum:description": "Timetable issued by Western Air Lines, effective October 15 - October 31, 1949; double-sided bi-fold sheet; blue and white cover with blue text; includes reservation information.",
    "sfomuseum:dimensions": "9 x 4 inches (22.9 x 10.2 cm)",
    "sfomuseum:medium": "paper, ink",
    "sfomuseum:object_id": 175076,
    "sfomuseum:placetype": "object",
    "sfomuseum:publication": ": , 1949.",
    "sfomuseum:subcategory": "Timetable",
    "src:geom": "sfomuseum#undetermined",
    "wof:belongsto": [
      102527513,
      1159162825,
      102191575,
      85633793,
      102087579,
      85922583,
      85688637,
      1159160869
    ],
    "wof:country": "XY",
    "wof:created": 1646988015,
    "wof:depicts": [
      1159287595,
      1159285663
    ],
    "wof:geomhash": "c281b9d9eefc83b5710e64b9d646067d",
    "wof:hierarchy": [
      {
        "building_id": -1,
        "campus_id": 102527513,
        "collection_id": 1159162825,
        "concourse_id": 1159162825,
        "continent_id": 102191575,
        "country_id": 85633793,
        "county_id": 102087579,
        "custom_id": 1763248939,
        "locality_id": 85922583,
        "neighbourhood_id": -1,
        "object_id": 1763248939,
        "region_id": 85688637,
        "wing_id": 1159160869
      }
    ],
    "wof:id": 1763248939,
    "wof:lastmodified": 1787988206,
    "wof:name": "timetable: Western Air Lines",
    "wof:parent_id": 1159162825,
    "wof:placetype": "custom",
    "wof:placetype_alt": [
      "object"
    ],
    "wof:repo": "sfomuseum-data-collection",
    "wof:superseded_by": [],
    "wof:supersedes": []
  },
  "bbox": [
    -122.38647222518921,
    37.6161053594541,
    -122.38583385944366,
    37.61661101879963
  ],
  "geometry": {"type":"Polygon","coordinates":[[[-122.38647222518921,37.61631782178288],[-122.386434674263,37.61623283692423],[-122.38637566566466,37.61617759671399],[-122.38630056381224,37.6161308549656],[-122.38616108894348,37.6161053594541],[-122.38602161407469,37.6161308549656],[-122.38591432571411,37.61618609521055],[-122.38585531711577,37.61626683087935],[-122.38583385944366,37.61636881265146],[-122.38587141036987,37.61646654505181],[-122.38594114780425,37.61654303118856],[-122.38605380058287,37.61660252035167],[-122.38618254661559,37.61661101879963],[-122.3863059282303,37.61657277577607],[-122.3864185810089,37.61650903735973],[-122.3864668607712,37.61641130501523],[-122.38647222518921,37.61631782178288]]]}
}
