{
  "id": 1511951329,
  "type": "Feature",
  "properties": {
    "date:cessation_lower": "1955-01-01",
    "date:cessation_upper": "1955-12-31",
    "date:inception_lower": "1955-01-01",
    "date:inception_upper": "1955-12-31",
    "edtf:cessation": "1955~",
    "edtf:date": "1955~",
    "edtf:inception": "1955~",
    "geom:area": 0,
    "geom:bbox": "-122.386155,37.616357,-122.386155,37.616357",
    "geom:latitude": 37.616357,
    "geom:longitude": -122.386155,
    "iso:country": "XX",
    "millsfield:airline_id": [
      1159284993
    ],
    "millsfield:category_id": 1763416397,
    "millsfield:collection_id": 1511214207,
    "millsfield:company_id": [
      1159288567
    ],
    "millsfield:images": [
      1763388439
    ],
    "millsfield:images_colors_refs": {
      "crayola": [
        {
          "hex": "#414a4c"
        },
        {
          "hex": "#757575"
        },
        {
          "hex": "#bf4f51"
        },
        {
          "hex": "#dbd7d2"
        },
        {
          "hex": "#6699cc"
        }
      ],
      "css4": [
        {
          "hex": "#cd5c5c"
        },
        {
          "hex": "#dcdcdc"
        },
        {
          "hex": "#708090"
        },
        {
          "hex": "#778899"
        },
        {
          "hex": "#2f4f4f"
        }
      ],
      "marekm4": [
        {
          "hex": "#444242"
        },
        {
          "hex": "#b75845"
        },
        {
          "hex": "#5a7295"
        },
        {
          "hex": "#dee1e4"
        },
        {
          "hex": "#6f8daa"
        }
      ]
    },
    "millsfield:images_texts": [
      "\"Every days a new adventure\nsay travelers who have\nbeen everywhere\nin South America,\nEl Gaucho. cowbov of the pampas is proud of coin\nBuenos Aires is the Paris of South America... boasts 50¢ filet mignon\nbargain French-designed frocks. And our winter is their summer\nThe combination of scenery, good fishing\nand city fun is refreshingly different...\nand the air service is superb.\nYou fly DC-7s and DC-6Bs all with radar\nYou can vary your vacation in countless ways if\nyou go to South America. Idle on sun-drenched\npatios near surf or the spectacular Andes. Win excit-\ning battles with trout in lakes... or marlin at sea\nRoam colorful old Spanish cities. Follow the trail of\nhistory through silent streets in Incaland.\nAll the while, you'll be amazed at how far your\ndollars go because of favorable rates of exchange\nin countries on Panagra's route. And you'll appre-\nciate the excellent food and courtly service at fine\nluxury hotels.\n30% off on Excursion Fares\nNow you can save 30% on your air fare and go down\none coast to Buenos Aires and come back the other.\nYou get this saving on a 28-day tour which takes you\nto 8 cities and includes fare, hotel rooms, sightseeing-\nPan Am Holiday #703—$993.40 from New York.\nNew low round-trip fares to Buenos Aires apply\nboth to all-tourist flights by swift El Pacifico pressur-\nized DC-6Bs and to deluxe all-first-class flights by\nEl InterAmericano DC-7s. Both services leave New\nYork daily over the routes of National Airlines,\nPan American and Panagra. Panagra is the only U.S.\nairline with radar on all fights to South America.\nValuable travel book, only 25¢\nYou can read all about what to see, do, wear and\ntake home. New revised edition, just off the press,\ncontains 130 pages of up-to-the-minute facts. It's\ncalled \"How to get the most out of vour trip to South\nAmerica.\" Write Panagra for your copy. Enclose 25¢\nin coin. Address Dept. 7H, Chrysler Bldg., New\nYork 17, N. Y.\nFor reservations, see your local Travel Agent or\nPan American, U.S. Sales Agents for-\nPANAGRA\nPAN AMERICAN GRACE AIRWAYS\nSo-Ib.\nsalmon. Snowy peak is El Tronados\nCali, Colombia. Visit historic Santa Rosa Cathe-\nIn Chile, Antumalal Lodge is modern with a homelike comfort. You\nHOLIDAY/OCTOBER"
    ],
    "millsfield:images_texts_ids": [
      1763388439
    ],
    "millsfield:primary_image": 1763388439,
    "millsfield:subcategory_id": 1511213149,
    "mz:hierarchy_label": 1,
    "mz:is_current": 1,
    "sfomuseum:accession_number": "2001.038.164.114 a b",
    "sfomuseum:airline": "Panagra (Pan American-Grace Airways)",
    "sfomuseum:airline_id": [
      687
    ],
    "sfomuseum:category": "Promotional, Archive",
    "sfomuseum:classification_id": 6,
    "sfomuseum:collection": "Aviation Archive",
    "sfomuseum:creditline": "Gift of Barnaby Conrad III",
    "sfomuseum:date": "c. 1955",
    "sfomuseum:date_acquired": "2003-05-16",
    "sfomuseum:daterange_end": "1960-12-31",
    "sfomuseum:daterange_start": "1950-01-01",
    "sfomuseum:description": "Two-page advertisement from October [unknown year] issue of Holiday promoting Pan American Grace Airways and Panagra, titled “‘Every day’s a new adventure in South America,’ say travelers who have been everywhere” with large color photographic image depicting fishing scene on lake, Lago Hess, Argentina.",
    "sfomuseum:dimensions": "14 x 21 inches (35.6 x 53.3 cm)",
    "sfomuseum:medium": "paper, ink",
    "sfomuseum:object_id": 122825,
    "sfomuseum:placetype": "object",
    "sfomuseum:publication": ": , c. 1955.",
    "sfomuseum:subcategory": "Advertisement, 2D",
    "sfomuseum:subject": "Pan Am promotional advertisement",
    "src:geom": "sfomuseum#undetermined",
    "wof:belongsto": [
      1511214205,
      102527513,
      102191575,
      85633793,
      1511213149,
      85922583,
      102087579,
      1511214277,
      1511214207,
      85688637
    ],
    "wof:breaches": [],
    "wof:country": "XX",
    "wof:created": 1618962246,
    "wof:depicts": [
      1159288567,
      1159284993
    ],
    "wof:geomhash": "30c8a918561c84bb2daa2b97fc7c5353",
    "wof:hierarchy": [
      {
        "arcade_id": 1511213149,
        "building_id": 1511214277,
        "campus_id": 102527513,
        "concourse_id": 1511214205,
        "continent_id": 102191575,
        "country_id": 85633793,
        "county_id": 102087579,
        "custom_id": 1511951329,
        "locality_id": 85922583,
        "neighbourhood_id": -1,
        "object_id": 1511951329,
        "region_id": 85688637,
        "venue_id": 1511951329,
        "wing_id": 1511214207
      }
    ],
    "wof:id": 1511951329,
    "wof:lastmodified": 1787988188,
    "wof:name": "advertisement: Panagra (Pan American-Grace Airways), Holiday",
    "wof:parent_id": 1159162825,
    "wof:placetype": "custom",
    "wof:placetype_alt": [
      "object"
    ],
    "wof:repo": "sfomuseum-data-collection",
    "wof:superseded_by": [],
    "wof:supersedes": [],
    "wof:tags": []
  },
  "bbox": [
    -122.386155,
    37.616357,
    -122.386155,
    37.616357
  ],
  "geometry": {"type":"Point","coordinates":[-122.386155,37.616357]}
}
