{
  "id": 1914622261,
  "type": "Feature",
  "properties": {
    "date:cessation_lower": "1993-01-01",
    "date:cessation_upper": "1993-12-31",
    "date:inception_lower": "1993-01-01",
    "date:inception_upper": "1993-12-31",
    "edtf:cessation": "1993",
    "edtf:inception": "1993",
    "geom:area": 2.475047457570636e-7,
    "geom:bbox": "-122.386472,37.616105,-122.385834,37.616611",
    "geom:latitude": 37.61635747477365,
    "geom:longitude": -122.38615540108617,
    "millsfield:aircraft_id": [
      1159289859
    ],
    "millsfield:airline_id": [
      1159285447
    ],
    "millsfield:category_id": 1762671311,
    "millsfield:collection_id": 1511214207,
    "millsfield:company_id": [
      1159293593,
      1159289819
    ],
    "millsfield:images": [
      1914622747,
      1914622751,
      1914622753
    ],
    "millsfield:images_colors_refs": {
      "crayola": [
        {
          "hex": "#cd9575"
        },
        {
          "hex": "#bab86c"
        },
        {
          "hex": "#414a4c"
        },
        {
          "hex": "#bf4f51"
        },
        {
          "hex": "#cdc5c2"
        },
        {
          "hex": "#9c2542"
        },
        {
          "hex": "#dbd7d2"
        },
        {
          "hex": "#7366bd"
        },
        {
          "hex": "#6699cc"
        },
        {
          "hex": "#000000"
        }
      ],
      "css4": [
        {
          "hex": "#c0c0c0"
        },
        {
          "hex": "#a0522d"
        },
        {
          "hex": "#2f4f4f"
        },
        {
          "hex": "#4682b4"
        },
        {
          "hex": "#000000"
        },
        {
          "hex": "#8b0000"
        },
        {
          "hex": "#bdb76b"
        },
        {
          "hex": "#708090"
        },
        {
          "hex": "#d3d3d3"
        }
      ],
      "marekm4": [
        {
          "hex": "#030304"
        },
        {
          "hex": "#b69b61"
        },
        {
          "hex": "#dbd8ca"
        },
        {
          "hex": "#2c251e"
        },
        {
          "hex": "#bab358"
        },
        {
          "hex": "#658abc"
        },
        {
          "hex": "#dad8c7"
        },
        {
          "hex": "#6576a8"
        },
        {
          "hex": "#901014"
        },
        {
          "hex": "#a6493c"
        },
        {
          "hex": "#c9c5bf"
        },
        {
          "hex": "#392e2c"
        }
      ]
    },
    "millsfield:images_texts": [
      "B737-400\nSafety Instructions\nInstructions de Sécurité\nInstrucciones de Seguridad\nSicherheitsanleitungen\nUSAir",
      "EVACUATION PROCEDURES\nPROCEDIMIENTOS DE EVACUACION\nEVAKUIERUNGSVERFAHREN\nPROCEDURES D'EVACUATION\nA-A\nA-A\nA\nExit Row Seating\n•\nSi usted está sentado en una fila de salida, y no\npuede leer, hablar o entender inglés, sirvase\ncontactar a un representante de USAir o USAir\nExpress para que se le cambie de asiento.\n• Falls Sich Ihr sitz in einer Reihe an einem der\nausgänge befindet, und wenn Sie weder English\nlesen, sprechen oder verstehen können, wenden\nSic sich bitte an einen Vertreter von USAir oder\nUsAIr express, der Innen emen anderen\nSitzplatz suweisen wird.\n• Si vous êtes assis près d'une issue de secours, et\nvous n'êtes pas en mesure de lire l'anglais, ni de le\nparler ou de le comprendre, veuillez contacter un\nrepresentant de la compagne USAIr OU USAI\nExpress pour obtenir un autre siège.\nIf you are seated in an exit row, please review the\n- following. Federal Aviation Regulations require that\npassengers seated in this row meet the selection\ncriteria and are willing and able to operate une exit\nand assist others in the event of an emergency in\nwhich a crewmember is not available to do so.\nPlease identifv the exit nearest to vou and review the\ncorresponding functions found on this \"Safety\nInstructions\" card.\nPlease contact your Flight Attendant for reseating if\nyou have a condition, which is not apparent, that\nwould prevent you from performing the functions\nshown on this \"Safety Instructions\" card; would be\nharmed from doing so; do not wish to do so; or if\nany of the following apply:\n•\nMobility, strength or dexterity in both arms and\nhands, and both legs is not sufficient to perform\nthe functions and assist others, including:\nReaching the exit quickly\nReaching in every direction for mechanisms used\n-Operating the exit\n-Securing the exit open\n-Removing obstructions (maintaining balance\nwhile doing so)\n-Quickly passing through the exit\n• You are less than 15 years old, require assistance\nfrom someone else to nerform one or more of the\nfunctions, or would be prevented from doing so\nbecause of a condition or responsibility, such as\ncaring for a small child.\n• You cannot sufficiently impart information orally\nto others or understand oral crew commands.\n• You cannot read or understand the written and\ngraphic instructions provided or require assistance\n(other than a hearing aid) to hear or understand\ninstructions shouted by a crewmember.\n•You do not have the visual capacity to assess\nconditions outside of the exit or perform any other\nTine on decerined witholt the accictance of vichal\naids other than contact lenses or eyeglasses.\nIn the event of an emergency, follow the directions\nand hand signals of your crew. If a crewmember is\nnot available to assist you, follow the instructions on\nthe \"Safety Instructions\" card and posted signs. Wait\nuntil the airplane has stopped before opening the exit\nand look through the window, assessing conditions\n(looking for smoke, fire or obstructions) to\ndetermine whether it is safe to proceed. If it is safe to\ndo so, operate the exit and assist others according to\nthe instructions. Assess, select and follow a safe path\naway from the airplane.\nYour Flight Attendants will be glad to answer any\nquestions you may have.",
      "BRACE POSITIONS\nPOSICIONES PARA PROTECCION\nNOTLANDUNGEN\nPOSITIONS DE PROTECTION\nRESTRICTIONS\nRESTRICCIONES\nBESCHRÄNKUNGEN\nINTERDICTIONS\nWATER EVACUATION\nEVACUACION EN EL MAR\nEVAKUIERUNG ZU WASSER\nEVACUATION SUR L'EAU\nCopyright©1989 USAir\n737-4-ECPS\nC/C 190-0348\nRev. 12/92\n4/93\n2002.127.605"
    ],
    "millsfield:images_texts_ids": [
      1914622747,
      1914622751,
      1914622753
    ],
    "millsfield:primary_image": 1914622747,
    "millsfield:subcategory_id": 1511213703,
    "mz:is_approximate": 1,
    "mz:is_current": 1,
    "sfomuseum:accession_number": "2002.127.651",
    "sfomuseum:aircraft": "Boeing 737-400",
    "sfomuseum:aircraft_id": [
      225
    ],
    "sfomuseum:airline": "USAir",
    "sfomuseum:airline_id": [
      898
    ],
    "sfomuseum:category": "Passenger Amenity, Archive",
    "sfomuseum:classification_id": 581,
    "sfomuseum:collection": "Aviation Archive",
    "sfomuseum:creditline": "Gift of Thomas G. Dragges",
    "sfomuseum:date": "1993",
    "sfomuseum:date_acquired": "2003-12-22",
    "sfomuseum:daterange_end": "1993-12-31",
    "sfomuseum:daterange_start": "1993-01-01",
    "sfomuseum:description": "Safety information card issued by USAir for the Boeing 737-400 fleet; dark blue double-sided tri-fold card with illustrations depicting inflight safety and emergency procedures; identification code: 737-4-ECPS C/C 1900348; revision date: 12/92 and 4/93.",
    "sfomuseum:dimensions": "10 x 6 inches (25.4 x 15.2 cm)",
    "sfomuseum:medium": "paper, ink",
    "sfomuseum:object_id": 70169,
    "sfomuseum:placetype": "object",
    "sfomuseum:publication": ": , 1993.",
    "sfomuseum:subcategory": "Safety Information Card",
    "src:geom": "sfomuseum#undetermined",
    "wof:belongsto": [
      102527513,
      1159162825,
      102191575,
      85633793,
      102087579,
      85922583,
      85688637,
      1159160869
    ],
    "wof:country": "XY",
    "wof:created": 1721028733,
    "wof:depicts": [
      1159289859,
      1159293593,
      1159289819,
      1159285447
    ],
    "wof:geomhash": "c281b9d9eefc83b5710e64b9d646067d",
    "wof:hierarchy": [
      {
        "building_id": -1,
        "campus_id": 102527513,
        "collection_id": 1159162825,
        "concourse_id": 1159162825,
        "continent_id": 102191575,
        "country_id": 85633793,
        "county_id": 102087579,
        "custom_id": 1914622261,
        "locality_id": 85922583,
        "neighbourhood_id": -1,
        "object_id": 1914622261,
        "region_id": 85688637,
        "wing_id": 1159160869
      }
    ],
    "wof:id": 1914622261,
    "wof:lastmodified": 1787988221,
    "wof:name": "safety information card: USAir, Boeing 737-400",
    "wof:parent_id": 1159162825,
    "wof:placetype": "custom",
    "wof:placetype_alt": [
      "object"
    ],
    "wof:repo": "sfomuseum-data-collection",
    "wof:superseded_by": [],
    "wof:supersedes": []
  },
  "bbox": [
    -122.38647222518921,
    37.6161053594541,
    -122.38583385944366,
    37.61661101879963
  ],
  "geometry": {"type":"Polygon","coordinates":[[[-122.38647222518921,37.61631782178288],[-122.386434674263,37.61623283692423],[-122.38637566566466,37.61617759671399],[-122.38630056381224,37.6161308549656],[-122.38616108894348,37.6161053594541],[-122.38602161407469,37.6161308549656],[-122.38591432571411,37.61618609521055],[-122.38585531711577,37.61626683087935],[-122.38583385944366,37.61636881265146],[-122.38587141036987,37.61646654505181],[-122.38594114780425,37.61654303118856],[-122.38605380058287,37.61660252035167],[-122.38618254661559,37.61661101879963],[-122.3863059282303,37.61657277577607],[-122.3864185810089,37.61650903735973],[-122.3864668607712,37.61641130501523],[-122.38647222518921,37.61631782178288]]]}
}
