{
  "id": 1511908829,
  "type": "Feature",
  "properties": {
    "date:cessation_lower": "1976-03-05",
    "date:cessation_upper": "1976-03-05",
    "date:inception_lower": "1976-03-05",
    "date:inception_upper": "1976-03-05",
    "edtf:cessation": "1976-03-05",
    "edtf:date": "1976-03-05",
    "edtf:deprecated": "2026-04-02",
    "edtf:inception": "1976-03-05",
    "geom:area": 0,
    "geom:bbox": "-122.386155,37.616357,-122.386155,37.616357",
    "geom:latitude": 37.616357,
    "geom:longitude": -122.386155,
    "iso:country": "",
    "mz:hierarchy_label": 1,
    "mz:is_current": 0,
    "sfomuseum:placetype": "object",
    "src:geom": "sfomuseum#undetermined",
    "wof:belongsto": [],
    "wof:breaches": [],
    "wof:country": "",
    "wof:created": 1579906660,
    "wof:depicts": [
      1159291835,
      1159294325
    ],
    "wof:geomhash": "30c8a918561c84bb2daa2b97fc7c5353",
    "wof:hierarchy": [
      {
        "custom_id": 1511908829,
        "object_id": 1511908829
      }
    ],
    "wof:id": 1511908829,
    "wof:lastmodified": 1775155438,
    "wof:name": "This record has been deprecated.",
    "wof:parent_id": -1,
    "wof:placetype": "custom",
    "wof:placetype_alt": [
      "object"
    ],
    "wof:repo": "sfomuseum-data-collection",
    "wof:superseded_by": [],
    "wof:supersedes": [],
    "wof:tags": []
  },
  "bbox": [
    -122.386155,
    37.616357,
    -122.386155,
    37.616357
  ],
  "geometry": {"type":"Point","coordinates":[-122.386155,37.616357]}
}
