{
  "id": 1762829457,
  "type": "Feature",
  "properties": {
    "date:cessation_lower": "1960-01-01",
    "date:cessation_upper": "1969-12-31",
    "date:inception_lower": "1960-01-01",
    "date:inception_upper": "1969-12-31",
    "edtf:cessation": "196X",
    "edtf:inception": "196X",
    "geom:area": 2.475047457570636e-7,
    "geom:bbox": "-122.386472,37.616105,-122.385834,37.616611",
    "geom:latitude": 37.61635747477365,
    "geom:longitude": -122.38615540108617,
    "millsfield:airline_id": [
      1159285393
    ],
    "millsfield:category_id": 1511214247,
    "millsfield:collection_id": 1511214207,
    "millsfield:company_id": [
      1159287531
    ],
    "millsfield:exhibition_ids": [
      1159160113
    ],
    "millsfield:images": [
      1762890475,
      1881085961,
      1881085963,
      1881085965,
      1881085967
    ],
    "millsfield:images_colors_refs": {
      "crayola": [
        {
          "hex": "#cdc5c2"
        },
        {
          "hex": "#2b6cc4"
        },
        {
          "hex": "#000000"
        },
        {
          "hex": "#414a4c"
        },
        {
          "hex": "#6699cc"
        },
        {
          "hex": "#2e5894"
        },
        {
          "hex": "#a5694f"
        },
        {
          "hex": "#8a795d"
        }
      ],
      "css4": [
        {
          "hex": "#d3d3d3"
        },
        {
          "hex": "#5f9ea0"
        },
        {
          "hex": "#c0c0c0"
        },
        {
          "hex": "#4682b4"
        },
        {
          "hex": "#2f4f4f"
        },
        {
          "hex": "#696969"
        },
        {
          "hex": "#000000"
        }
      ],
      "marekm4": [
        {
          "hex": "#93625b"
        },
        {
          "hex": "#575051"
        },
        {
          "hex": "#2f1d40"
        },
        {
          "hex": "#513237"
        },
        {
          "hex": "#6192ae"
        },
        {
          "hex": "#3d769e"
        },
        {
          "hex": "#cfcdc4"
        },
        {
          "hex": "#c4c0c0"
        },
        {
          "hex": "#121212"
        },
        {
          "hex": "#bdbfbb"
        },
        {
          "hex": "#936858"
        },
        {
          "hex": "#2473b1"
        },
        {
          "hex": "#121111"
        },
        {
          "hex": "#569bca"
        },
        {
          "hex": "#bec0be"
        }
      ]
    },
    "millsfield:images_texts": [
      "33% RPM LONG PLAYING\n43\nL1529\nHOLIDAY\nIN ITALY\nHI-FI\nTOPS\nRECORDS\nNESTOR AMARAL AND HIS CONTINENTÁLS\nALONG THE WA\nTWA",
      "L1529-A\nINSTRUMENTALS\n* ANEMA My Heart And Souls\nFIDELITY",
      "AND HIS\nCONTINENTALS\nS HIGH FIDELITY\n1. CHITARRA ROMANA (Roman Guitar)\nVIENI SUL MAR (Come To The Sea)\nL1529-B\nINSTRUMENTALS",
      "33¼ RPM LONG PLAYING\n43\nHOLIDAY\nIN ITALY\nHIFI\nTOPS\nRECORDS\nNESTOR AMARAL AND HIS CONTINENTALS",
      "Tops\nL1529\nNew Full Frequency High Fidelity\nHOLIDAY IN ITALY\nNestor Amaral and his Continentals\nSide One\nO SOLE MIO! (My Sun)\nFUNICULI FUNICULA\nOH, MARIE\nANEMA E CORE (With All My Heart And Soul)\nARRIVEDERCI, ROMA\nTORNA A SURRENTO (Come Back To Sorrento)\nSide Two\nCHITARRA ROMANA (Roman Guitar)\nVIENI SUL MAR (Come To The Sea)\nTANGO DELLE ROSE (Tango Of Roses)\nREGINELLA CAMPAGNOLA (Woodpecker Song)\nTE VOBLIO BENE (I Love You So)\nMATTINATA (I'm Always The One)\nLA SPAGNOLA\nABOUT THE\nARTIST\nNestor Amaral needs little introduction to the American public. A versatile\n20th Century Fox picture \"The Gangs All Here'. As a musician his guita\nand talented artist, Mr. Amaral has delighted the ear of American audiences\nnas been heard in the musical score of 'Blood and Sand', 'Duel in the Sun' anc\nsince 1940 when he came to this country from his native Brazil in association\n'For Whom The Bells Toll', and many others.\nwith the late Carmen Miranda. After working on Broadway and in Hollywood\nNestor was born and raised in the industrial city of Sao Paulo, Brazil, which\nwith Miss Miranda he formed his own orchestra to work in such well known\nis heavily populated by the Italian people. It was quite natural that he should\nplaces as the Hollywood Palladium, Hollywood Roosevelt Hotel and the Am-\ngrow to love the music of Italy.\nbassador Hotel. Continuing his work in motion pictures he has worked as a\nin this album he is working with a small combination featuring himself on\nsinger musician and composer. A member of A.S.C.A.P. he has had many of\nthe violin, guitar, and that most typical of Italian instruments, the mandolin.\nhis own compositions used in pictures. As a singer he introduced such popular\nIn HOLIDAY IN ITALY, he presents for your enjoyment some of the best\nsongs as 'It's Magic' with Doris Day in 'Romance on the High Seas, Baia'\nloved and most widely known songs of Italy, orchestrated and played in\nin the Walt Disney production of the \"Three\nCabelleros' and 'Brazil' in the\nauthentic Italian style.\nCOVER PHOTOGRAPHY THRU THE COURTESY OF TRANS WORLD AIRLINES\nOne of the romantic ports of call along the world air routes of Trans World Airlines.\nTWA\nTRANS WORLD AIRLINES\nADDITIONAL HOURS OF MUSICAL ENJOYMENT AVAILABLE TO YOU ON\nSquare Dance Party\nL1567 —Lillian Roth Sing\n-Lena Horne\nNutcracker Suite\n115382 had topco\n1569-Dixieland in Hi.r\n11570 The Pied Piners in a Tribute to Tommy Dorsev\n-Porter and Bein Fluorites\n-A Tribute To Eddie Duchin\n1571Frat Hon\n-Hoosier Hot Shots\nSnoHoney Tonk Piano\nSwan Lake Ballet-Tchaikovsky\n/ Eberle Plays A Tribute To Glenn Miller\n1Ei0 tualue Tan His\nConcerto In A Major-\n-Mozart\nby the nation's leading disc jockeys)\n-Beethoven\n-Polka Party\n(The current best-selling songs as listed\nL1545—Symphony No. 5 in C Minor-\nrom Dixie\n11546le Beau Danube. Johann Strauss\nStone Four\nL1512—Organ Favorites\n11S47An Hour Of Tchaikovaky\nL1583 For Men Only\nAl me Favores\nL1548Classic Favorites (Vol. il\nSRie Kiddie Time\n-Latin American Holiday\nHorole Cran Warron\n-World's Greatest Overtures\nL1550—Music From The Golden West\n-Piano Recital.\n-Music From Another World\n1cio Dal dad Dall With la Haned\n-Two Cigarettes In The Dark\n519-Themes From The Movies\n-Serenade By Moonlight\nMenTane Walted\n• Penthouce Sorenada\n-Modern Jazz\nChrials Car lauore\n23_Page Cavanaugh\n-Music For A Dreamy Afternoon\n11595 Christmas Favoriter\n11528 Chadio Venture\nThe Ink s\n5 In Hi-Fi\n11538 Headle lories\nIrving Fields Plays Irving Berlin\n6k_Piano By Starliaht\n1533 Barrelhouse Piand\n1SLA M. Ronao Plave Hi.Ei Cha Cha\nCha Cha Cho\nL1536-Rhapsody In Blue\nHIGH FIDELITY LONG PLAYING RECORDS\nJames Melton Sing\n1610_ Music For A Mad Bal\nAnn Sothern Sinos\n11613 for nova in HiF\nL1615-Mel Torme Prelude To A Ki's 2\n-chopins Les\n1617—Songs By A Moody Miss-\n-Georgia Carr\n1618 Repthoven Pastorale Symphony No. d\n1610 Kakalawely Clea\n_Oklahoma \u0026 Carousel\nCoppelia Ballet I and Il\n-Andro Thi rays Fat Do Waler\nPrevin\n-The Sportsmen\nL1627_A Salute To Glenn Miller\n-Red Nichols \u0026 His Five Pennies\nSaturday Date With Man Donnie\n7_ Barcla\n• Allen Piano Rhythms\nL1 630-The Roaring 20's-Vol. 2\n9Q Farl \"Fatha\" Hine\n11631 Color PomerCone Relatin\n-Christmas\nChimes\nL1632—Big Hits From Columbia Pictures\nBuddy c He \u0026 The Mollowaires\nL1634—South Pacific-Orchestra \u0026 Full Vocal\n•Connie Haines Sings Helen Morgan\nL1635—Johnny Desmond Swings\n1k07 Musia Cram Dal laod\nL1641-Porav \u0026 Bess\nL1566\n-Honky-Tonk Favorites\n11A0R.\n-June Hutton in Hi-Fi\n11645-Christmas At My House\nBUY TOPS RECORDS\nFOR THE GREATEST\nVALUE IN RECORDED HIGH FIDELITY MUSIC\nthe record\ntoday.\nrecorded\nthe\nThe tapes\nScully\nrariable pitch lathe to insure the very finest high quality reproductior\nchaenetariatie.\naltimate\nfrom\nthe\nHigh\ntape\nTOPS\nFre-\nRCA,\nTelefunken\nresponse\nfrom\n20 to\n20,000\nThe\nRecorde\nand Electro-Voice microphones and\npeded on threrack Amney tone\nmost exacting manufacturing specifications.\nTOP\u0026 Record.\nrecorders.\nTOPS Records. give you the finest in true tonal sound.\nare the\nworlle fined\n-regardlese of nrica\nTOPS RECORDS, LOS ANGELES, CHICAGO, NEW YORK\nMade and Printed in U.S.A.\n2010.034.0010"
    ],
    "millsfield:images_texts_ids": [
      1762890475,
      1881085961,
      1881085963,
      1881085965,
      1881085967
    ],
    "millsfield:on_view": 0,
    "millsfield:primary_image": 1881085961,
    "millsfield:subcategory_id": 1511213351,
    "mz:is_current": 1,
    "sfomuseum:accession_number": "2010.034.001 a c",
    "sfomuseum:airline": "TWA (Trans World Airlines)",
    "sfomuseum:airline_id": [
      874
    ],
    "sfomuseum:category": "Audio / Visual",
    "sfomuseum:classification_id": 119,
    "sfomuseum:collection": "Aviation Archive",
    "sfomuseum:continent": "North America",
    "sfomuseum:country": "United States",
    "sfomuseum:creditline": "Collection of SFO Museum",
    "sfomuseum:date": "1960s",
    "sfomuseum:date_acquired": "2009-12-29",
    "sfomuseum:daterange_end": "1969-12-31",
    "sfomuseum:daterange_start": "1960-01-01",
    "sfomuseum:description": "Phonograph record by Nestor Amaral and his Continentals promoting TWA (Trans World Airlines), titled “Holiday in Italy”; produced by Tops Records;\ra. record cover in clear plastic sleeve; color photographic image of Roman ruins; description of music and airline on back.\rb. LP record with dark red and silver center;\rc. white paper sleeve.",
    "sfomuseum:dimensions": "12 1/2 x 12 1/2 inches (31.8 x 31.8 cm)",
    "sfomuseum:exhibition_ids": [
      1066
    ],
    "sfomuseum:maker": "Tops Records",
    "sfomuseum:medium": "cardboard, vinyl, paper, plastic, ink",
    "sfomuseum:object_id": 104080,
    "sfomuseum:placetype": "object",
    "sfomuseum:publication": ": , 1960s.",
    "sfomuseum:subcategory": "Phonograph Record",
    "src:geom": "sfomuseum#undetermined",
    "wof:belongsto": [
      102527513,
      1159162825,
      102191575,
      85633793,
      102087579,
      85922583,
      85688637,
      1159160869
    ],
    "wof:country": "XY",
    "wof:created": 1642729690,
    "wof:depicts": [
      1159287531,
      1159285393
    ],
    "wof:geomhash": "c281b9d9eefc83b5710e64b9d646067d",
    "wof:hierarchy": [
      {
        "building_id": -1,
        "campus_id": 102527513,
        "collection_id": 1159162825,
        "concourse_id": 1159162825,
        "continent_id": 102191575,
        "country_id": 85633793,
        "county_id": 102087579,
        "custom_id": 1762829457,
        "locality_id": 85922583,
        "neighbourhood_id": -1,
        "object_id": 1762829457,
        "region_id": 85688637,
        "wing_id": 1159160869
      }
    ],
    "wof:id": 1762829457,
    "wof:lastmodified": 1787988201,
    "wof:name": "phonograph record: TWA (Trans World Airlines), Holiday in Italy",
    "wof:parent_id": 1159162825,
    "wof:placetype": "custom",
    "wof:placetype_alt": [
      "object"
    ],
    "wof:repo": "sfomuseum-data-collection",
    "wof:superseded_by": [],
    "wof:supersedes": []
  },
  "bbox": [
    -122.38647222518921,
    37.6161053594541,
    -122.38583385944366,
    37.61661101879963
  ],
  "geometry": {"type":"Polygon","coordinates":[[[-122.38647222518921,37.61631782178288],[-122.386434674263,37.61623283692423],[-122.38637566566466,37.61617759671399],[-122.38630056381224,37.6161308549656],[-122.38616108894348,37.6161053594541],[-122.38602161407469,37.6161308549656],[-122.38591432571411,37.61618609521055],[-122.38585531711577,37.61626683087935],[-122.38583385944366,37.61636881265146],[-122.38587141036987,37.61646654505181],[-122.38594114780425,37.61654303118856],[-122.38605380058287,37.61660252035167],[-122.38618254661559,37.61661101879963],[-122.3863059282303,37.61657277577607],[-122.3864185810089,37.61650903735973],[-122.3864668607712,37.61641130501523],[-122.38647222518921,37.61631782178288]]]}
}
