{
  "id": 1511950611,
  "type": "Feature",
  "properties": {
    "date:cessation_lower": "1972-01-01",
    "date:cessation_upper": "1972-12-31",
    "date:inception_lower": "1972-01-01",
    "date:inception_upper": "1972-12-31",
    "edtf:cessation": "1972",
    "edtf:date": "1972",
    "edtf:inception": "1972",
    "geom:area": 0,
    "geom:bbox": "-122.370943,37.617990,-122.370943,37.617990",
    "geom:latitude": 37.61799,
    "geom:longitude": -122.370943,
    "iso:country": "US",
    "millsfield:airline_id": [
      1159285141
    ],
    "millsfield:airport_id": [
      102527513
    ],
    "millsfield:category_id": 1511214223,
    "millsfield:collection_id": 1511214207,
    "millsfield:company_id": [
      1159288051
    ],
    "millsfield:images": [
      1527849313,
      1527850801
    ],
    "millsfield:images_colors_refs": {
      "crayola": [
        {
          "hex": "#efdecd"
        },
        {
          "hex": "#000000"
        },
        {
          "hex": "#58427c"
        },
        {
          "hex": "#1a4876"
        }
      ],
      "css4": [
        {
          "hex": "#dcdcdc"
        },
        {
          "hex": "#191970"
        },
        {
          "hex": "#000000"
        },
        {
          "hex": "#483d8b"
        }
      ],
      "marekm4": [
        {
          "hex": "#0c1030"
        },
        {
          "hex": "#e7e6df"
        },
        {
          "hex": "#e4e0cc"
        },
        {
          "hex": "#1a1d5f"
        },
        {
          "hex": "#5a5d95"
        }
      ]
    },
    "millsfield:images_texts": [
      "SFO\nSFO\nAIRLINES, INC.\nSan Francisco Airport\nOakland Airport\nBerkeley\nMarin County\nSan Francisco\nOakland\nhelicopter airlines\ntime table\nFLIGHT GUIDE \u0026 SCHEDULE\nEFFECTIVE APRIL 30, 1972",
      "QUICKEST WAY 'ROUND THE BAY\n• Grandview\n• Vallejo\nSAN PABLO\n@ Benicia\nBAY\nSan Rafael\nCrockett\n•Rodeo\nPort Costa\n• Pinole\n• El Sobrante\n• San Pablo\n• Port Chicago\nPittsburg\n• Martinez\n• Concord\nRichmond\nPleasant Hill •\nEl Monte •\n• El Cerrito\n• Claytor\nMarin City\n7 MIN\n• Albany\nLafayette\n• Walnut Creek\nBerkel\nGrinde\nsausalito\n• Alamo\nOAKLAND\n• Moraga\n• Pinehurst\n• Diablo\n•Danville\nAlomedo\n• San Ramon\nFRANCISCO\nSAN\nOAKLAND\nINTL. AIRPORT\n• San Leandro\nDaly City •\n• Colma\nBrisbane \"\nMIN\nFRANCISCO\n• Dublin\n• Castro Valley\nSan Lorenzo\n• Hayward\n• Kussei\nCan lane\nRockaway/\nSan Bruno •\nLomita Park®\nBeach •\nMillbrae\nLindamar\nBurlingame •\nHillsborough •\nSan Matec •\n• Montara\n• Moss Beach\n• El Granada\nPleasanton\n• Mt. Eden\nSAN FRANCISCO\nINT'L. AIRPORT\n• Union City\nBAY\n• Alvarado\n• Niles\nSunol\n• Centerville\nIrvington •\n•Fremont\nNewark •\nBelmont •\nSan Carlos •\nRedwood City •\nWarm Springs\n• Half Moon Bay\n@ Purissima\nAtherton •\nMenlo Park •\n• Palo Alto\n• Woodside\nLos Altos •\nMountain View •\nSunnyvale\n• Alviso\n• Milpitas\n• Tunitas\nSanta Clara •\nSAN JOSE\n• San Gregorio\n• La Honda\n• Cupertino\n• Campbell\n• Saratoga\nPescadero\nCOPYRIGHT 1967 BY REUBEN H. DONNELLEY CORP.\n• Los Gatos\nSAN FRANCISCO AIRPORT\nPAN AM:\nShuttle bus between\nall concourses.\nInternational\nCarriers\nCO\nSouth\nTerminal\nFuture\nNorth Terminal:\nGare\nAir\nCal\nAiN\nWest\nDL\nNA\nNW\nCentral\nPSA Terminal"
    ],
    "millsfield:images_texts_ids": [
      1527849313,
      1527850801
    ],
    "millsfield:primary_image": 1527849313,
    "millsfield:subcategory_id": 1511213425,
    "mz:hierarchy_label": 1,
    "mz:is_approximate": 1,
    "mz:is_current": 1,
    "sfomuseum:accession_number": "2011.126.028.001",
    "sfomuseum:airline": "SFO Helicopter Airlines",
    "sfomuseum:airline_id": [
      754
    ],
    "sfomuseum:airport": "San Francisco International Airport",
    "sfomuseum:airport_id": [
      121
    ],
    "sfomuseum:category": "Scheduling / Ticketing",
    "sfomuseum:classification_id": 158,
    "sfomuseum:collection": "Aviation Archive",
    "sfomuseum:creditline": "Gift of the Paul H. Kowalewski Collection",
    "sfomuseum:date": "1972",
    "sfomuseum:date_acquired": "2011-12-22",
    "sfomuseum:daterange_end": "1972-12-31",
    "sfomuseum:daterange_start": "1972-01-01",
    "sfomuseum:description": "Timetable issued by SFO Helicopter Airlines, April 30, 1972; 6-page schedule; white and blue cover with illustration of a helicopter in flight.",
    "sfomuseum:dimensions": "9 x 4 inches (22.9 x 10.2 cm)",
    "sfomuseum:media_ids": [
      1527849313,
      1527850801
    ],
    "sfomuseum:medium": "paper, ink",
    "sfomuseum:object_id": 121471,
    "sfomuseum:placetype": "object",
    "sfomuseum:primary_media_id": 1527849313,
    "sfomuseum:publication": ": , 1972.",
    "sfomuseum:subcategory": "Timetable",
    "src:geom": "sfomuseum#derived",
    "src:geom_derived_from": [
      102527513
    ],
    "wof:belongsto": [
      102527513,
      102191575,
      85633793,
      85922583,
      102087579,
      85688637,
      102085387,
      1159162825,
      1159160869,
      554784711
    ],
    "wof:breaches": [],
    "wof:country": "US",
    "wof:created": 1579906676,
    "wof:depicts": [
      1159288051,
      1159285141,
      102527513
    ],
    "wof:geomhash": "bf40c3bc435019ba74db5659992d9e04",
    "wof:hierarchy": [
      {
        "campus_id": 102527513,
        "continent_id": 102191575,
        "country_id": 85633793,
        "county_id": 102085387,
        "custom_id": 1511950611,
        "object_id": 1511950611,
        "region_id": 85688637
      },
      {
        "building_id": -1,
        "campus_id": 102527513,
        "collection_id": 1159162825,
        "concourse_id": 1159162825,
        "continent_id": 102191575,
        "country_id": 85633793,
        "county_id": 102087579,
        "custom_id": 1511950611,
        "locality_id": 85922583,
        "neighbourhood_id": -1,
        "object_id": 1511950611,
        "region_id": 85688637,
        "wing_id": 1159160869
      },
      {
        "campus_id": 102527513,
        "continent_id": 102191575,
        "country_id": 85633793,
        "county_id": 102087579,
        "custom_id": 1511950611,
        "locality_id": 85922583,
        "object_id": 1511950611,
        "postalcode_id": 554784711,
        "region_id": 85688637
      }
    ],
    "wof:id": 1511950611,
    "wof:lastmodified": 1787988187,
    "wof:name": "timetable: SFO Helicopter Airlines",
    "wof:parent_id": 1159162825,
    "wof:placetype": "custom",
    "wof:placetype_alt": [
      "object"
    ],
    "wof:repo": "sfomuseum-data-collection",
    "wof:superseded_by": [],
    "wof:supersedes": [],
    "wof:tags": []
  },
  "bbox": [
    -122.370943,
    37.61799,
    -122.370943,
    37.61799
  ],
  "geometry": {"type":"MultiPoint","coordinates":[[-122.370943,37.61799]]}
}
