{
  "id": 1762759893,
  "type": "Feature",
  "properties": {
    "date:cessation_lower": "1929-07-01",
    "date:cessation_upper": "1929-07-31",
    "date:inception_lower": "1929-07-01",
    "date:inception_upper": "1929-07-31",
    "edtf:cessation": "1929-07",
    "edtf:inception": "1929-07",
    "geom:area": 2.475047457570636e-7,
    "geom:bbox": "-122.386472,37.616105,-122.385834,37.616611",
    "geom:latitude": 37.61635747477365,
    "geom:longitude": -122.38615540108617,
    "loc:subject_headings": [
      "sh2009113842"
    ],
    "millsfield:airline_id": [
      1159285357
    ],
    "millsfield:category_id": 1511214263,
    "millsfield:collection_id": 1511214217,
    "millsfield:company_id": [
      1159287811
    ],
    "millsfield:images": [
      1762899727
    ],
    "millsfield:images_colors_refs": {
      "crayola": [
        {
          "hex": "#9f8170"
        },
        {
          "hex": "#cdc5c2"
        },
        {
          "hex": "#414a4c"
        }
      ],
      "css4": [
        {
          "hex": "#808080"
        },
        {
          "hex": "#c0c0c0"
        },
        {
          "hex": "#191970"
        }
      ],
      "marekm4": [
        {
          "hex": "#232551"
        },
        {
          "hex": "#8f877a"
        },
        {
          "hex": "#ccc7bb"
        }
      ]
    },
    "millsfield:images_texts": [
      "TAT\nTRANSCONTINENTAL AIR TRANSPORT, INC.\nPLANE TALK\nSuntar\nVol. L, No. 7\nPublished Muninly at St. Lous\nCOPYRIGHT 1929. TRANSCONTINENTAL AIR TRANSPORT. INC.\nJuly, 1929\n\"THE DAY WE ARE PROPERLY READY\"\nTOURTEEN months of intensiv\n• preparation were completed on July\nwhen the service of Transcontinental Air\nTransport, Inc., was formally offered to\nthe public. Inaugural flights were made\nby two planes departing from each of\nthe T A T. terminals at\nColumbus and Los Angeles.\nAt the controls of the\nfirst east bound plane was\nColonel Charles A. Lind-\nbergh, chairman of the tech-\nnical committee of TA T\nand aeronautical adviser to\nthe Pennsylvania Railroad.\nIn Los Angeles on the\nafternoon of July 7, Col-\nonel Lindbergh, seated in\nthe office of Governor C.\nC. Young of California,\npressed a button which\nflashed a signal across the\ncontinent to a huge bell in\nthe Pennsylvania\nstation,\nNew York. At the tap of\nthe bell the wheels of \"The\nAirway Limited,\" a new\ntrain of the Pennsylvania,\nbegan to move, carrying its\nfirst load of passengers to\nthe plane connection at Port\nColumbus.\nSimplicity itselt marked\nthe ceremonies in which Colonel Lind-\nbergh took part. Only a few persons\nwitnessed the event. Among them were\nMrs. Lindbergh; Governor Young; Mayor\nJohn C. Porter of Los Angeles; Mr. J.\nV. Magee and Major C. C. Moseley.\nVice Presidents of T A T; Mr. H. W.\nBeck, Western Traffc Manager of T A\nT; Mr. R. K. Rochester, General Man-\nager of the Pennsylvania Railroad, Phila-\ndelphia; Mr. J. L. Maddux, President of\nMaddux Air Lines, and Mrs. Maddux,\nand Lieut. D. W. Tomlinson, Vice Presi-\ndent of Maddux Air Lines.\nA crowd which filled the huge Penn-\nColonel Paul Henderson, Vice Presi\ndent of T A T, presided at the cere-\nmonies which were broadcast over a radio\nhook-up.\nAmong the speakers were Miss\nEarhart; Mr. Elisha Lee, Vice President,\nPennsylvania Railroad; Dr. John H. Fin-\nley, Editor,\nNew York\nTimes, and Hon. Grover\nWhalen, Police Commis\nsioner.\nOn the station platform a\nwhite ribbon secured to the\ntrain and the platform was\nparted when\nthe starting\nCity\nLOS ANCELES\nsignal came from Colonel\nLindbergh, and Miss Stone\nformally inducted \"The\nAirway Limited\" into serv\nice. Miss Betty Brainera\nof the Associated News-\npapers, held the end of the\nribbon aboard the train.\nAbout fifty persons in-\ncluding oficers and direct-\nors of the Pennsylvania\nRailroad and T A T, and\nofficials of other aviation\ncompanies, accompanied the\ntrain on its inaugural trip\nColonel Lindberg was at the controls of the \"City of Los Angeles\" on its indugural\nflight from the western terminal of TAT.\nin addition to those who\nwere to\ntransfer to the\nplane at Port Columbus.\nsylvania station witnessed the ceremonies\nin New York hefore the frst departure\nof the new train.\nThe Ciry of New York, one of the\nHeer of TA T ships placed in the station,\nwas christened by Miss Amelia Earhart,\nAssistant to the General Traffic Manager\nof TA T. and \"The Airway Limited\"\nwas christened by Miss Dorothy Stone.\nMany telegrams of congratulation ad.\ndressed to General W. W. Atterbury,\nPresident of the Pennsylvania and Mr.\nC. M. Keys, President of T A T, were\nreceived during the ceremonies and aboard\nthe train. They came from high govern-\nment officials, governors, mayors, editors\nand men interested directly in the promo-\ntion of commercial aviation."
    ],
    "millsfield:images_texts_ids": [
      1762899727
    ],
    "millsfield:primary_image": 1762899727,
    "millsfield:subcategory_id": 1511213207,
    "mz:is_current": 1,
    "sfomuseum:accession_number": "2002.113.401.005",
    "sfomuseum:airline": "Transcontinental Air Transport (TAT)",
    "sfomuseum:airline_id": [
      855
    ],
    "sfomuseum:author": "TWA Public Affairs Department",
    "sfomuseum:callnumber": "PER",
    "sfomuseum:category": "Periodical",
    "sfomuseum:classification_id": 32,
    "sfomuseum:collection": "Aviation Library",
    "sfomuseum:date": "07/1929",
    "sfomuseum:daterange_end": "1929-07-31",
    "sfomuseum:daterange_start": "1929-07-01",
    "sfomuseum:description_library": "4 p. : ill. ; 28 cm.",
    "sfomuseum:issue": "1 issue, July 1929 (vol. 1 no. 7)",
    "sfomuseum:issues_held": "1929 (Jul)",
    "sfomuseum:medium": "paper, ink",
    "sfomuseum:object_id": 86026,
    "sfomuseum:placetype": "object",
    "sfomuseum:publication": "St. Louis, MO: Transcontinental Air Transport, Inc., 07/1929.",
    "sfomuseum:publisher": "Transcontinental Air Transport, Inc.",
    "sfomuseum:publisher_location": "St. Louis, MO",
    "sfomuseum:subcategory": "Aviation, Periodical",
    "sfomuseum:subject": "Airline Newsletter\rAeronautics, Commercial -- History.",
    "src:geom": "sfomuseum#undetermined",
    "wof:belongsto": [
      102527513,
      1159162825,
      102191575,
      85633793,
      102087579,
      85922583,
      85688637,
      1159160869
    ],
    "wof:country": "XY",
    "wof:created": 1641941302,
    "wof:depicts": [
      1159287811,
      1159285357,
      1159285393
    ],
    "wof:geomhash": "c281b9d9eefc83b5710e64b9d646067d",
    "wof:hierarchy": [
      {
        "building_id": -1,
        "campus_id": 102527513,
        "collection_id": 1159162825,
        "concourse_id": 1159162825,
        "continent_id": 102191575,
        "country_id": 85633793,
        "county_id": 102087579,
        "custom_id": 1762759893,
        "locality_id": 85922583,
        "neighbourhood_id": -1,
        "object_id": 1762759893,
        "region_id": 85688637,
        "wing_id": 1159160869
      }
    ],
    "wof:id": 1762759893,
    "wof:lastmodified": 1787988199,
    "wof:name": "newsletter: Transcontinental Air Transport (TAT), Plane talk [1 issue, July 1929 (vol. 1 no. 7)]",
    "wof:parent_id": 1159162825,
    "wof:placetype": "custom",
    "wof:placetype_alt": [
      "object"
    ],
    "wof:repo": "sfomuseum-data-collection",
    "wof:superseded_by": [],
    "wof:supersedes": []
  },
  "bbox": [
    -122.38647222518921,
    37.6161053594541,
    -122.38583385944366,
    37.61661101879963
  ],
  "geometry": {"type":"Polygon","coordinates":[[[-122.38647222518921,37.61631782178288],[-122.386434674263,37.61623283692423],[-122.38637566566466,37.61617759671399],[-122.38630056381224,37.6161308549656],[-122.38616108894348,37.6161053594541],[-122.38602161407469,37.6161308549656],[-122.38591432571411,37.61618609521055],[-122.38585531711577,37.61626683087935],[-122.38583385944366,37.61636881265146],[-122.38587141036987,37.61646654505181],[-122.38594114780425,37.61654303118856],[-122.38605380058287,37.61660252035167],[-122.38618254661559,37.61661101879963],[-122.3863059282303,37.61657277577607],[-122.3864185810089,37.61650903735973],[-122.3864668607712,37.61641130501523],[-122.38647222518921,37.61631782178288]]]}
}
