{
  "id": 1511927237,
  "type": "Feature",
  "properties": {
    "date:cessation_lower": "1973-01-01",
    "date:cessation_upper": "1973-12-31",
    "date:inception_lower": "1973-01-01",
    "date:inception_upper": "1973-12-31",
    "edtf:cessation": "1973",
    "edtf:date": "1973",
    "edtf:inception": "1973",
    "geom:area": 0,
    "geom:bbox": "-122.386155,37.616357,-122.386155,37.616357",
    "geom:latitude": 37.616357,
    "geom:longitude": -122.386155,
    "iso:country": "XX",
    "millsfield:airline_id": [
      1159285105
    ],
    "millsfield:category_id": 1511214223,
    "millsfield:collection_id": 1511214207,
    "millsfield:company_id": [
      1159287229
    ],
    "millsfield:images": [
      1527849461,
      1527850563
    ],
    "millsfield:images_colors_refs": {
      "crayola": [
        {
          "hex": "#2b6cc4"
        },
        {
          "hex": "#dbd7d2"
        },
        {
          "hex": "#414a4c"
        }
      ],
      "css4": [
        {
          "hex": "#4682b4"
        },
        {
          "hex": "#d8bfd8"
        },
        {
          "hex": "#dcdcdc"
        },
        {
          "hex": "#2f4f4f"
        }
      ],
      "marekm4": [
        {
          "hex": "#1d2a3a"
        },
        {
          "hex": "#e5e4dd"
        },
        {
          "hex": "#3c8fd4"
        },
        {
          "hex": "#d3c6d5"
        },
        {
          "hex": "#2c2527"
        },
        {
          "hex": "#2b71ad"
        }
      ]
    },
    "millsfield:images_texts": [
      "SABENA\nbelgian world airlines\nHORAIRES\nDIENSTREGELINGEN\nTIMETABLES\nFLUGPLAN\nHORARIOS\nwinter\n1 - 11 - 1973\n31- 3 - 1974",
      "ANCHORAGE\n5 7\nSABENA\nSeattle\nVancouve\nsan ranciscc\nbelgian world airlines\nLos Angeles\nDenver\nGuada alara\nDallas\nHonolulu. TOKYO\nHouston •\nMEXICO\nVera cruz\nPhiladelph\nMiami\nGUATEMALA\nTegucigalpe d\n/san José o\nPanama Ó\nCaracas\nVoir page précédente\nZie vorige bladzijde\nSee preceding page\nBitte wenden\nVer pagina anterior\nPort of Spain\nPeking a\nToronto\n• Ottawa\n5\nMONTREAL\nGuayaquil\nLima O\n6 11 DAKAR\nMONROVIA\nRecie\nO Salvador\nBrasilia O\nAsuncion o--\nSao Paulo\nPorto Aleare\nCordoba Q\nSANTIAGO\nBUENOS AIRES\nSO Montevideo\nA Bohio Plant\nBRUSSELS\nPARÍS\nVIENNA [Z 104 10 14 15)16\nMADRID\n7 16\nTEHERAN\nABLANCA -DO 12$\n17 9 10 4|10 °/15) 16).\nSATHENS\nTUNIS 13\n716\nBagdad\n--00 Abadan\nBEIRUT 15\nTEL AVIV 14) --O Dhahran\nNIAMEY\nKharthour\nKANO\nARIDASA\nadie Ahaha\nLAGOS 11\nAccra 1\nPort Harcourt\nKINSHASA\n104) 10%\nENTEBBE\n104 108 KIGALI\nBUJUMBURA\n10 A 108\n_ Lubumbah;\nNAIROBI 104) 108\nDAR ES SALAAM 104 108\n• Lusaka\n© Salisbury\n• Tananarive\nWindhoek\na..\nJOHANNESBURG\n_• Lourenco Marques\nCano Town\"\nDelhi ?\nKarachi\nBOMBAY\nTOKYO 7\nShanghai\nTaipei\nHong-Kong Q\nMANILA 7\nPnom Penh\n• Calcutta\nRangoon O--BANGKOK\n-Do Saigon\nSINGAPORE (7\nMadras\nbiakarta\nLes numéros renvoient aux tableaux horaires.\nDe nummers verwijzen naar de tijdtafels.\nThe numbers refer to the time tables.\nDie Nummern weizen auf die Flugtabelle hin.\nLos numeros indican los cuadros de horarios.\nHonolulu - san rrancisco\nHonolulu - Los Angeles\nAuckland\n•Wellington\nRéseau long-courrier\nIntercontinentaal net\nLong-distance routes\nLangstreckennetz\nRed intercontinental\nSABEN\nJet Services\nAutres Compagnies\nAndere Maatschappijen\nOther Airlines\nAndere Fluglinien\nOtras Companias\nQ Perth\nBrisbane O\nSydney\nd Melbourne"
    ],
    "millsfield:images_texts_ids": [
      1527849461,
      1527850563
    ],
    "millsfield:primary_image": 1527849461,
    "millsfield:subcategory_id": 1511213425,
    "mz:hierarchy_label": 1,
    "mz:is_current": 1,
    "sfomuseum:accession_number": "2001.106.394",
    "sfomuseum:airline": "Sabena Belgian World Airlines",
    "sfomuseum:airline_id": [
      738
    ],
    "sfomuseum:category": "Scheduling / Ticketing",
    "sfomuseum:classification_id": 158,
    "sfomuseum:collection": "Aviation Archive",
    "sfomuseum:creditline": "Gift of Mark F. Adams Collection",
    "sfomuseum:date": "1973",
    "sfomuseum:date_acquired": "2001-10-18",
    "sfomuseum:daterange_end": "1973-12-31",
    "sfomuseum:daterange_start": "1973-01-01",
    "sfomuseum:description": "Timetable issued by Sabena Belgian World Airlines, effective November 1, 1973 through March 31, 1974; blue and white cover with logo in center.",
    "sfomuseum:dimensions": "9 x 4 inches (22.9 x 10.2 cm)",
    "sfomuseum:issues_held": "Effective:11-01-1973",
    "sfomuseum:media_ids": [
      1527849461,
      1527850563
    ],
    "sfomuseum:medium": "paper, ink",
    "sfomuseum:object_id": 79943,
    "sfomuseum:placetype": "object",
    "sfomuseum:primary_media_id": 1527849461,
    "sfomuseum:publication": ": , 1973.",
    "sfomuseum:subcategory": "Timetable",
    "src:geom": "sfomuseum#undetermined",
    "wof:belongsto": [
      1511214223,
      102527513,
      102191575,
      85633793,
      1511213425,
      85922583,
      102087579,
      1511214277,
      1511214207,
      85688637
    ],
    "wof:breaches": [],
    "wof:country": "XX",
    "wof:created": 1579906676,
    "wof:depicts": [
      1159285105,
      1159287229
    ],
    "wof:geomhash": "30c8a918561c84bb2daa2b97fc7c5353",
    "wof:hierarchy": [
      {
        "arcade_id": 1511213425,
        "building_id": 1511214277,
        "campus_id": 102527513,
        "concourse_id": 1511214223,
        "continent_id": 102191575,
        "country_id": 85633793,
        "county_id": 102087579,
        "custom_id": 1511927237,
        "locality_id": 85922583,
        "neighbourhood_id": -1,
        "object_id": 1511927237,
        "region_id": 85688637,
        "venue_id": 1511927237,
        "wing_id": 1511214207
      }
    ],
    "wof:id": 1511927237,
    "wof:lastmodified": 1787988179,
    "wof:name": "timetable: Sabena Belgian World Airlines",
    "wof:parent_id": 1159162825,
    "wof:placetype": "custom",
    "wof:placetype_alt": [
      "object"
    ],
    "wof:repo": "sfomuseum-data-collection",
    "wof:superseded_by": [],
    "wof:supersedes": [],
    "wof:tags": []
  },
  "bbox": [
    -122.386155,
    37.616357,
    -122.386155,
    37.616357
  ],
  "geometry": {"type":"Point","coordinates":[-122.386155,37.616357]}
}
