{
  "id": 1511938039,
  "type": "Feature",
  "properties": {
    "date:cessation_lower": "1964-01-01",
    "date:cessation_upper": "1964-12-31",
    "date:inception_lower": "1964-01-01",
    "date:inception_upper": "1964-12-31",
    "edtf:cessation": "1964",
    "edtf:date": "1964",
    "edtf:inception": "1964",
    "geom:area": 0,
    "geom:bbox": "-122.386155,37.616357,-122.386155,37.616357",
    "geom:latitude": 37.616357,
    "geom:longitude": -122.386155,
    "iso:country": "XX",
    "millsfield:airline_id": [
      1159285105
    ],
    "millsfield:category_id": 1511214223,
    "millsfield:collection_id": 1511214207,
    "millsfield:company_id": [
      1159287229
    ],
    "millsfield:images": [
      1527849583,
      1527850655
    ],
    "millsfield:images_colors_refs": {
      "crayola": [
        {
          "hex": "#414a4c"
        },
        {
          "hex": "#dbd7d2"
        },
        {
          "hex": "#3bb08f"
        },
        {
          "hex": "#9c7c38"
        }
      ],
      "css4": [
        {
          "hex": "#dcdcdc"
        },
        {
          "hex": "#808000"
        },
        {
          "hex": "#5f9ea0"
        },
        {
          "hex": "#2f4f4f"
        },
        {
          "hex": "#b8860b"
        }
      ],
      "marekm4": [
        {
          "hex": "#302b1c"
        },
        {
          "hex": "#957608"
        },
        {
          "hex": "#e2ddc9"
        },
        {
          "hex": "#4ca695"
        },
        {
          "hex": "#263236"
        },
        {
          "hex": "#e1e5e1"
        },
        {
          "hex": "#b49423"
        }
      ]
    },
    "millsfield:images_texts": [
      "SABENA\nBELGIAN World AIRLINES\nHORAIRES ET TARIFS\nDIENSTREGELINGEN EN TARIEVEN\nTIMETABLES AND FARES\nFLUGPLAN UND TARIFE\nHORARIOS Y TARIFAS\nORARI E TARIFFE\n1-4-1964 → 31-10-1964\nNº1",
      "Réseau Hélicoptère\nHelicopter Net\nHelicopter\nNetwork\nHubschrauber-Streckennetz\nRed de\nRete\nHelicópteros\nElicotteri\nROTTERDAM 20\n(20)\nEINDHOVEN\n(18) (19 (20)\nMAASTRICHT\nRIESSES\n1 19 2\nLIEGE 18 19\nDUISBURG\nKÖLN\n(18) (19)\nLAS PALMAS (10)\nDUBLIN\n20 (21)\nAMSTERDAM\nBIARRITZ A\nBENbEN C\n21\nLO (21)\nSTAVANGER\nKRISTIANSAND (\nHAMBURG 18 (19\nBERLIN B3\nHANNOVER\n-18 19\nDUSSELDORF\nKÖLN 00B0\n* ZURICH ®\nMÜNCHEN\n11\nGENEVE\nROMA 1\nPRAHA (13)\nLUUKUES\nII BARCELONA\nIBIZA (11\nNAPOLI\nPALMA D\n• MALAGA 1\nCASABLANCA (10)\nSABENA\nCarrelle\nSERVICES\nLIGNES SABENA • SABENA LUNEN • SABENA SERVICES • SABENA FLUGLINIEN • LINEAS DE SABENA • LINE SABENA\nAUTRES COMPAGNIES • ANDERE MAATSCHAPPUEN • CONNECTING CARRIERS • ANDERE FLUGLINIEN • OTRAS COMPAÑAS • ALTRE SOCIETA\nWARSZAWA 13\nBUDAPEST 13\nBUCUREST\nMOSKVA\n(13®\nSABENA\nDE NUMMERS VERWIJZEN\nFIGURES REFER TO CO\nTE RAADPLEGEN BLADZIJDEN DER DIENSTREGELINGEN\ncorUNDINu PHuco ur limelAbLe\nLOS NUMEROS INIEA LAS PAGINAS DE LOS HORROS A CONS FEUER\nSICH AUF DIE BETREFFENDEN SEITEN DES FLUGPLANES\nI NUMERI SI RIFERISCONO ALLA PAGINA DA CONSULTARE\nISTANBU\n• TEHERAN\nBEYROUTH\nTEL AVIV-YAFO\nCAIRO O"
    ],
    "millsfield:images_texts_ids": [
      1527849583,
      1527850655
    ],
    "millsfield:primary_image": 1527849583,
    "millsfield:subcategory_id": 1511213425,
    "mz:hierarchy_label": 1,
    "mz:is_current": 1,
    "sfomuseum:accession_number": "2005.132.095.007",
    "sfomuseum:airline": "Sabena Belgian World Airlines",
    "sfomuseum:airline_id": [
      738
    ],
    "sfomuseum:category": "Scheduling / Ticketing",
    "sfomuseum:classification_id": 158,
    "sfomuseum:collection": "Aviation Archive",
    "sfomuseum:creditline": "Gift of the William Hough Collection",
    "sfomuseum:date": "1964",
    "sfomuseum:date_acquired": "2006-12-05",
    "sfomuseum:daterange_end": "1964-12-31",
    "sfomuseum:daterange_start": "1964-01-01",
    "sfomuseum:description": "Timetable issued by Sabena Belgian World Airlines, effective April 1 through October 31, 1964; fifty-five page fold-out; green cover with airline logo; in English, French, German, Dutch, Spanish and Italian. ",
    "sfomuseum:dimensions": "9 x 4 inches (22.9 x 10.2 cm)",
    "sfomuseum:media_ids": [
      1527849583,
      1527850655
    ],
    "sfomuseum:medium": "paper, ink",
    "sfomuseum:object_id": 98555,
    "sfomuseum:placetype": "object",
    "sfomuseum:primary_media_id": 1527849583,
    "sfomuseum:publication": ": , 1964.",
    "sfomuseum:subcategory": "Timetable",
    "src:geom": "sfomuseum#undetermined",
    "wof:belongsto": [
      1511214223,
      102527513,
      102191575,
      85633793,
      1511213425,
      85922583,
      102087579,
      1511214277,
      1511214207,
      85688637
    ],
    "wof:breaches": [],
    "wof:country": "XX",
    "wof:created": 1579906677,
    "wof:depicts": [
      1159285105,
      1159287229
    ],
    "wof:geomhash": "30c8a918561c84bb2daa2b97fc7c5353",
    "wof:hierarchy": [
      {
        "arcade_id": 1511213425,
        "building_id": 1511214277,
        "campus_id": 102527513,
        "concourse_id": 1511214223,
        "continent_id": 102191575,
        "country_id": 85633793,
        "county_id": 102087579,
        "custom_id": 1511938039,
        "locality_id": 85922583,
        "neighbourhood_id": -1,
        "object_id": 1511938039,
        "region_id": 85688637,
        "venue_id": 1511938039,
        "wing_id": 1511214207
      }
    ],
    "wof:id": 1511938039,
    "wof:lastmodified": 1787988183,
    "wof:name": "timetable: Sabena Belgian World Airlines",
    "wof:parent_id": 1159162825,
    "wof:placetype": "custom",
    "wof:placetype_alt": [
      "object"
    ],
    "wof:repo": "sfomuseum-data-collection",
    "wof:superseded_by": [],
    "wof:supersedes": [],
    "wof:tags": []
  },
  "bbox": [
    -122.386155,
    37.616357,
    -122.386155,
    37.616357
  ],
  "geometry": {"type":"Point","coordinates":[-122.386155,37.616357]}
}
