{
  "id": 1913796483,
  "type": "Feature",
  "properties": {
    "date:cessation_lower": "1938-08-05",
    "date:cessation_upper": "1938-08-05",
    "date:inception_lower": "1938-08-05",
    "date:inception_upper": "1938-08-05",
    "edtf:cessation": "1938-08-05",
    "edtf:inception": "1938-08-05",
    "geom:area": 2.475047457570636e-7,
    "geom:bbox": "-122.386472,37.616105,-122.385834,37.616611",
    "geom:latitude": 37.61635747477365,
    "geom:longitude": -122.38615540108617,
    "millsfield:airline_id": [
      1159284991
    ],
    "millsfield:category_id": 1511214251,
    "millsfield:collection_id": 1511214207,
    "millsfield:company_id": [
      1159286839
    ],
    "millsfield:images": [
      1913799061,
      1913799063
    ],
    "millsfield:images_colors_refs": {
      "crayola": [
        {
          "hex": "#9f8170"
        },
        {
          "hex": "#efdecd"
        },
        {
          "hex": "#eceabe"
        },
        {
          "hex": "#6e5160"
        },
        {
          "hex": "#414a4c"
        }
      ],
      "css4": [
        {
          "hex": "#696969"
        },
        {
          "hex": "#2f4f4f"
        },
        {
          "hex": "#808080"
        },
        {
          "hex": "#f5deb3"
        }
      ],
      "marekm4": [
        {
          "hex": "#908d75"
        },
        {
          "hex": "#515351"
        },
        {
          "hex": "#696855"
        },
        {
          "hex": "#e2dcc2"
        },
        {
          "hex": "#e1dbc0"
        }
      ]
    },
    "millsfield:images_texts": [
      "X\nPAN AMERICAN\nAIRWAYS, INC.\nGENERAL OFFICES T-\nCHRYSLER BUILDING 1) -\nNEW YORK CITY\n1324 FOURTH\nAVENUE\nSEATTLE,\nWASHINGTON\nAugust 5, 1938\nmild ete\nME. J. I.\nCunningham\nSuperistendent of Transportation\nThe Alaska Railroad\nAlaske\nDear J. T.:\nNo T\nMr. Harold 4. Bixby,\nVice-President of Pan\nAmerisan Airways, and in direct\nage of our Alaska\noperations, will be passing thr\nAnchorage shortly\nand is quite anxious to meet both\nI have asked him\nyou mill enjoy meeting\npossible to cooperate\n1ook you up as I am sure\nkpen you will\ndo anything s\nwhile he is in Anchorage.\nlith my best,\n(Sincerely,\nshael\numa\narum\n, JA\nR.\nBunkel.\nNol\nMr. H. M. Bixby:-\nYou will find Cunningham\nwho is assistant to Ohlson, General Manager,\na fine fellow and willing to cooperate in\nany way.\n; *\nout to\nmmu\nwal tipis wo o.\nnodnist\n35r05 -\nwires\n050, 0f et\nd201/S1PIOS",
      "hour and 5 minutes ofth leavy fuseen, Ther\no losk or quAWA ИДТЯЗМА, ИАЧ\nnow flying one\nwhat with out mext strays tank and orint paws on but\ncourn fallord for a while the did trait to\nmoro defeat to on right and for 3,5 an mile.\nrun target practicabe, uninhalted country Lod\nthe North on wrat, Now us and crossing the borde\nbitive yokon Trutay and Glaska — the lime i\nclearly marked br anothere\non litterswathe in the\nscro dour blow - no\nBordeneidents hers !\nAt Tamana Crossestoral, n\nur drink lear\n212 pax\nfor cite litte blond\nhaired gireta go tie\n399l\ndang in teeing me\nale abortens,\nin chich no\nmid beales\nevad I\nBaks\naId taaod\n• They hair\ncome all the wasps\nLancastu, Pa. and\naird in Alanter track\nmight.\nBoth are to\n• Just tame tant\nschare at Tanana Croning.\nThe wit f on\nradio oprataa was especiace anoiano to sur\nthem\nAment e more that bain one\none othes man t wif of a missionary\nand i judgo from.athings that was not sai\nit world apprar that the rodio\norator and his mosie ass get too\nchummy with the insionares, Now wise\noff again for\nFairbanks. To our right low\nmountains corr\nat wed serb tres - To our\neft (south)\nthe 20, 000 fort long coastal rang - smoo corne.\n2019.121,1056"
    ],
    "millsfield:images_texts_ids": [
      1913799061,
      1913799063
    ],
    "millsfield:primary_image": 1913799061,
    "millsfield:subcategory_id": 1511213489,
    "mz:is_approximate": 1,
    "mz:is_current": 1,
    "sfomuseum:accession_number": "2019.121.1056",
    "sfomuseum:airline": "Pan American Airways",
    "sfomuseum:airline_id": [
      685
    ],
    "sfomuseum:category": "Employee Career History",
    "sfomuseum:classification_id": 195,
    "sfomuseum:collection": "Aviation Archive",
    "sfomuseum:creditline": "Collection of SFO Museum",
    "sfomuseum:date": "08/05/1938",
    "sfomuseum:date_acquired": "2019-11-22",
    "sfomuseum:daterange_end": "1938-08-05",
    "sfomuseum:daterange_start": "1938-08-05",
    "sfomuseum:description": "Handwritten letter from Harold M. Bixby on back of letter dated August 5, 1938 on Pan American Airways stationery; includes description of activities in Alaska; may be last page of 2019.121.1055.",
    "sfomuseum:dimensions": "11 x 8 1/2 inches (27.9 x 21.6 cm)",
    "sfomuseum:medium": "paper, ink",
    "sfomuseum:object_id": 211419,
    "sfomuseum:placetype": "object",
    "sfomuseum:publication": ": , 08/05/1938.",
    "sfomuseum:subcategory": "Correspondence, Personal",
    "src:geom": "sfomuseum#undetermined",
    "wof:belongsto": [
      102527513,
      1159162825,
      102191575,
      85633793,
      102087579,
      85922583,
      85688637,
      1159160869
    ],
    "wof:country": "XY",
    "wof:created": 1714549106,
    "wof:depicts": [
      1159286839,
      1159284991
    ],
    "wof:geomhash": "c281b9d9eefc83b5710e64b9d646067d",
    "wof:hierarchy": [
      {
        "building_id": -1,
        "campus_id": 102527513,
        "collection_id": 1159162825,
        "concourse_id": 1159162825,
        "continent_id": 102191575,
        "country_id": 85633793,
        "county_id": 102087579,
        "custom_id": 1913796483,
        "locality_id": 85922583,
        "neighbourhood_id": -1,
        "object_id": 1913796483,
        "region_id": 85688637,
        "wing_id": 1159160869
      }
    ],
    "wof:id": 1913796483,
    "wof:lastmodified": 1787988220,
    "wof:name": "correspondence: Harold M. Bixby to unknown recipient",
    "wof:parent_id": 1159162825,
    "wof:placetype": "custom",
    "wof:placetype_alt": [
      "object"
    ],
    "wof:repo": "sfomuseum-data-collection",
    "wof:superseded_by": [],
    "wof:supersedes": []
  },
  "bbox": [
    -122.38647222518921,
    37.6161053594541,
    -122.38583385944366,
    37.61661101879963
  ],
  "geometry": {"type":"Polygon","coordinates":[[[-122.38647222518921,37.61631782178288],[-122.386434674263,37.61623283692423],[-122.38637566566466,37.61617759671399],[-122.38630056381224,37.6161308549656],[-122.38616108894348,37.6161053594541],[-122.38602161407469,37.6161308549656],[-122.38591432571411,37.61618609521055],[-122.38585531711577,37.61626683087935],[-122.38583385944366,37.61636881265146],[-122.38587141036987,37.61646654505181],[-122.38594114780425,37.61654303118856],[-122.38605380058287,37.61660252035167],[-122.38618254661559,37.61661101879963],[-122.3863059282303,37.61657277577607],[-122.3864185810089,37.61650903735973],[-122.3864668607712,37.61641130501523],[-122.38647222518921,37.61631782178288]]]}
}
