{
  "id": 1511909987,
  "type": "Feature",
  "properties": {
    "date:cessation_lower": "1920-12-01",
    "date:cessation_upper": "1920-12-31",
    "date:inception_lower": "1920-09-01",
    "date:inception_upper": "1920-09-30",
    "edtf:cessation": "1920-12",
    "edtf:date": "1920-01/1920-04~",
    "edtf:inception": "1920-09",
    "geom:area": 0,
    "geom:bbox": "-122.386155,37.616357,-122.386155,37.616357",
    "geom:latitude": 37.616357,
    "geom:longitude": -122.386155,
    "iso:country": "US",
    "millsfield:aircraft_id": [
      -1
    ],
    "millsfield:airline_id": [
      1159284001
    ],
    "millsfield:category_id": 1511214223,
    "millsfield:collection_id": 1511214207,
    "millsfield:company_id": [
      1159287139
    ],
    "millsfield:images": [
      1527844595
    ],
    "millsfield:images_colors_refs": {
      "crayola": [
        {
          "hex": "#e7c697"
        },
        {
          "hex": "#bab86c"
        },
        {
          "hex": "#85754e"
        },
        {
          "hex": "#414a4c"
        }
      ],
      "css4": [
        {
          "hex": "#d2b48c"
        },
        {
          "hex": "#2f4f4f"
        },
        {
          "hex": "#bdb76b"
        },
        {
          "hex": "#a0522d"
        }
      ],
      "marekm4": [
        {
          "hex": "#b2a561"
        },
        {
          "hex": "#8b703e"
        },
        {
          "hex": "#d6cda5"
        },
        {
          "hex": "#373015"
        }
      ]
    },
    "millsfield:images_texts": [
      "BOLING AIR TRANSPORI, Inc.\nU. Sa\nAIR\nMAIL\nATR\nTranscontinental\nPASSENGER\nSERVICE\nTRANSPORTS\nNON TRANSFERABLE TICKET\nGood subject to following contract between purchaser and Boeing Air\nTransport,\nInc..\nviascheduled\nroute between points punched within\nthirty days of\npurchase.\nNON-TRANSFERABLE TICKET If presented by any person other than\noriginal purchaser, this ticket will be void and may\nbe confiscated\nby action of the agent of the Boeing Air Transport,\nInc.\nBAGGAGE Each passenger is permitted to carry free 25 pounds of\nbaggage.\nAll baggage in excess of 25 pounds will be charged excess rate.\nThe Company assumes no liability for loss or damage to baggage.\nSTOP-OVERS Stop-overs will be permitted at the option of the Trans-\nport Company, but resumption of trip is subject to previous reservations\nof other passengers.\nCANCELLATION AND DELAYS-The passenger agrees with the Com-\npany that if,\nin the judgment of the Company agents, pilots or em\nployees, it is not deemed safe to proceed farther with the passenger,\nthat\nthe Company may cancel the balance of the trip and refund the part\nof fare equal to the unused portion of this ticket.\nThe Company assumes no responsibility for delay due to any cause\nwhatsoever.\nлод\nCASH FARE PAID\nFrom\nN FRANCISCO, CAL.\nSACRAMENTO, CAL.\nDOLLARS\nCENTS\n40\n50\n$1\n2\n60\n70\n80\n90\n100\n3\n4\n5\n6\n7\n8\n300\n9\n10\n400\n20\n600 30\n55\nRENO, NEVADA\nELKO,\nNEVADA\n10~60\n15\n65\n20\n70\n25\n75\nSALT LAKE CITY. UTAH*\nROCK SPRINGS, WYOM.\nCHEYENNE, WYOM.*\n30\n-80\nNORTH PLATTE, NEB.\n35\n85\n40\n90\nОМАНА, NEB.*\nDES MOINES, IOWA\n45\n95\n50\nIOWA CITY, IOWA\nCHICAGO, ILI 01S\nPILOT PUNCH THROUGH\nOPERATING DIVISIONS\n2\n*Division Point.\nStreet: Address\n110 Market At\nCity....\nдарился\n244\nAgent.\nHANCOCK BROS. SAN FRANCISCO"
    ],
    "millsfield:images_texts_ids": [
      1527844595
    ],
    "millsfield:primary_image": 1527844595,
    "millsfield:subcategory_id": 1511213421,
    "mz:hierarchy_label": 1,
    "mz:is_current": 1,
    "sfomuseum:accession_number": "1999.047.576",
    "sfomuseum:aircraft": "Boeing",
    "sfomuseum:aircraft_id": [
      109
    ],
    "sfomuseum:airline": "Boeing Air Transport (BAT)",
    "sfomuseum:airline_id": [
      237
    ],
    "sfomuseum:category": "Scheduling / Ticketing",
    "sfomuseum:classification_id": 156,
    "sfomuseum:collection": "Aviation Archive",
    "sfomuseum:continent": "North America",
    "sfomuseum:country": "United States",
    "sfomuseum:creditline": "Gift of United Airlines Archives",
    "sfomuseum:date": "late 1920s",
    "sfomuseum:date_acquired": "2000-05-11",
    "sfomuseum:daterange_end": "1929-12-31",
    "sfomuseum:daterange_start": "1927-01-01",
    "sfomuseum:description": "Color reproduction of Boeing Air Transport ticket; yellow and black with text \"U.S. Air Mail / Transcontinental passenger service / Non-transferable ticket\" followed by terms and conditions; ticket issued for route from San Francisco to Chicago, passenger name at bottom.",
    "sfomuseum:dimensions": "7 1/2 x 3 inches (19.1 x 7.6 cm)",
    "sfomuseum:media_ids": [
      1527844595
    ],
    "sfomuseum:medium": "paper, ink",
    "sfomuseum:object_id": 49991,
    "sfomuseum:placetype": "object",
    "sfomuseum:primary_media_id": 1527844595,
    "sfomuseum:publication": ": , late 1920s.",
    "sfomuseum:subcategory": "Ticket Jacket / Ticket",
    "src:geom": "sfomuseum#undetermined",
    "wof:belongsto": [
      102191575,
      85633793,
      136253057,
      1511214223,
      102527513,
      1511213421,
      85922583,
      102087579,
      1511214277,
      1511214207,
      85688637
    ],
    "wof:breaches": [],
    "wof:country": "US",
    "wof:created": 1579906661,
    "wof:depicts": [
      1159284001,
      1159287139
    ],
    "wof:geomhash": "30c8a918561c84bb2daa2b97fc7c5353",
    "wof:hierarchy": [
      {
        "continent_id": 102191575,
        "country_id": 85633793,
        "custom_id": 1511909987,
        "empire_id": 136253057,
        "object_id": 1511909987,
        "venue_id": 1511909987
      },
      {
        "arcade_id": 1511213421,
        "building_id": 1511214277,
        "campus_id": 102527513,
        "concourse_id": 1511214223,
        "continent_id": 102191575,
        "country_id": 85633793,
        "county_id": 102087579,
        "custom_id": 1511909987,
        "locality_id": 85922583,
        "neighbourhood_id": -1,
        "object_id": 1511909987,
        "region_id": 85688637,
        "venue_id": 1511909987,
        "wing_id": 1511214207
      }
    ],
    "wof:id": 1511909987,
    "wof:lastmodified": 1787988176,
    "wof:name": "ticket: Boeing Air Transport",
    "wof:parent_id": 1159162825,
    "wof:placetype": "custom",
    "wof:placetype_alt": [
      "object"
    ],
    "wof:repo": "sfomuseum-data-collection",
    "wof:superseded_by": [],
    "wof:supersedes": [],
    "wof:tags": []
  },
  "bbox": [
    -122.386155,
    37.616357,
    -122.386155,
    37.616357
  ],
  "geometry": {"type":"Point","coordinates":[-122.386155,37.616357]}
}
