{
  "id": 1913795485,
  "type": "Feature",
  "properties": {
    "date:cessation_lower": "1937-01-29",
    "date:cessation_upper": "1937-01-29",
    "date:inception_lower": "1937-01-29",
    "date:inception_upper": "1937-01-29",
    "edtf:cessation": "1937-01-29",
    "edtf:inception": "1937-01-29",
    "geom:area": 2.475047457570636e-7,
    "geom:bbox": "-122.386472,37.616105,-122.385834,37.616611",
    "geom:latitude": 37.61635747477365,
    "geom:longitude": -122.38615540108617,
    "millsfield:airline_id": [
      1159284991
    ],
    "millsfield:category_id": 1511214251,
    "millsfield:collection_id": 1511214207,
    "millsfield:company_id": [
      1159286839
    ],
    "millsfield:images": [
      1913799809,
      1913799811
    ],
    "millsfield:images_colors_refs": {
      "crayola": [
        {
          "hex": "#414a4c"
        },
        {
          "hex": "#8a795d"
        },
        {
          "hex": "#9f8170"
        },
        {
          "hex": "#714b23"
        },
        {
          "hex": "#bab86c"
        },
        {
          "hex": "#e7c697"
        }
      ],
      "css4": [
        {
          "hex": "#d2b48c"
        },
        {
          "hex": "#556b2f"
        },
        {
          "hex": "#696969"
        },
        {
          "hex": "#bdb76b"
        }
      ],
      "marekm4": [
        {
          "hex": "#d9c69d"
        },
        {
          "hex": "#d9c8a1"
        },
        {
          "hex": "#ae9c72"
        },
        {
          "hex": "#c0a570"
        },
        {
          "hex": "#574d33"
        },
        {
          "hex": "#897955"
        },
        {
          "hex": "#574f38"
        }
      ]
    },
    "millsfield:images_texts": [
      "Metropolitan Hotel\nNanking, Jan. 29, 1937\nDear Family:\nFlew up here from Shanghai this morning for a conference on\nInternational Airmail.\nAs you know this is the new capital - new since\n1927 when the seat of\nthe Government was moved from Peking.\nThis is a modern hotel built and operated by the China Travel\nService which is a tourist bureau with Government complex.\nIt will be\ninteresting sometime to come back to Nanking many years from now and\nsee what has really happened.\nChina is growing more nationalistic all\nthe time - the Sian scuffle not withstanding - and here especially you\nevidence of the national idea on every side.\nThe manifestations are\nfrequently extremely immature and the enthusiasm for the slogan China\nfor the Chinese takes on something of the Collegiate lack of perspective.\nEven the dry subtile humor which usually saves John Chinaman from\nRotarian excuses seems to desert him.\nIt's a case of more national less\nrational.\nIn other words in this respect - there are few others - the\nChinese are like the Japs - unable to laugh at themselves.\nNanking is an enormous city in area - it is los Angeles with\na wall around it - but in an\nattempt to make people build expensively\nup instead of economically out they limit\namount of ground to be\nowned by one citizen\nto two mow - about one-third of an acre.\nresult you see a new house here and there with no garden or even yard -\njust house.\nThere is room for thousands upon thousands of such.\nparently they hope to make sprawling Nanking look like congested\nShanghai where the \"foreign devils\" have built a great city in a small\nAt one time they talked of pulling down the city wall for more\nroom but that was just one too many for the most Rotarian of the\nNationalists.\nThis Hotel used to have a large sign out in front writ-\nten in English METROPOLITAN HOTEL but the Nationalists had the sign re-\nmoved and also severely criticised the management for having English\ninitials \"M H\" on the silverware.\nThat's funny too because tonight at\ndinner there was a Russian Jazz band, proverbial Swiss manager,\nof Frenchmen, one of Germans, another of Dutchmen and \u0026 scattering of\nEnglish, Americans, Japanese\nand Chinese.\nThe only man among those\nknown to me was an American Associated Press reporter\nwearing the perpetual frown of those charged with the responsibility\ntelling the world what the Chinese officials themselves do not know,\nnamely, what they are going to do next.\nIn front of the hotel runs the long wide new Chung Shan RoAD\n(Central Mountain - Dr. Sun Yat Sen's posthumous name) edged with patch-\nes of sidewalk in spots but mostly mud.\nthis road moves the usual\ncavalcade of Chinese traffic the wheel that squeaks\nShrieking wheelbarrows whose axles belie\nour New England auxis axiom\nthe loudest is the\nwheel that gets the grease.\"\nMan pulled carts, donkeys, motor cars,\nrickshas and a host of spitting pedestrians all\nof whom move along\nwith that utter and\ncomplete disregard of the other fellow which is the\npredominate characteristic of the Chinese.\nJohn Chinaman is for him-\nself and he doesn't like to give way to rules of traffic or regulations\nwhich may be all right for the other man but do not apply to him.\nThe\nricksha puller gets out in the road well away from the curb and\nthere\nhe stays\nthreading his way through\nthe wandering pedestrians with crys\nand shouts which make no impression on his noise unmindful compatriots.\nYou remember Joseph Pulitizer had a sound proof room\nbuilt to rest his\njaded nerves and nearly went loco when a cat \"stamped\" around his room.\nWell if Joe had been blessed with a yellow epidermis and\nslant eyes\nhe could have moved his office to a boiler factory and really concen-\ntrated.\nNow there has been\nadded to the\nconfusion\nmotor bus - and here again is illustrated the\nshairference",
      "Page 2\nChinese for the rights of the other fellow.\nI saw a bus stop in front\nof a large crow - the bus already\nevery single one of the crowd got in.\nEvery seat was taken and each\nsitter sitting bolt upright while in front of him between his knees\nand the back of the seat ahead stood as many as could squeeze in. The\naisle was packed solid. A bus designed for sixteen was carrying not\nless than sixty and no\ndoubt after six months of such overloading\noperators will notify the German manufacturers that the busses have\nworn out,\nare no good and they won't meet the next maturing payments.\nSuch is Chinese consideration for\nthe other passenger, owner, manufact-\nurer, rules, etc.\nThey would do the same thing with airplanes if it\nnot for the\nforeign management.\nEvery airplane has\ncapacity which is certified in the\ncase of American planes by\nU. S. Department of Commerce, Aeronautics Division.\nEvery passenger\nand all cargo is weighed.\nInstructions not to overload are exact and\nuncompromising.\nThe pilot checks cargo and his weight report and re-\nfuses to take off if the gross weight is over the safe limit. Harry\nSmith who used to fly for Chiang Kai-shek tells an amusing story.\nhad orders to fly his tri-motor Ford on a long trip over bad country\nso he decided to take plenty of gas and had to cut down his passenger\nlist to six.\nKnowing the inclination of the Chinese\ntook great pains to explain to the No. I, who was a Secretary of Chiang\nKai-shek's,\nthat there could only be six\npassengers.\nHarry said he\nthat the instruction was indubitably clear.\nSo forceful had\nne made nis order that the following morning he didn't \"cruise his cabin\"\nuntil he had taxied down to the end of the field.\nThen he looked around.\nand there were seven passengers.\nHe was so mad that he didn't trust\nhimself to speak so he walked through the cabin and got outside to cool\nPresently the No. 1 followed and blandly asked if anything was\nwrong. Harry said \"Didn't I tell you only six passengers?\"\nWhereupon\nNo. 1 said there were only six.\nHarry counted seven but the No. l\npointed to a big fat Buddha-looking placid oriental in the back\nand said \"on he isn't a passenger, he's just a servant.\"\nAnother time an American pilot flying a large Government\nowned plane was given a load of silver\ngoing with the shipment kept piling cases into\nthe cabin until the\npilot made them a long speech telling them that it wasn't safe to\noverload and finally made them take all\nthe cases out.\nbeing no scales the pilot himself lifted each case,\nguessed its weight,\nmarked it down and set the case over to one side to be put in the plane.\nSeveral times he caught his traveling companions (who were very anxious\nto load all the silver) slipping a case which he hadn't \"weighed\" in\nthe other door of the plane.\nAfter much explaining and no end of con-\nfusion he thought he had the situation in hand.\nSome silver was sent\nback by the guards who brought it, the custodians were put on board\nand the pilot took off.\nThe ship was overloaded and staggered off\nnear the end of the runway, the tail hit a pile of rocks, damaging\nthe tail surfaces,\nwashing away the tail-skid and nearly wrecking the\nthe airplane vibrating badly and sliding around the\nsky the pilot was afraid to make a landing\nwith such a heavy load so\ncontinued on to his destination too worried and busy\nto enjoy the\nfright and discomfort of his passengers who had been responsible for\ntheir predicament.\nThe pilot got down at Kweiyang all right and we\nhad dinner together that night with Missionaries.\nWhen the Mission-\naries prayed before chow the pilot whispered to me that he was well\nup on them in both fervor and amount of praying that day.\nLater he\nrepaired the damaged tail surfaces with new fabric and dope,\nfashion-\ned a tail-skid from a wooden poppy field plough\nand with a few lusty\ncheers for free silver, missionaries and opium took off in a cloud of\nDebby and\nthe girls are in Hongkong where I plan to join them\non Feb. 4th to spend Chinese New Year (The Nationalists call it Spring\nFestival) because, in spite of the adoption by the National Government\nof our calendar,\nthe Chinese still celebrate the old lunar New Year\nand there's no use trying to get anything accomplished during the\nfestivities.\nAS EVer,"
    ],
    "millsfield:images_texts_ids": [
      1913799809,
      1913799811
    ],
    "millsfield:primary_image": 1913799809,
    "millsfield:subcategory_id": 1511213489,
    "mz:is_approximate": 1,
    "mz:is_current": 1,
    "sfomuseum:accession_number": "2019.121.1005 a b",
    "sfomuseum:airline": "Pan American Airways",
    "sfomuseum:airline_id": [
      685
    ],
    "sfomuseum:category": "Employee Career History",
    "sfomuseum:classification_id": 195,
    "sfomuseum:collection": "Aviation Archive",
    "sfomuseum:creditline": "Collection of SFO Museum",
    "sfomuseum:date": "01/29/1937",
    "sfomuseum:date_acquired": "2019-11-22",
    "sfomuseum:daterange_end": "1937-01-29",
    "sfomuseum:daterange_start": "1937-01-29",
    "sfomuseum:description": "Typewritten letter from Harold M. Bixby to his family, dated January 29, 1937, Metropolitan Hotel in Nanking [Nanjing]; includes description of the city and hotel, airline operations in China; mentions Harry Smith, Chiang Kai-Shek.",
    "sfomuseum:dimensions": "13 1/4 x 8 1/2 inches (33.7 x 21.6 cm)",
    "sfomuseum:medium": "paper, ink",
    "sfomuseum:object_id": 211368,
    "sfomuseum:placetype": "object",
    "sfomuseum:publication": ": , 01/29/1937.",
    "sfomuseum:subcategory": "Correspondence, Personal",
    "src:geom": "sfomuseum#undetermined",
    "wof:belongsto": [
      102527513,
      1159162825,
      102191575,
      85633793,
      102087579,
      85922583,
      85688637,
      1159160869
    ],
    "wof:country": "XY",
    "wof:created": 1714548807,
    "wof:depicts": [
      1159284991,
      1159286839
    ],
    "wof:geomhash": "c281b9d9eefc83b5710e64b9d646067d",
    "wof:hierarchy": [
      {
        "building_id": -1,
        "campus_id": 102527513,
        "collection_id": 1159162825,
        "concourse_id": 1159162825,
        "continent_id": 102191575,
        "country_id": 85633793,
        "county_id": 102087579,
        "custom_id": 1913795485,
        "locality_id": 85922583,
        "neighbourhood_id": -1,
        "object_id": 1913795485,
        "region_id": 85688637,
        "wing_id": 1159160869
      }
    ],
    "wof:id": 1913795485,
    "wof:lastmodified": 1787988219,
    "wof:name": "correspondence: Harold M. Bixby, family circular letter",
    "wof:parent_id": 1159162825,
    "wof:placetype": "custom",
    "wof:placetype_alt": [
      "object"
    ],
    "wof:repo": "sfomuseum-data-collection",
    "wof:superseded_by": [],
    "wof:supersedes": []
  },
  "bbox": [
    -122.38647222518921,
    37.6161053594541,
    -122.38583385944366,
    37.61661101879963
  ],
  "geometry": {"type":"Polygon","coordinates":[[[-122.38647222518921,37.61631782178288],[-122.386434674263,37.61623283692423],[-122.38637566566466,37.61617759671399],[-122.38630056381224,37.6161308549656],[-122.38616108894348,37.6161053594541],[-122.38602161407469,37.6161308549656],[-122.38591432571411,37.61618609521055],[-122.38585531711577,37.61626683087935],[-122.38583385944366,37.61636881265146],[-122.38587141036987,37.61646654505181],[-122.38594114780425,37.61654303118856],[-122.38605380058287,37.61660252035167],[-122.38618254661559,37.61661101879963],[-122.3863059282303,37.61657277577607],[-122.3864185810089,37.61650903735973],[-122.3864668607712,37.61641130501523],[-122.38647222518921,37.61631782178288]]]}
}
