{
  "id": 1880201389,
  "type": "Feature",
  "properties": {
    "date:cessation_lower": "1933-11-02",
    "date:cessation_upper": "1933-11-02",
    "date:inception_lower": "1933-11-02",
    "date:inception_upper": "1933-11-02",
    "edtf:cessation": "1933-11-02",
    "edtf:inception": "1933-11-02",
    "geom:area": 2.475047457570636e-7,
    "geom:bbox": "-122.386472,37.616105,-122.385834,37.616611",
    "geom:latitude": 37.61635747477365,
    "geom:longitude": -122.38615540108617,
    "millsfield:airline_id": [
      1159284991,
      1159285931
    ],
    "millsfield:category_id": 1511214251,
    "millsfield:collection_id": 1511214207,
    "millsfield:company_id": [
      1159286721
    ],
    "millsfield:exhibition_ids": [
      1880380113,
      1914632783,
      1947305535
    ],
    "millsfield:images": [
      1880201523,
      1880201525,
      1880201527,
      1880201531,
      1880201533,
      1880201535
    ],
    "millsfield:images_colors_refs": {
      "crayola": [
        {
          "hex": "#efcdb8"
        },
        {
          "hex": "#414a4c"
        },
        {
          "hex": "#87a96b"
        },
        {
          "hex": "#9f8170"
        },
        {
          "hex": "#000000"
        },
        {
          "hex": "#714b23"
        },
        {
          "hex": "#757575"
        },
        {
          "hex": "#bab86c"
        },
        {
          "hex": "#85754e"
        },
        {
          "hex": "#edd19c"
        }
      ],
      "css4": [
        {
          "hex": "#000000"
        },
        {
          "hex": "#f5deb3"
        },
        {
          "hex": "#2f4f4f"
        },
        {
          "hex": "#556b2f"
        },
        {
          "hex": "#2e8b57"
        },
        {
          "hex": "#bdb76b"
        },
        {
          "hex": "#696969"
        },
        {
          "hex": "#eee8aa"
        }
      ],
      "marekm4": [
        {
          "hex": "#e0d2ae"
        },
        {
          "hex": "#433311"
        },
        {
          "hex": "#e0d3ad"
        },
        {
          "hex": "#5e9354"
        },
        {
          "hex": "#382b12"
        },
        {
          "hex": "#3b2f13"
        },
        {
          "hex": "#3e3519"
        },
        {
          "hex": "#ab9a70"
        },
        {
          "hex": "#aa9a70"
        },
        {
          "hex": "#a99a71"
        },
        {
          "hex": "#5c9656"
        },
        {
          "hex": "#5a9655"
        },
        {
          "hex": "#ddd0ad"
        },
        {
          "hex": "#e1d4af"
        },
        {
          "hex": "#a39d73"
        },
        {
          "hex": "#30250f"
        },
        {
          "hex": "#a7a072"
        },
        {
          "hex": "#e1d3ae"
        },
        {
          "hex": "#dccea6"
        },
        {
          "hex": "#34260f"
        },
        {
          "hex": "#a09c74"
        }
      ]
    },
    "millsfield:images_texts": [
      "CABLE ADDRESS:\nMANHOCO-MANILA\nALL TELEGRAPHIC CODES\nHUBERT C. ANDERSON\nMANAGER\nBETTE\nMANILA HOTEL\nManila. Philippines\nTHE SIGN OF SERVICE\nIN THE PHILIPPINES\n133\nThursday Nov. 2\nDearest Debs\ncant tree\nyou hour\nmany times today\nDir thougst\nabout treephoning you\nand\ntack time thinking of the\nCost hair decided not to\ndo so. Nowson it had\nbran one with the\ngreatet rests ant - for Dres\naft all this is the\nAnou sary of the greatist\nday in me, life - the\none big reace, important\nthing dor cou accomphined",
      "And the one which has\nbrought, to me et least,\nnothing but the gratist\nhappiness.\nIt the one,\nmomentons moir of me\nlif which 9 har\nmen for one moment\nregrettre. It is absolute\ntrue - cron my heart\nand hop to die s that\nthus has not bern.\nsingue fraction of a\nsreond during the last\n19 grars that.\nI hair\nHow questioned the\nand the yood\nfortune which\ncame te\n2019.121.07730",
      "CABLE ADDRESS:\nMANHOCO-MANILA\nALL TELEGRAPHIC CODES\nHUBERT C. ANDERSON\nMANAGER\nTHE SIGN OF SERVICE\nIN THE\nPHILIPPINES\nMANILA HOTEL\nManila, Philippines\nme\nwith\nyour\nОпе,\ntonight Dres\ndear\nwas having\ndunni with\nthe Dodgro, the Chapmen\nand Col a Mrs Craig.\nMis. C. said yor know\nBir your an anapule,\ndumb breau you\n- alway tree zor gire\nyou met about your\nsoft and it is ofoon\nto any one that you\nan happel marred",
      "vry much in lorr. Lohn\ndont you just fogst for\na lucke while\nthat line\nand\ntime? Jes us a good\nwree if then cant\naceipt me and like.\nme\nknowig the at you\nan, and, always woll\nnumbir one then\nI dont cars. 9 dont\nmean to be a price\nDibs but damn it\nto mean s\ntoo much to\nme to ron tree am\ngue that\nIm not\nunderstood\nor any of the\nothn lines\nwhich trim\n019.12107756",
      "CABLE ADDRESS:\nMANHOCO-MANILA\nALL TELEGRAPHIC CODES\nHUBERT C. ANDERSON\nMANAGER\nSAlP\nTHE SIGN OF SERVICE\nIN THE PHILIPPINES\nMANILA HOTEL\nManila, Philippines\nto\nword.\nworee ur had a vir\nmies dinanand Im\nvery ford of all thor\nwha\nwore that. Col\nand Mss Craig are retrie\nArmy - Dodge is Treas Co\nand Chapman - an arm\nCaptain argned to the\ngou. quie staff.\nThis morning 2 got\nry at 5 a.m and...\ncaught\na plane for",
      "Baguio at 4:30 aniving\nthus at 7:4to. Bagui\nis a brantife flac\nhigh mountains Saao fit\nclear bracing air - flow\nClean, uree maintained\nroado and parko-\nattactioi honta, goy\nClule Camp Way-hote\netc.\nheft there at 11:30\nand\nand was back at\nManila Hote at 1: 3\nIt midnight now\ndearest and o simpl\nmust get some seep.\nall may for to you dearest\nange brant fue. 9 lor you Bir\n1210773€"
    ],
    "millsfield:images_texts_ids": [
      1880201523,
      1880201525,
      1880201527,
      1880201531,
      1880201533,
      1880201535
    ],
    "millsfield:on_view": 0,
    "millsfield:primary_image": 1880201523,
    "millsfield:subcategory_id": 1511213489,
    "mz:is_approximate": 1,
    "mz:is_current": 1,
    "sfomuseum:accession_number": "2019.121.0773 a c",
    "sfomuseum:airline": "Pan American Airways",
    "sfomuseum:airline_id": [
      685,
      1131
    ],
    "sfomuseum:category": "Employee Career History",
    "sfomuseum:classification_id": 195,
    "sfomuseum:collection": "Aviation Archive",
    "sfomuseum:creditline": "Collection of SFO Museum",
    "sfomuseum:date": "11/02/1933",
    "sfomuseum:date_acquired": "2019-11-22",
    "sfomuseum:daterange_end": "1933-11-02",
    "sfomuseum:daterange_start": "1933-11-02",
    "sfomuseum:description": "Handwritten letter from Harold M. Bixby to his wife, Debby Bixby, dated Thursday, November 2, [1933], on stationery from the Manila Hotel; includes personal matters, description of Baguio.",
    "sfomuseum:dimensions": "8 1/2 x 5 1/2 inches (21.6 x 14 cm)",
    "sfomuseum:exhibition_ids": [
      1853
    ],
    "sfomuseum:medium": "paper, ink",
    "sfomuseum:object_id": 211121,
    "sfomuseum:on_view": 1,
    "sfomuseum:placetype": "object",
    "sfomuseum:publication": ": , 11/02/1933.",
    "sfomuseum:subcategory": "Correspondence, Personal",
    "src:geom": "sfomuseum#undetermined",
    "wof:belongsto": [
      102527513,
      1159162825,
      102191575,
      85633793,
      102087579,
      85922583,
      85688637,
      1159160869
    ],
    "wof:country": "XY",
    "wof:created": 1692952085,
    "wof:depicts": [
      1159285931,
      1159286721,
      1159284991
    ],
    "wof:geomhash": "c281b9d9eefc83b5710e64b9d646067d",
    "wof:hierarchy": [
      {
        "building_id": -1,
        "campus_id": 102527513,
        "collection_id": 1159162825,
        "concourse_id": 1159162825,
        "continent_id": 102191575,
        "country_id": 85633793,
        "county_id": 102087579,
        "custom_id": 1880201389,
        "locality_id": 85922583,
        "neighbourhood_id": -1,
        "object_id": 1880201389,
        "region_id": 85688637,
        "wing_id": 1159160869
      }
    ],
    "wof:id": 1880201389,
    "wof:lastmodified": 1787988215,
    "wof:name": "correspondence: Harold M. Bixby to Debby Bixby",
    "wof:parent_id": 1159162825,
    "wof:placetype": "custom",
    "wof:placetype_alt": [
      "object"
    ],
    "wof:repo": "sfomuseum-data-collection",
    "wof:superseded_by": [],
    "wof:supersedes": []
  },
  "bbox": [
    -122.38647222518921,
    37.6161053594541,
    -122.38583385944366,
    37.61661101879963
  ],
  "geometry": {"type":"Polygon","coordinates":[[[-122.38647222518921,37.61631782178288],[-122.386434674263,37.61623283692423],[-122.38637566566466,37.61617759671399],[-122.38630056381224,37.6161308549656],[-122.38616108894348,37.6161053594541],[-122.38602161407469,37.6161308549656],[-122.38591432571411,37.61618609521055],[-122.38585531711577,37.61626683087935],[-122.38583385944366,37.61636881265146],[-122.38587141036987,37.61646654505181],[-122.38594114780425,37.61654303118856],[-122.38605380058287,37.61660252035167],[-122.38618254661559,37.61661101879963],[-122.3863059282303,37.61657277577607],[-122.3864185810089,37.61650903735973],[-122.3864668607712,37.61641130501523],[-122.38647222518921,37.61631782178288]]]}
}
