{
  "id": 1913796129,
  "type": "Feature",
  "properties": {
    "date:cessation_lower": "1927-03-26",
    "date:cessation_upper": "1927-03-26",
    "date:inception_lower": "1927-03-26",
    "date:inception_upper": "1927-03-26",
    "edtf:cessation": "1927-03-26",
    "edtf:inception": "1927-03-26",
    "geom:area": 2.475047457570636e-7,
    "geom:bbox": "-122.386472,37.616105,-122.385834,37.616611",
    "geom:latitude": 37.61635747477365,
    "geom:longitude": -122.38615540108617,
    "millsfield:aircraft_id": [
      1159291535
    ],
    "millsfield:category_id": 1511214251,
    "millsfield:collection_id": 1511214207,
    "millsfield:company_id": [
      1159293855,
      1159292605
    ],
    "millsfield:images": [
      1913801649,
      1913801651
    ],
    "millsfield:images_colors_refs": {
      "crayola": [
        {
          "hex": "#efcdb8"
        },
        {
          "hex": "#714b23"
        },
        {
          "hex": "#efdecd"
        },
        {
          "hex": "#9f8170"
        },
        {
          "hex": "#414a4c"
        }
      ],
      "css4": [
        {
          "hex": "#f5deb3"
        },
        {
          "hex": "#556b2f"
        },
        {
          "hex": "#808080"
        },
        {
          "hex": "#ffe4c4"
        }
      ],
      "marekm4": [
        {
          "hex": "#918c72"
        },
        {
          "hex": "#5b573d"
        },
        {
          "hex": "#e7d9b5"
        },
        {
          "hex": "#99916d"
        },
        {
          "hex": "#5c5634"
        },
        {
          "hex": "#e9e1c9"
        }
      ]
    },
    "millsfield:images_texts": [
      "FACTORY OFFICE\nFOOT OF JUNIPER STREET\nRYAN AIRLINES, INC.\nBUILDERS OF AIRCRAFT\nOPERATORS\nLOS ANGELES - SAN DIEGO AIRLINE\nSAN DIEGO, CALIF.,\nMar. 26,1927\nDear Mr. Biphy:\nI remind your tikoram, thee day late,\nthou my return from Las Angeles, and flew one of\nthe Ryan Cabin planco to a field tua miles from her. Munto\nshop the nept day.\nI he motor, as l wined you, is a combination\nof g. 4. and g. 1. Whiskwindo with g. 1. cranbeare and\ncylindes, It has had very little time since overhaul,\nprobably less than ten haurs; but the mayrity of part\nhave sen several hundred hours service. I he crankcase\nhas been welded in at land one ploce and both\nappearance and inguing indicate that the engine\nis largely assembled from Army and hany salvage.\nIt is now installed in a plane built from\na combiation of was material and is easy starting\nand in serviceable condition, but under no circumstances\nworth $2,000 which is the cash price asked.",
      "FACTORY OFFICE\nFOOT OF JUNIPER STREET\nRYAN AIRLINES, INC.\nBUILDERS OF AIRCRAFT\nOPERATORS\nLOS ANGELES - SAN DIEGO AIRLINE\nSAN DIEGO, CALIF.,\nIl understand, indirectly, that at one time bath\nship and motor could have been purchased for 500%\nThe propeller is not designed for the tracchair\ntyle of plane and would hardly prove satisfartary. The\ntra g. 1. hides are fairly well wam.\nI he thickirid type motor has given wonderful\nservice here, an the wet coart and the fact that\nthis motor is still giring good service is in\nits lf. a recommendation for the tright corporaton.\nOur monoplane is progressing rapidly and\nthe wing and goochis tanks are nearly completed.\nI spect to be on Rosseult Shild and ready to\ntake off on aps. 28t. providing conditions are mitable\nat that tine. Of course we are still giring july + st\nto the papers here as our stashing date.\nWith best wishs, l remain,\nYours very truly\ncharles 4. Kindlingh."
    ],
    "millsfield:images_texts_ids": [
      1913801649,
      1913801651
    ],
    "millsfield:primary_image": 1913801649,
    "millsfield:subcategory_id": 1511213489,
    "mz:is_approximate": 1,
    "mz:is_current": 1,
    "sfomuseum:accession_number": "2019.121.0821 a b",
    "sfomuseum:aircraft": "Ryan NYP Spirit of St. Louis",
    "sfomuseum:aircraft_id": [
      989
    ],
    "sfomuseum:category": "Employee Career History",
    "sfomuseum:classification_id": 195,
    "sfomuseum:collection": "Aviation Archive",
    "sfomuseum:creditline": "Collection of SFO Museum",
    "sfomuseum:date": "03/26/1927",
    "sfomuseum:date_acquired": "2019-11-22",
    "sfomuseum:daterange_end": "1927-03-26",
    "sfomuseum:daterange_start": "1927-03-26",
    "sfomuseum:description": "Handwritten letter from Charles A. Lindbergh to Harold M. Bixby dated March 26, 1927; on stationery from Ryan Airlines; text refers to motor noted in 2019.121.0820 with further detail: combination J.4 and J.1 Whirlwind with J.1 crankcase and cylinders, recently overhauled; includes progress report on “our monoplane”, the Spirit of St. Louis.",
    "sfomuseum:dimensions": "11 x 8 1/2 inches (27.9 x 21.6 cm)",
    "sfomuseum:medium": "paper, ink",
    "sfomuseum:object_id": 211170,
    "sfomuseum:placetype": "object",
    "sfomuseum:publication": ": , 03/26/1927.",
    "sfomuseum:subcategory": "Correspondence, Personal",
    "src:geom": "sfomuseum#undetermined",
    "wof:belongsto": [
      102527513,
      1159162825,
      102191575,
      85633793,
      102087579,
      85922583,
      85688637,
      1159160869
    ],
    "wof:country": "XY",
    "wof:created": 1714548993,
    "wof:depicts": [
      1159291535,
      1159293855,
      1159292605
    ],
    "wof:geomhash": "c281b9d9eefc83b5710e64b9d646067d",
    "wof:hierarchy": [
      {
        "building_id": -1,
        "campus_id": 102527513,
        "collection_id": 1159162825,
        "concourse_id": 1159162825,
        "continent_id": 102191575,
        "country_id": 85633793,
        "county_id": 102087579,
        "custom_id": 1913796129,
        "locality_id": 85922583,
        "neighbourhood_id": -1,
        "object_id": 1913796129,
        "region_id": 85688637,
        "wing_id": 1159160869
      }
    ],
    "wof:id": 1913796129,
    "wof:lastmodified": 1787988219,
    "wof:name": "correspondence: Charles A. Lindbergh to Harold M. Bixby",
    "wof:parent_id": 1159162825,
    "wof:placetype": "custom",
    "wof:placetype_alt": [
      "object"
    ],
    "wof:repo": "sfomuseum-data-collection",
    "wof:superseded_by": [],
    "wof:supersedes": []
  },
  "bbox": [
    -122.38647222518921,
    37.6161053594541,
    -122.38583385944366,
    37.61661101879963
  ],
  "geometry": {"type":"Polygon","coordinates":[[[-122.38647222518921,37.61631782178288],[-122.386434674263,37.61623283692423],[-122.38637566566466,37.61617759671399],[-122.38630056381224,37.6161308549656],[-122.38616108894348,37.6161053594541],[-122.38602161407469,37.6161308549656],[-122.38591432571411,37.61618609521055],[-122.38585531711577,37.61626683087935],[-122.38583385944366,37.61636881265146],[-122.38587141036987,37.61646654505181],[-122.38594114780425,37.61654303118856],[-122.38605380058287,37.61660252035167],[-122.38618254661559,37.61661101879963],[-122.3863059282303,37.61657277577607],[-122.3864185810089,37.61650903735973],[-122.3864668607712,37.61641130501523],[-122.38647222518921,37.61631782178288]]]}
}
