{
  "id": 1762684853,
  "type": "Feature",
  "properties": {
    "date:cessation_lower": "1970-01-01",
    "date:cessation_upper": "1979-12-31",
    "date:inception_lower": "1970-01-01",
    "date:inception_upper": "1979-12-31",
    "edtf:cessation": "197X",
    "edtf:inception": "197X",
    "geom:area": 2.475047457570636e-7,
    "geom:bbox": "-122.386472,37.616105,-122.385834,37.616611",
    "geom:latitude": 37.61635747477365,
    "geom:longitude": -122.38615540108617,
    "millsfield:aircraft_id": [
      1159289873
    ],
    "millsfield:airline_id": [
      1159284737
    ],
    "millsfield:category_id": 1511214215,
    "millsfield:collection_id": 1511214207,
    "millsfield:company_id": [
      1159293593
    ],
    "millsfield:images": [
      1762713709,
      1762713713
    ],
    "millsfield:images_colors_refs": {
      "crayola": [
        {
          "hex": "#414a4c"
        },
        {
          "hex": "#dbd7d2"
        },
        {
          "hex": "#cdc5c2"
        },
        {
          "hex": "#2b6cc4"
        },
        {
          "hex": "#6699cc"
        },
        {
          "hex": "#9c2542"
        }
      ],
      "css4": [
        {
          "hex": "#dcdcdc"
        },
        {
          "hex": "#c0c0c0"
        },
        {
          "hex": "#4682b4"
        },
        {
          "hex": "#778899"
        },
        {
          "hex": "#b22222"
        },
        {
          "hex": "#556b2f"
        },
        {
          "hex": "#2f4f4f"
        }
      ],
      "marekm4": [
        {
          "hex": "#bfc1c3"
        },
        {
          "hex": "#3d71a8"
        },
        {
          "hex": "#3f3e32"
        },
        {
          "hex": "#9f2110"
        },
        {
          "hex": "#6d89a8"
        },
        {
          "hex": "#545148"
        },
        {
          "hex": "#e4ded2"
        }
      ]
    },
    "millsfield:images_texts": [
      "malaysian es\nmas747\nCOMING APRIL 1982",
      "AIR MAIL\nYou should see the new Mas thy. It really is lovely. The decor is superb and\nthey have such beautiful seats. Especially in First Class, Where they call\nthem Easy Sleepers. The cloth is brush ralvet, and when you lean the seat\nright back, it sort of fits the contours of your body-right down to the footrest - so you\narually can at a good sleep. come to think of 4, aren the staireose is befer it goes\nup to the upper deck, unlike those sbiral ones in other fiTs which are awkward\nto climb.\nThere's a Business Class too, just behind the first Class, and frankly it secus\nalmost as good as first. The seals are big - two abreast on each side by the windows,\nand only four abreast in the middle. And you get lots of first class things such as free\ndrinks, movies, and proper eletronie headphones - not those awhward litle carplugs. The\nfood is fine, and they give you a choice.\nthey're divided it into\nEven in toning a parts to ran you more than pid and fai trample,\nrestrooms), plus its own stewards and stewardesses. So, you find that your meals are\nsaved quickly, they re hot, and things come in the right order, it you get your\ncoffee hot alter the meal, hot before it! hey told me that the whole plane has as\nmany as eleven galleys.\nLastly, it really is a quiet plane. The engines are Rolls Royce, and you\nalmost don't notice them, whereres you're siting.\nMAS B747\nmas\nmalaysian airline system\n2015166.25\n39"
    ],
    "millsfield:images_texts_ids": [
      1762713709,
      1762713713
    ],
    "millsfield:primary_image": 1762713709,
    "millsfield:subcategory_id": 1511213363,
    "mz:is_current": 1,
    "sfomuseum:accession_number": "2015.166.2539",
    "sfomuseum:aircraft": "Boeing 747",
    "sfomuseum:aircraft_id": [
      231
    ],
    "sfomuseum:airline": "Malaysia Airline System (MAS)",
    "sfomuseum:airline_id": [
      571
    ],
    "sfomuseum:category": "Philately",
    "sfomuseum:classification_id": 127,
    "sfomuseum:collection": "Aviation Archive",
    "sfomuseum:creditline": "Gift of Thomas G. Dragges",
    "sfomuseum:date": "1970s",
    "sfomuseum:date_acquired": "2017-01-13",
    "sfomuseum:daterange_end": "1979-12-31",
    "sfomuseum:daterange_start": "1970-01-01",
    "sfomuseum:description": "Postcard with color photographic image depicting MAS Boeing 747 in flight, air-to-air angled profile view; logo on reverse; caption on front, \"Coming April 1982.\"",
    "sfomuseum:dimensions": "3 1/2 x 5 1/2 inches (8.9 x 14 cm)",
    "sfomuseum:medium": "paper, ink",
    "sfomuseum:object_id": 182300,
    "sfomuseum:placetype": "object",
    "sfomuseum:publication": ": , 1970s.",
    "sfomuseum:subcategory": "Postcard",
    "src:geom": "sfomuseum#undetermined",
    "wof:belongsto": [
      102527513,
      1159162825,
      102191575,
      85633793,
      102087579,
      85922583,
      85688637,
      1159160869
    ],
    "wof:country": "XY",
    "wof:created": 1641341121,
    "wof:depicts": [
      1159284737,
      1159288691,
      1159289873,
      1159293593
    ],
    "wof:geomhash": "c281b9d9eefc83b5710e64b9d646067d",
    "wof:hierarchy": [
      {
        "building_id": -1,
        "campus_id": 102527513,
        "collection_id": 1159162825,
        "concourse_id": 1159162825,
        "continent_id": 102191575,
        "country_id": 85633793,
        "county_id": 102087579,
        "custom_id": 1762684853,
        "locality_id": 85922583,
        "neighbourhood_id": -1,
        "object_id": 1762684853,
        "region_id": 85688637,
        "wing_id": 1159160869
      }
    ],
    "wof:id": 1762684853,
    "wof:lastmodified": 1787988194,
    "wof:name": "postcard: Malaysian Airline System (MAS), Boeing 747",
    "wof:parent_id": 1159162825,
    "wof:placetype": "custom",
    "wof:placetype_alt": [
      "object"
    ],
    "wof:repo": "sfomuseum-data-collection",
    "wof:superseded_by": [],
    "wof:supersedes": []
  },
  "bbox": [
    -122.38647222518921,
    37.6161053594541,
    -122.38583385944366,
    37.61661101879963
  ],
  "geometry": {"type":"Polygon","coordinates":[[[-122.38647222518921,37.61631782178288],[-122.386434674263,37.61623283692423],[-122.38637566566466,37.61617759671399],[-122.38630056381224,37.6161308549656],[-122.38616108894348,37.6161053594541],[-122.38602161407469,37.6161308549656],[-122.38591432571411,37.61618609521055],[-122.38585531711577,37.61626683087935],[-122.38583385944366,37.61636881265146],[-122.38587141036987,37.61646654505181],[-122.38594114780425,37.61654303118856],[-122.38605380058287,37.61660252035167],[-122.38618254661559,37.61661101879963],[-122.3863059282303,37.61657277577607],[-122.3864185810089,37.61650903735973],[-122.3864668607712,37.61641130501523],[-122.38647222518921,37.61631782178288]]]}
}
