{
  "id": 1763240843,
  "type": "Feature",
  "properties": {
    "date:cessation_lower": "1950-01-01",
    "date:cessation_upper": "1950-12-31",
    "date:inception_lower": "1950-01-01",
    "date:inception_upper": "1950-12-31",
    "edtf:cessation": "1950~",
    "edtf:inception": "1950~",
    "geom:area": 2.475047457570636e-7,
    "geom:bbox": "-122.386472,37.616105,-122.385834,37.616611",
    "geom:latitude": 37.61635747477365,
    "geom:longitude": -122.38615540108617,
    "millsfield:airline_id": [
      1159284661
    ],
    "millsfield:category_id": 1511214223,
    "millsfield:collection_id": 1511214207,
    "millsfield:company_id": [
      1159287575
    ],
    "millsfield:images": [
      1763241475,
      1763241477
    ],
    "millsfield:images_colors_refs": {
      "crayola": [
        {
          "hex": "#9f8170"
        },
        {
          "hex": "#efcdb8"
        },
        {
          "hex": "#414a4c"
        }
      ],
      "css4": [
        {
          "hex": "#556b2f"
        },
        {
          "hex": "#2f4f4f"
        },
        {
          "hex": "#808080"
        },
        {
          "hex": "#f5deb3"
        }
      ],
      "marekm4": [
        {
          "hex": "#4a442d"
        },
        {
          "hex": "#918c73"
        },
        {
          "hex": "#3b341e"
        },
        {
          "hex": "#ddd4b7"
        },
        {
          "hex": "#dfd5b7"
        },
        {
          "hex": "#968e72"
        }
      ]
    },
    "millsfield:images_texts": [
      "430-440\n53\nLA NICA LINEAS AEREAS DE NICARAGUA, S.A.\nGENERAL OFFICES: MANAGUA, NICARAGUA\n430\nMANAGUA-BLUEFIELDS-SIUNA-—WASPAM-PUERTO CABEZAS\n430\nTue.\nFri.\nTue.\nWed.\nThu.\nMon.\nFri.\nMon.\nWed.\nFri.\nTue.\nThu.\nSat.\nSat.\nLineas Aereas de\nNicaragua, S. A. (LA NICA)\nMon.\nMon.\nWed.\nFri.\n11\n30\n12 05\n8:00\n8 00\nTue.\nThu.\nSat.\n14 40\nFri.\nSat.\nTue.\nWed.\nThu.\nTue.\nFri.\n7.00\n8 15\n7.00\n·\n8\n15\n9\n9\n9\n9 45\n10\n25\n11\n45\n7.00 Lv MANAGUA, Nic..\nAr LA LIBERTAD, Nic.\n15\nAr BLUEFIELDS, Nic..\nAr MATAGALPA, Nic.\nLv MATAGALPA, Nic.\nAr EL GALLO, Nic..\nLv EL GALLO, Nic..\nAr ALAMICAMBA, Nic.\nLv ALAMICAIMBA, Nic.\n10\nAr SIUNA, Nic..\nLv SIUNA, Nic..\nAr BONANZA, Nic.\nL BONANZA, Nic.\nAr WASPAM, Nic.\nLv WASPAM. Nic.\nAr BILWASKARMA, Nic.\nLv BILWASKARMA, Nic.\n11\n40\nAr PTO. CABEZAS, Nic..\n90°\n14 55\n13\n55\n14 40\n10\n55\n12 45\n30\n14\n40\n13\n40\n9 45\nA\n8 45\n13 10\n12 35\n10\n90°\nLv\n10\n5\n20\n05\n35\n05\n50\n11\n40\n25\n10 55\n3\n3\n3\n13\n12\n50\n12 15\n10 00\n12 10\nEquipment: 0—Douglas DC-3.\nDirect connections at Managua with Pan American World Airways System for the U.S.A.,\nand the East and West Coasts of South America via Balboa.\nTickets for all points on La Nica may be purchased from any travel agent or Pan American\nWorld Airways System office.\nSchedule subject to change without notice.",
      "420\nLAMSA\nAFFILIATED WITH UNITED AIR LINES\nLAMSA\nLINEAS AEREAS\nMEXICANAS\nGENERAL OFFICES, MEXICO, D. F. PASEO DE LA REFORMA 1-10° PISO. TELEFONOS: ERIC: 18-00-27. MEX. 36-14-56. CABLE ADDRESS (LAMSA)\nALLAN F. BONNALIE, President and General Manager\nG. H. MACOMBER, General Traffic and Sales Manager\n420\nMEXICO—TORREON MAZATLAN_CHIHUAHUA-NOGALES_CIUDAD JUAREZ\n5\n215\nMoWe Tu\nFr\nTh\nSa\n18 00\n19\n40\n19 50\n21 40\n21 55\n23 40\n21\nSu\n101\n11\nTu Th MoWe MoWe\nMoWe\nSa\nFr\nFr\nFr\n07 30\n09\n10\n09 20\n11 10\n11 25\n07 30\n09\n09\n10\n20\n10\n15\n10\n25\n11\n35\n11 55\n-\n-\n13\n10\n13\n14\n20\n12\n13\n15\n13\n15\n13\n25\n20\n07 30\n09\n09\n10\n10\n20\n10\n11 35\n11 55\n13\n13\n10\n14\n20\n15\nEFECTIVE September 1, 1949\nRead Down\nRead Up\n13 95\n06 30\n08 10\n08 20\nLv MEXICO, D.F\nAr SAN LUIS POTOSI\nLy SAN LUIS POTOSI\nAr FRESNILLO, ZAC.\nLv FRESNILLO, ZAC\n10 10\nAr TORREON, COAH\n10 30\nLv TORREON, COAH\n=\nAr DURANGO, DGO\nLv DURANGO. DGO\n-\nAr MAZATLAN, SIN..\n-\nAr PARRAL, CHIH..\n-\nLv PARRAL, CHIH.\n1215\nAr CHIHUAHUA, CHIH\nI. DUIUHALIA\nAUIL\n. (CST) Ar\nLv\nAr\nAr\nLv\nAr\nLv\n. (CST) Ar\n(M ST) Lv\n(CST) Lv\nAr\nLv\n102\n12\n202\nMoWe Tu Th MoWe MoWe\nFr\nSa\nFr\nFr\n16\n17\n00\n15\n20\n15\n10\n14\n14\n5\n12\n05\n55\n12 40\n01 05\n23\n25\n23 15\n21 25\n21 10\n-\n10\n40\n10\n30\n09\n11\n30\n11 20\n10 25\n22\nSu\n214\n3\nTu Th\nTu Th\nSa\nSa\n15 00\n13 20\n13\n10\n01\n05\n23 25\n23 15\n11\n11\n20\n05\n21\n21\n25\n10\n19 35 09 35 19 35\n10\n35\n10\n35\n08\n25\n30\n420"
    ],
    "millsfield:images_texts_ids": [
      1763241475,
      1763241477
    ],
    "millsfield:primary_image": 1763241475,
    "millsfield:subcategory_id": 1511213425,
    "mz:is_approximate": 1,
    "mz:is_current": 1,
    "sfomuseum:accession_number": "2014.084.1415",
    "sfomuseum:airline": "Lanica Airlines",
    "sfomuseum:airline_id": [
      537
    ],
    "sfomuseum:category": "Scheduling / Ticketing",
    "sfomuseum:classification_id": 158,
    "sfomuseum:collection": "Aviation Archive",
    "sfomuseum:creditline": "Gift of Thomas G. Dragges",
    "sfomuseum:date": "c. 1950",
    "sfomuseum:date_acquired": "2015-07-02",
    "sfomuseum:daterange_end": "1955-12-31",
    "sfomuseum:daterange_start": "1945-01-01",
    "sfomuseum:description": "Timetable issued by OAG (Online Airline Guide) showing schedule information for Lanica Airlines, undated (c. 1950); partial page cut from OAG with schedule information in black.",
    "sfomuseum:dimensions": "4 1/4 x 7 1/4 inches (10.8 x 18.4 cm)",
    "sfomuseum:medium": "paper, ink",
    "sfomuseum:object_id": 159030,
    "sfomuseum:placetype": "object",
    "sfomuseum:publication": ": , c. 1950.",
    "sfomuseum:subcategory": "Timetable",
    "src:geom": "sfomuseum#undetermined",
    "wof:belongsto": [
      102527513,
      1159162825,
      102191575,
      85633793,
      102087579,
      85922583,
      85688637,
      1159160869
    ],
    "wof:country": "XY",
    "wof:created": 1646901833,
    "wof:depicts": [
      1159287575,
      1159284661
    ],
    "wof:geomhash": "c281b9d9eefc83b5710e64b9d646067d",
    "wof:hierarchy": [
      {
        "building_id": -1,
        "campus_id": 102527513,
        "collection_id": 1159162825,
        "concourse_id": 1159162825,
        "continent_id": 102191575,
        "country_id": 85633793,
        "county_id": 102087579,
        "custom_id": 1763240843,
        "locality_id": 85922583,
        "neighbourhood_id": -1,
        "object_id": 1763240843,
        "region_id": 85688637,
        "wing_id": 1159160869
      }
    ],
    "wof:id": 1763240843,
    "wof:lastmodified": 1787988205,
    "wof:name": "timetable: Lanica Airlines",
    "wof:parent_id": 1159162825,
    "wof:placetype": "custom",
    "wof:placetype_alt": [
      "object"
    ],
    "wof:repo": "sfomuseum-data-collection",
    "wof:superseded_by": [],
    "wof:supersedes": []
  },
  "bbox": [
    -122.38647222518921,
    37.6161053594541,
    -122.38583385944366,
    37.61661101879963
  ],
  "geometry": {"type":"Polygon","coordinates":[[[-122.38647222518921,37.61631782178288],[-122.386434674263,37.61623283692423],[-122.38637566566466,37.61617759671399],[-122.38630056381224,37.6161308549656],[-122.38616108894348,37.6161053594541],[-122.38602161407469,37.6161308549656],[-122.38591432571411,37.61618609521055],[-122.38585531711577,37.61626683087935],[-122.38583385944366,37.61636881265146],[-122.38587141036987,37.61646654505181],[-122.38594114780425,37.61654303118856],[-122.38605380058287,37.61660252035167],[-122.38618254661559,37.61661101879963],[-122.3863059282303,37.61657277577607],[-122.3864185810089,37.61650903735973],[-122.3864668607712,37.61641130501523],[-122.38647222518921,37.61631782178288]]]}
}
