{
  "id": 1913796179,
  "type": "Feature",
  "properties": {
    "date:cessation_lower": "1933-03-21",
    "date:cessation_upper": "1933-03-21",
    "date:inception_lower": "1933-03-21",
    "date:inception_upper": "1933-03-21",
    "edtf:cessation": "1933-03-21",
    "edtf:inception": "1933-03-21",
    "geom:area": 2.475047457570636e-7,
    "geom:bbox": "-122.386472,37.616105,-122.385834,37.616611",
    "geom:latitude": 37.61635747477365,
    "geom:longitude": -122.38615540108617,
    "millsfield:airline_id": [
      1159284991,
      1159285931
    ],
    "millsfield:category_id": 1511214251,
    "millsfield:collection_id": 1511214207,
    "millsfield:company_id": [
      1159286721
    ],
    "millsfield:images": [
      1913800313,
      1913800315,
      1913800317,
      1913800319
    ],
    "millsfield:images_colors_refs": {
      "crayola": [
        {
          "hex": "#cdc5c2"
        },
        {
          "hex": "#9f8170"
        },
        {
          "hex": "#efcdb8"
        },
        {
          "hex": "#414a4c"
        }
      ],
      "css4": [
        {
          "hex": "#2f4f4f"
        },
        {
          "hex": "#f5deb3"
        },
        {
          "hex": "#c0c0c0"
        },
        {
          "hex": "#808080"
        }
      ],
      "marekm4": [
        {
          "hex": "#3a3424"
        },
        {
          "hex": "#403c2b"
        },
        {
          "hex": "#3a3627"
        },
        {
          "hex": "#dbcdad"
        },
        {
          "hex": "#dbcfaf"
        },
        {
          "hex": "#d9ccac"
        },
        {
          "hex": "#2c281c"
        },
        {
          "hex": "#968e72"
        },
        {
          "hex": "#978f72"
        },
        {
          "hex": "#d8cdae"
        }
      ]
    },
    "millsfield:images_texts": [
      "33\nJuesday Inch 21\nDearest Dels-\nI am certaial getting to br a movie\nEre for last might turnt to me \"s ya crai\nbut did it think it was very good. Am\nSin not a garbo fan.\nur came onfintu day it was\nwry hat but when is came out of the mor\nit had turned vy cold and I was afraid o\nwould water up this morning with a cold - but\nno effet at all. I really fe bitte than in\na long time. at to bit carly and ked a Tree\nday today\nso am staying home\" tonight.\nPawley bongue a radio which is now gong -\nthe shades ars drawn - and I am most\ncomfortable. Dont think Dir ter told you\nalont\ngawley\n- he is quit a character.\nNe us abont 38 - marred. 3 Children 2 boy\nand one que - picturis indicats very. good\nlooking - alo uft. he call me Bigaoy\nWhich should tee you a lot. (The radis\nis now playing Cuban musee which is virg\npopular our hers - the brat orchestras are\nPhilypnos who play\nvir, wree.) Pawl,\nusia to be President of a Cuban Quration lo\nwhich was owned by Curtis. Wright intrit.\nand lau by\nIntarcontinent - lotu sold",
      "to\nP. a. a .\nAccording to Parley the Paa.\nofficials practicace, got on their knees and\nbagged him to sta, wick fan Amercan but\nhe quet..\nquit. Of cours o hair not heard f.T.\nTrippis\nside of the along.\n(Radio- nois\nplaying Pranut Vradar) At one time Pawle\nin the Reue Estate busines in trami\nand made a fortune during the boom. He\nlike to put on a lot of side. Has\nPictures around his room of the Gues.\nof Cuba autographed - Port maste Generae\no Cuba, ete. sta.\nIn ocke wards he is\na lute\nK lout at heart he is OK and\nhas offence to do kirrything he can to\nbr of help to me. With ale due modesty\nboth Polin and Pawley sirm to liter m\nand ur are working done lozike.\nPolin is viry\nmics and us are ver\nthick- go to moves togiker, etc. Ne has\nbira running China Airway for the pant\ntheir yars\nand reagned.\nrecinct, being\nreplacd by Pawley, to go into the oil\nbusiness our here.\nI imagine that a\nhigh grade\nHebrew hao a biten chaner\nour\nhere than in My. because among\"\nthe eliner he is just anotta \"foreigner\"\nand rats wich all the seat.\n19.121,0639",
      "The Radio her is awfule, funny. there is\nno regulation and Shanghai has 52 stations\nop which are chirica.\nsomething at crry point on the dial. most\nof it sounds liki an orcheatia tüning up\nthen instrumento.\nI have matings rory day now\nwick the managing Drictor of the China\nnational Curation Co. a Mr. Tai - pronounced\n\"Die\". Ate agraks english very wile\nand\n1o very\nambitious to maker China Avation\nthe qual to any. Its talks abont new\nlines\nAll the time, howers, when there\nis nt enough money\nto go arouna for\nthe preant lines and no pomble way\nto makes the news ones torn brake Evin.\nEach Chemier official tries to get a line\nrun to his home regarden of when\nit is or what commercial advantage\nthere may or may not tr. I have wired\nN.Y. a number of times that our intest\nen China Ratonal Aration we never\npay a dividend and the one, value is\nwang our 45% for trading perposes\nin order to securi\n•Opraling rights for\nan Untirrational lie along the coact.",
      "sides\nI just look the sekeming and trading\nof then work. An net under\nO the known capacity of the Chiniss\nto sit back and do nothing untie you\ngat tied of waiting, but I think then\nvice play bale this time brcause un arr\ntreating them fail, and they want the kind\nof opriation .\nwhich Aa. a Can geir them..\nMust go to work now dearest\nDibs. All my for to you always and\nalways and always\nand fortre and\nmuch long than that-\nangue.\nBix\nse rat e is tan pum so pam vet\nrest at sabso in\n2019121.0613b"
    ],
    "millsfield:images_texts_ids": [
      1913800313,
      1913800315,
      1913800317,
      1913800319
    ],
    "millsfield:primary_image": 1913800313,
    "millsfield:subcategory_id": 1511213489,
    "mz:is_approximate": 1,
    "mz:is_current": 1,
    "sfomuseum:accession_number": "2019.121.0613 a b",
    "sfomuseum:airline": "Pan American Airways",
    "sfomuseum:airline_id": [
      685,
      1131
    ],
    "sfomuseum:category": "Employee Career History",
    "sfomuseum:classification_id": 195,
    "sfomuseum:collection": "Aviation Archive",
    "sfomuseum:creditline": "Collection of SFO Museum",
    "sfomuseum:date": "03/21/1933",
    "sfomuseum:date_acquired": "2019-11-22",
    "sfomuseum:daterange_end": "1933-03-21",
    "sfomuseum:daterange_start": "1933-03-21",
    "sfomuseum:description": "Handwritten letter from Harold M. Bixby to his wife, Debby Bixby, dated Tuesday, March 21, [1933]; includes descriptions of Bill [William] Pawley and [Max] Polin, and meetings with Mr. Tai, managing director of CNAC, and his thoughts on the value of the contract.",
    "sfomuseum:dimensions": "9 3/4 x 8 1/4 inches (24.8 x 21 cm)",
    "sfomuseum:medium": "paper, ink",
    "sfomuseum:object_id": 210888,
    "sfomuseum:placetype": "object",
    "sfomuseum:publication": ": , 03/21/1933.",
    "sfomuseum:subcategory": "Correspondence, Personal",
    "src:geom": "sfomuseum#undetermined",
    "wof:belongsto": [
      102527513,
      1159162825,
      102191575,
      85633793,
      102087579,
      85922583,
      85688637,
      1159160869
    ],
    "wof:country": "XY",
    "wof:created": 1714549008,
    "wof:depicts": [
      1159285931,
      1159286721,
      1159284991
    ],
    "wof:geomhash": "c281b9d9eefc83b5710e64b9d646067d",
    "wof:hierarchy": [
      {
        "building_id": -1,
        "campus_id": 102527513,
        "collection_id": 1159162825,
        "concourse_id": 1159162825,
        "continent_id": 102191575,
        "country_id": 85633793,
        "county_id": 102087579,
        "custom_id": 1913796179,
        "locality_id": 85922583,
        "neighbourhood_id": -1,
        "object_id": 1913796179,
        "region_id": 85688637,
        "wing_id": 1159160869
      }
    ],
    "wof:id": 1913796179,
    "wof:lastmodified": 1787988219,
    "wof:name": "correspondence: Harold M. Bixby to Debby Bixby",
    "wof:parent_id": 1159162825,
    "wof:placetype": "custom",
    "wof:placetype_alt": [
      "object"
    ],
    "wof:repo": "sfomuseum-data-collection",
    "wof:superseded_by": [],
    "wof:supersedes": []
  },
  "bbox": [
    -122.38647222518921,
    37.6161053594541,
    -122.38583385944366,
    37.61661101879963
  ],
  "geometry": {"type":"Polygon","coordinates":[[[-122.38647222518921,37.61631782178288],[-122.386434674263,37.61623283692423],[-122.38637566566466,37.61617759671399],[-122.38630056381224,37.6161308549656],[-122.38616108894348,37.6161053594541],[-122.38602161407469,37.6161308549656],[-122.38591432571411,37.61618609521055],[-122.38585531711577,37.61626683087935],[-122.38583385944366,37.61636881265146],[-122.38587141036987,37.61646654505181],[-122.38594114780425,37.61654303118856],[-122.38605380058287,37.61660252035167],[-122.38618254661559,37.61661101879963],[-122.3863059282303,37.61657277577607],[-122.3864185810089,37.61650903735973],[-122.3864668607712,37.61641130501523],[-122.38647222518921,37.61631782178288]]]}
}
