{
  "id": 1913795457,
  "type": "Feature",
  "properties": {
    "date:cessation_lower": "1938-11-05",
    "date:cessation_upper": "1938-11-05",
    "date:inception_lower": "1938-11-05",
    "date:inception_upper": "1938-11-05",
    "edtf:cessation": "1938-11-05",
    "edtf:inception": "1938-11-05",
    "geom:area": 2.475047457570636e-7,
    "geom:bbox": "-122.386472,37.616105,-122.385834,37.616611",
    "geom:latitude": 37.61635747477365,
    "geom:longitude": -122.38615540108617,
    "millsfield:airline_id": [
      1159284991
    ],
    "millsfield:category_id": 1511214251,
    "millsfield:collection_id": 1511214207,
    "millsfield:company_id": [
      1159286839
    ],
    "millsfield:images": [
      1913799135,
      1913799137,
      1913799139
    ],
    "millsfield:images_colors_refs": {
      "crayola": [
        {
          "hex": "#85754e"
        },
        {
          "hex": "#414a4c"
        },
        {
          "hex": "#eceabe"
        },
        {
          "hex": "#8a795d"
        },
        {
          "hex": "#9f8170"
        },
        {
          "hex": "#efcdb8"
        }
      ],
      "css4": [
        {
          "hex": "#f5deb3"
        },
        {
          "hex": "#696969"
        },
        {
          "hex": "#808080"
        },
        {
          "hex": "#556b2f"
        },
        {
          "hex": "#ffe4c4"
        }
      ],
      "marekm4": [
        {
          "hex": "#9e946b"
        },
        {
          "hex": "#71694f"
        },
        {
          "hex": "#e4d7b2"
        },
        {
          "hex": "#9f926f"
        },
        {
          "hex": "#9e9371"
        },
        {
          "hex": "#4f4b2d"
        },
        {
          "hex": "#e3d6b0"
        },
        {
          "hex": "#efe5c5"
        },
        {
          "hex": "#71674a"
        },
        {
          "hex": "#867a5a"
        }
      ]
    },
    "millsfield:images_texts": [
      "copy given. to\nSrim\n11/25/38\nD am enclusing copy\nfur Mi. Thangan as a salter\nPrentine. Aran I hair\ncistrped the litter you\nwrath yor and to which\nthis hitler fus.\nI cutanh am holding on\nout his ly my teth",
      "Chungking\nNow. 5, 1938\nPersonal and Confidential\nMr. H. M. Bixby\nPan American Airways\nNew York, No Y.\nDear Bix:\nYour long personal letter of Oct. 17th was received yesterday, coming up\non the plane from Hong Kong that morning• I am enclosing in this envelope another\npersonal letter which I had written to you two days ago but am writing this now\nto reply to some specific questions raised in your letter and also because I was\nglad to get your letter and I feel inspired to answer it•\nWith the experience I have had in the New York office and with what you\nmentioned I can easily imagine the general situation just now although no doubt I\ndo not do the subject full justice. I have my troubles but I will keep them and\nyou can have yours•\nIn a letter to Mr. Morgan written last night and going forward by this\nmail I outlined our present general situation particularly with respect to getting\ninto Hanoi, a point mentioned in your letter. I will only add that we are fully\nalive to the inherent risks connected with flying into Hongkong under the present\nconditions and we are doing and have been doing all possible to complete the\nnecessary arrangements to fly into Hanoi. I have personally discussed the matter\nwith DR. Kung, I.V. Soong and the Minister of Communications. I started on Aug. 24th\nthe day Woods was shot down and have been following it up closely. It would take the\nweoght of several years off of me to get into Hanoi just now. I think we will but\nI do not know when.\nReferring to your comments on CNAC being behind schedule in payments I\nam glad to say that thas condition has greatly improved since you wrote your letter.\nWe have collected for the two cyclone engines, the DCIwo center section, have\ncompleted the payments on the Commodores and have added about US$LO,000.00\nto\nCNAC's fixed deposit making a total deposit of approximately US$20.000.00. This\nhowever I am afraid is about as far as I can go, except of course, getting the money\nfor spare parts orders when they arrive in Hongkong•\nRegarding tka credits through\nthe American Export \u0026 Import Bank it would of course be very helpful but it seems\nto me the detail for such an arrangement would be tremendous and there is really no\ntelling what obstacles the Ministry would put in the way. They certainly would want\na percent for permitting the credit.\nI know of a foreign group who had the reputation\nand the capital who approached the Ministry of Communications recently with an offer\nto put twenty new three ton truck into service out of Kunming, freight there is\npiling up terribly, if the Ministry would give them free rights during the war.\nThe\nMinister demanded twenty percent of the gross revenúe as a tax for the Ministry and\nstuck to it and the deal fell through. You would think that as great as their need for\ntransportation is now\na responsible trucking company would be offered a subsidy.\nAlso I do not think the situation out here is such that any one could offer credit to\nCNAC or the Ministry. I think we shall just have to fight it out along the lines we\n22011",
      "Page 2\nwe have been for the past year. It is not much of a system but at least we know\nwe have to depend on our own efforts and we act accordingly. I do not put much\ntrust in anything else just now.\nRegarding your suggestion that it might be possible to carry silk from\nChungking\ninto Hongkong and make enough off of the exchange to profit by it, we\nconsidered several such schemes but they are not practicable. Our planes\nhave to pass a very rigid Customs inspection now both at Chungking going and coming\nand also in Hongkong by Chinese Inspectors. Also the Chinese Government has taken\nover all import and export business and you must have a permit for each shipment•\nWe would have to have a permit for each shipment, giving all details and the price\nmust be in foreign currency. Collections must be paid, in foreign currency to the\nMinistry of Finance, or Central Trust, who will remit to the shipper or vendor in\nNational Currency at the official rate. The profit on the exchenge goes to the\nMinistry of Finance.\nRegarding the Clipper continuing to fly into Hongkong I agree with you\nfully that the situation has not been changed by the occupation of South China and\nno change in policy is called for. In fact as you say as the Japanese move inland\ninto South China there will be less flying around over the ocean by Japanese planes.\nand the Clipper will come in behind the flying.\nHowever this is only a principle and\ndoes not cover all the details. The Japanese navgy no doubt will continue to have\na carrier outside and will fly planes from it.\nThat is certain but at least the\nsituation is no worse. However since you asked me I would like to offef one\nsuggestion.\nI understand PAA does not advise\nthe Japanese in anyway regarding their\nschedules and flights. I may be misinformed but anyway I think they should. I do\nnot think any sovereign right is involved nor would I be too much of a stickler\nif it was.\nI am in complete disagreement with those who maintain that since no\nwar has been these declared there is no war and the\nJapanese exxx cannot do certain\nthings which they might have the right to do if war had been declared.\nentirely by what I have seen I am convinced there is a war and the theorist can say\nwhat they choose• Also the war is absolutely vital to the Japanese and they are\ntaking it very seriously• Also in spite of many cases of individual, and collective,\nas the Germans or the English did before we got into the world war, and probably mor\nthan the French and English did after we got into it. However that\nis not important.\nIf PAA regularly advises the Japanese of their schedules and flights in my opinion\nit will be a very decided added safety factor and that is of the utmost importance.\nRegarding Allison I can easily understand how difficult it is for PAA to\nplace kim a man of his position on short notice.\nI think\nAllison appreciates\nthat but the offer which PAA did make him immediately after the war was made at a\ntime when his wife was having a baby and everything was in confusion and it not\nregister very clearly with him at that time and unfortunately it never has properly\nregistered.\nAllie has a rather single track mind as you know. An admirable taait\nin some respects but rather difficult at times in others. i have told him that\nif and when he gets back to the States he goes to see PAA he will be surprised\nat the cordial welcome he will get and pleased with the efforts that will be made\nin his behalf.\nI guess that covers all the items mentoned\nraid alarm here has sounded and no one can go on\nstreetsur\nletter.\nThe air\nI hope this building is\nbomb proof.\nand"
    ],
    "millsfield:images_texts_ids": [
      1913799135,
      1913799137,
      1913799139
    ],
    "millsfield:primary_image": 1913799135,
    "millsfield:subcategory_id": 1511213489,
    "mz:is_approximate": 1,
    "mz:is_current": 1,
    "sfomuseum:accession_number": "2019.121.1065 a c",
    "sfomuseum:airline": "Pan American Airways",
    "sfomuseum:airline_id": [
      685
    ],
    "sfomuseum:category": "Employee Career History",
    "sfomuseum:classification_id": 195,
    "sfomuseum:collection": "Aviation Archive",
    "sfomuseum:creditline": "Collection of SFO Museum",
    "sfomuseum:date": "11/05/1938",
    "sfomuseum:date_acquired": "2019-11-22",
    "sfomuseum:daterange_end": "1938-11-05",
    "sfomuseum:daterange_start": "1938-11-05",
    "sfomuseum:description": "Typewritten letter from “Bondy” [William L. Bond] to Harold M. Bixby, dated November 5, 1938 in Chungking [Chongqing], marked “Personal and Confidential”; includes handwritten personal note; status of efforts to establish route into Hanoi; CNAC finances; perspectives on the war and Pan American’s ability to fly in and out of Hong Kong; mentions S. [Stokely] W. Morgan, [Ernest] Allison, T.V. Soong, Dr. [H.H.] Kung, and the minister of communications.",
    "sfomuseum:dimensions": "11 x 8 1/2 inches (27.9 x 21.6 cm)",
    "sfomuseum:medium": "paper, ink",
    "sfomuseum:object_id": 211428,
    "sfomuseum:placetype": "object",
    "sfomuseum:publication": ": , 11/05/1938.",
    "sfomuseum:subcategory": "Correspondence, Personal",
    "src:geom": "sfomuseum#undetermined",
    "wof:belongsto": [
      102527513,
      1159162825,
      102191575,
      85633793,
      102087579,
      85922583,
      85688637,
      1159160869
    ],
    "wof:country": "XY",
    "wof:created": 1714548798,
    "wof:depicts": [
      1159286839,
      1159284991
    ],
    "wof:geomhash": "c281b9d9eefc83b5710e64b9d646067d",
    "wof:hierarchy": [
      {
        "building_id": -1,
        "campus_id": 102527513,
        "collection_id": 1159162825,
        "concourse_id": 1159162825,
        "continent_id": 102191575,
        "country_id": 85633793,
        "county_id": 102087579,
        "custom_id": 1913795457,
        "locality_id": 85922583,
        "neighbourhood_id": -1,
        "object_id": 1913795457,
        "region_id": 85688637,
        "wing_id": 1159160869
      }
    ],
    "wof:id": 1913795457,
    "wof:lastmodified": 1787988219,
    "wof:name": "correspondence: William L. Bond to Harold M. Bixby",
    "wof:parent_id": 1159162825,
    "wof:placetype": "custom",
    "wof:placetype_alt": [
      "object"
    ],
    "wof:repo": "sfomuseum-data-collection",
    "wof:superseded_by": [],
    "wof:supersedes": []
  },
  "bbox": [
    -122.38647222518921,
    37.6161053594541,
    -122.38583385944366,
    37.61661101879963
  ],
  "geometry": {"type":"Polygon","coordinates":[[[-122.38647222518921,37.61631782178288],[-122.386434674263,37.61623283692423],[-122.38637566566466,37.61617759671399],[-122.38630056381224,37.6161308549656],[-122.38616108894348,37.6161053594541],[-122.38602161407469,37.6161308549656],[-122.38591432571411,37.61618609521055],[-122.38585531711577,37.61626683087935],[-122.38583385944366,37.61636881265146],[-122.38587141036987,37.61646654505181],[-122.38594114780425,37.61654303118856],[-122.38605380058287,37.61660252035167],[-122.38618254661559,37.61661101879963],[-122.3863059282303,37.61657277577607],[-122.3864185810089,37.61650903735973],[-122.3864668607712,37.61641130501523],[-122.38647222518921,37.61631782178288]]]}
}
