{
  "id": 1511907333,
  "type": "Feature",
  "properties": {
    "date:cessation_lower": "1941-11-09",
    "date:cessation_upper": "1941-11-09",
    "date:inception_lower": "1941-11-09",
    "date:inception_upper": "1941-11-09",
    "edtf:cessation": "1941-11-09",
    "edtf:date": "1941-11-09",
    "edtf:inception": "1941-11-09",
    "geom:area": 0,
    "geom:bbox": "-122.386155,37.616357,-122.386155,37.616357",
    "geom:latitude": 37.616357,
    "geom:longitude": -122.386155,
    "iso:country": "XX",
    "millsfield:airline_id": [
      1159284991
    ],
    "millsfield:category_id": 1511214215,
    "millsfield:collection_id": 1511214207,
    "millsfield:company_id": [
      1159286839
    ],
    "millsfield:images": [
      1527829697,
      1527829699
    ],
    "millsfield:images_colors_refs": {
      "crayola": [
        {
          "hex": "#cdc5c2"
        },
        {
          "hex": "#414a4c"
        },
        {
          "hex": "#9f8170"
        },
        {
          "hex": "#9c2542"
        }
      ],
      "css4": [
        {
          "hex": "#b22222"
        },
        {
          "hex": "#c0c0c0"
        },
        {
          "hex": "#2f4f4f"
        },
        {
          "hex": "#808080"
        }
      ],
      "marekm4": [
        {
          "hex": "#c3c2b4"
        },
        {
          "hex": "#b81d1b"
        },
        {
          "hex": "#2c2e53"
        },
        {
          "hex": "#b02a25"
        },
        {
          "hex": "#998f77"
        },
        {
          "hex": "#3c3f4a"
        },
        {
          "hex": "#c4c2b4"
        }
      ]
    },
    "millsfield:images_texts": [
      "178°€\nVANUALEVU\n3200\nVANUALEVU\nambasi\nFIJI\n178°€\nVANUALEM\nFLI\nTAVEUNI\nLautoka\n18°s -\n• VITILEVU\nNSLANDS\n180°\nTAVEUNI\nLautoke\ng°'s\nVITILEVUOVU\nFIJI\n→ Suva\nISLANDS\n180°\nTAVEUNI\nLautoka'\n18°s\nKKI, Al\nGUP\nHEREO\n- 0/4140 tolerk a. Lord\nChead American Urug\nSanta Embere Currys\n9. 0 3o 489 AA\nFIRST TRANSPACIFIC AIR MALL\nSuva, Fiji to Auckland, N. Z.\nPAR\nAVION",
      "DILA\nJ 1129\nJIA\n,HAM ЯІА\nОЗЯЗА ОзЯЛОВ\nЛАМ ЯЦ\nBA:039262\nHA ATA\nOSS-ANDE\nPATA\n•d .5\nEATON PAPER CORPORATION\nU.\nЯЗА\nPAT. NO. 119449\nCO\nТАОЙ\nCOKEO.\nbYE VAGA AIV VIB\nARPA\nLAIR MAIL\nWdoe V\nMENGIS"
    ],
    "millsfield:images_texts_ids": [
      1527829697,
      1527829699
    ],
    "millsfield:primary_image": 1527829697,
    "millsfield:subcategory_id": 1511213159,
    "mz:hierarchy_label": 1,
    "mz:is_current": 1,
    "sfomuseum:accession_number": "1994.18.175",
    "sfomuseum:airline": "Pan American Airways",
    "sfomuseum:airline_id": [
      685
    ],
    "sfomuseum:category": "Philately",
    "sfomuseum:classification_id": 10,
    "sfomuseum:collection": "Aviation Archive",
    "sfomuseum:continent": "Transpacific",
    "sfomuseum:creditline": "Collection of SFO Museum",
    "sfomuseum:date": "11/9/1941",
    "sfomuseum:date_acquired": "1994-06-29",
    "sfomuseum:daterange_end": "1941-11-09",
    "sfomuseum:daterange_start": "1941-11-09",
    "sfomuseum:description": "Airmail flight cover commemorating first transpacific airmail flight from Suva, Fiji to Sydney, Australia, FAM-19; purple cachet with image of a person’s head in profile (F19L); four stamps: three green/red 2d (pence) and one gray 1/’ (shilling) (Fiji); three postmarks: November 9, 1941, Suva; backstamp: November 12, 1941, Sydney; envelope: white airmail with blue printed interior and red and blue lines around border.",
    "sfomuseum:dimensions": "3 1/2 x 6 1/2 inches (8.9 x 16.5 cm)",
    "sfomuseum:maker": "Pan American Airways, Inc.",
    "sfomuseum:media_ids": [
      1527829697,
      1527829699
    ],
    "sfomuseum:medium": "paper, ink",
    "sfomuseum:object_id": 43709,
    "sfomuseum:placetype": "object",
    "sfomuseum:primary_media_id": 1527829697,
    "sfomuseum:publication": ": , 11/9/1941.",
    "sfomuseum:subcategory": "Airmail Flight Cover",
    "src:geom": "sfomuseum#undetermined",
    "wof:belongsto": [
      1511214215,
      102527513,
      102191575,
      85633793,
      1511213159,
      85922583,
      102087579,
      1511214277,
      1511214207,
      85688637
    ],
    "wof:breaches": [],
    "wof:country": "XX",
    "wof:created": 1579906676,
    "wof:depicts": [
      1159284991,
      1159286839
    ],
    "wof:geomhash": "30c8a918561c84bb2daa2b97fc7c5353",
    "wof:hierarchy": [
      {
        "arcade_id": 1511213159,
        "building_id": 1511214277,
        "campus_id": 102527513,
        "concourse_id": 1511214215,
        "continent_id": 102191575,
        "country_id": 85633793,
        "county_id": 102087579,
        "custom_id": 1511907333,
        "locality_id": 85922583,
        "neighbourhood_id": -1,
        "object_id": 1511907333,
        "region_id": 85688637,
        "venue_id": 1511907333,
        "wing_id": 1511214207
      }
    ],
    "wof:id": 1511907333,
    "wof:lastmodified": 1787988175,
    "wof:name": "airmail flight cover: Transpacific Air Mail, Suva (Fiji) - Sydney route",
    "wof:parent_id": 1159162825,
    "wof:placetype": "custom",
    "wof:placetype_alt": [
      "object"
    ],
    "wof:repo": "sfomuseum-data-collection",
    "wof:superseded_by": [],
    "wof:supersedes": [],
    "wof:tags": []
  },
  "bbox": [
    -122.386155,
    37.616357,
    -122.386155,
    37.616357
  ],
  "geometry": {"type":"Point","coordinates":[-122.386155,37.616357]}
}
