{
  "id": 1511956617,
  "type": "Feature",
  "properties": {
    "date:cessation_lower": "1981-01-01",
    "date:cessation_upper": "1981-12-31",
    "date:inception_lower": "1981-01-01",
    "date:inception_upper": "1981-12-31",
    "edtf:cessation": "1981",
    "edtf:date": "1981",
    "edtf:inception": "1981",
    "geom:area": 0,
    "geom:bbox": "-122.386155,37.616357,-122.386155,37.616357",
    "geom:latitude": 37.616357,
    "geom:longitude": -122.386155,
    "iso:country": "XX",
    "millsfield:airline_id": [
      1159284989
    ],
    "millsfield:category_id": 1511214223,
    "millsfield:collection_id": 1511214207,
    "millsfield:company_id": [
      1159286839
    ],
    "millsfield:images": [
      1527853647
    ],
    "millsfield:images_colors_refs": {
      "crayola": [
        {
          "hex": "#a8e4a0"
        },
        {
          "hex": "#414a4c"
        },
        {
          "hex": "#757575"
        }
      ],
      "css4": [
        {
          "hex": "#a9a9a9"
        },
        {
          "hex": "#2f4f4f"
        },
        {
          "hex": "#808080"
        }
      ],
      "marekm4": [
        {
          "hex": "#6d9070"
        },
        {
          "hex": "#314432"
        },
        {
          "hex": "#a3cca8"
        }
      ]
    },
    "millsfield:images_texts": [
      "JFK\nORD\nJFK\nLHR\nFRA\nTXL\nOXB\nDEL\nDEL\nOXH\nCHR\nFRA\nBRU\nLHR\nJFK\nMIA\nATLANTIC ALL-CARGO SERVICES\nEASTBOUND\n-6\nNEW YORK, J. F. Kennedy International\nCHICAGO. O'Hare.....\n- S\nWRAn ay international\narr\ndep\nOA LONDON. Heathrow............\nI BRUSSELS..\n0 A LONDON, Heathrow.\n+I A FRANKFURT....\n+ 1A BERLIN, Togel ..\n+4\nDUBAI.\nDELHI\nWESTBOUND\n+54\n+4\nDELHI\nDUBAI\n+A BERLIN, Tegel\n0A LONDON, Heathrow.\n+1 A FRANKFURT..\n+I A BRUSSELS\n0 A LONDON, Heathrow.\ndep\ndep\ndep\ndep\narr\ndep\nNEW YORK, J. F. Kennedy International\n{:\nMIAMI\nTh F.\n04 30\n20450\nMo\n50\nWe\nSa\nTh Fr\n04 30\n08 00\n0700\n9730\n19A40\n22400\nNOAOS\n18443\n04440\n11 50\nPIS.\nMo\nTh\n22000\n20450\n04140\n04140\n09 30\n10 50\n88\n14 50\nA-From 29 Mar 1 hour later.\n74F\n20\n00\nsu\n12A30\n14i05\n1220\n19'30\nEFFECTIVE 01 JANUARY, 1981\n10 Jan\n20 00\niї 30\n09A00\nöi 35\n02 35\nSASu\n00 30\nJFK\nLAX\nHNL\nNAN\nSYD\nAKL\nSYD\nJFK\nMIA\nGUA\nMAR\nCCS\nPOS\nVCP\nEZE\nVCP\nPOS\nCCS\nMAR\nGUA\nMIA\nJFK\nPACIFIC ALL-CARGO SERVICES\nWESTBOUND\nEASTBOUND\nHours\n+\nES:\n.......\n16 00\n- 10\n052s\n100\n+12\n...\ndep NEW YORK, J. F. Kennedy International\n' LOS ANGELES\ndep)\nsep} HONOLULU ...\nINTERNATIONAL DATE LINE\nSp} NADI (PUD)\ndep\n14 35\n07 00\n14430\ndep\n+ HIA\nSYDNEY\nIBAIS\n23400\ndep.\narr\n+ 13A\nAUCKLAND\narr\ndep\narr\n25400\n+HAI\nA-From O1 Mar 1 hour earlier. X-Operational landing.\nLATIN AMERICA ALL-CARGO SERVICES\nSOUTHBOUND\nWe\nWe\nFr\nHours\nSa\n·33\n-5\nNEW YORK, J. F. Kennedy International ....\n04 15\n04 15\nMIAMI\n0785\n2200\n23 35\nGUATEMALA CITY.........\nMARACAIBO\nCARACAS\narr\n=3\n12 50\n12'20\n09 45\n11 so\nPORT OF SPAIN (TRINIDAD-TOBAGO)\narr\n20\nSAO PAULO, Viracopos\nNORTHBOUND\ndes\narr\n20\n23 45\n10'20\nw.\n293\nTu\n223\nEr\nSISA\n23\nSAO PAULO. Viescenne..]\narr\ndep\n23 00\n-4\nPORT OF SPAIN (TRINIDAD-TOBAGO)\nCARACAS\n02 55\n45\n-6\n-5\n-5\nMARACAIBO\nGUATEMALA CITY.\nMIAMI\nNEW YORK, J. F. Kennedy Internationa\n02 30\nos co\n05 35\n...\nMo\n50\n00 °20\nMo\n12 Jan\n20.00\n22 ss\n223\n23 45\noi 25\n.......\n1900\n21'20\n1710\n21"
    ],
    "millsfield:images_texts_ids": [
      1527853647
    ],
    "millsfield:primary_image": 1527853647,
    "millsfield:subcategory_id": 1511213425,
    "mz:hierarchy_label": 1,
    "mz:is_current": 1,
    "sfomuseum:accession_number": "2005.127.002.002",
    "sfomuseum:airline": "Pan American World Airways",
    "sfomuseum:airline_id": [
      684
    ],
    "sfomuseum:category": "Scheduling / Ticketing",
    "sfomuseum:classification_id": 158,
    "sfomuseum:collection": "Aviation Archive",
    "sfomuseum:creditline": "Gift of the William Hough Collection",
    "sfomuseum:date": "1981",
    "sfomuseum:date_acquired": "2006-12-14",
    "sfomuseum:daterange_end": "1981-12-31",
    "sfomuseum:daterange_start": "1981-01-01",
    "sfomuseum:description": "Cargo schedule for Pan American World Airways; effective January 1, 1981; single-sided on green paper; with information on services in the Atlantic, Latin America and Pacific; part of 11 issues dated 1980-1981.",
    "sfomuseum:dimensions": "14 x 8 1/2 inches (35.6 x 21.6 cm)",
    "sfomuseum:media_ids": [
      1527853647
    ],
    "sfomuseum:medium": "paper, ink",
    "sfomuseum:object_id": 151525,
    "sfomuseum:placetype": "object",
    "sfomuseum:primary_media_id": 1527853647,
    "sfomuseum:publication": ": , 1981.",
    "sfomuseum:subcategory": "Timetable",
    "src:geom": "sfomuseum#undetermined",
    "wof:belongsto": [
      1511214223,
      102527513,
      102191575,
      85633793,
      1511213425,
      85922583,
      102087579,
      1511214277,
      1511214207,
      85688637
    ],
    "wof:breaches": [],
    "wof:country": "XX",
    "wof:created": 1579906659,
    "wof:depicts": [
      1159284991,
      1159286839,
      1159284989
    ],
    "wof:geomhash": "30c8a918561c84bb2daa2b97fc7c5353",
    "wof:hierarchy": [
      {
        "arcade_id": 1511213425,
        "building_id": 1511214277,
        "campus_id": 102527513,
        "concourse_id": 1511214223,
        "continent_id": 102191575,
        "country_id": 85633793,
        "county_id": 102087579,
        "custom_id": 1511956617,
        "locality_id": 85922583,
        "neighbourhood_id": -1,
        "object_id": 1511956617,
        "region_id": 85688637,
        "venue_id": 1511956617,
        "wing_id": 1511214207
      }
    ],
    "wof:id": 1511956617,
    "wof:lastmodified": 1787988190,
    "wof:name": "timetable: Pan American World Airways, cargo schedule",
    "wof:parent_id": 1159162825,
    "wof:placetype": "custom",
    "wof:placetype_alt": [
      "object"
    ],
    "wof:repo": "sfomuseum-data-collection",
    "wof:superseded_by": [],
    "wof:supersedes": [],
    "wof:tags": []
  },
  "bbox": [
    -122.386155,
    37.616357,
    -122.386155,
    37.616357
  ],
  "geometry": {"type":"Point","coordinates":[-122.386155,37.616357]}
}
