{
  "id": 1511909645,
  "type": "Feature",
  "properties": {
    "date:cessation_lower": "1979-01-01",
    "date:cessation_upper": "1979-12-31",
    "date:inception_lower": "1979-01-01",
    "date:inception_upper": "1979-12-31",
    "edtf:cessation": "1979",
    "edtf:date": "1979",
    "edtf:inception": "1979",
    "geom:area": 0,
    "geom:bbox": "-122.386155,37.616357,-122.386155,37.616357",
    "geom:latitude": 37.616357,
    "geom:longitude": -122.386155,
    "iso:country": "US",
    "millsfield:airline_id": [
      1159285413
    ],
    "millsfield:category_id": 1511214223,
    "millsfield:collection_id": 1511214207,
    "millsfield:company_id": [
      1159288779
    ],
    "millsfield:images": [
      1527838691
    ],
    "millsfield:images_colors_refs": {
      "crayola": [
        {
          "hex": "#ee204d"
        },
        {
          "hex": "#714b23"
        },
        {
          "hex": "#324ab2"
        },
        {
          "hex": "#efdecd"
        }
      ],
      "css4": [
        {
          "hex": "#dcdcdc"
        },
        {
          "hex": "#556b2f"
        },
        {
          "hex": "#4169e1"
        },
        {
          "hex": "#dc143c"
        }
      ],
      "marekm4": [
        {
          "hex": "#e6e1d5"
        },
        {
          "hex": "#d01425"
        },
        {
          "hex": "#412e0a"
        },
        {
          "hex": "#1b49c3"
        }
      ]
    },
    "millsfield:images_texts": [
      "JUNITED\nBAKERSFIELD\nOur Friendly Times EFFECTIVE SEPTEMBER 5, 1979\nLeave\nArrive\nFlight Service Via\nTo Akron, Ohio/\nCanton, Ohio. (EDT)\n6:35a\n5:10p\n827 / 100 ≤ 7 X • Lax\n848\n10:40p\n10:48a\n/Chi\n894 / 118 § 7 =® Lax\n370\n/Chi\nAbove Eff. Oct. 1\n11:00p\n10:48a\n894 / 118 § 7=* Lax\n370\n/Chi\nAbove Disc. Oct. 1\nFrom Akron, Ohio/\n535-5792\nCanton, Ohio. (EDT)\n453-8201\n7:07a\n1:22p\n431 / 101 § 7X* Chi\n854\n/Lax\nTo Allentown /Bethlehem /\nEaston, Penn. (EDT)\n6:35a\n5:10p\n827 / 100\n10:40p\n316\n9:18a\n894 / 118\n§ 7 X*Lax\n748\n/Chi\nAbove Eff. Oct. 1\n11:00p\n9:18a\n894 / 118\n§ 7 X*Lax\n748\n/Chi\nAbove Disc. Oct. 1\nFrom Allentown /Bethlehem /\nEaston, Penn. (EDT)\n8:05a\n215-821-7870\n1:22p\n485 / 103\n§ 7 X• Chi\n854\n/Lax\n2:50p\n10:14p\n951 / 77\n894\nCle\n/Lax\n2:50p\nAbove Eff. Oct. 1\n10:34p\n951 / 77\n7X\nCle\n894\n/Lax\nAbove Disc. Oct. 1\nTo Baltimore, Md. (EDT)\n6:35a\n5:14p\n827 / 100\n§ 7 X• Lax\n10:40p\n9:30a\n394\n/Chi\n894 / 118\n§ 7×* Lax\n170\nAbove Eff. Oct. 1\n\u0026/Chi\n11:00p\n9:30a\n894 / 118 § 7 X*La\n170\nc/Ch\nAbove Disc. Oct. 1\nFrom Baltimore, Md. (EDT)\n9:50a\n4:50p\n1:22p\n766-7600\n63/854 7X\nLax\n10:14p\n429 / 115 § 2 X•Chi\n894\nAbove Eff. Oct. 1\n/Lax\n4:50p\n10:34p\n429 / 115 § 7 X•Chi\n894\n/Lax\nAbove Disc. Oct. 1\nTo Birmingham, Ala. (CDT)\n6:35a\n2:40p\n1:45p\n9:15p\n827 / 344\n854/896 7X Lax\nFrom Birmingham, Ala. (CDT) 326-4123\n9:00a\n1:22p\n887 / 854 7X Lax\nTo Boston, Mass. (EDT)\n6:35a\n5:28p\n827/100 § 7 x•Lax\n10:40p\n9:50a\n404\n/Chi\n894 / 118 § 7 X* Lax\n156\n11:00p\nAbove Eff. Oct. 1\n/Chi\n9:50a\n156\nAbove Disc. Oct. 1\nThe friendly skies\nLeave\nArrive\nFlight\nService Via\nFrom Boston, Mass. (EDT)\n482-7900\n7:45a\n1:22p\n375 / 103\n§ 2X Chi\n4:10p\n10:14p\n854\n/Lax\n419 / 115\n§ YX• Chi\n894\n/Lax\n4:10p\nAbove Eff. Oct. 1\n10:34p\n419 / 115 § 7X• Chi\n894\n/Lax\nAbove Disc. Oct. 1\nTo Buffalo, /\nNiagara Falls N.Y. (EDT)\n6:35a\n4:34p\n827 / 100 § 7 X• Lax\n10:40p\n9:09a\n276\n/Chi\n894 / 118\n§ 7=e Lax\n330\n11:00p\nAbove Eff. Oct. 1\n/Chi\n9:09a\n894 / 118\n330\nAbove Disc. Oct. 1\nFrom Buffalo, /\n/Chi\n856-2900\nNiagara Falls N.Y. (EDT)\n7:00a\n1:22p\n551/101 $ 7×* Chi\n5:12p\n10:14p\n854\n/Lax\n635 / 115 ≤ 7 x•Ch\n894\n/Lax\nAbove Eff. Oct. 1\n5:12p\n10:34p\n635/115 ≤ 7X• Ch\n894\n/Lax\nAbove Disc. Oct. 1\nTo Cedar Rapids/\nlowa City, la. (CDT)\n6:35a\n2:54p\n827 /912\n7X\nLax\nFrom Cedar Rapids/\n364-2481\nlowa City, la. (CDT)\n7:35a\n1:22p\n1-800-323-8711\n647 / 297\nDen\n854\n/Lax\nFrom Charleston, W.V. (EDT)\n343-8981\n1:55p\n10:14p\n392 / 77\n894\n7X\nCle\n1:55p\nAbove Eff. Oct. 1\n/Lax\n10:34p\n392 / 77\n*× Cle\n894\nAbove Disc. Oct. 1\n/Lax\nTo Charlotte, N.C. (EDT)\n6:35a\n4:51p\n827 / 610\n1:45p 11:42p\n854 / 896\nFrom Charlotte, N.C. (EDT)\n376-8515\n8:25a\n1:22p\n887 / 854\n: Lax\n6:00p 10:14p\n815 / 894\n→ La\nAbove Eff. Oct. 1\n6:00p 10:34p\n815 / 894 7X Lax\nAbove Disc. Oct. 1\nTo Chicago, III. (CDT)\n6:35a\n1:45p\n1:30p (0)\n827 / 100 § 7 x•Lax\n10:05p (0)\n854/110 x-Lax\n10:40p\n6:05a (0)\n894 / 118 § 7=® Lax\n11:00p\nAbove Eff. Oct. 1\n6:05a (0) 894 / 118 § 7=® Lax\nAbove Disc. Oct. 1\nFrom Chicago, III. (CDT)\n569-3000\n10:10a (0)\n1:22D\n103/854 x•Lax\n6:50p (0) 10:14p\n115 / 894 § 7 X • Lax\nAbove Eff. Oct. 1\n6:50p (0) 10:34p\n115 / 894 § 7 X • Lax\nAbove Disc. Oct. 1\nThe friendly skies\nU UNITED AIRLInES\nUNITED AIRLInES"
    ],
    "millsfield:images_texts_ids": [
      1527838691
    ],
    "millsfield:primary_image": 1527838691,
    "millsfield:subcategory_id": 1511213425,
    "mz:hierarchy_label": 1,
    "mz:is_current": 1,
    "sfomuseum:accession_number": "1999.047.420",
    "sfomuseum:airline": "United Airlines",
    "sfomuseum:airline_id": [
      883
    ],
    "sfomuseum:category": "Scheduling / Ticketing",
    "sfomuseum:classification_id": 158,
    "sfomuseum:collection": "Aviation Archive",
    "sfomuseum:continent": "North America",
    "sfomuseum:country": "United States",
    "sfomuseum:creditline": "Gift of United Airlines Archives",
    "sfomuseum:date": "1979",
    "sfomuseum:date_acquired": "2000-05-11",
    "sfomuseum:daterange_end": "1979-12-31",
    "sfomuseum:daterange_start": "1979-01-01",
    "sfomuseum:description": "City timetable issued by United Airlines for service to and from Bakersfield, effective September 5, 1979; bi-fold format.",
    "sfomuseum:dimensions": "9 x 4 inches (22.9 x 10.2 cm)",
    "sfomuseum:media_ids": [
      1527838691
    ],
    "sfomuseum:medium": "paper, ink",
    "sfomuseum:object_id": 49767,
    "sfomuseum:placetype": "object",
    "sfomuseum:primary_media_id": 1527838691,
    "sfomuseum:publication": ": , 1979.",
    "sfomuseum:subcategory": "Timetable",
    "src:geom": "sfomuseum#undetermined",
    "wof:belongsto": [
      1511214223,
      102527513,
      102191575,
      85633793,
      1511213425,
      85922583,
      102087579,
      1511214277,
      1511214207,
      85688637,
      136253057
    ],
    "wof:breaches": [],
    "wof:country": "US",
    "wof:created": 1579906676,
    "wof:depicts": [
      1159288779,
      1159285413
    ],
    "wof:geomhash": "30c8a918561c84bb2daa2b97fc7c5353",
    "wof:hierarchy": [
      {
        "arcade_id": 1511213425,
        "building_id": 1511214277,
        "campus_id": 102527513,
        "concourse_id": 1511214223,
        "continent_id": 102191575,
        "country_id": 85633793,
        "county_id": 102087579,
        "custom_id": 1511909645,
        "locality_id": 85922583,
        "neighbourhood_id": -1,
        "object_id": 1511909645,
        "region_id": 85688637,
        "venue_id": 1511909645,
        "wing_id": 1511214207
      },
      {
        "continent_id": 102191575,
        "country_id": 85633793,
        "custom_id": 1511909645,
        "empire_id": 136253057,
        "object_id": 1511909645,
        "venue_id": 1511909645
      }
    ],
    "wof:id": 1511909645,
    "wof:lastmodified": 1787988176,
    "wof:name": "timetable: United Airlines, Bakersfield",
    "wof:parent_id": 1159162825,
    "wof:placetype": "custom",
    "wof:placetype_alt": [
      "object"
    ],
    "wof:repo": "sfomuseum-data-collection",
    "wof:superseded_by": [],
    "wof:supersedes": [],
    "wof:tags": []
  },
  "bbox": [
    -122.386155,
    37.616357,
    -122.386155,
    37.616357
  ],
  "geometry": {"type":"Point","coordinates":[-122.386155,37.616357]}
}
