{
  "id": 1762693105,
  "type": "Feature",
  "properties": {
    "date:cessation_lower": "1935-01-01",
    "date:cessation_upper": "1935-12-31",
    "date:inception_lower": "1935-01-01",
    "date:inception_upper": "1935-12-31",
    "edtf:cessation": "1935",
    "edtf:inception": "1935",
    "geom:area": 2.475047457570636e-7,
    "geom:bbox": "-122.386472,37.616105,-122.385834,37.616611",
    "geom:latitude": 37.61635747477365,
    "geom:longitude": -122.38615540108617,
    "millsfield:airline_id": [
      1159283849
    ],
    "millsfield:category_id": 1511214223,
    "millsfield:collection_id": 1511214207,
    "millsfield:company_id": [
      1360700619
    ],
    "millsfield:images": [
      1762698437,
      1762698439,
      1762698441
    ],
    "millsfield:images_colors_refs": {
      "crayola": [
        {
          "hex": "#4a646c"
        },
        {
          "hex": "#dbd7d2"
        },
        {
          "hex": "#1a4876"
        },
        {
          "hex": "#9c2542"
        },
        {
          "hex": "#757575"
        }
      ],
      "css4": [
        {
          "hex": "#b22222"
        },
        {
          "hex": "#d3d3d3"
        },
        {
          "hex": "#708090"
        },
        {
          "hex": "#191970"
        },
        {
          "hex": "#696969"
        }
      ],
      "marekm4": [
        {
          "hex": "#131652"
        },
        {
          "hex": "#dcd5c2"
        },
        {
          "hex": "#12164b"
        },
        {
          "hex": "#696e8b"
        },
        {
          "hex": "#191f5c"
        },
        {
          "hex": "#d6d2c9"
        },
        {
          "hex": "#dad5cb"
        },
        {
          "hex": "#b8190c"
        },
        {
          "hex": "#596588"
        }
      ]
    },
    "millsfield:images_texts": [
      "American\nAirlines\nINC.\nTHIS MONTH\n*\nAmerican Airlines announces ..\nV 6 All-Douglas Round Trips daily be-\ntween Chicago-New York: Fastest\ntime 4 hours, 20 minutes eastbound.\n2 non-stop trips Detroit-New York:\n2 hours, 40 minutes eastbound.\nV 8 Round Trips daily between New\nYork-Boston:\n5 non-stop,\nfastest\ntime 87 minutes northbound.\nV 5 Round Trips daily Chicago-St. Louis:\nFastest time 89 minutes northbound.\nSEE SCHEDULES,\nPAGES 5-6-1\nSYSTEM TIME TABLE JULY 10, 1935",
      "American\nAirlines\nINC.",
      "AMERICAN\nLOS ANCE\nCAN ATC\nTULSA\nАНОМА\nPASO\nFORT WORT\n*\nAMERICAN\n*\n* AIRLINES INC.\nAmerican Airlines\nOthar Air Liner\nTO MEXICO CIT\nCHICAGO to:\n54 01\n9H0-\n27 05\nR.T.\n0009808\nEXAMPLES\nOF FARES\nFor Complete Fares Call Your Transportation Agent or Nearest American Airlines Office\nDALLAS and FT.\nWORTH\nChicago\nLOS ANGELES to:\nWashington DETROIT\n20 C0\nt. Wort\n31.20\n62.46\n4X UR\nWashington,\n#889*88828\n98884988288\nhe Company und er any condinot be accepted for transportation over the\nicae nener artin rentant carge\ncHIcPried Tree.\n-e. Cilaron over two years of age whil be oh inged fulf paent or guardian,\nCOMFORT FACILITIES Comtort 1\nfaellitieg are evallehle on ell Americen Airlino\nCOMPLAINTS\nbe addressed to the (\nr suggestions for the betterment of the service, s wes\nINSURANCE-Trip ins\nance is avallable at most airports.\nPASS CE ORNS TEAT ON BY\nTDNROMDTTUA TN MYA TNIMEN CM MAG\nAIRLINES\nAMERICAN\nAIRLINES\nMONTREAL\nNEW YORK\nВИШОРЕНІЙ\nSTLOUIS\nCINCINNA\n.OVISVILL\nTNHINGTON\nAYTOCA\nNEW YORK to:\nO.W\n$ 13 90\n38.84\n62.86\nSan Franciseo..i 160.00\nBoston.\nCincinnat\nNew Yorl.\n12.95\n220883\nPoco\nSOUTHERN TRANSCONTINENTAL\nLOS ANGELES-TEXAS-WASHINGTON\nLOS ANGELES - TEXAS\n- CINCINNATI\nPHILADELPHIA-NEW YORK-BOSTON\nCLEVELAND - NEW YORK - BOSTON\nEASTBOUND\nWESTBOUND\nCAS BOUND\nWESTBOUND\nhere vowa\nTABLE 1\nlead Up\nhead up\nThe\nNo. 4\nNo. 3\nMls.\nNo Extra Charge\nSoutherner\nTABLE 2\nNo. 2\non Sleeper Planes\nCleveland\nDaiy\nMIs.\nNo Extra Charge\nDaily\nDaiy\nDaily\nnn seener Panes\n4.30pm\ny nam\n... Lv San Francisco(UAL) (P.T.) Ar\n7.15pm\n10.52am\n4.30pm\n7.00am\n.... Lv San Francisco(UAL) (P.T.) Ar\n7.15pm\n106 am\n• Lv San Diego... (WAE)\n52Sm\n9 snam\n3.00pm\nV 140am\n.... Lv San Drego... (WAE)\n9.55аm\n7.00pm\n10 00am\nOv los anæeles.\n3.53pm\n7.36am\n7.00pm\n10.00am\n0 Lv Los Angeles.\n3.53pm\n(Gencale\n.33pm\n1.12pm\n200 Ar Phoeni 1\n.(M.T.) Lv\n8 5.58am\n• 1.22pm\n• 1.22pm\n2.27pm\n2.17pm\n10.45pm\nE Afan\n4%6 AT UCSOL\n1.30pm\n19 50m\n4.49 an\nAa dals\n369 Lv Phoenix..\n. (M.T.) Lv\n2.27pm\n11.42pm\n9.150m\n47h v ueson\n1.30pm.\n12.37 am\n577 Lv Douglas\n4.54am\nT v o\n2.13pm\n476 Lv Tueson\n.usam\n3.57pm\n779 Ar El Paso.\n2.20am\n577 Lv Douglas.\n2.15am\nzUArR Paso\nLv 9\n11.31am\n3.58am\n2.20am\nS 5.2 am\n11.31am\n4.12pm\n700 Hi Paso\nAr 9 :11.06am\n1071 Lv Big Spring...... (C.T.) Lv\n2.08am\n4.12pm\n779 Lv El Paso.\ntttfam\nx 6.14am\n1180 Lv Abilene\n1071 Lv Big Spring...\n12.59am\n11.50pm\n$ 7.24am\n$ 8.12pm\n1290 aNorth\n\"A 10am\n1190T T Ahilene\n11.50pm\n7.54am\n8.40pm\n1249 Ar Dallas..\nLv\n8.45am\n8.17am\n10.35pm\n10.05pm\n$ 8.12pm\n1320 Ar Ft. Worth.\n10 Z5m\n8.10am\nX4OM\n1599 AT Wauas\nLv\n8.17am\n10.05pm\n.33am\n8.55pm\n1320 Lv Ft. Worth\n804am\n9.57pm\n9.20pm 1349 Lv Dallas...\n8.10am\n1320 Lv Ft. Worth.\n9.57pm\n11.39pm\n1655 Lv Little Rock\n1244 am\n1784 v Memonis\n8.33am\n1240 Tv Dallas\n44 0n\n27pm\n1655 Ar Little Rock\n2.18am 1991 Ar Nashville.\n1655 L.v Little Rock\n2.33am\n39om\nooll u Nachmlle\n11.03am\n39am\n1784 Ar Memphis.\n6.47pm\n3.51 am\n2155 Ar Louisville.\n....*\nsejonoa\n9.34pm\n6.47pm\n• 5.09pm\n4.43pm\n3.25pm\n13an\n3.56am\n2155 Lv Louisville.\n3.20pm\nna9T Ar nashville.\nLv\n1991 Lv Nashville.\n1 40an\nsejonoa\n6.5/pr\n•5. 09 pm\n5 44am\n09 (r Cineinnati\n5.56am\n.(E.T.)\n3.31pm\n2246 Lv Cincinnati...\n710nm\n2493 Ar Washington... (E.T.) Lv\n6.11 pm\n7.49am\n2460 Ar Cleveland.\n2.26pn\n1.25pm\n9402 u achinaton ssl\n6.20pm\n1.48pm\n8.00am\n6.59 pm\n13-1258m\n2624 Ar Philadelphia\n12.49pm\n10.33am\n2848 Ar New York\n2696 Ar New York\n1205pm\n(Newark) (TWA) (w)\n9.21 pm\n12.59pm\nYork\n2865 Ar Now Yoank)\n7.30pm\n8.30 am\n9.27pm\n3.27 pm\nAr Boston..\nOksar\n1.27pm\nAr Boston!\n5.00pm\nConnections at FT. WORTH to and from SOUTH TEXAS\nCnnT WTH to and trom SOUTH TEXAS\nBAL BNF\nDaily\nBAL\nBAL BNF\nBALT\nBNF\nBAL\nBNF\nDoiy nei\n8.10\n8.00\nTe ht Wonth\n7.05 9.30\n8 10 8 00\nTo ht Worth\nAr Houston\n5.30 7.90\n10.00\n9.40\nAr Houston.\n(C.T.)\n7.05 9.30\n...... 11.05\nAr Corpus Christi.\n11 05\nAr Cornus Christi\nAr Reomneville\nL.v\n8.10\n9.00\nTvt orth\nAr\n......12.00\nAr Brownsville\n5 35 9.30\n8.10 9.00\n5.35 9.30\nAr Waro\n9.45 10.35\n8.50\n9.45\nAr Warna\nAn Anotin\n415 OnO\n9.45 10 35\nAr AlSAn.\n4.15 8.00\n10.30 11.25\nAr San Antonio.\n3.25 7.10\n10.30 11.25\nAe con Antonia\n3.25\n7.10\n61100\nAr ornne chricti\n59 20\n6 10\n12.15\nAr Krownsville.\n1 55 5 10\n12.15\nAr krownsvile\n1.55\nNATC\n-St. Wores\nNATE\ncorrino on lho Contherner and fiahts\n2ends\nClevel anc.\nStewardese service on nighrg 1 and 2 Nash vill-Los Angeles and on lights\nBN, Brami Airvays.\n2425\nLESSES\nlote real sonora\nbetween Washington and\nMARPAENAR MADUC\n-United Air Lines between Cleveland and New York.\n+-Dally except Sunday and holldays.\n4-No local passengers or express carried between New\nDally except Sunday.\na nn to dleherde nassenger\n1-Stops to nick up or discharge Dussengers holding\nwTWA connection made at Colt\ns-Stops to pick up passengers for Dallas and beyond.\nStops to dischagee passengers from Dallas and\n*-Washington.\nAandland\nPage 5\nCALL YOUR TRANSPORTATION AGENT FOR FARES"
    ],
    "millsfield:images_texts_ids": [
      1762698437,
      1762698439,
      1762698441
    ],
    "millsfield:primary_image": 1762698439,
    "millsfield:subcategory_id": 1511213425,
    "mz:is_current": 1,
    "sfomuseum:accession_number": "2014.082.001",
    "sfomuseum:airline": "American Airlines",
    "sfomuseum:airline_id": [
      169
    ],
    "sfomuseum:category": "Scheduling / Ticketing",
    "sfomuseum:classification_id": 158,
    "sfomuseum:collection": "Aviation Archive",
    "sfomuseum:creditline": "Gift of Thomas G. Dragges",
    "sfomuseum:date": "1935",
    "sfomuseum:date_acquired": "2015-01-06",
    "sfomuseum:daterange_end": "1935-12-31",
    "sfomuseum:daterange_start": "1935-01-01",
    "sfomuseum:description": "Timetable issued by American Airlines, effective July 10, 1935; fold-out format; blue, red and white cover with planform outline of aircraft.",
    "sfomuseum:dimensions": "9 x 4 inches (22.9 x 10.2 cm)",
    "sfomuseum:medium": "paper, ink",
    "sfomuseum:object_id": 156385,
    "sfomuseum:placetype": "object",
    "sfomuseum:publication": ": , 1935.",
    "sfomuseum:subcategory": "Timetable",
    "src:geom": "sfomuseum#undetermined",
    "wof:belongsto": [
      102527513,
      1159162825,
      102191575,
      85633793,
      102087579,
      85922583,
      85688637,
      1159160869
    ],
    "wof:country": "XY",
    "wof:created": 1641343873,
    "wof:depicts": [
      1159283849,
      1360700619
    ],
    "wof:geomhash": "c281b9d9eefc83b5710e64b9d646067d",
    "wof:hierarchy": [
      {
        "building_id": -1,
        "campus_id": 102527513,
        "collection_id": 1159162825,
        "concourse_id": 1159162825,
        "continent_id": 102191575,
        "country_id": 85633793,
        "county_id": 102087579,
        "custom_id": 1762693105,
        "locality_id": 85922583,
        "neighbourhood_id": -1,
        "object_id": 1762693105,
        "region_id": 85688637,
        "wing_id": 1159160869
      }
    ],
    "wof:id": 1762693105,
    "wof:lastmodified": 1787988198,
    "wof:name": "timetable: American Airlines",
    "wof:parent_id": 1159162825,
    "wof:placetype": "custom",
    "wof:placetype_alt": [
      "object"
    ],
    "wof:repo": "sfomuseum-data-collection",
    "wof:superseded_by": [],
    "wof:supersedes": []
  },
  "bbox": [
    -122.38647222518921,
    37.6161053594541,
    -122.38583385944366,
    37.61661101879963
  ],
  "geometry": {"type":"Polygon","coordinates":[[[-122.38647222518921,37.61631782178288],[-122.386434674263,37.61623283692423],[-122.38637566566466,37.61617759671399],[-122.38630056381224,37.6161308549656],[-122.38616108894348,37.6161053594541],[-122.38602161407469,37.6161308549656],[-122.38591432571411,37.61618609521055],[-122.38585531711577,37.61626683087935],[-122.38583385944366,37.61636881265146],[-122.38587141036987,37.61646654505181],[-122.38594114780425,37.61654303118856],[-122.38605380058287,37.61660252035167],[-122.38618254661559,37.61661101879963],[-122.3863059282303,37.61657277577607],[-122.3864185810089,37.61650903735973],[-122.3864668607712,37.61641130501523],[-122.38647222518921,37.61631782178288]]]}
}
