{
  "id": 1913795761,
  "type": "Feature",
  "properties": {
    "date:cessation_lower": "1933-10-09",
    "date:cessation_upper": "1933-10-09",
    "date:inception_lower": "1933-10-09",
    "date:inception_upper": "1933-10-09",
    "edtf:cessation": "1933-10-09",
    "edtf:inception": "1933-10-09",
    "geom:area": 2.475047457570636e-7,
    "geom:bbox": "-122.386472,37.616105,-122.385834,37.616611",
    "geom:latitude": 37.61635747477365,
    "geom:longitude": -122.38615540108617,
    "millsfield:airline_id": [
      1159284991,
      1159285931
    ],
    "millsfield:category_id": 1511214251,
    "millsfield:collection_id": 1511214207,
    "millsfield:company_id": [
      1159286721
    ],
    "millsfield:images": [
      1913801137,
      1913801141,
      1913801143,
      1913801145,
      1913801147,
      1913801149
    ],
    "millsfield:images_colors_refs": {
      "crayola": [
        {
          "hex": "#efcdb8"
        },
        {
          "hex": "#414a4c"
        },
        {
          "hex": "#eceabe"
        }
      ],
      "css4": [
        {
          "hex": "#2f4f4f"
        },
        {
          "hex": "#f5deb3"
        }
      ],
      "marekm4": [
        {
          "hex": "#3d4a55"
        },
        {
          "hex": "#e4d9b6"
        },
        {
          "hex": "#3b4752"
        },
        {
          "hex": "#3c4853"
        },
        {
          "hex": "#e6dbba"
        },
        {
          "hex": "#e6dab7"
        },
        {
          "hex": "#e6dbb8"
        },
        {
          "hex": "#485358"
        },
        {
          "hex": "#3c4751"
        },
        {
          "hex": "#e6dbb9"
        },
        {
          "hex": "#394853"
        },
        {
          "hex": "#e5d9b6"
        }
      ]
    },
    "millsfield:images_texts": [
      "Dearest Dels\nDid n't write yatuda, as 9 had\nvery lones day\nand wont wit\nmuck tonight for the same reacon\nalso brcans o hair a bad\nCold - notking strond lent darned\ndisagreeable.\npatre dan, - or rattu\nSaturday the ministr of Conmunicatin\ndemanded\nnew and ratie, defuent\nconcessions. He regridiatra kirm\nagreement which his authougid reprenat.\naturs had made and intrted a lot\nof new demands after they had agreed\nthat the deal would go through on\na certain basis and I had cleario\nweth New york by cable. Tor had a\nand Baroness Sometting or othr - the Balgian\nminiatu) to Ranking so Dai and a\nwhat along.\nand left at gut then at 12 octach\nduring the intervas\nI spant there\nunhappy horus trading\nwith the m of C, a mr. tiri l-fu, an\nunder Satan, and Dai. ter jamaze,\nagried on a program proveding for",
      "tuation to by us of the Shangha\nCanton line in\nin the name of CNAC\n3o days moter.\nI think the inportant\nthing now is to get started and\nbacca may.\nthe etus of winchow\ntuato and Canton\nan mail and passinga starea ther\nwice raise such H- with harking\nf this is any attempt made to\nblock the serue that ur wale t\nable to gut lots of concrocions solen\nthe h\nJunio\ncontracts asso drain.\nIn\nif the Executir Yean whies met\ntoday appears the deal and ur\nactuale, start\nofmation t think ur\nwe hair the\nChain in a hole-\nfor chin thin\ncan not discontinus\n'the srirce\n-\nend then cant contraur\nwithout us beaun \"the, do not hair\nthe planes or the mone, on\n• abilit,\nfe,.. If then tre to put us out.\ner hair builts ji such a case\nagainst thori\na to er aver to tie\nJor a year a two at least.\nThe intention is to\nimmediatre, start\n2019.2107440",
      "draurnig contracts\nas soon as the\nprovisional - operating agreement is\nsyned. e\nUr wace this I think be\nin much strongn trading pos tron\nand: may be\nable to win back some\nof the\nground which? us have had\nto\nquor ups\nalthough\nIn the last fuer dap\nany consequence.\nProbabe, tomorow\nLee know the\nansure, or magh the\nnext day alway \"monasa\".\nTree re- the trip to Ranking. tr\nhad a fine ride both way\nBos birthday so turate her a lettu\nan thongin of hav\n• Sir miles\nautograph it\nlout concluded that\nwonde har ten preciations and\ndid nt ask him to.\nGot of more chow with the Mofe\nand when is\ngot home had\nthe gas and\nche Ed smitts to\ndinner\nat a\n1 Chinen place hut\n204 Hankow Rd.\nI alco invited the\none, real ethactir gie Dir met\nShanghai\n- did Ismake\nface\n= wick the gactor and the Smicks!\nThey ryand tme\nasa slittle staco",
      "who knaco the Queenyo\n'an el in fact\nour It works for monsanto and ha\nregrenated then\nout the for years.\nMas Phylis (Sp? May is English - bora near\nGinang in the :\nmalan, Straits → she is\nvr, prett, and has a lot of man\nhas a love, complexion, gragu\ncolord hair and is just as attractin\nas any gie you love saw, dress\nand he contration is delignt-\nquee British with just a daos of\nScotch.\n• She dors nit smoke, drink\nor irar rouge a which is someti\nmost unusual our her. And bifor\nyou get t 2 must sa, she issu\nungaged to an\n- Englisman no Pinang.\nWe made an agraument that us wored\nbe friends on the basis that she was\nviry much in love with her franci\nbut wort sir his foo mouths and that\nreeeet yon -\n- turfors q. e. d? ur\nmight\nas usel.\nharr dinnis together\nonch in a while and go to the\n2019.121.0744b",
      "movies.. But last night was the first\ntime o\nhad cald her up. tree\nas I san, bott Bob gast and Ed\nSmith earl,\n- lost an rye. Then\njust raord abont her and\nsaid\nOld man\nBixb, sure put one oin\non us. \"\nhad eats of fun-\ngrand dinner. and then wrat\nto the \u003e\n• haule Club to daner. Mis\nmay ses not so good their but\nwe got along fear, ule... One of the\nratri\ntam is got\noff a good ones\nfor got sick\nquick - filled out an\noffice - prett, stio and fews ton\nderk outside gras offer. Hurd a\njalesman who\nward the Coffer!\nstro openo\n1 wirs and cace out to\nI. that salesman Coken had wind.\nsays \"vile read it.\"\nStrno reads\nthrough transom \"Did wee in now\nOrleans stop\ngoing to call on zech in\nBaton Ronge stop Hopr to ter Gunstug\nin memphis\nstop \" da fur calls\nout to his son, (interrupting her reading)\n\"Abir lever that girl alone and let her\nfinise.\nreading that tree amt",
      "Weethea\n\"lettra turned out to tr\nbed and sit what to outs\nsaie for manila on harmani\nprovid, for two wiko-\" that e\n• bn thursdang\nhats and lot. of lour t\ndarling. take care of yor\nare the sure at\nmost precions tref because you\nplorent up\nManch\n5 en\nthan\nyou a mede co\nhak\nsive Always. Had\n•P.S. Beefo. bam going to Dentist - boto\nwak done.\ntrith ace repared but two.\nalso taking lessons in Chinen - Mandarin\ndialect - most utie in china. To love hit\nOne, had two lessons\nbut ma structa\ntold Mrs gast -t was\ndoing fine.\nShe and Bal also nelson,\nthe Clerk, and\nmitchese ale take from same\nman.\n20191210744 c"
    ],
    "millsfield:images_texts_ids": [
      1913801137,
      1913801141,
      1913801143,
      1913801145,
      1913801147,
      1913801149
    ],
    "millsfield:primary_image": 1913801137,
    "millsfield:subcategory_id": 1511213489,
    "mz:is_approximate": 1,
    "mz:is_current": 1,
    "sfomuseum:accession_number": "2019.121.0744 a c",
    "sfomuseum:airline": "Pan American Airways",
    "sfomuseum:airline_id": [
      685,
      1131
    ],
    "sfomuseum:category": "Employee Career History",
    "sfomuseum:classification_id": 195,
    "sfomuseum:collection": "Aviation Archive",
    "sfomuseum:creditline": "Collection of SFO Museum",
    "sfomuseum:date": "10/09/1933",
    "sfomuseum:date_acquired": "2019-11-22",
    "sfomuseum:daterange_end": "1933-10-09",
    "sfomuseum:daterange_start": "1933-10-09",
    "sfomuseum:description": "Handwritten letter from Harold M. Bixby to his wife, Debby Bixby, dated Monday, October 9, 1933; update on new concessions required by the minister of communications [Chu Chia-hua]; includes description of meeting with Mr. Chu, Mr. Wei I-fu, and Dai [Enki] to negotiate a provisional operating agreement; personal and family matters; mentions Bob [Robert] Gast, Ed [Eddie] Smith.",
    "sfomuseum:dimensions": "11 x 8 1/4 inches (27.9 x 21 cm)",
    "sfomuseum:medium": "paper, ink",
    "sfomuseum:object_id": 211092,
    "sfomuseum:placetype": "object",
    "sfomuseum:publication": ": , 10/09/1933.",
    "sfomuseum:subcategory": "Correspondence, Personal",
    "src:geom": "sfomuseum#undetermined",
    "wof:belongsto": [
      102527513,
      1159162825,
      102191575,
      85633793,
      102087579,
      85922583,
      85688637,
      1159160869
    ],
    "wof:country": "XY",
    "wof:created": 1714548886,
    "wof:depicts": [
      1159284991,
      1159285931,
      1159286721
    ],
    "wof:geomhash": "c281b9d9eefc83b5710e64b9d646067d",
    "wof:hierarchy": [
      {
        "building_id": -1,
        "campus_id": 102527513,
        "collection_id": 1159162825,
        "concourse_id": 1159162825,
        "continent_id": 102191575,
        "country_id": 85633793,
        "county_id": 102087579,
        "custom_id": 1913795761,
        "locality_id": 85922583,
        "neighbourhood_id": -1,
        "object_id": 1913795761,
        "region_id": 85688637,
        "wing_id": 1159160869
      }
    ],
    "wof:id": 1913795761,
    "wof:lastmodified": 1787988219,
    "wof:name": "correspondence: Harold M. Bixby to Debby Bixby",
    "wof:parent_id": 1159162825,
    "wof:placetype": "custom",
    "wof:placetype_alt": [
      "object"
    ],
    "wof:repo": "sfomuseum-data-collection",
    "wof:superseded_by": [],
    "wof:supersedes": []
  },
  "bbox": [
    -122.38647222518921,
    37.6161053594541,
    -122.38583385944366,
    37.61661101879963
  ],
  "geometry": {"type":"Polygon","coordinates":[[[-122.38647222518921,37.61631782178288],[-122.386434674263,37.61623283692423],[-122.38637566566466,37.61617759671399],[-122.38630056381224,37.6161308549656],[-122.38616108894348,37.6161053594541],[-122.38602161407469,37.6161308549656],[-122.38591432571411,37.61618609521055],[-122.38585531711577,37.61626683087935],[-122.38583385944366,37.61636881265146],[-122.38587141036987,37.61646654505181],[-122.38594114780425,37.61654303118856],[-122.38605380058287,37.61660252035167],[-122.38618254661559,37.61661101879963],[-122.3863059282303,37.61657277577607],[-122.3864185810089,37.61650903735973],[-122.3864668607712,37.61641130501523],[-122.38647222518921,37.61631782178288]]]}
}
