{
  "id": 1914489031,
  "type": "Feature",
  "properties": {
    "date:cessation_lower": "1990-01-01",
    "date:cessation_upper": "1990-12-31",
    "date:inception_lower": "1990-01-01",
    "date:inception_upper": "1990-12-31",
    "edtf:cessation": "1990",
    "edtf:inception": "1990",
    "geom:area": 2.475047457570636e-7,
    "geom:bbox": "-122.386472,37.616105,-122.385834,37.616611",
    "geom:latitude": 37.61635747477365,
    "geom:longitude": -122.38615540108617,
    "millsfield:aircraft_id": [
      1159291129
    ],
    "millsfield:airline_id": [
      1159284261
    ],
    "millsfield:category_id": 1762671311,
    "millsfield:collection_id": 1511214207,
    "millsfield:company_id": [
      1159293697
    ],
    "millsfield:images": [
      1914489167,
      1914489169,
      1914489173
    ],
    "millsfield:images_colors_refs": {
      "crayola": [
        {
          "hex": "#faa76c"
        },
        {
          "hex": "#fddde6"
        },
        {
          "hex": "#c46210"
        },
        {
          "hex": "#757575"
        },
        {
          "hex": "#58427c"
        },
        {
          "hex": "#1a4876"
        }
      ],
      "css4": [
        {
          "hex": "#483d8b"
        },
        {
          "hex": "#faf0e6"
        },
        {
          "hex": "#191970"
        },
        {
          "hex": "#f4a460"
        },
        {
          "hex": "#d2691e"
        },
        {
          "hex": "#dcdcdc"
        },
        {
          "hex": "#708090"
        }
      ],
      "marekm4": [
        {
          "hex": "#62698e"
        },
        {
          "hex": "#ebe6e4"
        },
        {
          "hex": "#282c5c"
        },
        {
          "hex": "#565990"
        },
        {
          "hex": "#69698d"
        },
        {
          "hex": "#eae5e2"
        },
        {
          "hex": "#e8e6e2"
        },
        {
          "hex": "#222260"
        },
        {
          "hex": "#c84826"
        },
        {
          "hex": "#252359"
        },
        {
          "hex": "#e5a75e"
        }
      ]
    },
    "millsfield:images_texts": [
      "DOOR EXITS\nPuertas de salida\nPores de sorte\nTürausgang\n1 a\n0147\nFORWARD LEFT-HAND DOOR ILLUSTRATED\nIlustración de la puerta delantera del lado izquierdo\nIllustration de la porte avant gauche\nAbbildung des vorderen linksseitigen Ausganges\nN1580\nSLIDE/RAFTS\nCanal/Botes salvavidas\nGlissade/Canots de sauvetage\nRutsch/Schlauchboote\n2005/7OYE\nForward left-hand door illustrated\nlustración de la puerta delantera del lado izquierdo\nIllustration de la porte avant gauche\nAbbildung des vorderen linksseitigen Ausganges\nM1*480*\n1 a\nEXIT ROW SEATING\nFederal Regulations require that persons seated in an exit row be capable of physically opening the\nexit, visually locating the exit, hearing oral instructions to use the exit and verbally directing others to\nthe exit. They must be able to accomplish these tasks without obstructing the exit or being preoccupied\nwith other attentions. Children under 15, pregnant or obese passengers may not sit in an exit row.\nPassengers seated in exit rows may be called upon to perform the following:\n• Locate, recognize and operate an emergency exit\nAssess conditions outside an exit to assure safe egress\n• Follow the oral instructions or hand signals of a crewmember\nStow or secure an emergency exit door so it will not impede use of the exit\n• Assess the condition of, activate and stabilize an escape slide to assist\nothers in evacuating\n• Pass expeditiously through an exit and follow a safe path away from\nthe exit\nPassengers are required by federal regula-\ntions, to comply with crewmembers in the\nimplementation of these restrictions. If\nyou are seated adjacent to an emergenc\nexit and cannot or do not want to\nperform these functions, please\nidentity vourset to a\nFlight Attendant.\n5\nDETACH RAFT\nZafe el bote salvavida\nDétachez le canot de\nsauvetage\nSchlauchboot losmachen\n745272101\nTO LOWER\nFLOOR\nPara bajar el piso\nPour abaisser le\nfond\nBoden niedriger\nstellen\n7NEE 2OS\nCUT LINE\nCorte la línea\nCouper la corde\nLeine durchschneiden\n12112.\nLAND\nEVACUATION\nEvacuación en tierra\nÉvacuation par terre\nLand-Evakuierung\n3|41\nWATER\nEVACUATION\nEvacuación por agua\nEvacuation par mer\nWasser-Evakuierung",
      "SEAT BELTS\nCinturones de seguridad\nCeintures de sûreté\nSicherheitsgurte\n1**#\nKEEP SEAT BELTS\nFASTENED WHILE\nSEATED\nMientras esté sentado\nmantenga abrochado su\ncinturón\nAttachez vos ceintures\nquand assis\nBleiben Sie beim Sitzen\nangeschnallt\n*****-*\n41118.\nOXYGEN\nOxígeno\nOxygène\nSauerstoff\nBRACE\nPOSITIONS\nPosiciones en caso de emergencia\nPositions en cas d'urgence\nPositionen zur Notlandung\n2002.127.254",
      "L-1011\nPASSENGER SAFETY\nINFORMATION\nFOR YOUR SAFETY, PLEASE STUDY THIS CARD. THERE\nIS LITTLE LIKELIHOOD WE WILL ENCOUNTER A SITUA-\nTION REQUIRING EMERGENCY PREPARATIONS. HOW-\nEVER, IT IS A GOOD PRACTICE TO BE ACQUAINTED WITH\nTHE SAFETY FEATURES WE HAVE PROVIDED FOR YOU\nON THIS AIRCRAFT.\nPara su seguridad, favor estudiar esta tarjeta. La posibilidad de\nconfrontar una emergencia es mínima, sin embargo es provechoso\nestar familiarizado con las medidas de seguridad que se proveen para\nusted en el avión.\nPour votre sécurité, veuillez étudier cette carte. Il est peu probable que\nles circonstances exigent de recourir aux mesures de sécurité, mais il est\nbon d'en prendre connaissance.\nFür Ihre Sicherheit lesen Sie bitte diese Karte. Es ist sehr unwahr-\nscheinlich, daß wir diese Notfallsmaßnahmen je anwenden müssen.\nJedoch ist es zu empfehlen, daß Sie sich mit den Sicherheits-\nmaßnahmen vertraut machen, die sich an Bord dieser Maschine\nbefinden.\nPLEASE DO NOT REMOVE THIS CARD FROM\nAIRCRAFT\nPor favor no se lleve esta tarjeta del avión.\nVeuillez laisser cette carte à bord de l'avion.\nBitte, entfernen Sie diese Karte nicht vom Flugzeug.\nADELTA AIR LINES"
    ],
    "millsfield:images_texts_ids": [
      1914489167,
      1914489169,
      1914489173
    ],
    "millsfield:primary_image": 1914489173,
    "millsfield:subcategory_id": 1511213703,
    "mz:is_approximate": 1,
    "mz:is_current": 1,
    "sfomuseum:accession_number": "2002.127.254",
    "sfomuseum:aircraft": "Lockheed L-1011 TriStar",
    "sfomuseum:aircraft_id": [
      806
    ],
    "sfomuseum:airline": "Delta Air Lines",
    "sfomuseum:airline_id": [
      355
    ],
    "sfomuseum:category": "Passenger Amenity, Archive",
    "sfomuseum:classification_id": 581,
    "sfomuseum:collection": "Aviation Archive",
    "sfomuseum:creditline": "Gift of Thomas G. Dragges",
    "sfomuseum:date": "1990",
    "sfomuseum:date_acquired": "2003-12-22",
    "sfomuseum:daterange_end": "1990-12-31",
    "sfomuseum:daterange_start": "1990-01-01",
    "sfomuseum:description": "Safety information card issued by Delta Air Lines for its Lockheed L-1011 TriStar fleet; white double-sided multi-fold sheet with illustrations demonstrating inflight safety and emergency procedures; identification code: 0412-80753; revision date: 10/90.",
    "sfomuseum:dimensions": "8 1/2 x 4 inches (21.6 x 10.2 cm)",
    "sfomuseum:medium": "paper, ink",
    "sfomuseum:object_id": 68823,
    "sfomuseum:placetype": "object",
    "sfomuseum:publication": ": , 1990.",
    "sfomuseum:subcategory": "Safety Information Card",
    "src:geom": "sfomuseum#undetermined",
    "wof:belongsto": [
      102527513,
      1159162825,
      102191575,
      85633793,
      102087579,
      85922583,
      85688637,
      1159160869
    ],
    "wof:country": "XY",
    "wof:created": 1719905582,
    "wof:depicts": [
      1159284261,
      1159291129,
      1159293697
    ],
    "wof:geomhash": "c281b9d9eefc83b5710e64b9d646067d",
    "wof:hierarchy": [
      {
        "building_id": -1,
        "campus_id": 102527513,
        "collection_id": 1159162825,
        "concourse_id": 1159162825,
        "continent_id": 102191575,
        "country_id": 85633793,
        "county_id": 102087579,
        "custom_id": 1914489031,
        "locality_id": 85922583,
        "neighbourhood_id": -1,
        "object_id": 1914489031,
        "region_id": 85688637,
        "wing_id": 1159160869
      }
    ],
    "wof:id": 1914489031,
    "wof:lastmodified": 1787988221,
    "wof:name": "safety information card: Delta Air Lines, Lockheed L-1011 TriStar",
    "wof:parent_id": 1159162825,
    "wof:placetype": "custom",
    "wof:placetype_alt": [
      "object"
    ],
    "wof:repo": "sfomuseum-data-collection",
    "wof:superseded_by": [],
    "wof:supersedes": []
  },
  "bbox": [
    -122.38647222518921,
    37.6161053594541,
    -122.38583385944366,
    37.61661101879963
  ],
  "geometry": {"type":"Polygon","coordinates":[[[-122.38647222518921,37.61631782178288],[-122.386434674263,37.61623283692423],[-122.38637566566466,37.61617759671399],[-122.38630056381224,37.6161308549656],[-122.38616108894348,37.6161053594541],[-122.38602161407469,37.6161308549656],[-122.38591432571411,37.61618609521055],[-122.38585531711577,37.61626683087935],[-122.38583385944366,37.61636881265146],[-122.38587141036987,37.61646654505181],[-122.38594114780425,37.61654303118856],[-122.38605380058287,37.61660252035167],[-122.38618254661559,37.61661101879963],[-122.3863059282303,37.61657277577607],[-122.3864185810089,37.61650903735973],[-122.3864668607712,37.61641130501523],[-122.38647222518921,37.61631782178288]]]}
}
