{
  "id": 1762693843,
  "type": "Feature",
  "properties": {
    "date:cessation_lower": "1972-01-01",
    "date:cessation_upper": "1972-12-31",
    "date:inception_lower": "1972-01-01",
    "date:inception_upper": "1972-12-31",
    "edtf:cessation": "1972",
    "edtf:inception": "1972",
    "geom:area": 2.475047457570636e-7,
    "geom:bbox": "-122.386472,37.616105,-122.385834,37.616611",
    "geom:latitude": 37.61635747477365,
    "geom:longitude": -122.38615540108617,
    "millsfield:airline_id": [
      1159284973
    ],
    "millsfield:category_id": 1511214239,
    "millsfield:collection_id": 1511214207,
    "millsfield:company_id": [
      1159286629
    ],
    "millsfield:images": [
      1762713571,
      1762713573,
      1762713575,
      1763396547
    ],
    "millsfield:images_colors_refs": {
      "crayola": [
        {
          "hex": "#dbd7d2"
        },
        {
          "hex": "#2e5894"
        },
        {
          "hex": "#7366bd"
        },
        {
          "hex": "#a5694f"
        },
        {
          "hex": "#414a4c"
        },
        {
          "hex": "#9c2542"
        },
        {
          "hex": "#ffffff"
        },
        {
          "hex": "#000000"
        },
        {
          "hex": "#fddde6"
        },
        {
          "hex": "#6699cc"
        },
        {
          "hex": "#1dacd6"
        },
        {
          "hex": "#bf4f51"
        }
      ],
      "css4": [
        {
          "hex": "#000000"
        },
        {
          "hex": "#dcdcdc"
        },
        {
          "hex": "#a0522d"
        },
        {
          "hex": "#f5f5f5"
        },
        {
          "hex": "#5f9ea0"
        },
        {
          "hex": "#2f4f4f"
        },
        {
          "hex": "#e6e6fa"
        },
        {
          "hex": "#708090"
        },
        {
          "hex": "#4682b4"
        },
        {
          "hex": "#48d1cc"
        }
      ],
      "marekm4": [
        {
          "hex": "#b43f3d"
        },
        {
          "hex": "#3e392d"
        },
        {
          "hex": "#9c4334"
        },
        {
          "hex": "#3f353a"
        },
        {
          "hex": "#33abd5"
        },
        {
          "hex": "#eaeaec"
        },
        {
          "hex": "#3a3d3b"
        },
        {
          "hex": "#e5e3e3"
        },
        {
          "hex": "#3c6c90"
        },
        {
          "hex": "#6490c3"
        },
        {
          "hex": "#f7f8f5"
        },
        {
          "hex": "#56739a"
        },
        {
          "hex": "#dfdedc"
        },
        {
          "hex": "#161a19"
        },
        {
          "hex": "#688eb1"
        },
        {
          "hex": "#a15349"
        }
      ]
    },
    "millsfield:images_texts": [
      "A\ndefinitive contract\nfor the pur-\nchase of five\nL-1011 TriStar\njetliners valued at approx-\nmately $100 million was\nexecuted in 1972 by PSA\nand Lockheed Aircraft Cor-\nporation.\nThe new contract follows\nthree years of investigation\nand evaluation by PSA to\nfind the best wide-bodied\naircraft for its quick turn-\naround, personalized, com-\nmuter service and culmi-\nnates a long study of PSA's\nwide-bodied aircraft needs.\nDuring the long eval-\nuation of the TriStar, Lock-\nheed and PSA teamed up\nto develop many features\nwhich will allow the airline\nto \"turn the aircraft\naround\" just as fast as the\nequipment presently in use\nand to give the passengers\nthe little \"extras\" they have\ncome to expect from PSA.\nAmong the new features\nis the capability of loading\nand off-loading a maximum\nnumber of passengers\nthrough four wide\ndoors plus the unique abil-\nity to board over 100 pas-\nsengers with carry-on lug-\ngage through an auxiliary\nThe new entrance is lo-\ncated below the cabin level\nand to the rear of the be-\nlow-cabin cocktail lounge.\nPassengers with carry-on\nluggage can enter through\nthe auxiliary door, deposit\ntheir luggage in\nspecial\nracks and proceed to either\nthe cocktail lounge or the\nregular cabin. Upon arrival\nat their destination, they\ncan deplane through the\nsame entrance after retriev-\ning their luggage from the\nspecial compartment.\nPSA will be the first air-\nline to feature a below-\ncabin cocktail lounge.\nComplete with 16 saleable\nseats, all designed for the\nPSA\nPSA",
      "EXIT\nsame comfort as the pas-\nsenger's living room, the\nlounge includes a full-serv-\nice bar and stewardess\nservice.\nIn PSA's configuration,\n286 seats will be located in\nthe main cabin\nmaking a\ntotal of 302 seats including\nthose in the lounge.\nThese wide, ultra-com-\nfortable seats are sepa-\nrated by two spacious\naisles to provide easy exit\nwithout bumping into pas-\nsengers\nThe\nacross the aisle.\ncabin\nceiling is over\neight\nfeet high,\nallowing\npassengers to\nstand up\nenter or leave their\nseats without stooping.\nThe new advanced cabin\ninterior of the L-1011 will\ninclude coat storage facil-\nities and overhead storage\ncabinets that will make it as\nfunctional as it is beautiful.\nPowered by three Rolls-\nRoyce engines, each gen-\nerating 42,000 pounds of\nthrust,\nthe L-1011 will be\nvirtually smokeless and\nmuch quieter than earlier\ngeneration aircraft.\nThe first two PSA wide-\nbodied TriStars will be de-\nlivered in the Spring of\n1974 and the other three\nwill be delivered during\n1975 and 1976. Present\nplans call for initial use of\nthe L-1011s on the high-\nLos Angeles-San\nalthough\nthe aircraft can be operated\nefficiently from any of the\nairports PSA serves.",
      "acific Southwest\nAirlines is tak-\ning on a new\nlook both on\nthe ground and in the air.\nThe familiar red and white\nairplanes with the big smile\nunder the nose are being\nrepainted into a \"new\nlook\"\nDesigned to compliment\nthe airline's changing color\nscheme, fushia, orange,\nred and white stripes ex-\ntend the length of the fuse-\nlage and flare up on the\nvertical stabilizer like a\nrooster tail.\nThe \"new look\" also in-\ncludes new uniforms for pi-\nlots, reservations agents,\ncounter agents,\nlobby\nagents and stewardesses.\nAll PSA aircraft will be re-\npainted throughout 1973\non a regular schedule that\nwill not interfere with full\nutilization of the aircraft.\nncreased\npassen-\nger traffic prompt-\ned the start of an\nexpansion program\nfor the Reservations Depart-\nment in late 1972. Walls\ntumbled down and a former\nstoreroom became part of\nthe department to make\nroom to expand the present\n84 working positions to 140\npositions.\nNew telephone\nequipment is being in-\nstalled to handle the thou-\nsands of daily calls and\nwaiting time is being cut so\nas not to exceed eight sec-\nA new computer will re-\nplace the former method of\nproviding flight information\nto the reservationist. At the\ntouch of a button, a small\nscreen at the reservation-\nist's desk will indicate the\nnumber of seats available\non a particular flight or, if\nthat flight is full,\nflights and their space\nThe new reservations\nsystem is expected to be\nfully operational during the\nSpring of 1973.\nexpanded system\nwill enable a caller to book\nPSA Hotels and other hotel\nreservations and rent-a-\ncars in addition to flight\nreservations.\nn an ever-increas-\ning attempt to pro-\nvide the best pos-\nsible\nservice\nconvenience to the Califor-\nnia air traveler, PSA ex-\npanded its route system in\n1972 to include Stockton\nand Fresno.\nAddition of these cities\ncame as a result of\nrequests from many resi-\ndents of those areas who\napproached PSA with a de-\nsire for service.\nSatellite airport service\nwas broadened in early\n1972 by providing addi-\ntional flights and new serv-\nice connecting Sacramen-\nto, Hollywood/Burbank,\nOakland and San Diego.\nThe new service was\nhighlighted\nby\nfirst-time,\nnon-stop flights between\nSacramento and Holly-\nwood/Burbank and be-\ntween Sacramento and San\nDiego. In addition, new\nservice was inaugurated\nbetween Oakland and Sac-\nramento providing another\nlink between the Bay Area\nand Northern California's\nCentral Valley.\nThe new service and ad-\nditional flights were\nde-\nsigned to alleviate traffic\ncongestion at busy Los An-\ngeles International Airport\nand San Francisco Inter-\nnational Airport by offering\nconvenient flights at less\ncongested satellite airports.\nN\nS",
      "PSA (\nPSA\nannual\nreport\n1972\nPSA"
    ],
    "millsfield:images_texts_ids": [
      1762713571,
      1762713573,
      1762713575,
      1763396547
    ],
    "millsfield:primary_image": 1763396547,
    "millsfield:subcategory_id": 1511213189,
    "mz:is_current": 1,
    "sfomuseum:accession_number": "2006.010.047.002",
    "sfomuseum:airline": "Pacific Southwest Airlines (PSA)",
    "sfomuseum:airline_id": [
      677
    ],
    "sfomuseum:author": "Pacific Southwest Airlines, Inc., PS Group, Inc., PS Group Holdings.",
    "sfomuseum:category": "Company Record / Document",
    "sfomuseum:classification_id": 24,
    "sfomuseum:collection": "Aviation Archive",
    "sfomuseum:creditline": "Gift of the William Hough Collection",
    "sfomuseum:date": "1972",
    "sfomuseum:date_acquired": "2010-08-04",
    "sfomuseum:daterange_end": "1972-12-31",
    "sfomuseum:daterange_start": "1972-01-01",
    "sfomuseum:dimensions": "8 1/2 x 11 inches (21.6 x 27.9 cm)",
    "sfomuseum:issue": "1 issue: 1972",
    "sfomuseum:issues_held": "1972",
    "sfomuseum:medium": "paper, ink",
    "sfomuseum:object_id": 120270,
    "sfomuseum:placetype": "object",
    "sfomuseum:publication": "San Diego, CA: PS Group, Inc., 1972.",
    "sfomuseum:publisher": "PS Group, Inc.",
    "sfomuseum:publisher_location": "San Diego, CA",
    "sfomuseum:subcategory": "Annual Report",
    "sfomuseum:subject": "\r",
    "src:geom": "sfomuseum#undetermined",
    "wof:belongsto": [
      102527513,
      1159162825,
      102191575,
      85633793,
      102087579,
      85922583,
      85688637,
      1159160869
    ],
    "wof:country": "XY",
    "wof:created": 1641344110,
    "wof:depicts": [
      1159286629,
      1159284973
    ],
    "wof:geomhash": "c281b9d9eefc83b5710e64b9d646067d",
    "wof:hierarchy": [
      {
        "building_id": -1,
        "campus_id": 102527513,
        "collection_id": 1159162825,
        "concourse_id": 1159162825,
        "continent_id": 102191575,
        "country_id": 85633793,
        "county_id": 102087579,
        "custom_id": 1762693843,
        "locality_id": 85922583,
        "neighbourhood_id": -1,
        "object_id": 1762693843,
        "region_id": 85688637,
        "wing_id": 1159160869
      }
    ],
    "wof:id": 1762693843,
    "wof:lastmodified": 1787988198,
    "wof:name": "annual report: Pacific Southwest Airlines (PSA), 1972 [1 issue: 1972]",
    "wof:parent_id": 1159162825,
    "wof:placetype": "custom",
    "wof:placetype_alt": [
      "object"
    ],
    "wof:repo": "sfomuseum-data-collection",
    "wof:superseded_by": [],
    "wof:supersedes": []
  },
  "bbox": [
    -122.38647222518921,
    37.6161053594541,
    -122.38583385944366,
    37.61661101879963
  ],
  "geometry": {"type":"Polygon","coordinates":[[[-122.38647222518921,37.61631782178288],[-122.386434674263,37.61623283692423],[-122.38637566566466,37.61617759671399],[-122.38630056381224,37.6161308549656],[-122.38616108894348,37.6161053594541],[-122.38602161407469,37.6161308549656],[-122.38591432571411,37.61618609521055],[-122.38585531711577,37.61626683087935],[-122.38583385944366,37.61636881265146],[-122.38587141036987,37.61646654505181],[-122.38594114780425,37.61654303118856],[-122.38605380058287,37.61660252035167],[-122.38618254661559,37.61661101879963],[-122.3863059282303,37.61657277577607],[-122.3864185810089,37.61650903735973],[-122.3864668607712,37.61641130501523],[-122.38647222518921,37.61631782178288]]]}
}
