{
  "id": 1913822453,
  "type": "Feature",
  "properties": {
    "date:cessation_lower": "1950-01-01",
    "date:cessation_upper": "1950-12-31",
    "date:inception_lower": "1950-01-01",
    "date:inception_upper": "1950-12-31",
    "edtf:cessation": "1950",
    "edtf:inception": "1950",
    "geom:area": 2.475047457570636e-7,
    "geom:bbox": "-122.386472,37.616105,-122.385834,37.616611",
    "geom:latitude": 37.61635747477365,
    "geom:longitude": -122.38615540108617,
    "millsfield:airline_id": [
      1159284989
    ],
    "millsfield:category_id": 1511214251,
    "millsfield:collection_id": 1511214207,
    "millsfield:company_id": [
      1159286839
    ],
    "millsfield:images": [
      1913822713
    ],
    "millsfield:images_colors_refs": {
      "crayola": [
        {
          "hex": "#efdecd"
        },
        {
          "hex": "#414a4c"
        }
      ],
      "css4": [
        {
          "hex": "#2f4f4f"
        },
        {
          "hex": "#ffe4c4"
        }
      ],
      "marekm4": [
        {
          "hex": "#423e27"
        },
        {
          "hex": "#ebe0c5"
        }
      ]
    },
    "millsfield:images_texts": [
      "1950\nJAN.\nSat. 7\nIV BRUSSELS, BELGIUM\n1:55 PM FLT 8\nSun. 8\nMon. 9\nTue. 10\nDAMASCUS\nLV DAMASCUS\n4:30 PM FLI 1\nWed. Il LV ISTANBUL\n9:30 PM FLT 4\nThu.\n12\nFri.\n13\nSat.\n14\nSun.\n15\nMon.\n16\nTue. 17\n(in flight until 5 pm when arrive Delhi)\nDELHI\nLV DELHI\n5:25 PM FLT 8\nWed. 18 BANGKOK (address c/o P.A.A., Procadern Hotel)\nith\nAR DAMASCUS, SYRIA 11:45\nAR ISTANBUL, TURKEY 7:35\nAR DELHI, INDIA 5:00 PM\n1/12\nAR BANCKOK, SIAM 3:30 AM\n1/18\nFEB.\nTue. 14\nLV BANGKOK (MALAYAN AIRWAYS)\nWed. 15\nSINGAPORE\nThu. 16\nLV SINGAPORE\nFri.\n17\nMANILA\nSat. 18\n11\nSun. 19\nMon. 20\nAR SINGAPORE\n12:30 PM FLT 826\nAR MANILA 9:30 PM\nLV MANILA\n10:00 PM FLT 824\nAR HONOLULU 1:45 PM 2/20\nHONOLULU (arrive 1:45 PM) (address c/o P.A.A., Dillingham Bldg.)\nMCH.\nSun. 5\nMon. 6\nLV HONOLULU\nDATE LINE\nTue. 7\nWed. 8 LV MANILA\n11:30 AM\nAR MANILA 7:15 AM FLT 825\n12:30 AM FLT 825\nAR SINGAPORE 7:35 AM\nFLT 825\nThu. 9\nLV SINGAPORE\nFri.\n10\nAR BATAVIA, INDONESIA\nBATAVIA\nSat. 1l\nLV BATAVIA\nAR BANGKOK\nSun.\n12\nBANGKOK\nMon. 13 LV BANGKOK 10:15 PM FLT 1\nAR DAMASCUS 2:30 PM\nFLT 1 3/\n14\nTue. 14\nWed. 15\nThu. 16\nFri. 17\nSat. 18\nSun. 19\nMon. 20\nTue. 21\nWed. 22\nDAMASCUS\nIV DAMASCUS VIA MISRA AIRLINES\nCAIRO\n11 11\n\"1\nLV CAIRO VIA MISRA AIRLINES\nDAMASCUS\nLV DAMASCUS\nLV BRUSSELS\nAR CAIRO, EGYPT\nAR DAMASCUS\n4:30 PM FLT 1\nAR BRUSSELS 4:25 AM 3/22\nAR PARIS"
    ],
    "millsfield:images_texts_ids": [
      1913822713
    ],
    "millsfield:primary_image": 1913822713,
    "millsfield:subcategory_id": 1511213505,
    "mz:is_approximate": 1,
    "mz:is_current": 1,
    "sfomuseum:accession_number": "2019.121.1154",
    "sfomuseum:airline": "Pan American World Airways",
    "sfomuseum:airline_id": [
      684
    ],
    "sfomuseum:category": "Employee Career History",
    "sfomuseum:classification_id": 203,
    "sfomuseum:collection": "Aviation Archive",
    "sfomuseum:creditline": "Collection of SFO Museum",
    "sfomuseum:date": "1950",
    "sfomuseum:date_acquired": "2019-11-22",
    "sfomuseum:daterange_end": "1950-12-31",
    "sfomuseum:daterange_start": "1950-01-01",
    "sfomuseum:description": "Typewritten itinerary for January through March, 1950.",
    "sfomuseum:dimensions": "11 x 8 1/2 inches (27.9 x 21.6 cm)",
    "sfomuseum:medium": "paper, ink",
    "sfomuseum:object_id": 211517,
    "sfomuseum:placetype": "object",
    "sfomuseum:publication": ": , 1950.",
    "sfomuseum:subcategory": "Other, Employee Career History",
    "src:geom": "sfomuseum#undetermined",
    "wof:belongsto": [
      102527513,
      1159162825,
      102191575,
      85633793,
      102087579,
      85922583,
      85688637,
      1159160869
    ],
    "wof:country": "XY",
    "wof:created": 1714635161,
    "wof:depicts": [
      1159284989,
      1159286839
    ],
    "wof:geomhash": "c281b9d9eefc83b5710e64b9d646067d",
    "wof:hierarchy": [
      {
        "building_id": -1,
        "campus_id": 102527513,
        "collection_id": 1159162825,
        "concourse_id": 1159162825,
        "continent_id": 102191575,
        "country_id": 85633793,
        "county_id": 102087579,
        "custom_id": 1913822453,
        "locality_id": 85922583,
        "neighbourhood_id": -1,
        "object_id": 1913822453,
        "region_id": 85688637,
        "wing_id": 1159160869
      }
    ],
    "wof:id": 1913822453,
    "wof:lastmodified": 1787988220,
    "wof:name": "itinerary: Harold M. Bixby",
    "wof:parent_id": 1159162825,
    "wof:placetype": "custom",
    "wof:placetype_alt": [
      "object"
    ],
    "wof:repo": "sfomuseum-data-collection",
    "wof:superseded_by": [],
    "wof:supersedes": []
  },
  "bbox": [
    -122.38647222518921,
    37.6161053594541,
    -122.38583385944366,
    37.61661101879963
  ],
  "geometry": {"type":"Polygon","coordinates":[[[-122.38647222518921,37.61631782178288],[-122.386434674263,37.61623283692423],[-122.38637566566466,37.61617759671399],[-122.38630056381224,37.6161308549656],[-122.38616108894348,37.6161053594541],[-122.38602161407469,37.6161308549656],[-122.38591432571411,37.61618609521055],[-122.38585531711577,37.61626683087935],[-122.38583385944366,37.61636881265146],[-122.38587141036987,37.61646654505181],[-122.38594114780425,37.61654303118856],[-122.38605380058287,37.61660252035167],[-122.38618254661559,37.61661101879963],[-122.3863059282303,37.61657277577607],[-122.3864185810089,37.61650903735973],[-122.3864668607712,37.61641130501523],[-122.38647222518921,37.61631782178288]]]}
}
