{
  "id": 1779488963,
  "type": "Feature",
  "properties": {
    "date:cessation_lower": "1981-01-01",
    "date:cessation_upper": "1981-12-31",
    "date:inception_lower": "1981-01-01",
    "date:inception_upper": "1981-12-31",
    "edtf:cessation": "1981~",
    "edtf:inception": "1981~",
    "geom:area": 2.475047457570636e-7,
    "geom:bbox": "-122.386472,37.616105,-122.385834,37.616611",
    "geom:latitude": 37.61635747477365,
    "geom:longitude": -122.38615540108617,
    "millsfield:aircraft_id": [
      1159289389
    ],
    "millsfield:airline_id": [
      1159285163
    ],
    "millsfield:category_id": 1763416373,
    "millsfield:collection_id": 1511214203,
    "millsfield:company_id": [
      1159293829
    ],
    "millsfield:images": [
      1779489291
    ],
    "millsfield:images_colors_refs": {
      "crayola": [
        {
          "hex": "#414a4c"
        },
        {
          "hex": "#bab86c"
        },
        {
          "hex": "#a5694f"
        },
        {
          "hex": "#ffffff"
        }
      ],
      "css4": [
        {
          "hex": "#cd5c5c"
        },
        {
          "hex": "#bdb76b"
        },
        {
          "hex": "#f5f5f5"
        },
        {
          "hex": "#2f4f4f"
        }
      ],
      "marekm4": [
        {
          "hex": "#453b42"
        },
        {
          "hex": "#a46454"
        },
        {
          "hex": "#c5b05e"
        },
        {
          "hex": "#f4f5f2"
        }
      ]
    },
    "millsfield:images_texts": [
      "On top of the array of extras provided by the manufacturers,\nwe've added a few of our own — turning the A300 Airbus into the\nA300 Superbus: Extra galleys, extra luggage lockers, extra\nlegroom, extra toilet, extra fuel economy and extra hostesses,\nto give you even more of the service other airlines talk about.\n• Length: 53.57m (175ft 9 ins) • Wing span: 44.84m (147ft 1 in)\n• Tail height: 16.53m (54ft 3 ins) • Maximum take-off weight: 165,000 kg\n(363,825 Ibs) • Maximum landing weight: 136,000 kg (299,880 Ibs)\n• Operating empty weight: approximately 93,000 kg (205,065 Ibs)\n• Maximum payload: approximately 31,000 kg (68,355 Ibs)\n• Operational range (equivalent still air distance with full load):\n3,340 nautical miles (6,185 km) • Cruise altitude: Average Flight Level\n310 (9,448.8 m) • Cruise speed (still air speed): 458 knots\n(848 km/hr) • Fuel capacity: 16,100 US gallons (47,500 kg)\n• Engines: two General Electric CF6-50C2. Maximum thrust 23,814 kg\n(52,500 Ibs) • Seating capacity: 24 First Class, 222 Economy\n• Cabin features: 6 galleys, 6 toilets, central overhead baggage\ncompartments, coat stowage for First Class passengers,\nindividual reading lights and inflight music system.\n• Navigational system: triplicated inertial navigational systems.\nSIA's A300 SUPERBUS. THE ONE WITH THE EXTRAS.\nFirst Class Zone (24 Passengers\"\nEconomy Class Zone (222 Passengers)\nGalleys\nDoor No. 4\nWashroom\nDoor No. 1\nWashroom\nDoor No. 2\nDoor No. 3\nTwo Galeys\nFour washrooms\nWashroom\nOverhead Baggage\nWashrooms\nTwo Galleys\nTwo Galleys\nTwo Galleys\nA great way to fly\nSINGAPORE AIRLINES"
    ],
    "millsfield:images_texts_ids": [
      1779489291
    ],
    "millsfield:primary_image": 1779489291,
    "millsfield:subcategory_id": 1511213365,
    "mz:is_approximate": 1,
    "mz:is_current": 1,
    "sfomuseum:accession_number": "2006.010.273",
    "sfomuseum:aircraft": "Airbus A300",
    "sfomuseum:aircraft_id": [
      16
    ],
    "sfomuseum:airline": "Singapore Airlines",
    "sfomuseum:airline_id": [
      764
    ],
    "sfomuseum:category": "Promotional, Museum",
    "sfomuseum:classification_id": 128,
    "sfomuseum:collection": "Aviation Museum",
    "sfomuseum:continent": "North America",
    "sfomuseum:country": "United States",
    "sfomuseum:creditline": "Gift of the William Hough Collection",
    "sfomuseum:date": "c. 1981",
    "sfomuseum:date_acquired": "2010-07-30",
    "sfomuseum:daterange_end": "1986-12-31",
    "sfomuseum:daterange_start": "1976-01-01",
    "sfomuseum:description": "Poster produced by Singapore Airlines promoting Airbus A300 service; color illustration of seating plan and cutaway view of section of Airbus A300, with text, “SIA’s A300 Superbus. The one with the extras.”; airline servicemark at bottom right corner. ",
    "sfomuseum:dimensions": "30 x 40 inches (76.2 x 101.6 cm)",
    "sfomuseum:medium": "paper, ink",
    "sfomuseum:object_id": 81179,
    "sfomuseum:placetype": "object",
    "sfomuseum:publication": ": , c. 1981.",
    "sfomuseum:subcategory": "Poster, Airline",
    "src:geom": "sfomuseum#undetermined",
    "wof:belongsto": [
      102527513,
      1159162825,
      102191575,
      85633793,
      102087579,
      85922583,
      85688637,
      1159160869
    ],
    "wof:country": "XY",
    "wof:created": 1652946745,
    "wof:depicts": [
      1159285163,
      1159288903,
      1159289389,
      1159293829
    ],
    "wof:geomhash": "c281b9d9eefc83b5710e64b9d646067d",
    "wof:hierarchy": [
      {
        "building_id": -1,
        "campus_id": 102527513,
        "collection_id": 1159162825,
        "concourse_id": 1159162825,
        "continent_id": 102191575,
        "country_id": 85633793,
        "county_id": 102087579,
        "custom_id": 1779488963,
        "locality_id": 85922583,
        "neighbourhood_id": -1,
        "object_id": 1779488963,
        "region_id": 85688637,
        "wing_id": 1159160869
      }
    ],
    "wof:id": 1779488963,
    "wof:lastmodified": 1787988208,
    "wof:name": "poster: Singapore Airlines, Airbus A300",
    "wof:parent_id": 1159162825,
    "wof:placetype": "custom",
    "wof:placetype_alt": [
      "object"
    ],
    "wof:repo": "sfomuseum-data-collection",
    "wof:superseded_by": [],
    "wof:supersedes": []
  },
  "bbox": [
    -122.38647222518921,
    37.6161053594541,
    -122.38583385944366,
    37.61661101879963
  ],
  "geometry": {"type":"Polygon","coordinates":[[[-122.38647222518921,37.61631782178288],[-122.386434674263,37.61623283692423],[-122.38637566566466,37.61617759671399],[-122.38630056381224,37.6161308549656],[-122.38616108894348,37.6161053594541],[-122.38602161407469,37.6161308549656],[-122.38591432571411,37.61618609521055],[-122.38585531711577,37.61626683087935],[-122.38583385944366,37.61636881265146],[-122.38587141036987,37.61646654505181],[-122.38594114780425,37.61654303118856],[-122.38605380058287,37.61660252035167],[-122.38618254661559,37.61661101879963],[-122.3863059282303,37.61657277577607],[-122.3864185810089,37.61650903735973],[-122.3864668607712,37.61641130501523],[-122.38647222518921,37.61631782178288]]]}
}
