{
  "id": 1762828343,
  "type": "Feature",
  "properties": {
    "date:cessation_lower": "1929-01-01",
    "date:cessation_upper": "1929-12-31",
    "date:inception_lower": "1929-01-01",
    "date:inception_upper": "1929-12-31",
    "edtf:cessation": "1929",
    "edtf:inception": "1929",
    "geom:area": 0,
    "geom:bbox": "-122.391953,37.624731,-122.391953,37.624731",
    "geom:latitude": 37.624731,
    "geom:longitude": -122.391953,
    "iso:country": "US",
    "millsfield:airport_id": [
      1360695653
    ],
    "millsfield:category_id": 1511214239,
    "millsfield:collection_id": 1511214207,
    "millsfield:images": [
      1762897241
    ],
    "millsfield:images_colors_refs": {
      "crayola": [
        {
          "hex": "#eceabe"
        },
        {
          "hex": "#414a4c"
        }
      ],
      "css4": [
        {
          "hex": "#556b2f"
        },
        {
          "hex": "#f5deb3"
        }
      ],
      "marekm4": [
        {
          "hex": "#565642"
        },
        {
          "hex": "#e6ddc0"
        }
      ]
    },
    "millsfield:images_texts": [
      "September 83, 1929\nThe Hon. M110 He Kent,\nChairman of the Airport Committee,\nBoard of Supervisors,\nSen Treneisco, Calit.\nliy dear Kent:\nInclosed is a zeport of the advisory Committee\ndated September 18, 1929 which is self explenatory and\nwhich we believe you should have on file for reference\nin case the gueation comes up emong the Board of\nSupervisors concerning the title to l111s 71el8.\nIf there is anything further that we can do to\nassist\nplease\nlet either myself or Mouton know.\nw1th best personal regards,\nSincerely\n(Signed)\nLieut. CoLe\nG. C. BRA dir Corps,\nCommanding,"
    ],
    "millsfield:images_texts_ids": [
      1762897241
    ],
    "millsfield:primary_image": 1762897241,
    "millsfield:subcategory_id": 1511213483,
    "mz:is_approximate": 1,
    "mz:is_current": 1,
    "sfomuseum:accession_number": "2000.018.064.011",
    "sfomuseum:airport": "Mills Field Municipal Airport of San Francisco",
    "sfomuseum:airport_id": [
      162
    ],
    "sfomuseum:category": "Company Record / Document",
    "sfomuseum:classification_id": 190,
    "sfomuseum:collection": "Aviation Archive",
    "sfomuseum:creditline": "Collection of SFO Museum",
    "sfomuseum:date": "1929",
    "sfomuseum:date_acquired": "1999-06-30",
    "sfomuseum:daterange_end": "1929-12-31",
    "sfomuseum:daterange_start": "1929-01-01",
    "sfomuseum:description": "Facsimile of correspondence from Lt. Col. Gerald C. Brandt, Crissy Field, Presidio of San Francisco, to Milo H. Kent, Chairman of Airport Committee of San Francisco Board of Supervisors, dated September 23, 1929, concerning title to Mills Field Municipal Airport; file copy, not signed.",
    "sfomuseum:dimensions": "11 x 8 1/2 inches (27.9 x 21.6 cm)",
    "sfomuseum:medium": "paper, ink",
    "sfomuseum:object_id": 165135,
    "sfomuseum:placetype": "object",
    "sfomuseum:publication": ": , 1929.",
    "sfomuseum:subcategory": "Correspondence, Company",
    "src:geom": "sfomuseum#derived",
    "src:geom_derived_from": [
      1360695653
    ],
    "wof:belongsto": [
      102527513,
      1159162825,
      102191575,
      85633793,
      102087579,
      85922583,
      85688637,
      1159160869,
      1360695653,
      102085387,
      554784711
    ],
    "wof:country": "US",
    "wof:created": 1642729364,
    "wof:depicts": [
      1360695653
    ],
    "wof:geomhash": "3abf1c04b00c12d6593e9cd3c35f0056",
    "wof:hierarchy": [
      {
        "campus_id": 1360695653,
        "continent_id": 102191575,
        "country_id": 85633793,
        "county_id": 102087579,
        "custom_id": 1762828343,
        "locality_id": 85922583,
        "object_id": 1762828343,
        "postalcode_id": 554784711,
        "region_id": 85688637
      },
      {
        "campus_id": 1360695653,
        "continent_id": 102191575,
        "country_id": 85633793,
        "county_id": 102085387,
        "custom_id": 1762828343,
        "object_id": 1762828343,
        "region_id": 85688637
      },
      {
        "building_id": -1,
        "campus_id": 102527513,
        "collection_id": 1159162825,
        "concourse_id": 1159162825,
        "continent_id": 102191575,
        "country_id": 85633793,
        "county_id": 102087579,
        "custom_id": 1762828343,
        "locality_id": 85922583,
        "neighbourhood_id": -1,
        "object_id": 1762828343,
        "region_id": 85688637,
        "wing_id": 1159160869
      }
    ],
    "wof:id": 1762828343,
    "wof:lastmodified": 1787988200,
    "wof:name": "correspondence: Presidio of San Francisco, Airport Committee of Board of Supervisors, Mills Field Municipal Airport of San Francisco",
    "wof:parent_id": 1159162825,
    "wof:placetype": "custom",
    "wof:placetype_alt": [
      "object"
    ],
    "wof:repo": "sfomuseum-data-collection",
    "wof:superseded_by": [],
    "wof:supersedes": []
  },
  "bbox": [
    -122.391953,
    37.624731,
    -122.391953,
    37.624731
  ],
  "geometry": {"type":"MultiPoint","coordinates":[[-122.391953,37.624731]]}
}
