{
  "id": 1511935611,
  "type": "Feature",
  "properties": {
    "date:cessation_lower": "1968-01-01",
    "date:cessation_upper": "1968-12-31",
    "date:inception_lower": "1968-01-01",
    "date:inception_upper": "1968-12-31",
    "edtf:cessation": "1968",
    "edtf:date": "1968",
    "edtf:inception": "1968",
    "geom:area": 0,
    "geom:bbox": "-122.386155,37.616357,-122.386155,37.616357",
    "geom:latitude": 37.616357,
    "geom:longitude": -122.386155,
    "iso:country": "XX",
    "millsfield:airline_id": [
      1159283793
    ],
    "millsfield:category_id": 1511214223,
    "millsfield:collection_id": 1511214207,
    "millsfield:company_id": [
      1159286809
    ],
    "millsfield:images": [
      1527832183,
      1527848275
    ],
    "millsfield:images_colors_refs": {
      "crayola": [
        {
          "hex": "#ff5349"
        },
        {
          "hex": "#d68a59"
        },
        {
          "hex": "#c54b8c"
        },
        {
          "hex": "#efcdb8"
        },
        {
          "hex": "#414a4c"
        },
        {
          "hex": "#000000"
        },
        {
          "hex": "#bf4f51"
        },
        {
          "hex": "#cdc5c2"
        }
      ],
      "css4": [
        {
          "hex": "#cd853f"
        },
        {
          "hex": "#c0c0c0"
        },
        {
          "hex": "#f5deb3"
        },
        {
          "hex": "#d2691e"
        },
        {
          "hex": "#db7093"
        },
        {
          "hex": "#000000"
        },
        {
          "hex": "#2f4f4f"
        },
        {
          "hex": "#cd5c5c"
        }
      ],
      "marekm4": [
        {
          "hex": "#cbbfb2"
        },
        {
          "hex": "#b26086"
        },
        {
          "hex": "#333232"
        },
        {
          "hex": "#bb5348"
        },
        {
          "hex": "#2b1e1b"
        },
        {
          "hex": "#e4512a"
        },
        {
          "hex": "#b59055"
        },
        {
          "hex": "#e4ceb5"
        }
      ]
    },
    "millsfield:images_texts": [
      "AIR\nCALIFORNIA\nSERVING SAN FRANCISCO, OAKLAND,\nSAN JOSE AND THE ORANGE COUNTY\nDISNEYLAND AREA",
      "AIR CALIFORNIA\nSERVING ORANGE COUNTY AND\nNORTHBOUND\nORANGE COUNTY→\nOAKLAND\nMonday through\nThursday\nFlight\nLeave\n301\n9:05\n311\n9:30\n11:05\n341\n4:30\n351\n6:\n30\np.m.\nMON\np.m.\nFriday\nSame as Monday through Thursday plus:\n2:30 p.m.\n4:05 O.m\n361\n8:30 p.m.\n10:05 p.m.\nSaturday\n311\n9:30 a.m.\n11:05 a.m.\n12:30 p.m.\n2:05 p.m.\n351\n6:30 p.m.\n8:05 p.m.\nSunday\n9:30 a.m.\n11:05\n:30 p.\n2\n2:30 p.\np.\n.m.\n6:05\n9:15 p.m.\n: 05\np.m\n10:50 p.m.\nMovieland\nWax Museum\nPacific\nKnott's\nBerry Farm\nDisneyland\nConvention\ncenter d\nSanta\nGarden Grove Freeway\nFreeway\nBeach Blvd.\nHuntington Beach\nCoast\nNewport\nBeach\nSanta\n• Avalon\nCatalina\nIsland\nOAKLAND\nSAN FRANCISCO\nNORTHBOUND\nSOUTHBOUND\nSOUTHBOUND\nOAKLAND→\nORANGE COUNTY\nMonday through Thursday\nFlight\nLeave\nArrive\n402\n9:05 a.m.\n412\n9:30 a.m\n11:05 a.m.\n442\np.m.\n4:30\n2:05\n6:05 p.m.\n452\n6:30 p.m.\n8:05 p.m.\nFriday\nSame as Monday through Thursday plus:\n2:30 D.m\n4:00 p.m.\n462\n8:30 p.m.\n10:05 p.m.\nSaturday\n412\n9:30 a.m.\n11:05 a.m.\n422\n12:30 p.m.\n2:05 p.m.\n452\n6:30 p.m.\n8:05 p.m.\n9:30 a.m.\n11:05\n12:30\n30\np.\n2:05\np.m.\np.m.\np.m\np.m.\np.m.\n462\no.SU\n10.00 p.m\nORANGE COUNTY-\nSAN FRANCISCO-\nSAN FRANCISCO\nORANGE COUNTY\nMonday through Thursday\nMonday through Thursday\nFlight\nLeave\nArrive\nFlight\nLeave\nArrive\n9:00 a.m.\n9:00\n8:15\n•30 a.m.\n.m\n8:45\n242\n1.30 D.m.\nm.\nFriday\nFriday\nSame as Monday through Thursday plus:\nSame as Monday through Thursday plus:\n163\n9:30 D.m.\n10:45 p.m.\n252\n9:15 p.m.\n10:30 p.m.\nSaturday\nSaturday\n700 am\n8.1s and\n9:00 a.m.\n10:15\n8:45 a.m.\n10:00 a.m.\n10:30 a.m.\n11:45\n12.1o p.m\nHESU\n10:30\n121\na.m.\n5:30 p.\n6:45\n7:30 p.m.\n-™:\n11:45\na.m.\n12:15 p.m.\n232\n5:30 p.m.\n1:30\np.m.\np.m.\n242\n7:30 p.m.\n8:45\np.m.\nSunday\nSunday\n:30 a.\n10:30 a.m.\np.m.\n11:45\na.m.\nm.\np.m.\n10:30\n11:\np.m.\nEffective March 1, 1968\nSAN JOSE\nNORTHBOUND\nORANGE COUNTY→\nSAN JOSE\nMonday through Thursday\nFlight\nLeave\nArrive\n7:30 a.m.\n8:40 a.m.\n311\n9:30 a.m.\n341\n12:30 p.m\n1:40 p.m.\n4:30\np.m.\n:40\np.m\n6:30 p.m.\nFriday\nSame as Monday through Thursday plus:\n2:30 p.m\n3:40 p.m.\n361\n8:30 p.m.\n9:40 p.m.\nSaturday\n311\n9:30 a.m.\n10:40 a.m.\n321\n12:30 p.m.\n0:30 D.m\n7:40 p.m.\nSunday\n.m.\na.\nSOUTHBOUND\nSAN JOSE→\nORANGE COUNTY\nMonday through Thursday\nFlight\nLeave\nArve\n402\n9:55\n9:05 a.m.\n422\n11:05 a.m.\n442\n452\nDAN\n133\np.m.\np.m.\n6:05\nFriday\nSame as Monday through Thursday plus:\n432\n2:55 p.m.\n4:05 p.m.\n462\n8:55 p.m.\nSaturday\n412\n9:55 a.m.\n11:05 a.m.\n422\n12:55 p.m.\nZ:US D.m\n6:55 p.m.\n8:05\np.m.\nSunday\n11:05\n2:\n: 05\n4.UH\n6:05\n10:\n10:05\nSAN RAFAEL\nSAN PABLO\nCONCORD\nRiverside\nFreeway\nRICHMOND\nWALNUT\nEL CERRITO\nCREEK\nAnaheim\nFOR RESERVATIONS\nMARIN\nTIBURON'\n\\ALBANY\nBERKELE\nAUSALITO\nSAN FRANCISCO\nORANGE COUNTY\n(415) 433-2660\n(714) 540-4550\nPIEDMONT\nOAKLAND\nSAN JOSE\nAngels Baseball Stadium\n(415) 562-8200\n(408) 286-7870\nOAKLAND\nAnaR\nSAN FRANCISCO\nSAN LEANDRO\nDALY CITY\nSAN LORENZO\nFAMILY FARES. One\nchild\nunder\ntwo\nyears\nold\nnot\nHAYWARI\nSanta Ana\noccupying a seat may fly\npassenger\ntwelve\nyears\nfree\nwhen\naccompanied by\nold\nor\nover.\nAll children under\nSAN BRUNO\nBURLINGAME\ntwelve may fly for one-half fare.\nHarbor Blvd.\nMILITARY FARES. Military personnel on leave may travel\nfor one-half fare on a space available basis. Consult your\nSAN MATEO\nFREMONT\nAir California agent for details.\nCREDIT CARDS.\nAir California honors\nOrange County\npress,\nAmerican\nEx-\nREDWOOD CITY\nBankAmericard, Carte\nBlanche,\nDiner's Club, and\nNewport Freeway\nAirport\nMaster Charge-Interbank credit cards.\nMENLO PARK\nBAGGAGE ALLOWANCE. Two large pieces of luggage\nPALO ALTO\nsubject to certain size restrictions),\nplus\nsmall pieces\nSTANFORD\nMILPITAS\nwhich\ncan\nbe\nstowed\nunder the\nUniversity\nnaddition.\nseat\nmay\nbe\ncarried\nfree.\nPassers\non the same flight may\nMOUNTAIN VIEW\npool.\nSANTA CLARA\nof California\nbaggage.\nUsually,\nthe\nfree baggage allowance cov-\ners all the\nSUNNYVALE\nluggage\nyou will need\nIrvine\nin a week or a\nmonth.\nwhether\nyou return\nSAN JOSE\nGROUP SALES AND AIR CARGO.\nAir California main-\nHighway\nEl Toro\ntains sales offices in both\nOrange County and San Fran-\nCoroorate\nFor\nMarine Base\nwith\nfurther\ninformation\noffices\nCurtes Drive tomort Bec\nwrite.\nAir\nCalifornia,\nLaguna Beach\n14\n185\nONE-WAY PLUS TAX\nGILROY\nSANTA CRUZ"
    ],
    "millsfield:images_texts_ids": [
      1527832183,
      1527848275
    ],
    "millsfield:primary_image": 1527832183,
    "millsfield:subcategory_id": 1511213425,
    "mz:hierarchy_label": 1,
    "mz:is_current": 1,
    "sfomuseum:accession_number": "2005.132.002.004",
    "sfomuseum:airline": "Air California",
    "sfomuseum:airline_id": [
      144
    ],
    "sfomuseum:category": "Scheduling / Ticketing",
    "sfomuseum:classification_id": 158,
    "sfomuseum:collection": "Aviation Archive",
    "sfomuseum:creditline": "Gift of the William Hough Collection",
    "sfomuseum:date": "1968",
    "sfomuseum:date_acquired": "2006-12-05",
    "sfomuseum:daterange_end": "1968-12-31",
    "sfomuseum:daterange_start": "1968-01-01",
    "sfomuseum:description": "Timetable issued by Air California, effective March 1, 1968; three-page fold-out; white cover with color illustration of a woman in a red hat with text, “Serving the San Francisco and the Orange County/Disneyland Area”.",
    "sfomuseum:dimensions": "9 x 4 inches (22.9 x 10.2 cm)",
    "sfomuseum:media_ids": [
      1527832183,
      1527848275
    ],
    "sfomuseum:medium": "paper, ink",
    "sfomuseum:object_id": 97439,
    "sfomuseum:placetype": "object",
    "sfomuseum:primary_media_id": 1527832183,
    "sfomuseum:publication": ": , 1968.",
    "sfomuseum:subcategory": "Timetable",
    "src:geom": "sfomuseum#undetermined",
    "wof:belongsto": [
      1511214223,
      102527513,
      102191575,
      85633793,
      1511213425,
      85922583,
      102087579,
      1511214277,
      1511214207,
      85688637
    ],
    "wof:breaches": [],
    "wof:country": "XX",
    "wof:created": 1579906656,
    "wof:depicts": [
      1159283793,
      1159286809
    ],
    "wof:geomhash": "30c8a918561c84bb2daa2b97fc7c5353",
    "wof:hierarchy": [
      {
        "arcade_id": 1511213425,
        "building_id": 1511214277,
        "campus_id": 102527513,
        "concourse_id": 1511214223,
        "continent_id": 102191575,
        "country_id": 85633793,
        "county_id": 102087579,
        "custom_id": 1511935611,
        "locality_id": 85922583,
        "neighbourhood_id": -1,
        "object_id": 1511935611,
        "region_id": 85688637,
        "venue_id": 1511935611,
        "wing_id": 1511214207
      }
    ],
    "wof:id": 1511935611,
    "wof:lastmodified": 1787988182,
    "wof:name": "timetable: Air California",
    "wof:parent_id": 1159162825,
    "wof:placetype": "custom",
    "wof:placetype_alt": [
      "object"
    ],
    "wof:repo": "sfomuseum-data-collection",
    "wof:superseded_by": [],
    "wof:supersedes": [],
    "wof:tags": []
  },
  "bbox": [
    -122.386155,
    37.616357,
    -122.386155,
    37.616357
  ],
  "geometry": {"type":"Point","coordinates":[-122.386155,37.616357]}
}
