{
  "id": 1511922163,
  "type": "Feature",
  "properties": {
    "date:cessation_lower": "1960-01-01",
    "date:cessation_upper": "1960-12-31",
    "date:inception_lower": "1960-01-01",
    "date:inception_upper": "1960-12-31",
    "edtf:cessation": "1960~",
    "edtf:date": "1960~",
    "edtf:inception": "1960~",
    "geom:area": 0,
    "geom:bbox": "-122.386155,37.616357,-122.386155,37.616357",
    "geom:latitude": 37.616357,
    "geom:longitude": -122.386155,
    "iso:country": "XX",
    "millsfield:airline_id": [
      1159284989
    ],
    "millsfield:category_id": 1762671311,
    "millsfield:collection_id": 1511214207,
    "millsfield:company_id": [
      1159286839
    ],
    "millsfield:images": [
      1527844847,
      1527845387,
      1527847781,
      1746308111,
      1746308113,
      1746308117
    ],
    "millsfield:images_colors_refs": {
      "crayola": [
        {
          "hex": "#9c7c38"
        },
        {
          "hex": "#efdecd"
        },
        {
          "hex": "#c46210"
        },
        {
          "hex": "#d68a59"
        },
        {
          "hex": "#bab86c"
        },
        {
          "hex": "#000000"
        },
        {
          "hex": "#414a4c"
        }
      ],
      "css4": [
        {
          "hex": "#faebd7"
        },
        {
          "hex": "#2f4f4f"
        },
        {
          "hex": "#f5f5dc"
        },
        {
          "hex": "#000000"
        },
        {
          "hex": "#a0522d"
        },
        {
          "hex": "#cd853f"
        },
        {
          "hex": "#bdb76b"
        }
      ],
      "marekm4": [
        {
          "hex": "#be9c47"
        },
        {
          "hex": "#a26d33"
        },
        {
          "hex": "#ece8de"
        },
        {
          "hex": "#27231b"
        },
        {
          "hex": "#f1eadc"
        },
        {
          "hex": "#a05b18"
        },
        {
          "hex": "#332517"
        },
        {
          "hex": "#c2b34f"
        },
        {
          "hex": "#f0eadd"
        },
        {
          "hex": "#413726"
        }
      ]
    },
    "millsfield:images_texts": [
      "J AMÉRiQUE\nDU NORD\nCENTRALE",
      "ThE\nPRESIDENT\nSPECIAL\nDiNER MLA CARTE\nHORS DOEUVRE\nLes Délices culinaires de la Voiture\nSELECTED DELICACIES FROM THE CART\nEMIREES\nLa Tranche de Saumon grillée - Beurre Moutarde\nGRILLED SALMON\u0026MUSTARD BUTTER\nCe Suprême de Volaille Régence\nBREAST OF CHICKEN\"REGENCE\"",
      "Roli\nNotre Spécialité: Ca Côte de Boeuf à la Broche\nOUR SPECIALTY: PRIME RIB OF STEER\nLEGUMES\nCes Carottes glacées Ces Croquettes de Riz\nRICE CROQUETTES\nSALADE\nCes Coeurs de Caitues aux fines Herbes\nHEARTS OF LETTUCE WITH HERBS\nFROMAGES\nLa Sélection de Fromages de Payo\nSELECTION OF CHEESES\nENTREMETS\nLa Jarte aux Ananas\nPINEAPPLE TART\nCe Gâteau Hawaïen\nFRUils\nUn Choix de Fruits des les et des Continents\nFRUIT BASKET\nCapé Américain\nCabé Sanka\nAMERICAN COFFEE-SANKA COFFEE-ORANGE PEKOE TEA\nThé Orange Defere\nNOIRE SELECTiON DES GRANDS ViNS\nBOURGOGNE BLANC Tee de Curie\nBORDEAUX ROUGE Grand Crû classé\nCHAMPAGNE Brut - Curée spéciale pour Pan American\nCOGNAC Réserve e LIQUEURS de Marque\nPAN AMERiCAN CUiSiNE BI MAXIM'S DE PARiS\n\"La bonne Cuisine est la base du véritable bonheur. \"A. Escoffion",
      "ATLES HAWA\nPORTIN\nCHICAGO\nSAN FRANCISCO\nLOS ANGELES\nQUÉBECO\nMONTREAL O\nOTTAWAO.\nBOSTON®\nGNEW. YORA\n•WASHINGTON\n•MEXICO 9\nNELI\nORLEANS\nLA HAVANE\nPHCUBA\nOMIAMI\n9\nPORT\nSU PRINCE\nGUATEMA\nGUATEMALAL\nSAN\n\u0026 SALVADOR SALVADOR\nSAN JOSA\nTEƠUCIGALPA\nY INIGARAGUAT\nMANAGUA PANAMA\nPICOSTA RICAS\nBeANAMAT\nAMÉRICUE\nN DU NORD\nCENTRALE\n800\nVALUES\n10 6 3\nEA r\nRÉP. DOMİNICAI NE D\nPUERTO RiCO\nC.TRUJILLO\nAGUA DELOUPET",
      "THE\nPRESiDENT\nSPECIAL\nDiNER ALA CARTE\nHORS D'OEUVRE\nLes Délices culinaires de la Voiture\nSELECTED DELICACIES FROM THE CART\nENIREES\nLa Tranche de Saumon grillée - Beurre Moutarde\nGRILLED SALMON -MUSTARD BUTTER\nCe Suprême de Volaille Régence\nBREAST OF CHICKEN REGENCE\"\nRoTi\nNotre Spécialité: La Côte de Boeuf à la Broche\nOUR SPFCIAITY. PRIME",
      "RoTi\nNotre Spécialité: La Côte de Boeuf à la Broche\nOUR SPECIALTY: PRIME RIB OF STEER\nLEGUMES\nLeo Carottes glacéeo Les Croquettes de Riz\nGLAZED CARROTS\nRICE CROQUETTES\nSALADE\nCes Coeurs de Caitues aux fines Aterbes\nHEARTS OF LETTUCE WITH HERBS\nFROMAGES\nLa Sélection de Fromages de Payo\nSELECTION OF CHEESES\nENTREMETS\nLa Tarte aux Ananas Le Gâteau Hawaiien\nPINEAPPLE TART\nHAWAIIAN CAKE\nFRUils\nUn Choix de Fruits des Iles et des Continents\nFRUIT BASKET\nCabé Américain Café Sanka Thé Orange Dekoe\nAMERICAN COFFEE-SANKA COFFEE-ORANGE PEKOE TEA\nNOTRE SELECION DES GRANDS ViNS\nBOURGOGNE BLANC Tête de Quée\nBORDEAUX ROUGE Grand Cru classé\nCHAMPAGNE Brut — Cuvée spéciale pour Pan American\nCOGNAC Réserve el LIQUEURS de Marque\nPAN AMERiCAN CUiSiNE BY MAXiM'S DE PARiS\n\"La bonne Cuisine est la base du véritable bonheur.\"A. Escoffier\nK"
    ],
    "millsfield:images_texts_ids": [
      1527844847,
      1527845387,
      1527847781,
      1746308111,
      1746308113,
      1746308117
    ],
    "millsfield:primary_image": 1746308111,
    "millsfield:subcategory_id": 1511213567,
    "mz:hierarchy_label": 1,
    "mz:is_current": 1,
    "sfomuseum:accession_number": "2001.080.232",
    "sfomuseum:airline": "Pan American World Airways",
    "sfomuseum:airline_id": [
      684
    ],
    "sfomuseum:artist": "Jacques Liozu",
    "sfomuseum:category": "Passenger Amenity, Archive",
    "sfomuseum:classification_id": 242,
    "sfomuseum:collection": "Aviation Archive",
    "sfomuseum:continent": "World Routes",
    "sfomuseum:creditline": "Gift of Thomas G. Dragges",
    "sfomuseum:date": "c. 1960",
    "sfomuseum:date_acquired": "2002-12-24",
    "sfomuseum:daterange_end": "1965-12-31",
    "sfomuseum:daterange_start": "1955-01-01",
    "sfomuseum:description": "Menu issued by Pan American World Airways; color illustration depicting map of North and Central America, titled “Amerique du Nord et Centrale”; menu items include prime rib, grilled salmon, and chicken regence; no menu number; class: President (first); undated.",
    "sfomuseum:dimensions": "12 1/2 x 10 inches (31.8 x 25.4 cm)",
    "sfomuseum:maker": "Pan American Airways, Inc.",
    "sfomuseum:media_ids": [
      1527844847,
      1527845387,
      1527847781
    ],
    "sfomuseum:medium": "paper, ink",
    "sfomuseum:object_id": 61679,
    "sfomuseum:placetype": "object",
    "sfomuseum:primary_media_id": 1527844847,
    "sfomuseum:publication": ": , c. 1960.",
    "sfomuseum:series": "cover map from \"Savoir-Vivre International\"; illustration by Jacques Liozu ",
    "sfomuseum:subcategory": "Menu",
    "src:geom": "sfomuseum#undetermined",
    "wof:belongsto": [
      1159162825,
      102527513,
      102191575,
      85633793,
      85922583,
      102087579,
      1159160869,
      85688637
    ],
    "wof:breaches": [],
    "wof:country": "XX",
    "wof:created": 1579906661,
    "wof:depicts": [
      1159286839,
      1159284989
    ],
    "wof:geomhash": "30c8a918561c84bb2daa2b97fc7c5353",
    "wof:hierarchy": [
      {
        "building_id": -1,
        "campus_id": 102527513,
        "concourse_id": 1159162825,
        "continent_id": 102191575,
        "country_id": 85633793,
        "county_id": 102087579,
        "custom_id": 1511922163,
        "locality_id": 85922583,
        "neighbourhood_id": -1,
        "object_id": 1511922163,
        "region_id": 85688637,
        "venue_id": 1511922163,
        "wing_id": 1159160869
      }
    ],
    "wof:id": 1511922163,
    "wof:lastmodified": 1787988178,
    "wof:name": "menu: Pan American World Airways, President (first) class",
    "wof:parent_id": 1159162825,
    "wof:placetype": "custom",
    "wof:placetype_alt": [
      "object"
    ],
    "wof:repo": "sfomuseum-data-collection",
    "wof:superseded_by": [],
    "wof:supersedes": [],
    "wof:tags": []
  },
  "bbox": [
    -122.386155,
    37.616357,
    -122.386155,
    37.616357
  ],
  "geometry": {"type":"Point","coordinates":[-122.386155,37.616357]}
}
