{
  "id": 1511909137,
  "type": "Feature",
  "properties": {
    "date:cessation_lower": "1964-01-01",
    "date:cessation_upper": "1964-12-31",
    "date:inception_lower": "1964-01-01",
    "date:inception_upper": "1964-12-31",
    "edtf:cessation": "1964",
    "edtf:date": "1964",
    "edtf:inception": "1964",
    "geom:area": 0,
    "geom:bbox": "-122.386155,37.616357,-122.386155,37.616357",
    "geom:latitude": 37.616357,
    "geom:longitude": -122.386155,
    "iso:country": "US",
    "millsfield:airline_id": [
      1159285415
    ],
    "millsfield:category_id": 1511214223,
    "millsfield:collection_id": 1511214207,
    "millsfield:company_id": [
      1159288779
    ],
    "millsfield:images": [
      1527818385,
      1527818387
    ],
    "millsfield:images_colors_refs": {
      "crayola": [
        {
          "hex": "#1a4876"
        },
        {
          "hex": "#4a646c"
        },
        {
          "hex": "#757575"
        },
        {
          "hex": "#ff2b2b"
        },
        {
          "hex": "#efdecd"
        }
      ],
      "css4": [
        {
          "hex": "#dc143c"
        },
        {
          "hex": "#708090"
        },
        {
          "hex": "#2f4f4f"
        },
        {
          "hex": "#faebd7"
        }
      ],
      "marekm4": [
        {
          "hex": "#365369"
        },
        {
          "hex": "#698697"
        },
        {
          "hex": "#e41c1c"
        },
        {
          "hex": "#52788a"
        },
        {
          "hex": "#5c7b8b"
        },
        {
          "hex": "#f1e7d7"
        },
        {
          "hex": "#628594"
        },
        {
          "hex": "#efe6db"
        },
        {
          "hex": "#2c4367"
        }
      ]
    },
    "millsfield:images_texts": [
      "SAN FRANCISCO /\nOAKLAND\nEFFECTIVE JUNE 1. 1384\nUNITED\nUNITED JETS\nTO HAWAII...\nECONOMY COACH JETS\nONLY $100\nCUSTOM COACH JETS\nONLY $110*\n(see map page)",
      "FOR INFORMATION OR RESERVATIONS CALL\nYOUR TRAVEL AGENT OR UNITED AIR LINES.\nSan Francisco.\n.EX 7-2100\nCiskann\nHayward.\nKicinone\nMarin County. ........DU 8-3774\nPalo Alto - Yountain Vien\nSimsalan\n957-6093\nrcawcod Cay....... Eo1 o-ck01\nWalnu! Creek...\nhisarde\n.. YE 4-1600\nTol hn chee unnan direcv in dariaiinn from tkr\npirine Terminal and oblain checkin, including sost reserval\ntion and selection as applicable, and ground transportation tol\nSan Francisco International Airport avaitable at:\nDowntown Airline Terminal\n375 'Farrell Street, San Francisco\nJUNE-1964\nT W\ns\nS M\n14\n21\n22\n16\n23\n10\n24\n11\n25\n26\n13\n20\n27\n26\nJULY-1964\nT F S\n3\n10 11\n15\n16\n28\n29\n30\n17\n18\n24 25\n31\nEcoremical Taniy\n4116-SF0-6/61\naut Oile er yor we gat bl,\nSHIP ON UNITED'S\nDG-8F JET FREIGHTERS\nNONSTOP TO CHICAGO\nAND NEW YORK\n(see schedules inside back cover)\nPrinted in U.S.A."
    ],
    "millsfield:images_texts_ids": [
      1527818385,
      1527818387
    ],
    "millsfield:primary_image": 1527818385,
    "millsfield:subcategory_id": 1511213425,
    "mz:hierarchy_label": 1,
    "mz:is_current": 1,
    "sfomuseum:accession_number": "1999.015.155 a b",
    "sfomuseum:airline": "United Air Lines",
    "sfomuseum:airline_id": [
      884
    ],
    "sfomuseum:category": "Scheduling / Ticketing",
    "sfomuseum:classification_id": 158,
    "sfomuseum:collection": "Aviation Archive",
    "sfomuseum:continent": "North America",
    "sfomuseum:country": "United States",
    "sfomuseum:creditline": "Gift of Homer Hudson",
    "sfomuseum:date": "1964",
    "sfomuseum:date_acquired": "1999-07-06",
    "sfomuseum:daterange_end": "1964-12-31",
    "sfomuseum:daterange_start": "1964-01-01",
    "sfomuseum:description": "City timetable issued by United Air Lines for service to and from San Francisco and Oakland, effective June 1, 1964; white and blue cover with promoting low-cost fares to Hawaii.",
    "sfomuseum:dimensions": "9 x 4 inches (22.9 x 10.2 cm)",
    "sfomuseum:media_ids": [
      1527818385,
      1527818387
    ],
    "sfomuseum:medium": "paper, ink",
    "sfomuseum:object_id": 48893,
    "sfomuseum:placetype": "object",
    "sfomuseum:primary_media_id": 1527818385,
    "sfomuseum:publication": ": , 1964.",
    "sfomuseum:subcategory": "Timetable",
    "src:geom": "sfomuseum#undetermined",
    "wof:belongsto": [
      1511214223,
      102527513,
      102191575,
      85633793,
      1511213425,
      85922583,
      102087579,
      1511214277,
      1511214207,
      85688637,
      136253057
    ],
    "wof:breaches": [],
    "wof:country": "US",
    "wof:created": 1579906678,
    "wof:depicts": [
      1159288779,
      85688637,
      85633793,
      1159285415,
      85921881
    ],
    "wof:geomhash": "30c8a918561c84bb2daa2b97fc7c5353",
    "wof:hierarchy": [
      {
        "arcade_id": 1511213425,
        "building_id": 1511214277,
        "campus_id": 102527513,
        "concourse_id": 1511214223,
        "continent_id": 102191575,
        "country_id": 85633793,
        "county_id": 102087579,
        "custom_id": 1511909137,
        "locality_id": 85922583,
        "neighbourhood_id": -1,
        "object_id": 1511909137,
        "region_id": 85688637,
        "venue_id": 1511909137,
        "wing_id": 1511214207
      },
      {
        "continent_id": 102191575,
        "country_id": 85633793,
        "custom_id": 1511909137,
        "empire_id": 136253057,
        "object_id": 1511909137,
        "venue_id": 1511909137
      }
    ],
    "wof:id": 1511909137,
    "wof:lastmodified": 1787988176,
    "wof:name": "timetable: United Air Lines, San Francisco and Oakland",
    "wof:parent_id": 1159162825,
    "wof:placetype": "custom",
    "wof:placetype_alt": [
      "object"
    ],
    "wof:repo": "sfomuseum-data-collection",
    "wof:superseded_by": [],
    "wof:supersedes": [],
    "wof:tags": []
  },
  "bbox": [
    -122.386155,
    37.616357,
    -122.386155,
    37.616357
  ],
  "geometry": {"type":"Point","coordinates":[-122.386155,37.616357]}
}
