{
  "id": 1762693385,
  "type": "Feature",
  "properties": {
    "date:cessation_lower": "1983-01-01",
    "date:cessation_upper": "1983-12-31",
    "date:inception_lower": "1983-01-01",
    "date:inception_upper": "1983-12-31",
    "edtf:cessation": "1983",
    "edtf:inception": "1983",
    "geom:area": 2.475047457570636e-7,
    "geom:bbox": "-122.386472,37.616105,-122.385834,37.616611",
    "geom:latitude": 37.61635747477365,
    "geom:longitude": -122.38615540108617,
    "millsfield:airline_id": [
      1159283527
    ],
    "millsfield:category_id": 1511214223,
    "millsfield:collection_id": 1511214207,
    "millsfield:company_id": [
      1159288379
    ],
    "millsfield:images": [
      1762698547,
      1762698549,
      1762700051
    ],
    "millsfield:images_colors_refs": {
      "crayola": [
        {
          "hex": "#cdc5c2"
        },
        {
          "hex": "#dbd7d2"
        },
        {
          "hex": "#6699cc"
        },
        {
          "hex": "#9c7c38"
        },
        {
          "hex": "#414a4c"
        },
        {
          "hex": "#714b23"
        },
        {
          "hex": "#1164b4"
        }
      ],
      "css4": [
        {
          "hex": "#2f4f4f"
        },
        {
          "hex": "#d3d3d3"
        },
        {
          "hex": "#6b8e23"
        },
        {
          "hex": "#556b2f"
        },
        {
          "hex": "#008b8b"
        },
        {
          "hex": "#5f9ea0"
        },
        {
          "hex": "#9acd32"
        }
      ],
      "marekm4": [
        {
          "hex": "#a9a93c"
        },
        {
          "hex": "#dad3b9"
        },
        {
          "hex": "#0c6eb4"
        },
        {
          "hex": "#64a0b9"
        },
        {
          "hex": "#cdd3c7"
        },
        {
          "hex": "#64a0b8"
        },
        {
          "hex": "#478a11"
        },
        {
          "hex": "#a8a93b"
        },
        {
          "hex": "#3b471b"
        },
        {
          "hex": "#ced5c9"
        },
        {
          "hex": "#3b382c"
        }
      ]
    },
    "millsfield:images_texts": [
      "АЭРОФЛОТ AEROFLOT\nSoviet airlines\nSoviet airlines\nРАСПИСАНИЕ\nЛЕТО\n1 апреля 1983 - 31 октября 1983\nПервый выпуск\nTIMETABLE\nSUMMER\nApril 1st 1983 - October 31st 1983\nFirst issue",
      "CONTENTS\nExplanation of signs and symbols\nHow to use this timetable.......\nAirline prefixes (decoding) ...\nCity and airport codes used\nin this timetable.............\nInternational services ...\nCargo services ..........\nGeneral information ...........\nAddresses and telephone numbers\nof Aeroflot representations.......\n..2\n2\n...2\n.......3\n.4-13\n...13\n....14\n...15\nEXPLANATION\nOF SIGNS AND SYMBOLS\n1 - Monday\nILW - Ilyushin 86\n2 - Tuesday\n- llyushin 62\n3 - Wednesday\nIL7\n- Ilyushin 76\n4 - Thursday\nTU5 - Tupolev 154\n5 - Friday\nTU3 - Tupolev 134\n6 - Saturday\nAN1 - Antonov 12\n7 - Sunday\nAN4 - Antonov 24\n*- Next day\nYK2 - Yakovlev 42\nDC8 - Douglas DC-8\nDC9 - Douglas DC-9\n707 - Boeing 707\n727 - Boeing 727\n737\n- Boeing 737\nAB3 - A300B European airbus\nTRD - Hawker siddeley trident\nIMPORTANT: Schedules, types of aircraft are subject to alterations without previous notice\nAll times shown are local times, within the USSR - Moscow time.\nHOW TO USE THIS TIMETABLE\nLENINGRAD - ATHENS\nAirport code\n01 Nov - 31 Mar\n0920\n1440\nATH\nSU-659 TU3 Y\nvia SXF\nValidity of flight\nDays of operation\nTime of arrival\nTime of departure\nFlight information\n- airline code\n- flight number\n- aircraft type\n- class of service\nTransfer\ninformation\nAIRLINE PREFIXES (decoding)\nSU - AEROFLOT\nJS\n- CHOSON MINHANG\nAZ\n- ALITALIA\nKL\n- KLM\nAl\n- AIR INDIA\nLZ\n- BALKAN\nAY\n- FINNAIR\nLO\n- LOT - POLISH AIRLINES\nAF\n- AIR FRANCE\nLN\n- LIBYAN ARAB AIRLINES\nAH\n- AIR ALGERIE\nLH\n- LUFTHANSA\nBA\n- BRITISH AIRWAYS\nMA\n- MALEV\nDT\n- TAAG\nOK\n- CSEKOSLOVENSKE\nIA\n- IRAQI AIRWAYS\nAFROLINE\nIB\n- IBERIA\nOM - AIR MONGOL\nIF\n- INTERFLUG\nOS - AUSTRIAN AIRLINES\nRB\n- SYRIAN ARAB AIRLINES\nRO\n- TAROM\nCA\n-GENERAL ADMIN. OF CIVIL\nSK\nSN\nSR\nFG\nJU\nAVIATION OF CHINA\n- SCANDINAVIAN AIRLINES\n- SABENA\n- SWISSAIR\n- ARIANA AFGAN AIRLINES\n- JUGOSLOVENSKI\nAEROTRANSPORT\nJL - JAPAN AIRLINES\nCITY AND AIRPORT CODES USED IN THIS TIMETABLE\nACC - ACCRA\nADD - ADDIS ABABA\nADE\n-ADEN\nALC\n- ALGIERS\nAMM - AMMAN\nAMS - AMSTERDAM\nANK\n- ANKARA\nARN\nATH\n- Arlanda (STOCKHOLM)\nATHENS\nAUH - ABU DHABI\n• BELGRADE\n- BEIRUT\nBGW -\n• BAGHDAD\nBJM - BUJUMBURA\nBKK\nBKO\n- BANGKOK\nBOJ\n- BAMAKO\n- BOURGAS\nBOM - BOMBAY\nBRU\nBTS\n- BRUSSELS\n- BRITISHAVA\nBUD\n- BUDAPEST\nBUH - BUCHAREST\nBXO\nBZV\n- BISSAU\n- BRAZZAVILLE\n- CAIRO\nCAS\n- CASABLANCA\nCCU\nCDG\n- CALCUTTA\n- Charles de Gaulle (PARIS)\nCKY\n- CONAKRY\nCMB\n- COLOMBO\nCOO\n- COTONOU\nCPH\n- COPENHAGEN\nDAC\n- DHAKA\nDAM - DAMASCUS\nDAR - DAR ES SALAAM\nDBV\n- DUBROVNIK\nDEL\nDKR - DAKAR\nDLA\n- DOUALA\nDRS\n- DRESDEN\nDUS\n- DUSSELDORF\nEVN\n- EREVAN\nFCO - Fiumicino (ROME)\nFIH\n- KINSHASA\nFNA\n- FREETOWN\nFNJ\nFRA\n- PYONGYANG\n- FRANKFURT ON MAIN\nGDN - GDANSK\nGVA\n- GENEVA\nHAM _ HAMRURG\nHAN\n- HANOI\nHAV\n- HAVANA\nHEL\n- HELSINKI\nIKT\nIST\n- IRKUTSK\nJIB\nISTANBUL\nDJIBOUTI\nKAN - KANO\nKBL\n- KABUL\nKBP\n- Borispol (KIEV)\nKGL - KIGALI\nKHI\n- KARACHI\nKHV -KHABAROVSK\nKIJ\nKIN\n- NIIGATA\n- KINGSTON\nKRT\n- KHARTOUM\n- KUALA LUMPUR\nKWI\nLAD\n- KUWAIT\nLCA\nLED\n- LARNACA\n- LENINGRAD\nLEJ\n- LEIPZIG\nLHR\nLIM\n- Heathrow (LONDON)\n- LIMA\nLIS\n- LISBON\nLUN\n- LUSAKA\nLUX\nLYR\n_ LUXEMBOURG\n- LONGYEAR\nMAD - MADRID\nMEX - MEXICO\nMGA - MANAGUA\nMGQ - MOGADISHU\nMKK\n- MURMANSK\nMW - MONROVIA\nMPM\n- MAPUTO\nMRS - MARSEILLES\nMSQ\n- MINSK\n- MINERALNYE VODY\nMUC _ MUNICH\nMXP - Malpensa (MILAN)\nNBO - NAIROBI\nNDB - NOUADHIBOU\nNDJ - NDJAMENA\nNRT\n- Narita (TOKYO)\nODS - ODESSA\nOSL\n- OSLO\nPEK\n- PEKING\nPNH\n- PHNOMPENH\nPRG\n- PRAGUE\n- RANGOON\nRIX\n- RIGA\nSAH\n- SANAA\nSEYCHELLES\nSGN - HOCHIMINH\nSID\n- ILHA DO SAL\nSIN\n- SINGAPORE\nSNN - SHANNON\nSSG - MALABO\n- Sheremetyevo (MOSCOW)\nSXF\nTAS\n- Schönefeld (BERLIN)\n- TASHKENT\nTBS\nTMP\n- TBILISI\n-TAMPERE\nTHR\nTR - ANTANANARIVO\nTIP\n- TRIPOLİ\nTUN\n- TUNIS\nULN - ULAN BATOR\nVAR - VARNA\nVIE\n- VIENNA\nNO - VILNIUS\nVTE\n- VIENTIANE\nWAW-WARSAW\nYOX\n- GANDER\nYMX - MONTREAL\nZAG\n- ZAGREB\nZRH\n- ZURICH\nTRANS - SIBERIAN\nEXPRESS\nThe high-speed comfortable\nairliner is at your service.\nIL62",
      "АЭРОФЛОТ AEROFLOT\nSoviet airlines\nSoviet airlines\nРАСПИСАНИЕ\nЛЕТО\n1 апреля 1983 - 31 октября 1983\nПервый выпуск\nTIMETABLE\nSUMMER\nApril 1st 1983 - October 31st 1983\nFirst issue"
    ],
    "millsfield:images_texts_ids": [
      1762698547,
      1762698549,
      1762700051
    ],
    "millsfield:primary_image": 1762700051,
    "millsfield:subcategory_id": 1511213425,
    "mz:is_current": 1,
    "sfomuseum:accession_number": "2014.084.0009",
    "sfomuseum:airline": "Aeroflot Soviet Airlines",
    "sfomuseum:airline_id": [
      26
    ],
    "sfomuseum:category": "Scheduling / Ticketing",
    "sfomuseum:classification_id": 158,
    "sfomuseum:collection": "Aviation Archive",
    "sfomuseum:creditline": "Gift of Thomas G. Dragges",
    "sfomuseum:date": "1983",
    "sfomuseum:date_acquired": "2015-07-02",
    "sfomuseum:daterange_end": "1983-12-31",
    "sfomuseum:daterange_start": "1983-01-01",
    "sfomuseum:description": "Timetable issued by Aeroflot Soviet Airlines, effective April 1, 1983, summer service; multipage booklet; green cover with color photographic image of flowers in a field.",
    "sfomuseum:dimensions": "8 x 8 inches (20.3 x 20.3 cm)",
    "sfomuseum:medium": "paper, ink, metal",
    "sfomuseum:object_id": 156434,
    "sfomuseum:placetype": "object",
    "sfomuseum:publication": ": , 1983.",
    "sfomuseum:subcategory": "Timetable",
    "src:geom": "sfomuseum#undetermined",
    "wof:belongsto": [
      102527513,
      1159162825,
      102191575,
      85633793,
      102087579,
      85922583,
      85688637,
      1159160869
    ],
    "wof:country": "XY",
    "wof:created": 1641343957,
    "wof:depicts": [
      1159288379,
      1159283527
    ],
    "wof:geomhash": "c281b9d9eefc83b5710e64b9d646067d",
    "wof:hierarchy": [
      {
        "building_id": -1,
        "campus_id": 102527513,
        "collection_id": 1159162825,
        "concourse_id": 1159162825,
        "continent_id": 102191575,
        "country_id": 85633793,
        "county_id": 102087579,
        "custom_id": 1762693385,
        "locality_id": 85922583,
        "neighbourhood_id": -1,
        "object_id": 1762693385,
        "region_id": 85688637,
        "wing_id": 1159160869
      }
    ],
    "wof:id": 1762693385,
    "wof:lastmodified": 1787988198,
    "wof:name": "timetable: Aeroflot Soviet Airlines, summer schedule",
    "wof:parent_id": 1159162825,
    "wof:placetype": "custom",
    "wof:placetype_alt": [
      "object"
    ],
    "wof:repo": "sfomuseum-data-collection",
    "wof:superseded_by": [],
    "wof:supersedes": []
  },
  "bbox": [
    -122.38647222518921,
    37.6161053594541,
    -122.38583385944366,
    37.61661101879963
  ],
  "geometry": {"type":"Polygon","coordinates":[[[-122.38647222518921,37.61631782178288],[-122.386434674263,37.61623283692423],[-122.38637566566466,37.61617759671399],[-122.38630056381224,37.6161308549656],[-122.38616108894348,37.6161053594541],[-122.38602161407469,37.6161308549656],[-122.38591432571411,37.61618609521055],[-122.38585531711577,37.61626683087935],[-122.38583385944366,37.61636881265146],[-122.38587141036987,37.61646654505181],[-122.38594114780425,37.61654303118856],[-122.38605380058287,37.61660252035167],[-122.38618254661559,37.61661101879963],[-122.3863059282303,37.61657277577607],[-122.3864185810089,37.61650903735973],[-122.3864668607712,37.61641130501523],[-122.38647222518921,37.61631782178288]]]}
}
