{
  "id": 1762681453,
  "type": "Feature",
  "properties": {
    "date:cessation_lower": "1968-01-01",
    "date:cessation_upper": "1968-12-31",
    "date:inception_lower": "1968-01-01",
    "date:inception_upper": "1968-12-31",
    "edtf:cessation": "1968",
    "edtf:inception": "1968",
    "geom:area": 2.475047457570636e-7,
    "geom:bbox": "-122.386472,37.616105,-122.385834,37.616611",
    "geom:latitude": 37.61635747477365,
    "geom:longitude": -122.38615540108617,
    "millsfield:airline_id": [
      1159284973
    ],
    "millsfield:category_id": 1511214223,
    "millsfield:collection_id": 1511214207,
    "millsfield:company_id": [
      1159286629
    ],
    "millsfield:images": [
      1762696973
    ],
    "millsfield:images_colors_refs": {
      "crayola": [
        {
          "hex": "#a57164"
        },
        {
          "hex": "#fdbcb4"
        },
        {
          "hex": "#414a4c"
        }
      ],
      "css4": [
        {
          "hex": "#808080"
        },
        {
          "hex": "#ffb6c1"
        },
        {
          "hex": "#000000"
        }
      ],
      "marekm4": [
        {
          "hex": "#f1bdba"
        },
        {
          "hex": "#956f6f"
        },
        {
          "hex": "#371d1e"
        }
      ]
    },
    "millsfield:images_texts": [
      "PSA\nMEMORIAL DAY SCHEDULE 1968\nEffective Wednesday, May 29 thru Monday, June 3, 1968\nSchedule subject to change without notice.\nWEDNESDAY, May 29, 1968 - Regular Wednesday Schedule - Adding Flights Listed Below\nNORTHBOUND\nSOUTHBOUND\nE\nFit.\nLV\nAR\nLV\nAR\nLV\nU\nNo.\nSAN\nLAX\nLAX\nBUR\nBUR\nAR\nSJC\nAR\nOAK\n923\n9:00\n9:20\n9:40\n103\n10:15\n10:35\n10:55\n175\n10:30\n10:55\n11:15\nS\n155\n11:00\n11:20\n11:40\n12:25\n185\n12:30\n375\n1:30\n385\n475\n3:10\n4:05\n55\n5:50\n6:30\n675\n6:30\n845\n8:10\nAR\nSFO\n10:25\n11:40\n11:55\n2:10\n4:45\n7:10\nAR\nSAC\nFit.\nLV\nLV\nNo.\nSAC\nSFO\nLV\nOAK\nLV\nSJC\nAR\nBUR\nLV\nBUR\n132\n11:15\n220\n12:15\n474\n12:30\n144\n1:30\n1:20\n4:00\nS\n282\n372\n582\n1:50\n4:30\n3:00\n570\n5:20\n1:10\n3:40\n6:00\n762\n722\n7:45\n8:55\n953\n9:00\n964\n7:00\n9:05\n9:45\n954\n85\n8:45\n9:05\nS 933\n9:25\n10:05\n฿ 354\n9:30\n10:15\n9:25\n10:10\nS 204\n10:40\nTHURSDAY, May\nAR\nLAX\nLV\nLAX\nAR\nSAN\n12:00\n1:00\n2:15\n1:20\n2:35\n1:40\n2:55\n2:40\n5:20\n8:30\n10:05\n10:25\n10:15\n10:35\n10:55\n11:00\n11:25\n11:45\n12:05*\n* THURSDAY A.M.\nFRIDAY, May 31,\n1968 - Regular Friday Schedule\n•Regular Sausa Schedule\nSUNDAY, June 2, 1968 - Regular Sunday Schedule - Adding Flights Listed Below\nNORTHBOUND\nE\nSOUTHBOUND\nFlt.\nE\nLV\nAR\nLV\nAR\nLV\nNo.\nSAN\nLAX\nLAX\nBUR\nBUR\nAR\nSJC\nAR\nAR\nOAK\nSFO\nAR\nSAC\nFlt.\nLV\nLV\nLV\nNo.\nSAC\nSFO\nOAK\nLV\nSJC\nAR\nBUR\nLV\nBUR\n975\n9:15\n9:40\n10:00\n10:40\n838\nE\n117\n10:15\n8:30\n11:15\n114\n371\n11:15\n11:40\n11:55\n12:35\n574\n11:20\n1:00\n105\n11:30 11:50 12:10\n15\n12:55\n44\n12:35\n325\n3:00\n35\n573\n3:15\n1:15\n3:55\n230\n3:45\n374\n2:00\n4:20\nS\n54\n1:50\n4:40\n525\n5:50\n635\n6:30\n6:50\n875\n355\n8:25\n575\n5:30\n8:00\n10:30\n6:10\n672\n6:45\n6:35\n730\n7:10\nD 734\n8:40\n974\n9:15\n9:10\nS\n944\n9:45\n11:10\nD\n242\n10:05\n351\n11:00\n11:45\n972\n11:45\n1:40\n1:55\n5:00\n7:25\n9:55\n12:25*12:40*\n125\n10:50\n11:10\n11:30\n12:20*\n350\n12:15*\nD\n455\n11:30\n12:20%\nD\n124\n1:00*\nAR\nLAX\nLV\nLAX\nAR\nSAN\n9:30\n12:05\n2:20\n2:30\n2:45\n5:20\n7:55\n7:10\n7:30\n10:30\n10:55\n1:05*\n1:00* 1:20* 1:40*\n1:50* 2:05* 2:25*\n*MONDAY A.M.\nMONDAY, June 3, 1968 - Regular Monday Schedule - Adding Flights Listed Below\nNORTHBOUND\nSOUTHBOUND\nE\nFit.\nLV\nAR\nLV\nAR\nLV\nAR\nNo.\nSAN\nLAX\nLAX\nBUR\nBUR\nSJC\nAR\nOAK\nAR\nSFO\nAR\nSAC\nFit.\nLV\nLV\nU\nP\nNo.\nSAC\nSFO\nLV\nOAK\n- Д.\nS\n711\n7:00\n7:20\n761\n7:45\n7:40\n8:25\n930\n9:00\n8:05\n8:25\n9:05\n962\n225\n11:35\nLV\nSJC\n9:35\nAR\nSAN\n10:15\n11:00\n130\n241\n10:45\n11:30\n152\n12:00\nFARES (plus tax)\nAIRPORT IDENTIFICATION\n727 and DC-9 Fan Jets\nLos Angeles or Hollywood-Burbank-San Francisco,\nSAC\nSACRAMENTO\nSF\nOakland, San Jose .\n. $13.50\nOAK\nSAN FRANCISCO\nOAKLAND\nSan Diego-San Francisco, Oakland,\nSJ\nSAN\nJOSE\nSan Jose. . •\nHWB\nHOLLYWOOD-BURBANK\n19.85\nLA\nLOS ANGELES\nLos Angeles-Sacramento .\n. 15.24\nSan\nDiego-Sacramento\n21:59\nSD\nSAN DIEGO\nAIRCRAFT IDENTIFICATION\nSUPER\nELECTRA JETS\nBOEING 727 SUPER FAN JET\nLos Angeles or Hollywood-Burbank\nBOEING 727 FAN JET\nSan Francisco, Oakland,San Jose. . . $11.43\nD\nDC-9 FAN JET\nSan Diego - San Francisco, Oakland,\n=\nSUPER ELECTRA JET\nSan Jose.\n17.78\nLos Angeles - Sacramento.\n.13.33\nLOCAL CALIFORNIA TIME\nA.M. =\nSan Diego - Sacramento.\n• 19.68\nP.M.\n=\nLIGHT FACE\nAR\nLV\nAR\nLV\nBUR\nBUR\nLAX\nLAX\n9:45\n10:15\n12:20\n12:40\n1:00\n12+45-\n1:05\n1:25\nRESERVATION OFFICES\nSAN DIEGO - Lindbergh Field 298-4611\nLOS ANGELES - L.A. International Airport\n776-0125\nHOLLYWOOD-BURBANK - Burbank 787-4750\nor 246-8437\nSAN FRANCISCO - 212 Stockton; 375 O'Farrell;\nS.F. International Airport 761-0818 or\n583-0931\nOAKLAND\n-\nOakland International Airport\n835-2555 or 562-9270\nSAN JOSE\nMunicipal Airport 286-4720\nSACRAMENTO - Sacramento Metropolitan\nAirport\n922 8021\nBOLD FACE\n727, DC-9 or ELECTRA\nPSA, Master Charge, BankAmericard, First National\nSan Diego - Los Angeles or\nHollywood - Burbank.\n$ 6.35\nBank of San Jose, American Express, Carte Blanche,\nDiner's Club Credit Cards welcomed on all flights."
    ],
    "millsfield:images_texts_ids": [
      1762696973
    ],
    "millsfield:primary_image": 1762696973,
    "millsfield:subcategory_id": 1511213425,
    "mz:is_current": 1,
    "sfomuseum:accession_number": "2005.132.042.007",
    "sfomuseum:airline": "Pacific Southwest Airlines (PSA)",
    "sfomuseum:airline_id": [
      677
    ],
    "sfomuseum:category": "Scheduling / Ticketing",
    "sfomuseum:classification_id": 158,
    "sfomuseum:collection": "Aviation Archive",
    "sfomuseum:creditline": "Gift of the William Hough Collection",
    "sfomuseum:date": "1968",
    "sfomuseum:date_acquired": "2006-12-05",
    "sfomuseum:daterange_end": "1968-12-31",
    "sfomuseum:daterange_start": "1968-01-01",
    "sfomuseum:description": "Timetable issued by Pacific Southwest Airlines (PSA), effective May 29 through June 3, 1968; Memorial Day Schedule; single-sided single pink sheet. ",
    "sfomuseum:dimensions": "9 x 3 1/4 inches (22.9 x 8.3 cm)",
    "sfomuseum:medium": "paper, ink",
    "sfomuseum:object_id": 98043,
    "sfomuseum:placetype": "object",
    "sfomuseum:publication": ": , 1968.",
    "sfomuseum:subcategory": "Timetable",
    "src:geom": "sfomuseum#undetermined",
    "wof:belongsto": [
      102527513,
      1159162825,
      102191575,
      85633793,
      102087579,
      85922583,
      85688637,
      1159160869
    ],
    "wof:country": "XY",
    "wof:created": 1641339998,
    "wof:depicts": [
      1159284973,
      1159286629
    ],
    "wof:geomhash": "c281b9d9eefc83b5710e64b9d646067d",
    "wof:hierarchy": [
      {
        "building_id": -1,
        "campus_id": 102527513,
        "collection_id": 1159162825,
        "concourse_id": 1159162825,
        "continent_id": 102191575,
        "country_id": 85633793,
        "county_id": 102087579,
        "custom_id": 1762681453,
        "locality_id": 85922583,
        "neighbourhood_id": -1,
        "object_id": 1762681453,
        "region_id": 85688637,
        "wing_id": 1159160869
      }
    ],
    "wof:id": 1762681453,
    "wof:lastmodified": 1787988193,
    "wof:name": "timetable: Pacific Southwest Airlines (PSA), Memorial Day",
    "wof:parent_id": 1159162825,
    "wof:placetype": "custom",
    "wof:placetype_alt": [
      "object"
    ],
    "wof:repo": "sfomuseum-data-collection",
    "wof:superseded_by": [],
    "wof:supersedes": []
  },
  "bbox": [
    -122.38647222518921,
    37.6161053594541,
    -122.38583385944366,
    37.61661101879963
  ],
  "geometry": {"type":"Polygon","coordinates":[[[-122.38647222518921,37.61631782178288],[-122.386434674263,37.61623283692423],[-122.38637566566466,37.61617759671399],[-122.38630056381224,37.6161308549656],[-122.38616108894348,37.6161053594541],[-122.38602161407469,37.6161308549656],[-122.38591432571411,37.61618609521055],[-122.38585531711577,37.61626683087935],[-122.38583385944366,37.61636881265146],[-122.38587141036987,37.61646654505181],[-122.38594114780425,37.61654303118856],[-122.38605380058287,37.61660252035167],[-122.38618254661559,37.61661101879963],[-122.3863059282303,37.61657277577607],[-122.3864185810089,37.61650903735973],[-122.3864668607712,37.61641130501523],[-122.38647222518921,37.61631782178288]]]}
}
