{
  "id": 1511906711,
  "type": "Feature",
  "properties": {
    "date:cessation_lower": "1949-01-01",
    "date:cessation_upper": "1949-12-31",
    "date:inception_lower": "1949-01-01",
    "date:inception_upper": "1949-12-31",
    "edtf:cessation": "1949",
    "edtf:date": "1949",
    "edtf:inception": "1949",
    "geom:area": 0,
    "geom:bbox": "-122.386155,37.616358,-122.386155,37.616358",
    "geom:latitude": 37.616358,
    "geom:longitude": -122.386155,
    "iso:country": "US",
    "millsfield:airline_id": [
      1159284989
    ],
    "millsfield:category_id": 1762671311,
    "millsfield:collection_id": 1511214207,
    "millsfield:company_id": [
      1159286839
    ],
    "millsfield:images": [
      1527853813,
      1527853817,
      1527853819,
      1527853821,
      1527853823,
      1527853825,
      1527853827,
      1527853829,
      1527853831,
      1527853835,
      1527853837,
      1527853839,
      1527853841,
      1527853843,
      1527853845
    ],
    "millsfield:images_colors_refs": {
      "crayola": [
        {
          "hex": "#000000"
        },
        {
          "hex": "#757575"
        },
        {
          "hex": "#2e5894"
        },
        {
          "hex": "#ff2b2b"
        },
        {
          "hex": "#9c7c38"
        },
        {
          "hex": "#6699cc"
        },
        {
          "hex": "#dbd7d2"
        },
        {
          "hex": "#9f8170"
        },
        {
          "hex": "#95918c"
        },
        {
          "hex": "#18a7b5"
        },
        {
          "hex": "#6dae81"
        },
        {
          "hex": "#d68a59"
        },
        {
          "hex": "#fddde6"
        },
        {
          "hex": "#b0b7c6"
        },
        {
          "hex": "#cd9575"
        },
        {
          "hex": "#7366bd"
        },
        {
          "hex": "#eceabe"
        },
        {
          "hex": "#bf4f51"
        },
        {
          "hex": "#deaa88"
        },
        {
          "hex": "#efdecd"
        },
        {
          "hex": "#ffffff"
        },
        {
          "hex": "#414a4c"
        },
        {
          "hex": "#edd19c"
        },
        {
          "hex": "#85754e"
        },
        {
          "hex": "#cdc5c2"
        },
        {
          "hex": "#1a4876"
        },
        {
          "hex": "#3bb08f"
        },
        {
          "hex": "#ff496c"
        },
        {
          "hex": "#bc5d58"
        }
      ],
      "css4": [
        {
          "hex": "#deb887"
        },
        {
          "hex": "#ffebcd"
        },
        {
          "hex": "#fff5ee"
        },
        {
          "hex": "#ffe4c4"
        },
        {
          "hex": "#000000"
        },
        {
          "hex": "#20b2aa"
        },
        {
          "hex": "#faebd7"
        },
        {
          "hex": "#c0c0c0"
        },
        {
          "hex": "#5f9ea0"
        },
        {
          "hex": "#b22222"
        },
        {
          "hex": "#4682b4"
        },
        {
          "hex": "#d3d3d3"
        },
        {
          "hex": "#483d8b"
        },
        {
          "hex": "#191970"
        },
        {
          "hex": "#6a5acd"
        },
        {
          "hex": "#f5f5dc"
        },
        {
          "hex": "#f5deb3"
        },
        {
          "hex": "#808080"
        },
        {
          "hex": "#bdb76b"
        },
        {
          "hex": "#dc143c"
        },
        {
          "hex": "#778899"
        },
        {
          "hex": "#a0522d"
        },
        {
          "hex": "#2f4f4f"
        },
        {
          "hex": "#eee8aa"
        },
        {
          "hex": "#cd853f"
        },
        {
          "hex": "#cd5c5c"
        },
        {
          "hex": "#008080"
        }
      ],
      "marekm4": [
        {
          "hex": "#d9ae73"
        },
        {
          "hex": "#296791"
        },
        {
          "hex": "#658d6f"
        },
        {
          "hex": "#15445b"
        },
        {
          "hex": "#3a222c"
        },
        {
          "hex": "#d81b15"
        },
        {
          "hex": "#40a798"
        },
        {
          "hex": "#041048"
        },
        {
          "hex": "#eae9ba"
        },
        {
          "hex": "#fdf8eb"
        },
        {
          "hex": "#21180c"
        },
        {
          "hex": "#a69e6d"
        },
        {
          "hex": "#eeeac4"
        },
        {
          "hex": "#efd1a7"
        },
        {
          "hex": "#8f714c"
        },
        {
          "hex": "#121e6d"
        },
        {
          "hex": "#133892"
        },
        {
          "hex": "#bc5853"
        },
        {
          "hex": "#20a2a2"
        },
        {
          "hex": "#b8b4c0"
        },
        {
          "hex": "#73889e"
        },
        {
          "hex": "#1f261e"
        },
        {
          "hex": "#b79f4d"
        },
        {
          "hex": "#ad6730"
        },
        {
          "hex": "#cbd5ba"
        },
        {
          "hex": "#396993"
        },
        {
          "hex": "#273452"
        },
        {
          "hex": "#eae4cf"
        },
        {
          "hex": "#eb0726"
        },
        {
          "hex": "#619494"
        },
        {
          "hex": "#dad7c6"
        },
        {
          "hex": "#325391"
        },
        {
          "hex": "#6794ad"
        },
        {
          "hex": "#d1caae"
        },
        {
          "hex": "#162156"
        },
        {
          "hex": "#32488e"
        },
        {
          "hex": "#e84261"
        },
        {
          "hex": "#585fad"
        },
        {
          "hex": "#121115"
        },
        {
          "hex": "#f0e6c9"
        },
        {
          "hex": "#e01b13"
        },
        {
          "hex": "#f8f1cb"
        },
        {
          "hex": "#2c2d5e"
        },
        {
          "hex": "#d51410"
        },
        {
          "hex": "#20455b"
        },
        {
          "hex": "#23261e"
        },
        {
          "hex": "#b78c5e"
        },
        {
          "hex": "#9e9170"
        },
        {
          "hex": "#362c19"
        },
        {
          "hex": "#60949b"
        },
        {
          "hex": "#ebcea4"
        },
        {
          "hex": "#678d72"
        },
        {
          "hex": "#d4c8b0"
        },
        {
          "hex": "#11151d"
        },
        {
          "hex": "#a54935"
        },
        {
          "hex": "#1b638f"
        },
        {
          "hex": "#1a1a16"
        },
        {
          "hex": "#cdd3b0"
        },
        {
          "hex": "#faf6dd"
        },
        {
          "hex": "#d3ab74"
        }
      ]
    },
    "millsfield:images_texts": [
      "BotroMs Up! Okole Maluna! BULA! *\nthe Cliper bar will be pleased\nto serve you\nBourbon Highball . . 65¢\nScotch Highball ... 65¢\nCigarettes (pkg.) .. 15¢\nNo Charge for\nSoft Drinks and Canapés\nvotre sante\n*Ast your Purser for Bar Service\n¡Salud y pesetas! CHEERS! Mabuhay!",
      "very hour of the day and night, swift\nFlying Clippers like yours are winging towards distant\nhorizons, carrying passengers, mail and cargo to six con-\ntinents. Today all countries are neighbors, because far-\nranging Clippers, flying on regular, convenient schedules,\nhave telescoped distance, reduced travel days to hours.\nThroughout the Pacific and Alaska, Pan American Clip-\npers are ready to take you wherever you want to go,\nswiftly and in comfort. Here, experience rides with you,\nzealously guarding your flight. Behind you stands an\norganization that pioneered air transportation in the\nPacific, and has operated more Pacific flights, logged more\nPacific miles, and carried more Pacific passengers than any\nother airline.\nWhen you travel by Pan American - anywhere in the\nworld - you enjoy the same high standards of hospitality\nnad thralah twenty years of international\nJAIN TEMPLE, INDIA\nTEMPLE SPIRES, SIAM\nLUNGHWA PAGODA, CHINA",
      "Your Adventure in the\nThis Packet Is Yours. In it you'll find Flying Clipper-wise\n—a booklet that describes the many personal services you\nmay expect during your trip. The Civil Aeronautics Authority\nasks that every over-water passenger read the instructive and\ninteresting section that tells about emergency procedures.\nPAA\nClipper America Service\nPAN AMERICAN WORLD AIRWAYS\nThe System of the Fying Clippers",
      "PAN AMERICAN WORLD AIRWAYS -\nWORLD'S MOST\n'ENCED AIRLINE\namong all U.S. airlines was -\nFIRST to establish international service\nFIRST to fly to all six continents\nFIRST to schedule round-the-world flights\nFIRST to fly with a multiple crew\nFIRST to offer steward service\nLITHO IN U. S. A. - REV. 7-49 - 24 PAGE\n1993.1.56\nFIRST to serve meals aloft\nFIRST to use four-engine transports\nFIRST to train its pilots in \"blind\" instrument flying\nFIRST to provide Sleeperette* Service\nFIRST to order and to fly Double-Decked Clippers\n*Trade Mark, Pan American Airways, In",
      "sader\nDoNE Clipper Pervice\nDECKED\nFlying Clipper wise",
      "ABOUT TIPPING...\nHow did the word \"Tip\" originate? Accord-\ning to legend it was derived from the initial\nletters of the phrase \"To Insure Promptness.\"\nBoxes were set up in English Inns during the\n18th Century and imprinted with the above\nphrase. This was to remind the guests that a\ncoin deposited in these boxes would bring\nspecial service. Later the phrase was ab-\nbreviated to T. I. P.\nAboard the Pan American Flying Clippers, a\nTip—To Insure Promptness-is not neces-\nsary. Your Purser will be happy to give you\nprompt, courteous service.\nPAN AMERICAN WORLD AIRWAYS\n19931.\nPRINTED IN U.S. A.",
      "Clipper\nbar\nservice\na votre santé.",
      "Seattid\nPortland,\nHamid\nКиника\nPeeing\nSuchows\nTaiyuan\nLanchor\nSian\nChangiu\nSichang e\nKunning,\nCalcula\nHonor\nMukder\nPAN AMERICAN WORLD AIRWAYS\nThe System of the Flying Clippers\nSan Francisco\nmaking\nchow Okinawa\nHong Kong\nManila\nWake\nHonolulu\nLos Angeles\nBangkd\nGuam\nSaigon\nSunday\nSaturday\nSingc\nEQUATOR\nCanton Island\nBatavia\nB:\nSuva, Fiji\nNoumede\nSydney\nMelbourne.\nAuckland\nNTERNATIONAL DATE LINE\nPACIFIC SERVICES*\nClipper Services in Operation\nProposed Extensions of Service\nRoutes of Affiliated Carriers\n*Pan American's Pacific Services are but a part of a vast global\nnetwork of Flying Clipper routes. The world map (inset) shows the\nprincipal routes of the entire Pan American World Airways System.\nFares In U.S.\nCurrency\nAUCKLAND\nBANGKOK\nCALCUTTA\nGUAM\nHONG KONG\nHONOLULU\nISTANBUL\nLONDON\nLOS ANGELES\nMANILA\nNEW YORK\nNOUMEA\nOKINAWA\nPORTLAND\nSAN FRANCISCO\nSEATTLE\nSHANGHAI\nSINGAPORE\nSUVA, FIJI\nSYDNEY\nTOKYO\nCLIPPER PASSENGER FARES One-way fares below diagonal line; round- trip fares above diagonal line\nAuckland\nBangkok\nCalcutta\nGuam\nIstanbu\nLondon\nLos\nAngeles\nManila\nNew York\nNoumea\nPortland\nSan\nFrancisco\nSeattle\nShanghai\nSingapore\nSydney\n869.00\n1958.40 1060.\n00.\n1060.00 1060.001060\n.00\nC\nC\n225.00\nC\n217.80\n585.00\n232.20 1303.20\n885.\n00 1146.60 1539\n00\n291.60 1776.60\nC\n435.60 1539.00 1539.00 1539.00\n399.60\nC\n624.60\n121.00\n777.60\n435.60 1467.00\n696.60 1024.60 1710.00\n464.40 1654.20\nC\n617.40 1710.00 1710.00 1710.00\n588.60\nC\nC\nC\n806.40\n325.00\n432.00\n432.00\n774. 00 1470.60 1674.\n001036.80\n345.\n. 60\nC\n1036.80 1036.80 1036.80\n577.80\nC\nC\n543.60\n129.00\n242.00\n240.00\n1107.00 1038.60 1270\n80 1306.80\n135.00 1503.00\n217.80 1306.80 1306.801306.80\n171.00\n406.80\n483.00\n72400\n815.00 430.00\n288.00 1063.80\n587.90 778.00 1044.00 288.00 288.00\n288.00 1107.00 1296.00 644.00\nC\n492.00\n387\ncause the donahavion of the sirish Pound\n961.00\n927.00\n1335.60\n1088.00\n637\n.00\n569.00\n930.00 706.00 1321.00 226.00\n1328.40\n630\n. 00\nC\n1400.40\nC\n1886.40 1560.60\n589.00\n855.00\n950\nC\n162.00\n258.00\n1306 80 1503 00 835.00 1152.001170.00\n471.60\n987.00\n572.00 350.00...\nC\nsubject to change. for latest normation\nC\n1427.70\nSe@1.oo\n220.00\nC\n242.00\n726.00 157.00 835.00\n1306.80 1306.80 1306.80\n189.00\n589.\n00\n855\n.00\n1306.80 1503.00\n589.00\n855.00\nrican off e2200301650.00\n835\n. 00 1152\n00 1170.00\n835.00 1152.00 1170.00\n589. 00\n855.00\n950.00\n576.00 726.00\n160.00 1303\n00\n*\n726.00\n557.00\n726.00\n*\n*\n1306.801503.00\n835.00 1152 00 1170 00\n222.00\n327.00\n95.00\n615.00\n653.00\n778.00\n726.00\n155.00\n835.00\nC\nC\n726.00 726.00 726.00\nC\nC\n239.40\nC\nC\n321.00\n720.00\n835.00\n129\n.00\n992.85\nC\nC\n835.00\n835.\n. 00\n835.00\nC\nC\nC\nC\n125.00\nC\nC\nC\n358.00\nC\n464.00\nC\n95.00\n464.00\n464.00\n464.00\nC\nC\n317.00\nC\nC\nC\nC\nC\n534.00\n1048.00\n640.00\n122.00\nC\n640.00\n640.00\n640.00\nC\nC\n176.00\nC\nC\n347.00 448.00 302.00 226.00\n515.00 742.00\n867.00\n650,00\n262.00 793.15\nC\n105.00\n650.00\n650.00\n650.00\n133.00\nC\nC\nC\nROUND-THE-WORLD BY AIR-$1700.\nThis fare eric reineer donto marbed C. on one far auntie to the routing desiredudes the domestic frantinental air portion within the U.sA. Wid is operated by er air carriers",
      "Pan American Announces\n4 NEW CLIPPER SERVICES\nThe Flying Clippers Have Returned to ...\nSINGAPORE\nOnce Again the Clippers Link Singapore with Manila\nand Pan American's Round-the-World Route.\nDouble-decked Clipper Service extended to...\nTOKYO and MANILA\nWorld's Largest, Fastest Airliners Offer the Finest in\nAir Travel Between THE ORIENT and the U.S. A.\nNOW Constellation Clippers Provide Fastest,\nMost Frequent Service from ...\nHONG KONG\n,to ENGLAND-EUROPE and THE U.S. A.\nDOUBLE-DECKED CLIPPERS NOW SERVE\nALL 4 U.S. GATEWAY CITIES\nNow you can step aboard one of these 61 passenger\nClippers at Manila or Tokyo and fly via Honolulu to\neither Seattle, Portland, San Francisco or Los Angeles.\nAnd, because of the devaluation of the British Pound,\nPAN AMERICAN CUTS FARES. To\ntravelers from many countries this\nmeans a real savings... as much as..\n30%\nAGENTS FOR\nPAN AMERICAN WORLD AIRWAYS\nThe System of the lying Clippers\nPRINTED IN U.S.A.\n1993.1.52",
      "NOVEMBER, 1949\nPAN AMERICAN\nWORLD AIRWAYS\nPACIFIC SERVICES\nPAA\nThe System of the Hlying Clippers\nPASSENGERS • MAIL • CARGO",
      "6/72\nThe new\nDOUBLE\nDECKED\n- Clipper\n003.150\nCLIPPER TRAVEL GIVES YOU TIME\n* The Key to Profit and Pleasure\nPAN AMERICAN WORLD AIRWAYS\nThe System of the Hlying Clippers\nPAA _—",
      "5PM\n6PM\n7 PM\nNOON\nPH\nAM\nNew York\nWashington\nBoston\nLa Paz\nSan Juan\nDetroit\nSantiago\nLima\nBermuda\nHavana\nMiami\nBuenos Aires\nRio De Janeiro\nRecife\nMonteviden\nGander\nMexico, D.\nF.\nChicago\nNew Orleans\nHeuston\nGuatemala\nSalt Lake\nCity\nDenver\nPhoenix\nTucson\nSan Francisco\nLos Angeles\nKetchikan\nVancouver\nPortland\nJuneau Seattle\nWhitehorse\nPAA\nTime Selector\nSUed\nSpassing\nT ser\nTIME.\nCITY\nopposite\nRead TIME opposite\nANY OTHER CITY.\nPrinted in U.S.A.\nSlide-Chort Copr 1949, 3-aps ton.\nCanton Island\nSamoa\nNome\nHonolulu\nFairbanks\nMidway\nAnchorage\nAuckland\nSuva\nWake\nDi\na. i\nNoumea\nSydney\nMelbourne\nGuam\n→ Westbound\nadd 1 day\nday\nwales\npendeg\n10PM.\n8\nHY\nHY\nMy",
      "Wat Benchamabopit (The Marble Temple),\nbuilt of choicest Carrara marble by King Chula-\nlongkorn (1868-1910), is one of the most beauti-\nful of the many temples in Bangkok, Siam.\nBangkok is a favorite stop for passengers on the\nFlying Clippers of Pan American World Airways.\nWORLD'S MOST EXPERIENCED\nAIRLINE\n199-SC163 PRINTED IN U.S.A\nADDRESS"
    ],
    "millsfield:images_texts_ids": [
      1527853813,
      1527853817,
      1527853821,
      1527853823,
      1527853825,
      1527853827,
      1527853829,
      1527853831,
      1527853835,
      1527853837,
      1527853839,
      1527853841,
      1527853843
    ],
    "millsfield:primary_image": 1527853821,
    "millsfield:subcategory_id": 1511213565,
    "mz:hierarchy_label": 1,
    "mz:is_current": 1,
    "sfomuseum:accession_number": "1993.01.005 a f",
    "sfomuseum:airline": "Pan American World Airways",
    "sfomuseum:airline_id": [
      684
    ],
    "sfomuseum:category": "Passenger Amenity, Archive",
    "sfomuseum:classification_id": 241,
    "sfomuseum:collection": "Aviation Archive",
    "sfomuseum:continent": "Transpacific",
    "sfomuseum:country": "United States",
    "sfomuseum:creditline": "Gift of Serge Mitt",
    "sfomuseum:date": "1949",
    "sfomuseum:date_acquired": "1999-10-06",
    "sfomuseum:daterange_end": "1949-12-31",
    "sfomuseum:daterange_start": "1949-01-01",
    "sfomuseum:description": "Flight information packet issued by Pan American World Airways, titled \"Your adventure in the Pacific,\" comprising:\ra. folder; tri-fold format with three pockets;\rb. brochure titled \"Flying Clipper-wise\"; multipage booklet;\rc. bar service menu; quad-fold format;\rd. timetable for transpacific flights, effective November 1949; fold-out format; includes shipping rates for cargo;\re. time selector; two round cards attached at center; used to determine time in other zones;\rf. postcard with full color photographic image of of Wat Benchamabopit [Marble Temple] in Bangkok.",
    "sfomuseum:dimensions": "9 1/4 x 7 1/4 inches (23.5 x 18.4 cm)",
    "sfomuseum:maker": "Vaugham Bass for American World Airways, Inc.",
    "sfomuseum:media_ids": [
      1527853813,
      1527853817,
      1527853819,
      1527853821,
      1527853823,
      1527853825,
      1527853827,
      1527853829,
      1527853831,
      1527853835,
      1527853837,
      1527853839,
      1527853841,
      1527853843,
      1527853845
    ],
    "sfomuseum:medium": "paper, metal, ink",
    "sfomuseum:object_id": 42465,
    "sfomuseum:placetype": "object",
    "sfomuseum:primary_media_id": 1527853821,
    "sfomuseum:publication": ": , 1949.",
    "sfomuseum:subcategory": "Inflight Information",
    "src:geom": "sfomuseum#undetermined",
    "wof:belongsto": [
      1511214243,
      102527513,
      102191575,
      85633793,
      1511213565,
      85922583,
      102087579,
      1511214277,
      1511214207,
      85688637,
      136253057
    ],
    "wof:breaches": [],
    "wof:country": "US",
    "wof:created": 1579906660,
    "wof:depicts": [
      1159284989,
      1159286839
    ],
    "wof:geomhash": "bd906905ce4be6c0651c90b0fc24804c",
    "wof:hierarchy": [
      {
        "arcade_id": 1511213565,
        "building_id": 1511214277,
        "campus_id": 102527513,
        "concourse_id": 1511214243,
        "continent_id": 102191575,
        "country_id": 85633793,
        "county_id": 102087579,
        "custom_id": 1511906711,
        "locality_id": 85922583,
        "neighbourhood_id": -1,
        "object_id": 1511906711,
        "region_id": 85688637,
        "venue_id": 1511906711,
        "wing_id": 1511214207
      },
      {
        "continent_id": 102191575,
        "country_id": 85633793,
        "custom_id": 1511906711,
        "empire_id": 136253057,
        "object_id": 1511906711,
        "venue_id": 1511906711
      }
    ],
    "wof:id": 1511906711,
    "wof:lastmodified": 1787988175,
    "wof:name": "flight information packet: Pan American World Airways",
    "wof:parent_id": 1511214277,
    "wof:placetype": "custom",
    "wof:placetype_alt": [
      "object"
    ],
    "wof:repo": "sfomuseum-data-collection",
    "wof:superseded_by": [],
    "wof:supersedes": [],
    "wof:tags": []
  },
  "bbox": [
    -122.386155,
    37.616358,
    -122.386155,
    37.616358
  ],
  "geometry": {"type":"Point","coordinates":[-122.386155,37.616358]}
}
