{
  "id": 1511954747,
  "type": "Feature",
  "properties": {
    "date:cessation_lower": "1968-01-01",
    "date:cessation_upper": "1968-12-31",
    "date:inception_lower": "1968-01-01",
    "date:inception_upper": "1968-12-31",
    "edtf:cessation": "1968",
    "edtf:date": "1968",
    "edtf:inception": "1968",
    "geom:area": 0,
    "geom:bbox": "-122.386155,37.616357,-122.386155,37.616357",
    "geom:latitude": 37.616357,
    "geom:longitude": -122.386155,
    "iso:country": "XX",
    "millsfield:airline_id": [
      1159284695
    ],
    "millsfield:category_id": 1511214223,
    "millsfield:collection_id": 1511214207,
    "millsfield:company_id": [
      1159288801
    ],
    "millsfield:images": [
      1527839423,
      1527839425
    ],
    "millsfield:images_colors_refs": {
      "crayola": [
        {
          "hex": "#9f8170"
        },
        {
          "hex": "#414a4c"
        },
        {
          "hex": "#e7c697"
        }
      ],
      "css4": [
        {
          "hex": "#2f4f4f"
        },
        {
          "hex": "#d2b48c"
        },
        {
          "hex": "#808080"
        }
      ],
      "marekm4": [
        {
          "hex": "#c9b9a1"
        },
        {
          "hex": "#232c21"
        },
        {
          "hex": "#d0c0a3"
        },
        {
          "hex": "#2e3e2c"
        },
        {
          "hex": "#969277"
        },
        {
          "hex": "#938b77"
        }
      ]
    },
    "millsfield:images_texts": [
      "ICELANDIC AIRLINES\nLOFTLEIDIR\nSUMMER TIMETABLE\nQUICK REFERENCE\nEffective May 1, 1968 to October 31, 1968\nFROM NEW YORK (1)\nTO NEW YORK (1)\nLEAVING\n2100 Mo\n2100 Su\n2100 TuFr\nFLT. NO.\n430/618\nARRIVING\n1650 Tu\nTO\nFr\nAMSTERDAM\nCOPENHAGEN\nLEAVING\nFLT. NO.\n1830 Tu\n619/431\nARRIVING\n0500 We\n420/604\n420/602\n1700 Mo\n1730 WeSa\n1745 Mo\n2030 We\n1745 Sa\n605/421\n603/421(c)\n603/421\n0500 Tu\n0745 Th\n0500 Su\n2100 Mo\n2100 Th\n430/618\n430/616\n1415 Tu\n1415 Fr\nGLASGOW\n2130 Tu\n2130 Fr\n619/431\n617/431\n0500 We\n0115 Sa\n2100 TuFr\n420/602\n1600 WeSa\nGOTHENBURG\n2230 We\n1945 Sa\n603/421(c)|\n0745 Th\n603/421\n0500 Su\n2100 Tu\n420/608\n1900 We\n2100 Th i\n430/616\n1645 Fr\nHELSINKI\nLONDON\nLUXEMBOURG\n2030 We\n1830 Fr\n609/421(c)\n617/431\n0745 Th\n0500 Sa\n2230 Daily\n2330 TuSaSu\n1200 WeThFrSa\n2100 Tu\n2100 Fr\n2100 Su\n2230 Daily\n2330 TuSaSu\n1200 WeThFrSa\n2100 MoTh\n2100 TuFrSu\n400/402\n410/412(a)\n414/416(b)\n1630 Daily\n1730 MoWeSu\n0600 ThFrSaSu\n2230 Daily\n403/401\n2359 MoWeSu\n413/411(d)\n0900 ThFrSaSu 417/415(e)\n0700 Daily\n0830 MoTuTh\n1730 ThFrSaSu\n420/608\n420/606\n420/604\n400\n410(a)\n414(b)\n430\n420\n1500 We\n1500 Sa\n1500 Mo\nOSLO\n2015 Mo\n2300 We\n2025 Sa\n605/421\n609/421(c)\n607/421\n0500 Tu\n0745 Th\n0500 Su\n1000 Daily\n1100 MoWeSu\n2330 WeThFrSa\n0830 TuFr\n0830 MoWeSa\nREYKJAVIK(2)\n0315 Daily\n401\n0445 MoTuTh\n411(f)\n1345 ThFrSaSu\n415(e)\n0115 SuTu\n421\n0115 WeSa\n431\n0400 Th\n421\n0700 Daily\n0830 MoTuTh\n1730 ThFrSaSu\n0500 SuTu\n0500 WeSa\n0745 Th\n(a) Valid only May 18 - Sept. 15.\n(d) Valid only June 19 - Oct. 14\n(b)\n(c)\nValid only May 16 - Oct.\n(e) Valid only May 25 - Oct. 13.\nValid only May 8 - Oct. 30.\n(f) Valid only June 20 - Oct. 15\nNOTES:\nALL TIMES STATED HEREIN ARE LOCAL TIMES (NEW YORK DST).\n(2)\nONE hour earlier on and after October 27, 1968.\n(1)\nThe times shown here are\nDaylight Saving Time (DST).\nOperation will be ONE hour\nearlier on\nand\nafter\nOctober 27,\n1968, when\nEastern Standard Time (EST) takes effect.\nDirect Bus\nService from Luxembourg Airport coordinated with flight arrivals and\ndepartures.\nFor a complete schedule of arrivals and departures of buses, ask for Air-Bus folder.\nOne-Way\nFare\nFrank-\nfurt\nLuxembourg\n$7.00\nMann-\nheim\nKaisers-\nSaar-\nlautern\nbrucken\n$6.50\n$5.00\n$3.00\nChildren 2 to 12 half fare.\nParis\n$7.00\nChalons-\nsur-Marne\n$4.00\nVerdun\n$2.00\nEtain\n$2.00\nWupper-\ntal\nDussel-\ndorf\n$7.00\n$6.50\nCologne\n$6.00\nBittburg\n$3.00\nSTEP OFF • STOPOVER\nAND ENJOY 24-48 HOURS IN ICELAND\nWORLD'S NEWEST TOURIST DISCOVERY\nIAL Form 2-33- 50M\nLitho. U.S. A",
      "NORMAL SEASON\nBetween\nNEW YORK and\nONE\nWAY\nROUND\nTRIP\nAMSTERDAM\n...(t)\nBERGEN*\n(T)\nCOPENHAGEN\nGLASGOW\n..(T)\n• (t)\nGOTHENBURG\n(T)\nHELSINKI\n(T)\nLONDON\nLUXEMBOURG\n(t)\n(T)\nOSLO\n(T)\nREYKJAVIK\n(T)\nSTAVANGER*\n(T)\nSTOCKHOLM*\n..(T)\n$204.40\n214.00\n214.00\n163.80\n214.00\n259.00\n182.20\n167.80\n214.00\n116.00\n214.00\n241.50\n$388.50\n406.60\n406.60\n311.30\n406.60\n492.10\n346.30\n319.00\n406.60\n220.40\n406.60\n458.90\nFARES\nTOURIST and THRIFT FARES\nPEAK SEASON\nONE\nROUND\nWAY\nTRIP\n$253.60\n258.00\n258.00\n213.00\n258.00\n303.00\n231.40\n205.00\n258.00\n160.00\n258.00\n285.50\n+21-DAY\nEXC.\nFARE\n†TOUR\nBASING\nFARE\n$481.90\n490.20\n490.20\n404.70\n490.20\n575.70\n439.70\n389.50\n490.20\n304.00\n490.20\n542.50\n$280.00\n175.00\n$250.00\n150.00\nFares subject to\nchange without notice\ngovernment regulations.\nbefore departure and\n*Via\ngoverned by\neffective\nconnecting carrier.\n(T) TOURIST\n(t) THRIFT\nNORMAL SEASON\nPEAK SEASON\nEASTBOUND\nAug. 4 thru May 21\nMay 22 thru Aug. 3\nWESTBOUND\nSep. 29 thru July 16\nJuly 17 thru Sep. 28\n†21-Day Excursion Fares and 21-Day Inclusive Tour Basing\nFares effective all year except during the periods:\nEASTBOUND 1968\nWESTBOUND 1968\nJune 7 thru July 7\nMay 31 thru June 23\nAug 2 thru Aug 25\nAug 16 thru Sep 8\nBasing Fares\nfully\napply\nwhen used\nconjunction with\nprepaid\nvacation package of at\nleast $70.00.\nMINIMUM\nNUMBER OF\nPASSENGERS\nGROUP FARES\n(Subject to government approval)\nDESCRIPTION\nFARES\nRound Trip from New York to\nREYKJAVIK LUXEMBOURG\n15\n25\n50\n15\nNon-affinity Tour Basing Fare: requires prepur-\nchase of minimum of $70.00 in tour arrange-\nments. Maximum 21 days duration.\nDuring the following periods a $50.00 surcharge\nmust be added to the fares.\nEASTBOUND 1968\nWESTBOUND 1968\nJune\n7 thru July 7\nMay 31 thru June 23\nAug 2 thru Aug 25\nAug 16 thru Sep 8\nAffinity Group\nFare: requires\nmembership in\nthe same association,\ncorporation, company or\nother legal entity for at least 6 months\nEffective Nov. 1 thru Mar. 31\nEffective Apr. 1 thru Oct.\n.31\nAffinity Group Fare: same as 25 person fares.\nEffective all\nyear\nAffinity\nGroup Fare for groups originating in\nEurope: same qualifications as above\nEffective Nov. 1 thru Mar. 31\nEffective Apr. 1 thru\nOct.\n31\n$130.00\n$215.00\n150.0\n$175.0\n$250.00\n$280.00\n$145.00\n$230.00\n$145.00\n$150.00\n$230.00\n5255.00\nNEW YORK\nCHICAGO\nSAN\nFRANCISCO\nICELANDIC AIRLINES, INC.\nOFFICES IN THE U. S. A.\nExecutive Office: 620 Fifth\nAvenue\nNew York,\nN. Y. 10020\nReservations Department: 630 Fifth Avenue\nNew York,\nN. Y. 10020\nTicket Office,\n610B Fifth Avenue\nNew York,\nN. Y. 10020\nRegional Office: 37 S. Wabash Avenue\nChicago, III. 60603\nRegional Office: 210 Post Street\nSan Francisco, Calif. 94108.\n974-\n2900\n757-\n8585\n974-\n3876\n372-\n4792\nYUkon\n2-7651\nYour Travel Agent:\n2012.73.213"
    ],
    "millsfield:images_texts_ids": [
      1527839423,
      1527839425
    ],
    "millsfield:primary_image": 1527839423,
    "millsfield:subcategory_id": 1511213425,
    "mz:hierarchy_label": 1,
    "mz:is_current": 1,
    "sfomuseum:accession_number": "2012.173.213",
    "sfomuseum:airline": "Icelandic Airlines",
    "sfomuseum:airline_id": [
      553
    ],
    "sfomuseum:category": "Scheduling / Ticketing",
    "sfomuseum:classification_id": 158,
    "sfomuseum:collection": "Aviation Archive",
    "sfomuseum:creditline": "Gift of Willard F. Keeney",
    "sfomuseum:date": "1968",
    "sfomuseum:date_acquired": "2013-03-28",
    "sfomuseum:daterange_end": "1968-12-31",
    "sfomuseum:daterange_start": "1968-01-01",
    "sfomuseum:description": "Quick reference timetable issued by Icelandic Airlines (Loftleidir), effective May 1 through October 31, 1968, summer service; white and black double-sided card.",
    "sfomuseum:dimensions": "9 x 3 3/4 inches (22.9 x 9.5 cm)",
    "sfomuseum:media_ids": [
      1527839423,
      1527839425
    ],
    "sfomuseum:medium": "paper, ink",
    "sfomuseum:object_id": 140641,
    "sfomuseum:placetype": "object",
    "sfomuseum:primary_media_id": 1527839423,
    "sfomuseum:publication": ": , 1968.",
    "sfomuseum:subcategory": "Timetable",
    "sfomuseum:subject": "Airlines -- Commercial -- Icelandic Airlines.",
    "src:geom": "sfomuseum#undetermined",
    "wof:belongsto": [
      1511214223,
      102527513,
      102191575,
      85633793,
      1511213425,
      85922583,
      102087579,
      1511214277,
      1511214207,
      85688637
    ],
    "wof:breaches": [],
    "wof:country": "XX",
    "wof:created": 1579906688,
    "wof:depicts": [
      1159284695,
      1159288801
    ],
    "wof:geomhash": "30c8a918561c84bb2daa2b97fc7c5353",
    "wof:hierarchy": [
      {
        "arcade_id": 1511213425,
        "building_id": 1511214277,
        "campus_id": 102527513,
        "concourse_id": 1511214223,
        "continent_id": 102191575,
        "country_id": 85633793,
        "county_id": 102087579,
        "custom_id": 1511954747,
        "locality_id": 85922583,
        "neighbourhood_id": -1,
        "object_id": 1511954747,
        "region_id": 85688637,
        "venue_id": 1511954747,
        "wing_id": 1511214207
      }
    ],
    "wof:id": 1511954747,
    "wof:lastmodified": 1787988189,
    "wof:name": "timetable: Icelandic Airlines (Loftleidir), quick reference, summer schedule",
    "wof:parent_id": 1159162825,
    "wof:placetype": "custom",
    "wof:placetype_alt": [
      "object"
    ],
    "wof:repo": "sfomuseum-data-collection",
    "wof:superseded_by": [],
    "wof:supersedes": [],
    "wof:tags": []
  },
  "bbox": [
    -122.386155,
    37.616357,
    -122.386155,
    37.616357
  ],
  "geometry": {"type":"Point","coordinates":[-122.386155,37.616357]}
}
