{
  "id": 1511936225,
  "type": "Feature",
  "properties": {
    "date:cessation_lower": "1961-01-01",
    "date:cessation_upper": "1961-12-31",
    "date:inception_lower": "1961-01-01",
    "date:inception_upper": "1961-12-31",
    "edtf:cessation": "1961",
    "edtf:date": "1961",
    "edtf:inception": "1961",
    "geom:area": 0,
    "geom:bbox": "-122.386155,37.616357,-122.386155,37.616357",
    "geom:latitude": 37.616357,
    "geom:longitude": -122.386155,
    "iso:country": "XX",
    "millsfield:airline_id": [
      1159284201
    ],
    "millsfield:category_id": 1511214223,
    "millsfield:collection_id": 1511214207,
    "millsfield:company_id": [
      1360700741
    ],
    "millsfield:images": [
      1527855277,
      1527855279,
      1527855281
    ],
    "millsfield:images_colors_refs": {
      "crayola": [
        {
          "hex": "#efdecd"
        },
        {
          "hex": "#414a4c"
        },
        {
          "hex": "#000000"
        },
        {
          "hex": "#9c7c38"
        }
      ],
      "css4": [
        {
          "hex": "#808000"
        },
        {
          "hex": "#cd853f"
        },
        {
          "hex": "#2f4f4f"
        },
        {
          "hex": "#dcdcdc"
        },
        {
          "hex": "#000000"
        }
      ],
      "marekm4": [
        {
          "hex": "#e4e1d0"
        },
        {
          "hex": "#a39151"
        },
        {
          "hex": "#e4e1d1"
        },
        {
          "hex": "#917521"
        },
        {
          "hex": "#8f7218"
        },
        {
          "hex": "#262217"
        },
        {
          "hex": "#282419"
        },
        {
          "hex": "#32312a"
        },
        {
          "hex": "#a1893e"
        },
        {
          "hex": "#e3e0ce"
        }
      ]
    },
    "millsfield:images_texts": [
      "EFFECTIVE AUGUST 6, 1961\nCONTINENTAL\nAIRLINES\n28th Year\nGOLDEN JET\nBOEING 707\nCONTINENTAL\nNOW! GOLDEN JET 707's SERVICE\nFOR ALL THESE MAJOR CITIES:\nCHICAGO • LOS ANGELES\nDENVER • KANSAS CITY\nHOUSTON • SAN ANTONIO\nPHOENIX\nEL PASO",
      "CONTINENTAL AIRLINES\nSTAPLETON AIRFIELD • DENVER 7. COLORADO\nFly Continental ** * Get\n\"Jet-to-Europe treatment\nwithin the U.S.A.-\nPOLAR\nTO EUROPI\nPROPOSED\nNON-STOR\nROUTES\nTO\nHONOLULU\nO SEATTLE\nPORTLAND\nNON-STOP\nCHICAGO\nTO EUROPE\nDETROIT.\nNEW YORK\nCLEVELAND™\nPITTSBURGH\nOPHILADELPHIA\nOWASHINGTON\nCONTINENTAL\nBOSTON\nSAN FRANCISCO\nO Savow Valley.\nLOS ANGELES®\nLONG BEACH\nSAN DIEGO\nTO ASIA\nTO MEXICO\nCONTINENTAL ROUTES\nTHROUGH-PLANE SERVICE WITH\nPROPOSED NEW ROUTES\nCONNECTING AIRLINES\nO Sun Valley\nBOISE\nCAT BAKE CITY\nGOLDEN SET\nAspensa\nGOLDEN JET\nDENVER\nECOLO. SPRINGS\nPueblo\nOo: Vegos\nNOM-STOP\nALBUQUERQUE\n.. PHOENIX\nSanto re AMARILO\nTUCSOME\nGOLDEN SET\nAlamogod.\nRoswell LUBBOCK\n/ Hobbse\nCarlsbad a\nEL PASON\nGOLDEN JET\nGOLDEN JET\nKANSAS ST. LOUIS\nCITY\nWICHITA\nTULSA\nOKLA. CITY\nATLANTA\n- Son Angelo\nAUSTIN\nGOLDEN JET\nSAN ANTONIO\nWaco\nTemple\n• College Station: Bryon\nHOUSTON\nNEW ORLEANS\nMIAMI\n2005.132.017.003",
      "CHICAGO • LOS ANGELES\nTEXAS • NEW MEXICO • COLORADO\nEFFECTIVE AUGUST 6, 1961\nEFFECTIVE AUGUST 6, 1961\nWESTBOUND\nEASTBOUND\nAll Flights Operate Daily\nExcept As Noted\nFLIGHT NUMBER\nCHICAGO (0\" Hare\nCHICAGO (Midway)\nLouis.\nKANSAS\nCITI\nKANSAS CIT\nWICHI\nWICHITA\n• Colorado\nSprings\nDENVER.\nDENVER\n• Colorado Springs\nSanta\nALBUOUEROUE\nALBUQUERQUE.\nEl Paso\nLOS ANGELES (li\nSeattle-Tacoma\nDaily\n(inti)\nSanta\nSprings\nER\nCITY\n(Midway)\n707\nDC-\n707\n707\nVII\nVII\nVII\n707 707\nVII\nVII\n707\n707\n707\nJET\nJET\n6B\nJET\nJET\n707\n707\nVII\nVII\n707\n707\n707\n707\nVII\nJET\nJET\nJET\nJET\nJET\nJET\nJET\nJET\nJET\nJET\nVII\n707\nJET\nJET\nJET\nJET\nJET\nJET\nJET\nPOWER POWER\nCO-UA\nPOWER POWER POWER\n[POWER\nPOWER\nBN-CO\n993\nF/T\nF/T\nF/T\nF/T\nF/T\n227\n237\n15\n15\n263\n241\n223\nComI\nF/T\n22:\nU1 30\nF/T\nR\nF/R\nR/N\n265\n963\nF/T\n243\n17\n11\n11\n• (CDT)\nLy Luxury\nClub\nFirst\n(CDT) Lv\n. (CST)\nClass\nCoach\nLv B\n35 B\n35\n(CST)\n(MST)\n100\n55 S\n55\n12 10L 12 10\n4 00 D\n4 00S 4 05S\n4 05\n8 30S\n8 30\n9 25\n6 50\n6 58\n. 12 05\nID 6 30 S\n20\n930\n00\n50040000~\n45\u003e\n40 $ 10\nFirst\nClub\nClass\nNN-ANNE\n7\nLuxury\nFirst\nCoach\nLuxury\nClub\nCoach\nClass\nClass\n8 30\n55\n35 D\n35\n9 25\n55\n645 545\n10\n15\n10 15\nClub\nCoach\n10 00\n12 00\nNight\nCoach\nFirst\nClub\nClass\nCoach\nClub\nand\nNight\n10 00 Coach Coach\n1200\n11\nVII\nVII\n707 707\nVII 707\n707\n707\n707\nVIl\nVIT\n707\n707\nVII\nDC-\nVII\n707 707 707 707\nVII\nJET\nJET\nVII\n707 707 707 707\nJET\nJET\nJET\nJET\nJET\nJET\nJET\nJET\nJET\nJET\nJET\nJET\nJET\nJET\n6B\nJET\nJET\nJET\nJET\nJET\nJET\nPOWER\nPOWER\nJET\nPOWER POWER\nPOWER\nPOWER\nF/T\nF/T\n240\nVA-COPOWER\nJET\nPOWER POWER\n260\nNT\nF/T\n220\n00 MI\nCO =\nCO-BN\nF/T\nF/T\n968\n242\n10\n10\nF/T\n222\n990\n224\nAD\n18\n18\nF/T\n264\nF/T\n226\nR/N\n12\nF/R\n12\n(PDT)\n(PST)\n(CDT)\nSEBREEEEEEEEEE\n35฿\n35\n45\n130S\n30\n5 30\nLuxury\n235D 235D\n80\n6 30D.\n6 30\nClub\n8 05\n$ 1145 $ 1145\nFirst\nClub\nClub\nCoach\nClub Luxury\nuxur:\nClub\nClub Luxury\nFirst\nCoach\nCoach\nCoach\nClass\nFirst\nCoach Coach\nClass\nClass\nClass\nand\nClass\nNight\nand\n30 B\n30\n25 C\n5=5400-\n30\n30 0\nCoach\n845\nClub\nCoach\n9 25 c\n9 25\n6 00\n8 05\nWEST and NORTHBOUND\nAll Flights Operate Daily\nExcept As Noted\nFLIGHT NUMBER\nHOUSTON.\nAUSTIN.\nDALLAS.\nFORT WORTH\nAbilene\nAMARILLO\nHobbs\nRoswell.\nCarlsbad\nPASO\nALBUQUERQUE.\nALBUQUERQUE.\nSanta Fe\nColorado Springs.\nEAST and SOUTHBOUND\nAll Flights Operate Daily\nCACEDL HS IOtEd\nFLIGHT NUMBER\nDENVER......\nColorado Springs\nSanta Fe..\nALOUSU\n(CST) Lv\n(CST)\n(MST)\nFEE\n55\n55\n50\n05\n05\nVII\nVII\n707\nVII VII VII\nVII VII\nVIl VIl VIl\nVIl VII VIl\nDC-\nVII VII\nVII\nJET\nJET\nJET\nDC-3\nPOWER POWER\nPOWERPER POWER POWER POWER POWER POWER POWER POWER POWERED\n7B\nDC-3\nPOWERPOWEL\nF/T\n222\nF/T\nF/T\nF/T\nF/T\n281\nE/T\nF/T\nF/T\n277\n275\n213\n283\n273\n291\n257\n287\n224\n755\n226\n215\n187\nF/T\n285\n15 S\nDaily\n4500\n5 35\nD 6 37\n05 E\nDaily\n8 30\n165\n32\n88\n10 31\n1140\nVII\n707\nJET\nJET\nF/T\nR/N\n279\n55\n00\n=\u003cöö4\n30\n12\n10\n500\nBE FE\n→ \u003c0→40040\n-·3203\nPhoe-\nLUS\n18\n·\n25.\nVII\nVII\nVII\nVII\nVII\nVII\nVII\nVII\nVII\nVII\nVII VII\nVII VII\nDC-\nVII VII 707\nVII 707\nJET\nJET\nPOWER POWER POWERE\nDC-3\nDC-3\nPOWERPOWER POWER POWER POWER POWER POWER POWER POWER\n7B\nF/T\nF/T\nF/T\nF/T\nF/T\nF/T\nF/T\nPOWERPONER\nJET\nJET\nF/T\nPOWER\nF/T\nF/R\n280\nF/T\n270\nF/T\nF/T\n210\n182\n282\n221\n284\n252\n290\n274\n227\n212\n276\n170\n278\n223\n754\n216\n286\n52\n225\n. (MST) Lv\nFrom\n10 15 Nail\nLOS\nLOS\n1 55 From\nFrom\nDaily\nFrom\nLos\nExcept\nLos\n5,35 From\nAnge-\nSatur\n8 10 les\n•ПОЕ\nand\nPhoe\n8 33\n- L 10 50|1\n05\n10\n4 15\nTucson\n8 53\n10 15\n9 45|L 10 35L 10 30\nD 550D 545D 5 55\nValy\n1e0\nThurs\nCONDENSED\nSCHEDULES\nCONTINENTAL\n28th Year\nAMARILLO.\nLUBBOCK\nMIDLAND-ODESSA\nMULAND DUESSA\nA bilene\nan see.\nFORT WORTH\nDALLAS\nAUSTIN\nHOUSTON\n(CST) LV\n630S\n000054\n35\ngras\n8 27\n1245\n5 32\n05\n1 37\nCERTAIN FLIGHTS WILL NOT OPERATE DURING HOLIDAY PERIODS. CONSULT CONTINENTAL AIRLINES FOR DETAILS. EXPLANATION OF SYMBOLS ON PAGE 6\n1"
    ],
    "millsfield:images_texts_ids": [
      1527855277,
      1527855279,
      1527855281
    ],
    "millsfield:primary_image": 1527855277,
    "millsfield:subcategory_id": 1511213425,
    "mz:hierarchy_label": 1,
    "mz:is_current": 1,
    "sfomuseum:accession_number": "2005.132.017.003",
    "sfomuseum:airline": "Continental Airlines",
    "sfomuseum:airline_id": [
      328
    ],
    "sfomuseum:category": "Scheduling / Ticketing",
    "sfomuseum:classification_id": 158,
    "sfomuseum:collection": "Aviation Archive",
    "sfomuseum:creditline": "Gift of the William Hough Collection",
    "sfomuseum:date": "1961",
    "sfomuseum:date_acquired": "2006-12-05",
    "sfomuseum:daterange_end": "1961-12-31",
    "sfomuseum:daterange_start": "1961-01-01",
    "sfomuseum:description": "Timetable issued by Continental Airlines, effective August 6, 1961; seven page fold-out; white, black, and gold cover with illustration of seven aircraft in flight and list of destination cities; announcing 28th year of service.",
    "sfomuseum:dimensions": "9 x 4 inches (22.9 x 10.2 cm)",
    "sfomuseum:media_ids": [
      1527855277,
      1527855279,
      1527855281
    ],
    "sfomuseum:medium": "paper, ink",
    "sfomuseum:object_id": 97724,
    "sfomuseum:placetype": "object",
    "sfomuseum:primary_media_id": 1527855277,
    "sfomuseum:publication": ": , 1961.",
    "sfomuseum:subcategory": "Timetable",
    "src:geom": "sfomuseum#undetermined",
    "wof:belongsto": [
      1511214223,
      102527513,
      102191575,
      85633793,
      1511213425,
      85922583,
      102087579,
      1511214277,
      1511214207,
      85688637
    ],
    "wof:breaches": [],
    "wof:country": "XX",
    "wof:created": 1579906665,
    "wof:depicts": [
      1159284201,
      1360700741
    ],
    "wof:geomhash": "30c8a918561c84bb2daa2b97fc7c5353",
    "wof:hierarchy": [
      {
        "arcade_id": 1511213425,
        "building_id": 1511214277,
        "campus_id": 102527513,
        "concourse_id": 1511214223,
        "continent_id": 102191575,
        "country_id": 85633793,
        "county_id": 102087579,
        "custom_id": 1511936225,
        "locality_id": 85922583,
        "neighbourhood_id": -1,
        "object_id": 1511936225,
        "region_id": 85688637,
        "venue_id": 1511936225,
        "wing_id": 1511214207
      }
    ],
    "wof:id": 1511936225,
    "wof:lastmodified": 1787988182,
    "wof:name": "timetable: Continental Airlines",
    "wof:parent_id": 1159162825,
    "wof:placetype": "custom",
    "wof:placetype_alt": [
      "object"
    ],
    "wof:repo": "sfomuseum-data-collection",
    "wof:superseded_by": [],
    "wof:supersedes": [],
    "wof:tags": []
  },
  "bbox": [
    -122.386155,
    37.616357,
    -122.386155,
    37.616357
  ],
  "geometry": {"type":"Point","coordinates":[-122.386155,37.616357]}
}
