{
  "id": 1913795403,
  "type": "Feature",
  "properties": {
    "date:cessation_lower": "1933-04-29",
    "date:cessation_upper": "1933-04-29",
    "date:inception_lower": "1933-04-29",
    "date:inception_upper": "1933-04-29",
    "edtf:cessation": "1933-04-29",
    "edtf:inception": "1933-04-29",
    "geom:area": 2.475047457570636e-7,
    "geom:bbox": "-122.386472,37.616105,-122.385834,37.616611",
    "geom:latitude": 37.61635747477365,
    "geom:longitude": -122.38615540108617,
    "millsfield:airline_id": [
      1159284991,
      1159285931
    ],
    "millsfield:category_id": 1511214251,
    "millsfield:collection_id": 1511214207,
    "millsfield:company_id": [
      1159286721
    ],
    "millsfield:images": [
      1913800457
    ],
    "millsfield:images_colors_refs": {
      "crayola": [
        {
          "hex": "#8a795d"
        },
        {
          "hex": "#efcdb8"
        },
        {
          "hex": "#9f8170"
        },
        {
          "hex": "#85754e"
        }
      ],
      "css4": [
        {
          "hex": "#bc8f8f"
        },
        {
          "hex": "#696969"
        },
        {
          "hex": "#808080"
        },
        {
          "hex": "#f5deb3"
        }
      ],
      "marekm4": [
        {
          "hex": "#e0d3ae"
        },
        {
          "hex": "#847b60"
        },
        {
          "hex": "#a19571"
        },
        {
          "hex": "#6d664d"
        }
      ]
    },
    "millsfield:images_texts": [
      "CATHAY HOTEL\nSHANGHAI APRIL 29, 1933\nDear Family\nI have been v ery busy negotiating with the various Chinese officials who\ndirectly or indirectly interested in Commercial aviation. The Post Office is under\nthe Commissioner of Posts who in turn is under the Minister of Communications, each of te\nseveral officials with whom I hav e to deal has a number of advisors, secretarys etc etc\nTime is of absolutely no concern\nto any of them and the surest way in the world not to\nget what you want is to try to rush them. The moment they think you are trying to hurry\nthings along that is the sign to cease firing and drop back. They go on the theory that\na year or two more or less is of no consequence at all. That anyone who tries to push\nahead has something to cover up and therefore is interested in making away with the sale\nof his gold brick before the tarnish begins to show. Therefore I have had to appear at\nall times as though time was no consideration. It is fatal also for any foreigner to say\nanything about going home or reserving space for a certain date unless he has everything\ncompletely buttoned-up. The moment they think you are about to leave they start bringing\nout new objections,\nand knowing that you cannot afford to go home with nothing done,\ndepend on forcing all sorts of concessions. The foregoing sounds as though I did not like\nthe Chinese, which as a matter of fact is far foom the truth. I am really strong for them.\nThey are terribly hard traders, have a system all their own and hav e learned in the bitte\nschool of experience that the foreigners who visit China on commercial business are mostly\nhere to exploit the people for whom they profess such ardent friendship. Many foreigners\nwho have bribed or cheated themselves into a situation complain about the treatment they\nhave received. When the facts are known you will usually find that the Chinese have done\nabout what anyone else would have done under similar circumstances. I have no patience\neither with the great majority of foreigners who having lived in Chine for many many years\nstill find all sort of fault with the Chinese, call them a lot of crooks thieves and robber\nand generally run down the country and everyone in it. I dont think any of us are over\nhere for our health and if we make a living out of our\nget along without beng so critical or go home.\nBill Pawley and I have taken a room or rather suite of rooms on the fifth floor\nof this hotel overlooking\nthe Bund, the cost in my case at least being less than I was pay-\ning before. Our suite is what the publicity man for the hotel calls the Indian Suite. It\nwas originally built for some East Indian prince. The bed room is large and has two baths\none green and the other black marble. The Buschs would think it very beautiful. The living\nroom is about twenty feet square and off that is an office about the same size. There are\ntwo large closets and also two trunk rooms large enough to hold ten trunks each. The whole\nsuite is done in the Indian style with very heavy carving, trick lights, lorn grills ete\nMy half of the room rent comes to $125,00 U.S. currency (we no longer say gold) per month.\nMy companion on this trip Groeger sailed for home last Sunday. He was the happiest\nDutchman in the world. He had been to the Philippines and all around, finished his survey\nand done a grand job of it all. The dirt and lack of order in China had I fear got on his\nteutonic nerves. Then too he was deathly afraid of all the small places and feared constant-\nly that he was going to be taken by bandits or pirates. Of course most of the stories you\nread at home are wrong - it is about as fair to judge China by the stories which get into\nthe newspapers as to judge America by the Hearst head lines or the impression that many\nhave that Chicago is a place where you will be very lucky to escape being mowed down by\nmac hine gun fire, There are lots of rumors around that the Yangstz e River for instance is\non either bank by bandits who shoot passengers just for fun.\nyears of regular operation of China National Aviation Corporation for over a thousand miles\nup the river our nikita pilots have flown entirely unmolested except that one pilot was\nshot in the leg by a stray bullet or the plane was actuallyfired upon by someone who prob-\nably thought it was a Japanese bomber for the particular incident happened during the\nplunder which he took home for Pawley and incidentally give her the few things which I hav e\ndared to purchase and last but not least tell her about our trip and my present state of\nhealth and behavior - both of which thank you are excellent.\nThursday night I went to a Movie Queen ball, It was one of those charity affairs\nstaged in all American towns and usually sponsored by the Elks or some Rotarian type of\nbores. Here however it was quite new and the sponsors were Sir Victor Sassoon and Mrs. Dr.\nFear. The latter is a sister of Mrs. Oscar Johnson of St.Louis and remembered Father and\nMother very well from their trip of 1919. I went to the ball\nas her guest. The Chinese\nbeauties were really good looking in their Chinese dresses. The prize however was won by a\nRussian and\nshe will get a free trip to Hollywood, which however probably does not suspect\ntaht she is on her way. She was very good looking but will probably not get very far in the\nThis is Saturday night and I am glad to have an evening to myself but I do have\nsome work to do so will sign off. I do not even dare suggest to you when I may be able to\nLeaye\nhere for Hong Kong and Manila, but it will almost certainly not be for several weeks.\nMy very best to you all"
    ],
    "millsfield:images_texts_ids": [
      1913800457
    ],
    "millsfield:primary_image": 1913800457,
    "millsfield:subcategory_id": 1511213489,
    "mz:is_approximate": 1,
    "mz:is_current": 1,
    "sfomuseum:accession_number": "2019.121.0639",
    "sfomuseum:airline": "Pan American Airways",
    "sfomuseum:airline_id": [
      685,
      1131
    ],
    "sfomuseum:category": "Employee Career History",
    "sfomuseum:classification_id": 195,
    "sfomuseum:collection": "Aviation Archive",
    "sfomuseum:creditline": "Collection of SFO Museum",
    "sfomuseum:date": "04/29/1933",
    "sfomuseum:date_acquired": "2019-11-22",
    "sfomuseum:daterange_end": "1933-04-29",
    "sfomuseum:daterange_start": "1933-04-29",
    "sfomuseum:description": "Typewritten letter from Harold M. Bixby to his family, dated April 29, 1933, from the Cathay Hotel in Shanghai; includes description of business culture in China and [Paul] Groeger’s survey work in China and the Philippines; mentions the minister of communications [Chu Chia-hua], Bill [William] Pawley, Sir Victor Sassoon, and Mrs. Dr. Fearn.",
    "sfomuseum:dimensions": "14 x 8 1/2 inches (35.6 x 21.6 cm)",
    "sfomuseum:medium": "paper, ink",
    "sfomuseum:object_id": 210977,
    "sfomuseum:placetype": "object",
    "sfomuseum:publication": ": , 04/29/1933.",
    "sfomuseum:subcategory": "Correspondence, Personal",
    "src:geom": "sfomuseum#undetermined",
    "wof:belongsto": [
      102527513,
      1159162825,
      102191575,
      85633793,
      102087579,
      85922583,
      85688637,
      1159160869
    ],
    "wof:country": "XY",
    "wof:created": 1714548782,
    "wof:depicts": [
      1159286721,
      1159284991,
      1159285931
    ],
    "wof:geomhash": "c281b9d9eefc83b5710e64b9d646067d",
    "wof:hierarchy": [
      {
        "building_id": -1,
        "campus_id": 102527513,
        "collection_id": 1159162825,
        "concourse_id": 1159162825,
        "continent_id": 102191575,
        "country_id": 85633793,
        "county_id": 102087579,
        "custom_id": 1913795403,
        "locality_id": 85922583,
        "neighbourhood_id": -1,
        "object_id": 1913795403,
        "region_id": 85688637,
        "wing_id": 1159160869
      }
    ],
    "wof:id": 1913795403,
    "wof:lastmodified": 1787988219,
    "wof:name": "correspondence: Harold M. Bixby, family circular letter",
    "wof:parent_id": 1159162825,
    "wof:placetype": "custom",
    "wof:placetype_alt": [
      "object"
    ],
    "wof:repo": "sfomuseum-data-collection",
    "wof:superseded_by": [],
    "wof:supersedes": []
  },
  "bbox": [
    -122.38647222518921,
    37.6161053594541,
    -122.38583385944366,
    37.61661101879963
  ],
  "geometry": {"type":"Polygon","coordinates":[[[-122.38647222518921,37.61631782178288],[-122.386434674263,37.61623283692423],[-122.38637566566466,37.61617759671399],[-122.38630056381224,37.6161308549656],[-122.38616108894348,37.6161053594541],[-122.38602161407469,37.6161308549656],[-122.38591432571411,37.61618609521055],[-122.38585531711577,37.61626683087935],[-122.38583385944366,37.61636881265146],[-122.38587141036987,37.61646654505181],[-122.38594114780425,37.61654303118856],[-122.38605380058287,37.61660252035167],[-122.38618254661559,37.61661101879963],[-122.3863059282303,37.61657277577607],[-122.3864185810089,37.61650903735973],[-122.3864668607712,37.61641130501523],[-122.38647222518921,37.61631782178288]]]}
}
