{
  "id": 1511928139,
  "type": "Feature",
  "properties": {
    "date:cessation_lower": "1955-01-01",
    "date:cessation_upper": "1955-12-31",
    "date:inception_lower": "1955-01-01",
    "date:inception_upper": "1955-12-31",
    "edtf:cessation": "1955",
    "edtf:date": "1955",
    "edtf:inception": "1955",
    "geom:area": 0,
    "geom:bbox": "-122.386155,37.616357,-122.386155,37.616357",
    "geom:latitude": 37.616357,
    "geom:longitude": -122.386155,
    "iso:country": "XX",
    "millsfield:airline_id": [
      1159285957
    ],
    "millsfield:category_id": 1511214223,
    "millsfield:collection_id": 1511214207,
    "millsfield:company_id": [
      1159286901
    ],
    "millsfield:images": [
      1527842773,
      1527850761
    ],
    "millsfield:images_colors_refs": {
      "crayola": [
        {
          "hex": "#1a4876"
        },
        {
          "hex": "#414a4c"
        },
        {
          "hex": "#ff2b2b"
        },
        {
          "hex": "#9c2542"
        },
        {
          "hex": "#cdc5c2"
        },
        {
          "hex": "#dd9475"
        },
        {
          "hex": "#efcdb8"
        }
      ],
      "css4": [
        {
          "hex": "#191970"
        },
        {
          "hex": "#c0c0c0"
        },
        {
          "hex": "#b22222"
        },
        {
          "hex": "#f5deb3"
        },
        {
          "hex": "#e9967a"
        }
      ],
      "marekm4": [
        {
          "hex": "#e3d3b5"
        },
        {
          "hex": "#d3bfaf"
        },
        {
          "hex": "#c01102"
        },
        {
          "hex": "#d9897a"
        },
        {
          "hex": "#cb2214"
        },
        {
          "hex": "#29244d"
        },
        {
          "hex": "#0c1348"
        }
      ]
    },
    "millsfield:images_texts": [
      "APRIL 24, 1955\nTRANS -\nCANADA\nAir Lines\nU.S. EDITION\nFly\nTCA\nTHE MAPLE LEAF ROUTE\nNow, TCA flies on\nyour LOCAL TIME!\nSEE PAGE FOUR FOR DETAILS\nTRANSCONTINENTAL\nINTERNATIONAL\nTRANS-ATLANTIC\nBERMUDA-CARIBBEAN",
      "CONNECTIONS AT VAI\nAUSTRALIA AND\nICOUVER WITH CPAL AND. QEA FOR HONOLULU,\nZEALAND;\nAND\nWITH CPAL FOR THE ORIENT.\nTCA\nTrans-Canada Air Lines -\nMore Than Ever Before - One of the World's Great Airlines\nCHICAGO-TORONTO..\nCLEVELAND-TORONTO\nDETROIT/WINDSOR-TORONTO.\nNEW YORK-TORONTO..\nNEW YORK-MONTREAL\nTAMPA-TORONTO.\nTAMPA-KINGSTON.\nSEATTLE/TACOMA-VICTORIA\nBOSTON-HALIFAX.\nTCA MILEAGES\n449\nMEXICO—TORONTO..\n196\nMONTREAL—PARIS..\n199\n381\nMONTREAL-HALIFAX.\nTORONTO-WINNIPEG.\n357\nWINNIPEG-CALGARY\n. 1127\nCALGARY-VANCOUVER.\n104\nBERMUDA-BARBADOS...\n491\nBARBADOS-PORT OF SPAIN\n, 2340\n3614\n538\nLegend\nTCA SERVICES\nOTHER AIRLINES\n956\n748\nTIME ZONES\n471\n1367\n212\nEASTERN TIME\nATLANTIC TIME\nPACIFIC TIME\nPST\nMOUNTAIN TIME\nMST\nCENTRAL TIME\nNEWFOUNDLAND\nTIME\nGREENWICH\nTIME\nEST\nAST\nCST\nGMT\n1 GOOSE BAY\nALBERTA\nEDMONTON\nA\nTO EUROPE\nB.C\nRocky\nMountais\nSASK.\nSASKATOON\nMANITOBA,\nCALGARY\n_REGINA-\n- LETHBRIDGE\nVANCOUVER\nVICTORIA\nSEATTLE\nTACOMA\nPORTLAND\nMINNEAPOLIC.\nST PA\nSALT LAKE CITY.\nONTARIO\nQUEBEC\nWINNIPEGFT. WİLLIAM KAPUSKASING\nLaurentians\nPT. ARTHUR\nPORQUIS\n• TIMMINS\nMONTREAL\nSUDBURY\nNORTH BAY\nSAULT STE. MARIE\nMONCTON\n- N..\nSAINT JOHN\n- MUSKOKA®\nOTTAWA\nTORONTO\nLONDON\nDETROIT-\n• HAMILTON\nI BOSTON\nWINDSOR\nCHICAGO\nLCLEVELAND\nNEW YORK\nCO LUM BUS\nDAYTON\nCINCINNAT\nPITTSBURGH\nWASHINGTON\nPHILADELPHIA\nGANDER\nSTEPHENVIBLE\nSYDNEY\nVE WOUNDLAND\n•ST. JOHN'S\n• HALIFAX\nNOVA SCOTIA\nYARMOUTH\nBERMUDA\nSAN FRANCISCO\nKANSAS CITY\nST. LOUIS\nTULSA\nLOS ANGETES-\nSAN DIEGO\nA\nDALLAS\nFORT WORTH\nTAMPA-\nST. PETERSBURG\n• NASSAU\nNEW ORLEANS\nTO BARBADOS\nAND TRINIDAD\nMajor U.S. airlines make connections\nwith TCA at Boston, New York,\nCleveland, Windsor/Detroit, Chicago,\nSeattle and Tampa/St. Petersburg\nKINGSTON\nTO ALL MAJOR CANADIAN CITIES\nAND EUROPE\nMEXICO\nTO SOUTH AMERICA\nTCA\nTCA Serves over 50 Communities throughout 22,000 Route Miles"
    ],
    "millsfield:images_texts_ids": [
      1527842773,
      1527850761
    ],
    "millsfield:primary_image": 1527842773,
    "millsfield:subcategory_id": 1511213425,
    "mz:hierarchy_label": 1,
    "mz:is_current": 1,
    "sfomuseum:accession_number": "2006.059.212",
    "sfomuseum:airline": "Trans-Canada Air Lines (TCA)",
    "sfomuseum:airline_id": [
      1143
    ],
    "sfomuseum:category": "Scheduling / Ticketing",
    "sfomuseum:classification_id": 158,
    "sfomuseum:collection": "Aviation Archive",
    "sfomuseum:creditline": "Gift of the Paul Edward Fair Estate",
    "sfomuseum:date": "1955",
    "sfomuseum:date_acquired": "2006-10-19",
    "sfomuseum:daterange_end": "1955-12-31",
    "sfomuseum:daterange_start": "1955-01-01",
    "sfomuseum:description": "Timetable issued by Trans-Canada Air Lines (TCA), effective April 24, 1955, U.S. edition; red, blue, and white cover with text “Now TCA flies on your local time”; includes route map and passenger information.",
    "sfomuseum:dimensions": "9 x 4 inches (22.9 x 10.2 cm)",
    "sfomuseum:media_ids": [
      1527842773,
      1527850761
    ],
    "sfomuseum:medium": "paper, ink",
    "sfomuseum:object_id": 81439,
    "sfomuseum:placetype": "object",
    "sfomuseum:primary_media_id": 1527842773,
    "sfomuseum:publication": ": , 1955.",
    "sfomuseum:subcategory": "Timetable",
    "sfomuseum:subject": "Airlines -- timetables",
    "src:geom": "sfomuseum#undetermined",
    "wof:belongsto": [
      1511214223,
      102527513,
      102191575,
      85633793,
      1511213425,
      85922583,
      102087579,
      1511214277,
      1511214207,
      85688637
    ],
    "wof:breaches": [],
    "wof:country": "XX",
    "wof:created": 1579906655,
    "wof:depicts": [
      1159286901,
      1159285957
    ],
    "wof:geomhash": "30c8a918561c84bb2daa2b97fc7c5353",
    "wof:hierarchy": [
      {
        "arcade_id": 1511213425,
        "building_id": 1511214277,
        "campus_id": 102527513,
        "concourse_id": 1511214223,
        "continent_id": 102191575,
        "country_id": 85633793,
        "county_id": 102087579,
        "custom_id": 1511928139,
        "locality_id": 85922583,
        "neighbourhood_id": -1,
        "object_id": 1511928139,
        "region_id": 85688637,
        "venue_id": 1511928139,
        "wing_id": 1511214207
      }
    ],
    "wof:id": 1511928139,
    "wof:lastmodified": 1787988179,
    "wof:name": "timetable: Trans-Canada Air Lines (TCA), U.S. edition",
    "wof:parent_id": 1159162825,
    "wof:placetype": "custom",
    "wof:placetype_alt": [
      "object"
    ],
    "wof:repo": "sfomuseum-data-collection",
    "wof:superseded_by": [],
    "wof:supersedes": [],
    "wof:tags": []
  },
  "bbox": [
    -122.386155,
    37.616357,
    -122.386155,
    37.616357
  ],
  "geometry": {"type":"Point","coordinates":[-122.386155,37.616357]}
}
