{
  "id": 1913795357,
  "type": "Feature",
  "properties": {
    "date:cessation_lower": "1936-01-01",
    "date:cessation_upper": "1936-12-31",
    "date:inception_lower": "1936-01-01",
    "date:inception_upper": "1936-12-31",
    "edtf:cessation": "1936",
    "edtf:inception": "1936",
    "geom:area": 2.475047457570636e-7,
    "geom:bbox": "-122.386472,37.616105,-122.385834,37.616611",
    "geom:latitude": 37.61635747477365,
    "geom:longitude": -122.38615540108617,
    "millsfield:airline_id": [
      1159284991
    ],
    "millsfield:category_id": 1511214251,
    "millsfield:collection_id": 1511214207,
    "millsfield:company_id": [
      1159286839
    ],
    "millsfield:images": [
      1913802541,
      1913802545,
      1913802547
    ],
    "millsfield:images_colors_refs": {
      "crayola": [
        {
          "hex": "#fcd975"
        },
        {
          "hex": "#f0e891"
        },
        {
          "hex": "#efdecd"
        },
        {
          "hex": "#e7c697"
        },
        {
          "hex": "#414a4c"
        }
      ],
      "css4": [
        {
          "hex": "#f0e68c"
        },
        {
          "hex": "#f5f5dc"
        },
        {
          "hex": "#2f4f4f"
        },
        {
          "hex": "#deb887"
        }
      ],
      "marekm4": [
        {
          "hex": "#f4f1d9"
        },
        {
          "hex": "#455958"
        },
        {
          "hex": "#ecde76"
        },
        {
          "hex": "#475a51"
        },
        {
          "hex": "#43554d"
        },
        {
          "hex": "#f4f0d7"
        },
        {
          "hex": "#eddf76"
        },
        {
          "hex": "#dfcf7b"
        },
        {
          "hex": "#ecde96"
        }
      ]
    },
    "millsfield:images_texts": [
      "who.\nQuatin lop the Chan Nationai Piline\nand det acquit in 19334,\nPan American Ciurg\nTine Ontact a the transparatin of\nChman maie -\nwas that the Contact was with the\nminist, of Raeway rathe than the\nministry of communications which\nhandled the mad.\nas a resuet the Chriss\nto recognge the\nConermin or fur, any mau to te\nCompany in when Curtis lergi had\ne5s\nintr st.\nthe\nministry of Communations sit up?\nits oun airline andra\nput a chines\nwho conce fe\nat that time Wins\nmanaging Prizete fomen\nline was prenti\nHankow to Prepig.\npon\nENAC to fly for\nthe now company\nAle wint wore\nkike the wrath was ford ano much\n\"Hmmacatina, the grand in crange ans\nresultas for the missin of",
      "mueh lon if face by the musist, of\nRailway which had untred into\nalene lch American who\nobos tona not nicard .\nNown , whin the bad wathn\nop ray winte\nost mn\nand\nt cil ngo\nWashid ont\nthe Chass pilots\ntrappes than Stinsons in less then\nluo usko.\nIt was the The\nAmerican musemarie did a wandafe\nJet in Chure = temas mo dunkt\nabrt that:\nThey\nCont fra.\nmary Chaen to Christans.\nBut\nhe Chance peloto made Eudathi\nnt ap mod. af ns amaricam a\no stie cauy a litte wory Bndsah\naronne an my puckst. Wtinen ft\na lette mervom in an anflane\nrul the Buddin! tummy for food\nluck , long lp and hajgrn.\nm un bade\ntat my pust circumstana nar\nnot detrorata to a\nth at traum nats\nau at one time .\nWh, io thio .\nBrcaur in fonne bn\nlong ix pareses\nte te cmo ploto\nConce do\nang thing wh an Riplanc an.\nTei wack avay pom the urack\nvictont a scratch.\nBut my story\navnet Big John.\nHr was flying from Nankin",
      "mortal to Priping when the callig\nloon and lown. We want\ndown wick it untie he was flying\njust aton the triz tops. An Amnican\nPust had told him \" you cant\nanything ahead and cant fer\nunder the stult, guot time around\nand go back.\nThe dyes, hower,\nBig Johns pred cament was thet\nhe\nlog villa, wha\nnarrowad down ek a funne an\nhe did it hair room to turn\naround. That did nt botta hun tao\nmuch, Ir tries anyway. Abmt\nhaep was around.\nhis turn vas\ninterrupted 6, a mountain. The\nplane was a Complete wreck bout\ntypiere Chinor Peat fashin\nweet ont a\nteratch.\nThat\nsires of accidants\n40\nthe Stensons prooved the and of\nthe\nPost office Gilins. Q magan we.\nafrete with the Curtin coright line\na mat mail contracto synd\npugn fashion les the tinies of\nCommunicationo.\nCoken\nafte\nGan Amnican acquired\nthe\nCurtis Gigut intrist in te\ncostitutes Chira Natioae\nGration Corja the company wa."
    ],
    "millsfield:images_texts_ids": [
      1913802541,
      1913802545,
      1913802547
    ],
    "millsfield:primary_image": 1913802541,
    "millsfield:subcategory_id": 1511213505,
    "mz:is_approximate": 1,
    "mz:is_current": 1,
    "sfomuseum:accession_number": "2019.121.0962 a c",
    "sfomuseum:airline": "Pan American Airways",
    "sfomuseum:airline_id": [
      685
    ],
    "sfomuseum:category": "Employee Career History",
    "sfomuseum:classification_id": 203,
    "sfomuseum:collection": "Aviation Archive",
    "sfomuseum:creditline": "Collection of SFO Museum",
    "sfomuseum:date": "1936",
    "sfomuseum:date_acquired": "2019-11-22",
    "sfomuseum:daterange_end": "1936-12-31",
    "sfomuseum:daterange_start": "1936-01-01",
    "sfomuseum:description": "Handwritten document by Harold M. Bixby, undated; tribute to “Big John (Chuan),” CNAC pilot.",
    "sfomuseum:dimensions": "12 1/2 x 8 inches (31.8 x 20.3 cm)",
    "sfomuseum:medium": "paper, ink",
    "sfomuseum:object_id": 211325,
    "sfomuseum:placetype": "object",
    "sfomuseum:publication": ": , 1936.",
    "sfomuseum:subcategory": "Other, Employee Career History",
    "src:geom": "sfomuseum#undetermined",
    "wof:belongsto": [
      102527513,
      1159162825,
      102191575,
      85633793,
      102087579,
      85922583,
      85688637,
      1159160869
    ],
    "wof:country": "XY",
    "wof:created": 1714548769,
    "wof:depicts": [
      1159284991,
      1159286839
    ],
    "wof:geomhash": "c281b9d9eefc83b5710e64b9d646067d",
    "wof:hierarchy": [
      {
        "building_id": -1,
        "campus_id": 102527513,
        "collection_id": 1159162825,
        "concourse_id": 1159162825,
        "continent_id": 102191575,
        "country_id": 85633793,
        "county_id": 102087579,
        "custom_id": 1913795357,
        "locality_id": 85922583,
        "neighbourhood_id": -1,
        "object_id": 1913795357,
        "region_id": 85688637,
        "wing_id": 1159160869
      }
    ],
    "wof:id": 1913795357,
    "wof:lastmodified": 1787988219,
    "wof:name": "document: Harold M. Bixby",
    "wof:parent_id": 1159162825,
    "wof:placetype": "custom",
    "wof:placetype_alt": [
      "object"
    ],
    "wof:repo": "sfomuseum-data-collection",
    "wof:superseded_by": [],
    "wof:supersedes": []
  },
  "bbox": [
    -122.38647222518921,
    37.6161053594541,
    -122.38583385944366,
    37.61661101879963
  ],
  "geometry": {"type":"Polygon","coordinates":[[[-122.38647222518921,37.61631782178288],[-122.386434674263,37.61623283692423],[-122.38637566566466,37.61617759671399],[-122.38630056381224,37.6161308549656],[-122.38616108894348,37.6161053594541],[-122.38602161407469,37.6161308549656],[-122.38591432571411,37.61618609521055],[-122.38585531711577,37.61626683087935],[-122.38583385944366,37.61636881265146],[-122.38587141036987,37.61646654505181],[-122.38594114780425,37.61654303118856],[-122.38605380058287,37.61660252035167],[-122.38618254661559,37.61661101879963],[-122.3863059282303,37.61657277577607],[-122.3864185810089,37.61650903735973],[-122.3864668607712,37.61641130501523],[-122.38647222518921,37.61631782178288]]]}
}
