{
  "id": 1913796283,
  "type": "Feature",
  "properties": {
    "date:cessation_lower": "1950-04-22",
    "date:cessation_upper": "1950-04-22",
    "date:inception_lower": "1950-04-22",
    "date:inception_upper": "1950-04-22",
    "edtf:cessation": "1950-04-22",
    "edtf:inception": "1950-04-22",
    "geom:area": 2.475047457570636e-7,
    "geom:bbox": "-122.386472,37.616105,-122.385834,37.616611",
    "geom:latitude": 37.61635747477365,
    "geom:longitude": -122.38615540108617,
    "millsfield:airline_id": [
      1159284989
    ],
    "millsfield:category_id": 1511214251,
    "millsfield:collection_id": 1511214207,
    "millsfield:company_id": [
      1159286839
    ],
    "millsfield:images": [
      1913796731,
      1913796733
    ],
    "millsfield:images_colors_refs": {
      "crayola": [
        {
          "hex": "#efdecd"
        }
      ],
      "css4": [
        {
          "hex": "#faebd7"
        }
      ],
      "marekm4": [
        {
          "hex": "#ebe6d1"
        },
        {
          "hex": "#ece7d1"
        }
      ]
    },
    "millsfield:images_texts": [
      "April 22nd, 1950.\nDearest Debby:\nYou have been wonderful about writing, and I do\nbelieve I have received all your letters. I think our letters\npapers, you will understand.\nI have never heard anymore fron\nRussaks about the blouse they claimed I hadn't paid for, nor\nfrom Harold's secretary. I sent her my cancelled check, and I\nsuppose it has been taken care of.\nI am not very systematic, and\nI was glad that I had that cancelled eheck, as it would have\nbeen\nembarrassing.\nI was so sure that I had paid for it, but I couldn't\nremember just how I thought I had had it sent c. o. Do\nI was so interested in your letter from Baguio.\nane wished so much I could have been there.\nElsa wants me to\ncome out so badly, but I am not sure that I could take it. I\nwouldn't want to leave Shirley anyway, until she is more settled.\nShe has been sick again, and they wanted to give her an extended\nleave of absense.\nFrankly, I don't care whether she finishes or\nnot.\nIt has changed her so much, I don't know whether it is\nwhat they must come up against, or whether it is the roommate she\nis so fond of.\nShe is older than Shirley, and to me, and most\neveryone that has met her, most unattractive. She has a very\ndisgruntled attitude about everything.\nI thought if Shirley\ncan't finish, I would send her to Medical Secretarial School.\nI think she would be good at that.\nShe was out to the City\nand County Hospital for communicable deseases, and said it\nwas very interesting,\nbut when it came time to send her in the\nI. B. ward, the doctor's out there sent her back to st. Lukes\nand said they didn't think she was strong enough. She has had\na cough for such a long time. She smokes much too much, and\nthey told her at St. Lukes she would have to give up smoking,\nand they would keep her on there for awhile, but if she doesn't\nget rid of her cough, she would have to take an extended leave.\nSo much has happened in the last few months.\nhad Myra and the baby for a couple of months, until they could\nfind a place. I loved having the baby,\nbut it did keep me\nvery busy.\nI know how the girls must feel when they get them\nall tucked away safely in bed at night.\nMyra has found a little\napartment, which is not palatial by any means, but it is much\nbetter than the other place she had to live in.\nShe married Lou\non the 26th of March.\nThey went up to Nevada, and I kept the babi\nfor her. She seems to be very happy, and says that he is so good\nto her. She wants to work for a few months, which I don't\napprove of, and yesterday Lou told me that he had been begging\nher to stop. I shall try and talk to her again, but she doesn't\npay tomach attention to my advice.\nI told ou, I thought he\nshould be firm with her, and not let her have her own way. He\nsaid he would try, but I think heris too easy going. She has a\nvery good place for the baby now.\nA German woman,\nwho is a trained\nnurse and has a lovely garden.\nShe has one other little girl the\nsame age as Joelle, and they do have fun together.\nA PaINISAPOS",
      "- 2 -\nAfter Myra and the baby left, I had Shirley home for a month.\nWe spent a lot of time sewing• Shirley made two dresses, with my\nhelp, and I made two.\nOne a navy blue sheer wool, which I am very\npleased with.\nThe other, a print, I am not too sure about. I haven't\nworn it yet,\nas it doesn't look just like the victure did. Before\nShirley went back, Angela was quite sick.\nI spent as much time with\nher as I could.\nHer cousin and I took turns.\nShe finally had a nurse\nduring the day, and I stayed with her at nights.\nThe doctor wanted\nher to go to the hospital, but she didn't want to. She had pneumonia.\nShe is quite all right now. Myra has had bronchitas for the last\ntwo weeks, and I have been going over there in the daytime. Mrs.\nKlaus has kept Joelle. I am going over this afternoon. Yesterday\nI went over and took her to the doctor and she seemed to feel a\nlittle better. She went back to work last Tuesday,\nbut had to stop\non Thursday.\nThe doctor is giving her oromizen, (I don't know how to\nspell it,, and it seems to be helping her.\nI went with Bee Hatie the other night to see Lowell Thomas'\npictures of Tibet.\nThey were so interesting, and in the end they\ngave F.A.A. quite a bit of advertising.\nHave you seen it? I am afraid\nthat is the way I am going to do my traveling.\nI am so glad you are\nhaving such a wonderful trip, and everything has turned out as you\nhad hoped it would.\nThat was interesting about Clarance Young. I thought he was\nOff P. A. A• I heard that he resigned because he thought he wasn't\nbeing treated right.\nI was so sorry to hear about the Bonds. I had some friends\nto luncheon the other day, among them was Mrs. Kroll, who always\nspeake to kindly about Harold and Mr. Bond.\nHarold and re\nShe is very nice.\nI had Pat Taggart, who asked to be rememberedto yo when I wrote,\nNellie Sharp and Mercedes Me Micking, and Angela, and two others\nwhom you don't know.\nThey all seemed to be so congenial, and it\nwas all very pleasant. I was so far behind as I have been rather\ntied down the last few months.\nI have a wonderful gadget I want to send. you when you get\nsettled at home. It is a dispenser for hand cream, and just gives\none the proper amount.\nIt is like a cole cream jar,\nand is not\nbad looking. I have one in my bedroom and one in the kitchen.\nI must leave you. I don't know whether this will ever catch\nup with you. I am so sorry I didn't get it written before you left\nParis.\nDearest love to you and Hebe, and very best wishes to\nHarold. You have more than paid me back for anything we ever\ndid for you.\nI can't tell you how much my visit with you meant\nto me. I just forgot everything, and enjoyed every minute with\nyou, besides all the wonderful shows. I think of it all, most\nevery day. I do love you all very much.\nAs ever,\nelma.\nPane thank the for her lite. Spange\nd RAID SIE\nte test yes shine you like his ring he"
    ],
    "millsfield:images_texts_ids": [
      1913796731,
      1913796733
    ],
    "millsfield:primary_image": 1913796731,
    "millsfield:subcategory_id": 1511213489,
    "mz:is_approximate": 1,
    "mz:is_current": 1,
    "sfomuseum:accession_number": "2019.121.1169 a b",
    "sfomuseum:airline": "Pan American World Airways",
    "sfomuseum:airline_id": [
      684
    ],
    "sfomuseum:category": "Employee Career History",
    "sfomuseum:classification_id": 195,
    "sfomuseum:collection": "Aviation Archive",
    "sfomuseum:creditline": "Collection of SFO Museum",
    "sfomuseum:date": "04/22/1950",
    "sfomuseum:date_acquired": "2019-11-22",
    "sfomuseum:daterange_end": "1950-04-22",
    "sfomuseum:daterange_start": "1950-04-22",
    "sfomuseum:description": "Typewritten letter from Elma or Elvira (sp) to Debby Bixby, dated April 22, 1950; includes personal greetings; mentions Harold M. Bixby, [William L. and Kitsi] Bond, Clarence Young.",
    "sfomuseum:dimensions": "10 3/4 x 7 1/4 inches (27.3 x 18.4 cm)",
    "sfomuseum:medium": "paper, ink",
    "sfomuseum:object_id": 211532,
    "sfomuseum:placetype": "object",
    "sfomuseum:publication": ": , 04/22/1950.",
    "sfomuseum:subcategory": "Correspondence, Personal",
    "src:geom": "sfomuseum#undetermined",
    "wof:belongsto": [
      102527513,
      1159162825,
      102191575,
      85633793,
      102087579,
      85922583,
      85688637,
      1159160869
    ],
    "wof:country": "XY",
    "wof:created": 1714549043,
    "wof:depicts": [
      1159284989,
      1159286839
    ],
    "wof:geomhash": "c281b9d9eefc83b5710e64b9d646067d",
    "wof:hierarchy": [
      {
        "building_id": -1,
        "campus_id": 102527513,
        "collection_id": 1159162825,
        "concourse_id": 1159162825,
        "continent_id": 102191575,
        "country_id": 85633793,
        "county_id": 102087579,
        "custom_id": 1913796283,
        "locality_id": 85922583,
        "neighbourhood_id": -1,
        "object_id": 1913796283,
        "region_id": 85688637,
        "wing_id": 1159160869
      }
    ],
    "wof:id": 1913796283,
    "wof:lastmodified": 1787988219,
    "wof:name": "correspondence: Debby Bixby",
    "wof:parent_id": 1159162825,
    "wof:placetype": "custom",
    "wof:placetype_alt": [
      "object"
    ],
    "wof:repo": "sfomuseum-data-collection",
    "wof:superseded_by": [],
    "wof:supersedes": []
  },
  "bbox": [
    -122.38647222518921,
    37.6161053594541,
    -122.38583385944366,
    37.61661101879963
  ],
  "geometry": {"type":"Polygon","coordinates":[[[-122.38647222518921,37.61631782178288],[-122.386434674263,37.61623283692423],[-122.38637566566466,37.61617759671399],[-122.38630056381224,37.6161308549656],[-122.38616108894348,37.6161053594541],[-122.38602161407469,37.6161308549656],[-122.38591432571411,37.61618609521055],[-122.38585531711577,37.61626683087935],[-122.38583385944366,37.61636881265146],[-122.38587141036987,37.61646654505181],[-122.38594114780425,37.61654303118856],[-122.38605380058287,37.61660252035167],[-122.38618254661559,37.61661101879963],[-122.3863059282303,37.61657277577607],[-122.3864185810089,37.61650903735973],[-122.3864668607712,37.61641130501523],[-122.38647222518921,37.61631782178288]]]}
}
