{
  "id": 1779696895,
  "type": "Feature",
  "properties": {
    "date:cessation_lower": "1975-01-01",
    "date:cessation_upper": "1975-12-31",
    "date:inception_lower": "1975-01-01",
    "date:inception_upper": "1975-12-31",
    "edtf:cessation": "1975~",
    "edtf:inception": "1975~",
    "geom:area": 2.475047457570636e-7,
    "geom:bbox": "-122.386472,37.616105,-122.385834,37.616611",
    "geom:latitude": 37.61635747477365,
    "geom:longitude": -122.38615540108617,
    "millsfield:airline_id": [
      1159284989
    ],
    "millsfield:category_id": 1762671311,
    "millsfield:collection_id": 1511214207,
    "millsfield:company_id": [
      1159286839
    ],
    "millsfield:images": [
      1863469771,
      1863469775,
      1863469777
    ],
    "millsfield:images_colors_refs": {
      "crayola": [
        {
          "hex": "#757575"
        },
        {
          "hex": "#efdecd"
        },
        {
          "hex": "#eceabe"
        },
        {
          "hex": "#414a4c"
        },
        {
          "hex": "#9c7c38"
        },
        {
          "hex": "#9f8170"
        },
        {
          "hex": "#6dae81"
        }
      ],
      "css4": [
        {
          "hex": "#ffebcd"
        },
        {
          "hex": "#f5deb3"
        },
        {
          "hex": "#bdb76b"
        },
        {
          "hex": "#808000"
        },
        {
          "hex": "#808080"
        },
        {
          "hex": "#556b2f"
        },
        {
          "hex": "#5f9ea0"
        },
        {
          "hex": "#2f4f4f"
        }
      ],
      "marekm4": [
        {
          "hex": "#38543e"
        },
        {
          "hex": "#565743"
        },
        {
          "hex": "#f3e7ca"
        },
        {
          "hex": "#a49963"
        },
        {
          "hex": "#f6e8c9"
        },
        {
          "hex": "#e2ddc1"
        },
        {
          "hex": "#778879"
        },
        {
          "hex": "#91741c"
        },
        {
          "hex": "#6e9c98"
        }
      ]
    },
    "millsfield:images_texts": [
      "P. F. PALMER. LITH.\nLENGTH OF KEE\nLENGTH ON DECK\nLENGTH OVERARI\nDIMNSIONS\n..175 FEET 6 IN.\n180 FEET\n207 F 321\nnored according to and of Congress in cha year 1855 by N. Curries in the Clace Offin of the Didid Cause of Name Yout\nI. Dant D. Westervel Cog. builder, of the New Yorke\nCLIPPER SHIP \"CONTEST\nThis print is rospoctfully dadicatad by the Publisher.\nLITH. BY N. CURRIEr\nROPANTH OF REAM\nDEPTH OF HOLD\nTONNAGE PER REGISTER\nBUILT BY D. D. WESTERYELT, NEW TORA 1634\n36 PEST",
      "The front cover of this menu is a reproduction of an authentic Currier \u0026 Ives clipper ship print.\nCurrier \u0026 Ives, known as the \"Printmakers of America\", graphically preserved the glorious clipper\nship era in a magnificent series of clipper ship prints. This print, one of a series, is being reproduced\nthrough the courtesy of The Museum of the City of New York.\nThe story of \"Clipper Ships\" is the story of America itself! The New England \"Yankee\" ship-\nbuilders built a merchant fleet that was a decisive factor in the American Revolution and the War\nof 1812. These merchant fleets gathered the wealth that founded our great banks and factories, built\nour railroads and pushed our frontiers ever Westward. It was these same merchant fleets that paid\nthe duties that enabled Thomas Jefferson to purchase the Louisiana Territory. They made our\nmerchant marine the greatest afloat, and in the process, produced the greatest, the swiftest, the\nmost beautiful craft the world had ever seen ... the American Clipper Ship. By the year 1853 the\ndemand for clippers reached frenzied heights... as many as five were launched in one day. The\n\"Contest,\" built to satisfy the rush for gold in California, broke many speed records fighting her way\naround the horn to San Francisco and from there to the Orient.\nLike Pan Am's modern Clippers* of the air, the early clipper ships traveled the lanes of com-\nmerce to all the far places of the world ... to Japan... to Australia... and, in the days of the great\ngold rush, from America's east coast, around Cape Horn, South America, to California. Our current\nequipment... the Clipper fleet of the Twentieth Century ... consists of the fihest commercial\naircraft ever developed—aircraft that have helped us establish an unparalleled record for safety,\nspeed and service.\n*CUPPER TRADE MARK-REG. U.S. PAT. OFFICE - COPYRIGHT 1966 PAN AMERICAN WORLD AIRWAYS ING\n2000.\n058.0317\nLITHO IN U.SA-8739-0393"
    ],
    "millsfield:images_texts_ids": [
      1863469771,
      1863469777
    ],
    "millsfield:primary_image": 1863469771,
    "millsfield:subcategory_id": 1511213567,
    "mz:is_approximate": 1,
    "mz:is_current": 1,
    "sfomuseum:accession_number": "2000.058.0317",
    "sfomuseum:airline": "Pan American World Airways",
    "sfomuseum:airline_id": [
      684
    ],
    "sfomuseum:category": "Passenger Amenity, Archive",
    "sfomuseum:classification_id": 242,
    "sfomuseum:collection": "Aviation Archive",
    "sfomuseum:creditline": "Gift of the Pan Am Association",
    "sfomuseum:date": "c. 1975",
    "sfomuseum:date_acquired": "2000-12-14",
    "sfomuseum:daterange_end": "1980-12-31",
    "sfomuseum:daterange_start": "1970-01-01",
    "sfomuseum:description": "Menu cover issued by Pan American World Airways; color reproduction of print titled \"Clipper Ship ‘Contest’\"; no menu insert.",
    "sfomuseum:dimensions": "10 x 12 3/4 inches (25.4 x 32.4 cm)",
    "sfomuseum:medium": "paper, ink",
    "sfomuseum:object_id": 51380,
    "sfomuseum:placetype": "object",
    "sfomuseum:publication": ": , c. 1975.",
    "sfomuseum:series": "Currier \u0026 Ives Clipper Ships",
    "sfomuseum:subcategory": "Menu",
    "src:geom": "sfomuseum#undetermined",
    "wof:belongsto": [
      102527513,
      1159162825,
      102191575,
      85633793,
      102087579,
      85922583,
      85688637,
      1159160869
    ],
    "wof:country": "XY",
    "wof:created": 1655539414,
    "wof:depicts": [
      1159286839,
      1159284989
    ],
    "wof:geomhash": "c281b9d9eefc83b5710e64b9d646067d",
    "wof:hierarchy": [
      {
        "building_id": -1,
        "campus_id": 102527513,
        "collection_id": 1159162825,
        "concourse_id": 1159162825,
        "continent_id": 102191575,
        "country_id": 85633793,
        "county_id": 102087579,
        "custom_id": 1779696895,
        "locality_id": 85922583,
        "neighbourhood_id": -1,
        "object_id": 1779696895,
        "region_id": 85688637,
        "wing_id": 1159160869
      }
    ],
    "wof:id": 1779696895,
    "wof:lastmodified": 1787988209,
    "wof:name": "menu cover: Pan American World Airways",
    "wof:parent_id": 1159162825,
    "wof:placetype": "custom",
    "wof:placetype_alt": [
      "object"
    ],
    "wof:repo": "sfomuseum-data-collection",
    "wof:superseded_by": [],
    "wof:supersedes": []
  },
  "bbox": [
    -122.38647222518921,
    37.6161053594541,
    -122.38583385944366,
    37.61661101879963
  ],
  "geometry": {"type":"Polygon","coordinates":[[[-122.38647222518921,37.61631782178288],[-122.386434674263,37.61623283692423],[-122.38637566566466,37.61617759671399],[-122.38630056381224,37.6161308549656],[-122.38616108894348,37.6161053594541],[-122.38602161407469,37.6161308549656],[-122.38591432571411,37.61618609521055],[-122.38585531711577,37.61626683087935],[-122.38583385944366,37.61636881265146],[-122.38587141036987,37.61646654505181],[-122.38594114780425,37.61654303118856],[-122.38605380058287,37.61660252035167],[-122.38618254661559,37.61661101879963],[-122.3863059282303,37.61657277577607],[-122.3864185810089,37.61650903735973],[-122.3864668607712,37.61641130501523],[-122.38647222518921,37.61631782178288]]]}
}
