{
  "id": 1511909887,
  "type": "Feature",
  "properties": {
    "date:cessation_lower": "1984-01-01",
    "date:cessation_upper": "1984-12-31",
    "date:inception_lower": "1984-01-01",
    "date:inception_upper": "1984-12-31",
    "edtf:cessation": "1984",
    "edtf:date": "1984",
    "edtf:inception": "1984",
    "geom:area": 0,
    "geom:bbox": "-122.386155,37.616357,-122.386155,37.616357",
    "geom:latitude": 37.616357,
    "geom:longitude": -122.386155,
    "iso:country": "US",
    "millsfield:airline_id": [
      1159285413
    ],
    "millsfield:category_id": 1511214223,
    "millsfield:collection_id": 1511214207,
    "millsfield:company_id": [
      1159288779
    ],
    "millsfield:images": [
      1527818525,
      1527818527
    ],
    "millsfield:images_colors_refs": {
      "crayola": [
        {
          "hex": "#fddde6"
        },
        {
          "hex": "#324ab2"
        },
        {
          "hex": "#c8385a"
        },
        {
          "hex": "#ffffff"
        },
        {
          "hex": "#5d76cb"
        },
        {
          "hex": "#000000"
        }
      ],
      "css4": [
        {
          "hex": "#000000"
        },
        {
          "hex": "#4682b4"
        },
        {
          "hex": "#dc143c"
        },
        {
          "hex": "#f5f5f5"
        },
        {
          "hex": "#483d8b"
        }
      ],
      "marekm4": [
        {
          "hex": "#f4f3f4"
        },
        {
          "hex": "#ce3049"
        },
        {
          "hex": "#1c2cad"
        },
        {
          "hex": "#f0eef1"
        },
        {
          "hex": "#1f2122"
        },
        {
          "hex": "#4b6fab"
        }
      ]
    },
    "millsfield:images_texts": [
      "UNITED AIRLINES\nEffective June 1, 1984\nROYAL\nPACIFIC 1\nSCHEDULES\nTO t\nte.\nHONG KONG\nAND\nTOKYO\nROYAL PACIFIC SERVICE",
      "FAR EAST SALES OFFICES - United maintains\noffices in these cities in foreign countries listed below:\nAuckland, New Zealand\nNo. 1 Queen Stroet\nBangkok, Thailand\n233-5900-9\n1053 Charden Krung Rose\nHang kong\n5-261212/7\nSuite 3605\ni Gloucester Tower, The Landmark\n11 Peder St. Hang Kong\nRubIn Lumpur, M8l8y88\n79, Jalan Bukit Bintang\nManila, Philippines\nOsaka, Japan\nSumitomo Nakanasima Bldg, 11th fl. 3-2-18\nSULKATAS\nTaken?\nRoom 234. Chosun Hotel\n67 Sokongdong. Chung-Ku\nUnit 424, Singapore Shopping Ctr.\n190, Clemenceau Ave.\nSydney, Australia\nAustralia Square, Suite 4308\nTaipei, Taiwan\nS27 Tun Hua S. Road, Talpe\nKokusai Bidg, Suite 228\n1-1 Marunauchi, 3-chrome Chiyoda-ku\nJakarta\nSari Pacific Hotel, Suite 304, 6, JL.M.H. Thamnin\nROYAL PACIFIC SERVICE\n1999.047. 5/9"
    ],
    "millsfield:images_texts_ids": [
      1527818525,
      1527818527
    ],
    "millsfield:primary_image": 1527818525,
    "millsfield:subcategory_id": 1511213425,
    "mz:hierarchy_label": 1,
    "mz:is_current": 1,
    "sfomuseum:accession_number": "1999.047.513",
    "sfomuseum:airline": "United Airlines",
    "sfomuseum:airline_id": [
      883
    ],
    "sfomuseum:category": "Scheduling / Ticketing",
    "sfomuseum:classification_id": 158,
    "sfomuseum:collection": "Aviation Archive",
    "sfomuseum:continent": "North America",
    "sfomuseum:country": "United States",
    "sfomuseum:creditline": "Gift of United Airlines Archives",
    "sfomuseum:date": "1984",
    "sfomuseum:date_acquired": "2000-05-11",
    "sfomuseum:daterange_end": "1984-12-31",
    "sfomuseum:daterange_start": "1984-01-01",
    "sfomuseum:description": "Timetable issued by United Airlines for Royal Pacific Service to Hong Kong and Tokyo, effective June 1, 1984; white cover with illustrations of Japanese female dancer, torii, pagoda, and dragon.",
    "sfomuseum:dimensions": "9 x 4 inches (22.9 x 10.2 cm)",
    "sfomuseum:media_ids": [
      1527818525,
      1527818527
    ],
    "sfomuseum:medium": "paper, ink",
    "sfomuseum:object_id": 49878,
    "sfomuseum:placetype": "object",
    "sfomuseum:primary_media_id": 1527818525,
    "sfomuseum:publication": ": , 1984.",
    "sfomuseum:subcategory": "Timetable",
    "src:geom": "sfomuseum#undetermined",
    "wof:belongsto": [
      102191575,
      85633793,
      136253057,
      1511214223,
      102527513,
      1511213425,
      85922583,
      102087579,
      1511214277,
      1511214207,
      85688637
    ],
    "wof:breaches": [],
    "wof:country": "US",
    "wof:created": 1579906678,
    "wof:depicts": [
      1159285413,
      1159288779
    ],
    "wof:geomhash": "30c8a918561c84bb2daa2b97fc7c5353",
    "wof:hierarchy": [
      {
        "continent_id": 102191575,
        "country_id": 85633793,
        "custom_id": 1511909887,
        "empire_id": 136253057,
        "object_id": 1511909887,
        "venue_id": 1511909887
      },
      {
        "arcade_id": 1511213425,
        "building_id": 1511214277,
        "campus_id": 102527513,
        "concourse_id": 1511214223,
        "continent_id": 102191575,
        "country_id": 85633793,
        "county_id": 102087579,
        "custom_id": 1511909887,
        "locality_id": 85922583,
        "neighbourhood_id": -1,
        "object_id": 1511909887,
        "region_id": 85688637,
        "venue_id": 1511909887,
        "wing_id": 1511214207
      }
    ],
    "wof:id": 1511909887,
    "wof:lastmodified": 1787988176,
    "wof:name": "timetable: United Airlines, Hong Kong / Tokyo",
    "wof:parent_id": 1159162825,
    "wof:placetype": "custom",
    "wof:placetype_alt": [
      "object"
    ],
    "wof:repo": "sfomuseum-data-collection",
    "wof:superseded_by": [],
    "wof:supersedes": [],
    "wof:tags": []
  },
  "bbox": [
    -122.386155,
    37.616357,
    -122.386155,
    37.616357
  ],
  "geometry": {"type":"Point","coordinates":[-122.386155,37.616357]}
}
