{
  "id": 1913796013,
  "type": "Feature",
  "properties": {
    "date:cessation_lower": "1935-03-25",
    "date:cessation_upper": "1935-03-25",
    "date:inception_lower": "1935-03-25",
    "date:inception_upper": "1935-03-25",
    "edtf:cessation": "1935-03-25",
    "edtf:inception": "1935-03-25",
    "geom:area": 2.475047457570636e-7,
    "geom:bbox": "-122.386472,37.616105,-122.385834,37.616611",
    "geom:latitude": 37.61635747477365,
    "geom:longitude": -122.38615540108617,
    "millsfield:airline_id": [
      1159284991
    ],
    "millsfield:category_id": 1511214251,
    "millsfield:collection_id": 1511214207,
    "millsfield:company_id": [
      1159286839
    ],
    "millsfield:images": [
      1913801943,
      1913801945,
      1913801947
    ],
    "millsfield:images_colors_refs": {
      "crayola": [
        {
          "hex": "#6e5160"
        },
        {
          "hex": "#9f8170"
        },
        {
          "hex": "#eceabe"
        },
        {
          "hex": "#fae7b5"
        },
        {
          "hex": "#85754e"
        }
      ],
      "css4": [
        {
          "hex": "#808080"
        },
        {
          "hex": "#f5deb3"
        },
        {
          "hex": "#ffe4c4"
        },
        {
          "hex": "#556b2f"
        },
        {
          "hex": "#696969"
        }
      ],
      "marekm4": [
        {
          "hex": "#efe4c5"
        },
        {
          "hex": "#ecdfb7"
        },
        {
          "hex": "#928d75"
        },
        {
          "hex": "#6b6956"
        },
        {
          "hex": "#676146"
        },
        {
          "hex": "#9d946e"
        },
        {
          "hex": "#9a916f"
        },
        {
          "hex": "#f2e3b6"
        },
        {
          "hex": "#6c6548"
        }
      ]
    },
    "millsfield:images_texts": [
      "Monday Q.m 3/25\nDearent Debo.\nIs are haven a fine break or\nwrath good ale\nthe way, with\na following wend. Melon\nsays ur\nshould avur at Hankow alont 11:15\nUr left shanghai at 7:50.\nIt was aufully funny the aim.\nKi Chun did nit show up at 7 oclock\nand nether did the mail or the\nworkmen. It seems that a train\nbocked the crony at the hungrea\nstation. Ki Chun was wild. afte\nwaiting abont 15 minutes he climbed\nthrough a can with all his baggage\nin the louse\n\" the easy to no tamp cith\nyon cors saw .\nter hair been\ncomplacking abont that darn train blocking\nthen wore for the last two\nthey wored\nCond cross\nbut instrad they always\nthere ishi a\nlot of pubes officials\ninconsenced, They were on thie way\nout to for the ps f. I hops now\nur may get some action.",
      "-\nOrk I'm awful, sour that I wont\nbe that to meet ma when she land.\nJur her my lour and the her how\nawfully sorry 9 am that thing turned\nout so that I could nt urecome he Is\nChina.\nI spoke to Mur son abont helping\nthrough\ncustoms and he said - and\nmeant it - that he wored lor to help.\nJuat meet ma and ect mr ston take\nchang of trunks and all the reat.\nthrough the\nIr nia to invit the Captain to Lar\ndinnu at qui Qur Joch-\nThose Capta\nan alway glad to get some home\ncooking.\nPleak tree francs to us some\nf the money eft over from the fordick\ndown money to lu\nsome flours for\nma from me.\nBut dear. 9 am leaveng the\nmatter of decorations for the parangue\nstation sort of up m\nthe air in that\nI conld not\ndefinite, clear wit\ntata type atti\ngutting his OK on a\n7300°. Just go",
      "ahead and do\ncost nas slights good job. Of the\n300 Fee\ntaker can of\nin one way or\nanottu.\nI hop to see the melekery\nat tankow. that is I'm hoping the le\nCome out to the fuld to sir up\nland.\nCem Ron san e\nis ii just now \"rougher than\n2 step-hotters tongue. u2 art\non some mountains and the\nair\nis au tumbled up\nmust look sir now, Lots if\nloor to you and\nand the kids-"
    ],
    "millsfield:images_texts_ids": [
      1913801943,
      1913801945,
      1913801947
    ],
    "millsfield:primary_image": 1913801943,
    "millsfield:subcategory_id": 1511213489,
    "mz:is_approximate": 1,
    "mz:is_current": 1,
    "sfomuseum:accession_number": "2019.121.0874 a c",
    "sfomuseum:airline": "Pan American Airways",
    "sfomuseum:airline_id": [
      685
    ],
    "sfomuseum:category": "Employee Career History",
    "sfomuseum:classification_id": 195,
    "sfomuseum:collection": "Aviation Archive",
    "sfomuseum:creditline": "Collection of SFO Museum",
    "sfomuseum:date": "03/25/1935",
    "sfomuseum:date_acquired": "2019-11-22",
    "sfomuseum:daterange_end": "1935-03-25",
    "sfomuseum:daterange_start": "1935-03-25",
    "sfomuseum:description": "Handwritten letter from Harold M. Bixby to his wife, Debby Bixby, dated March 25, [1935]; includes anecdote involving Ki Chun about delays due to a blocked train crossing, family matters; mentions [Floyd] Nelson, Mr. [H.C.] Hsu, Dai [Enki].",
    "sfomuseum:dimensions": "11 x 8 1/4 inches (27.9 x 21 cm)",
    "sfomuseum:medium": "paper, ink",
    "sfomuseum:object_id": 211227,
    "sfomuseum:placetype": "object",
    "sfomuseum:publication": ": , 03/25/1935.",
    "sfomuseum:subcategory": "Correspondence, Personal",
    "src:geom": "sfomuseum#undetermined",
    "wof:belongsto": [
      102527513,
      1159162825,
      102191575,
      85633793,
      102087579,
      85922583,
      85688637,
      1159160869
    ],
    "wof:country": "XY",
    "wof:created": 1714548958,
    "wof:depicts": [
      1159284991,
      1159286839
    ],
    "wof:geomhash": "c281b9d9eefc83b5710e64b9d646067d",
    "wof:hierarchy": [
      {
        "building_id": -1,
        "campus_id": 102527513,
        "collection_id": 1159162825,
        "concourse_id": 1159162825,
        "continent_id": 102191575,
        "country_id": 85633793,
        "county_id": 102087579,
        "custom_id": 1913796013,
        "locality_id": 85922583,
        "neighbourhood_id": -1,
        "object_id": 1913796013,
        "region_id": 85688637,
        "wing_id": 1159160869
      }
    ],
    "wof:id": 1913796013,
    "wof:lastmodified": 1787988219,
    "wof:name": "correspondence: Harold M. Bixby to Debby Bixby",
    "wof:parent_id": 1159162825,
    "wof:placetype": "custom",
    "wof:placetype_alt": [
      "object"
    ],
    "wof:repo": "sfomuseum-data-collection",
    "wof:superseded_by": [],
    "wof:supersedes": []
  },
  "bbox": [
    -122.38647222518921,
    37.6161053594541,
    -122.38583385944366,
    37.61661101879963
  ],
  "geometry": {"type":"Polygon","coordinates":[[[-122.38647222518921,37.61631782178288],[-122.386434674263,37.61623283692423],[-122.38637566566466,37.61617759671399],[-122.38630056381224,37.6161308549656],[-122.38616108894348,37.6161053594541],[-122.38602161407469,37.6161308549656],[-122.38591432571411,37.61618609521055],[-122.38585531711577,37.61626683087935],[-122.38583385944366,37.61636881265146],[-122.38587141036987,37.61646654505181],[-122.38594114780425,37.61654303118856],[-122.38605380058287,37.61660252035167],[-122.38618254661559,37.61661101879963],[-122.3863059282303,37.61657277577607],[-122.3864185810089,37.61650903735973],[-122.3864668607712,37.61641130501523],[-122.38647222518921,37.61631782178288]]]}
}
