{
  "id": 1913795641,
  "type": "Feature",
  "properties": {
    "date:cessation_lower": "1952-09-28",
    "date:cessation_upper": "1952-09-28",
    "date:inception_lower": "1952-09-28",
    "date:inception_upper": "1952-09-28",
    "edtf:cessation": "1952-09-28",
    "edtf:inception": "1952-09-28",
    "geom:area": 2.475047457570636e-7,
    "geom:bbox": "-122.386472,37.616105,-122.385834,37.616611",
    "geom:latitude": 37.61635747477365,
    "geom:longitude": -122.38615540108617,
    "millsfield:airline_id": [
      1159284989
    ],
    "millsfield:category_id": 1511214251,
    "millsfield:collection_id": 1511214207,
    "millsfield:company_id": [
      1159286839
    ],
    "millsfield:images": [
      1913796743,
      1913796745,
      1913796749,
      1913796751
    ],
    "millsfield:images_colors_refs": {
      "crayola": [
        {
          "hex": "#9f8170"
        },
        {
          "hex": "#efcdb8"
        },
        {
          "hex": "#414a4c"
        },
        {
          "hex": "#efdecd"
        }
      ],
      "css4": [
        {
          "hex": "#2f4f4f"
        },
        {
          "hex": "#d3d3d3"
        },
        {
          "hex": "#556b2f"
        },
        {
          "hex": "#f5deb3"
        },
        {
          "hex": "#808080"
        }
      ],
      "marekm4": [
        {
          "hex": "#4b4630"
        },
        {
          "hex": "#e5d9c3"
        },
        {
          "hex": "#e4d7c1"
        },
        {
          "hex": "#e4d8c4"
        },
        {
          "hex": "#4a4530"
        },
        {
          "hex": "#978e73"
        },
        {
          "hex": "#e4d7c0"
        },
        {
          "hex": "#423f2c"
        }
      ]
    },
    "millsfield:images_texts": [
      "September 28th, 1952\nFlying Air France,\nParis to\nFrankfort\nCher Jeunes Filles, Famille et mes Amis:\nWe are embarked on an expedition which confidentially\nis definitely and positively against my better judgment. That is to say,\nwe are flying in Air France from Paris to Frankfort because we couldn't get\non a train and we have to be in Frankfort Monday morning. So far so good;\nOur DC-4 is full of passengers, mostly Americans, many of whom are connected with\nthe Government of Harry Trumen, or his Armed Forces. They like to go do Paris\nfor the weekend and get back on the job Monday. No one can blame them for that,\nbut the one train and the one plane leaving Paris Sunday night are always packed.\nPAA has influence with the airline (we do not operate Paris-Frankfort) but darn\nlittle with the Wagon-Lits. We have just had a very gooå dinner with wine and\nbrandy. (The crew got the same rations! I hope the radio operator, flight\nengineer, and co-pilot all like brandy and therefore don't pass their small\nbottles along to the Captain who will make the landing - if any).\nWe've had a lot of fun in Paris, which is probably as\nnews-worthy a statement as to say that a 10 year old had fun at the Circus!\nLast night we went up to Montmartre with the Wallace Whittakers where we looked\nover some French watercolors and paintings, some modern and some good, and then\nwent to a nearby night club called Momseigneur where strolling minstrels play\nwith 14 violins all going at once and hard in a tiny room. Never have you\nheard such music or seen so much excitement.\nLater - October 2nd, flying via Sabena to Hamburg-\nDusseldorf, Brussels, London. Obviously we arrived\nsafely at Frankfort.\nThe following morning, Monday, September 29th, we flew to\nDusseldorf on P.A.A. 's local German Line and then cirove to Cologne where\nMr. Whittaker and I had some business. Our better halves did some shopping,",
      "mostly of the window gazing variety. We had dinner and stayed the night at\nthe Hotel Excelsior and the next morning started out bright and early to motor\ndown the Rhine Valley to Bonn, Coblenz across the Rhine at Kolb (below the\nLorelei) and on to Wiesbaden. There we had late lunch at the Nassauer Hof, made\na few unsuccessful bets at the beautiful Casino and drove on to Frankfort. It\nis a lovely drive all the way through little German towns many of which were\ngaily decorated for the wine festival. Coblenz wes really smeared by Allied\nbombers. The Cathedral was intect but the rest of the City is still pretty flat.\nA few new buildings, but very few in contrast to Frankfort and other Cities which\nare rapidly reconstructing those central areas such as around the bridges,\nrailroad station, and power plants which were, of course, the main targets of\nair attack. Our P.A.A. driver was not only very good as a chauffeur but also\ninteresting. He is a Latvian, who escaped from the fussians, enlisted in the\nFrench underground and has just recently returned from service in Indo-China where\nhe was with the Airborne Commandos. His job was to parachute down behind the\nRed lines, blow up ammunition dumps, military stores and other such objectives\nand then get back to his own lines by foot. He was badly wounded several times\nand finally invalided home. He speaks English, Russian, French and German.\nArriving back at Frankfort we stayed overnight and the next\nday, Wednesdey, October Ist, we put the show on the road again. This time we\nleft Frankfort at 3:30 PM on Scandanavian Airways and flew to Hamburg, spent the\nnight at the Atlantic Hotel - probably the finest in Europe. We had a marvelous\ndinner wiih the Manager and his wife. They had many interesting stories to tell\nabout the War and how he had twice saved the hotel at the risk of his life by\nputting out fires under a rain of bombs. The Whittakers had the \"Hitler Suite\"\n(whenever he stayed there, Storm Troopers were assigned rooms all around him as\nwell as on the floors above and below). Debby and I had the suite occupies by\nthe Emperor of Japan, the Kaiser and other such. The following day, Thursday,",
      "October 2nd, we made a short tour of Hamburg in the P.A.A. \"Volkswagen\" and\ntook a Sabena (Belgian Airline) to Dusseldorf, Brussels and London. We stayed\nat Claridges in London Thursday and Friday nights and Saturday morning took\nAir Chance to Paris. There I left the Madam safely ensconced in the Roblin\nand caught a P.A.A. scheduled 8 P.M. departure for New York.\nLater - enroute Gander-Boston. I have had an uneventful\ncrossing. Paris to Shannon, then Gander, Newfoundland and now we're over\nNova Scotia sparkling in brillant sunshine 10,000 feet below. On board is a\nvery interesting man who represents the wool growers of 13 Western States. The\nU. S. Wool industry has been on the decline because of the scarcity of sheep\nherders. It seems that our boys would rather take their girls to the movies\nor hang around the corner drug store than wander off alone in the mountsins for\nmonths at a time doing a pied piper routine with a lot of sheep. As a result\nthe wool growers association got some legislation through Congress to permit\nthe immigration of Basque sheep herders. Some 3000 will be flown all the way\nfrom the Pyrenees to the Rockies. 500 will be flown this year starting tomorrow\nand 2500 next year. All of them will fly with P.A.A. to New York and I.W.A.\nacross the U.S.A. Many of these boys have never ridden in an automobile. Most\nof them speak only Bascue. We pin a big badge on each one which he is told is\nhis ticket. It tells where he is going and how. Also if he strays from the fold\nthe finder is asked in French and English to lead him Jo a P.A.A. office. In the\nTest they receive $200. per month plus their board, lodgings, if any, tobacco and\na California wine, equivalent of Spanish wine. One Ranch owner told my friend\nthat these herders let their salaries accumulate for so many years that the\nRancher finally settles the account by taking them into partnership rather than\ndeplete his working capital by paying their back wages. He said that something\nlike 80% of our Western sheep herders are Basques. Its a nice piece of business\nfor P.A.A. because most of them will be carried when westbound loads are light\nand the gross will be net.",
      "Hope to be in New York for two or three days, then to\nSt. Louis for a couple of days, back to New York for a couple and then back to\nParis and on to Bangkok, Hongkong and Tokyo.\nAll the best to all of you.\nH.M.B."
    ],
    "millsfield:images_texts_ids": [
      1913796743,
      1913796745,
      1913796749,
      1913796751
    ],
    "millsfield:primary_image": 1913796743,
    "millsfield:subcategory_id": 1511213489,
    "mz:is_approximate": 1,
    "mz:is_current": 1,
    "sfomuseum:accession_number": "2019.121.1172 a d",
    "sfomuseum:airline": "Pan American World Airways",
    "sfomuseum:airline_id": [
      684
    ],
    "sfomuseum:category": "Employee Career History",
    "sfomuseum:classification_id": 195,
    "sfomuseum:collection": "Aviation Archive",
    "sfomuseum:creditline": "Collection of SFO Museum",
    "sfomuseum:date": "09/28/1952-10/06/1952",
    "sfomuseum:date_acquired": "2019-11-22",
    "sfomuseum:daterange_end": "1952-10-06",
    "sfomuseum:daterange_start": "1952-09-28",
    "sfomuseum:description": "Typewritten letter from Harold M. Bixby to his family, dated September 28 to October 6, 1952, en route from Paris to Frankfurt, Dusseldorf, Brussels, and London; includes description of trip on Air France Douglas DC-4, touring in Germany, return to Boston via Paris, Shannon, and Gander; mentions Wallace Whittaker.",
    "sfomuseum:dimensions": "11 x 8 1/2 inches (27.9 x 21.6 cm)",
    "sfomuseum:medium": "paper, ink",
    "sfomuseum:object_id": 211535,
    "sfomuseum:placetype": "object",
    "sfomuseum:publication": ": , 09/28/1952-10/06/1952.",
    "sfomuseum:subcategory": "Correspondence, Personal",
    "src:geom": "sfomuseum#undetermined",
    "wof:belongsto": [
      102527513,
      1159162825,
      102191575,
      85633793,
      102087579,
      85922583,
      85688637,
      1159160869
    ],
    "wof:country": "XY",
    "wof:created": 1714548852,
    "wof:depicts": [
      1159284989,
      1159286839
    ],
    "wof:geomhash": "c281b9d9eefc83b5710e64b9d646067d",
    "wof:hierarchy": [
      {
        "building_id": -1,
        "campus_id": 102527513,
        "collection_id": 1159162825,
        "concourse_id": 1159162825,
        "continent_id": 102191575,
        "country_id": 85633793,
        "county_id": 102087579,
        "custom_id": 1913795641,
        "locality_id": 85922583,
        "neighbourhood_id": -1,
        "object_id": 1913795641,
        "region_id": 85688637,
        "wing_id": 1159160869
      }
    ],
    "wof:id": 1913795641,
    "wof:lastmodified": 1787988219,
    "wof:name": "correspondence: Harold M. Bixby, family circular letter",
    "wof:parent_id": 1159162825,
    "wof:placetype": "custom",
    "wof:placetype_alt": [
      "object"
    ],
    "wof:repo": "sfomuseum-data-collection",
    "wof:superseded_by": [],
    "wof:supersedes": []
  },
  "bbox": [
    -122.38647222518921,
    37.6161053594541,
    -122.38583385944366,
    37.61661101879963
  ],
  "geometry": {"type":"Polygon","coordinates":[[[-122.38647222518921,37.61631782178288],[-122.386434674263,37.61623283692423],[-122.38637566566466,37.61617759671399],[-122.38630056381224,37.6161308549656],[-122.38616108894348,37.6161053594541],[-122.38602161407469,37.6161308549656],[-122.38591432571411,37.61618609521055],[-122.38585531711577,37.61626683087935],[-122.38583385944366,37.61636881265146],[-122.38587141036987,37.61646654505181],[-122.38594114780425,37.61654303118856],[-122.38605380058287,37.61660252035167],[-122.38618254661559,37.61661101879963],[-122.3863059282303,37.61657277577607],[-122.3864185810089,37.61650903735973],[-122.3864668607712,37.61641130501523],[-122.38647222518921,37.61631782178288]]]}
}
