{
  "id": 2048162707,
  "type": "Feature",
  "properties": {
    "date:cessation_lower": "1920-12-01",
    "date:cessation_upper": "1920-12-31",
    "date:inception_lower": "1920-09-01",
    "date:inception_upper": "1920-09-30",
    "edtf:cessation": "1920-12",
    "edtf:inception": "1920-09",
    "geom:area": 2.475047457570636e-7,
    "geom:bbox": "-122.386472,37.616105,-122.385834,37.616611",
    "geom:latitude": 37.61635747477365,
    "geom:longitude": -122.38615540108617,
    "millsfield:airline_id": [
      1159285357
    ],
    "millsfield:category_id": 1763416381,
    "millsfield:collection_id": 1511214203,
    "millsfield:company_id": [
      1159287811
    ],
    "millsfield:images": [
      2048163569
    ],
    "millsfield:primary_image": 2048163569,
    "millsfield:subcategory_id": 1511213757,
    "mz:is_approximate": 1,
    "mz:is_current": 1,
    "sfomuseum:accession_number": "2010.282.115",
    "sfomuseum:airline": "Transcontinental Air Transport (TAT)",
    "sfomuseum:airline_id": [
      855
    ],
    "sfomuseum:category": "Uniform Accessory",
    "sfomuseum:classification_id": 497,
    "sfomuseum:collection": "Aviation Museum",
    "sfomuseum:creditline": "Gift of Edwin I. Power, Jr. and Linda L. Liscom",
    "sfomuseum:date": "late 1920s",
    "sfomuseum:date_acquired": "2011-01-28",
    "sfomuseum:daterange_end": "1929-12-31",
    "sfomuseum:daterange_start": "1927-01-01",
    "sfomuseum:description": "Small gold circular button with raised “TAT” and arrow on center; loophole on back with silver metal pin; stamped “Superior Quality” on back.\rjacket",
    "sfomuseum:dimensions": "1/2 x 1/2 x 1/2 inches (1.3 x 1.3 x 1.3 cm)",
    "sfomuseum:medium": "metal",
    "sfomuseum:object_id": 113411,
    "sfomuseum:placetype": "object",
    "sfomuseum:publication": ": , late 1920s.",
    "sfomuseum:subcategory": "Button, Uniform",
    "src:geom": "sfomuseum#undetermined",
    "wof:belongsto": [
      102527513,
      1159162825,
      102191575,
      85633793,
      102087579,
      85922583,
      85688637,
      1159160869
    ],
    "wof:country": "XY",
    "wof:created": 1787792162,
    "wof:depicts": [
      1159285357,
      1159287811
    ],
    "wof:geomhash": "c281b9d9eefc83b5710e64b9d646067d",
    "wof:hierarchy": [
      {
        "building_id": -1,
        "campus_id": 102527513,
        "collection_id": 1159162825,
        "concourse_id": 1159162825,
        "continent_id": 102191575,
        "country_id": 85633793,
        "county_id": 102087579,
        "custom_id": 2048162707,
        "locality_id": 85922583,
        "neighbourhood_id": -1,
        "object_id": 2048162707,
        "region_id": 85688637,
        "wing_id": 1159160869
      }
    ],
    "wof:id": 2048162707,
    "wof:lastmodified": 1787794387,
    "wof:name": "uniform button: TAT (Transcontinental Air Transport)",
    "wof:parent_id": 1159162825,
    "wof:placetype": "custom",
    "wof:placetype_alt": [
      "object"
    ],
    "wof:repo": "sfomuseum-data-collection",
    "wof:superseded_by": [],
    "wof:supersedes": []
  },
  "bbox": [
    -122.38647222518921,
    37.6161053594541,
    -122.38583385944366,
    37.61661101879963
  ],
  "geometry": {"type":"Polygon","coordinates":[[[-122.38647222518921,37.61631782178288],[-122.386434674263,37.61623283692423],[-122.38637566566466,37.61617759671399],[-122.38630056381224,37.6161308549656],[-122.38616108894348,37.6161053594541],[-122.38602161407469,37.6161308549656],[-122.38591432571411,37.61618609521055],[-122.38585531711577,37.61626683087935],[-122.38583385944366,37.61636881265146],[-122.38587141036987,37.61646654505181],[-122.38594114780425,37.61654303118856],[-122.38605380058287,37.61660252035167],[-122.38618254661559,37.61661101879963],[-122.3863059282303,37.61657277577607],[-122.3864185810089,37.61650903735973],[-122.3864668607712,37.61641130501523],[-122.38647222518921,37.61631782178288]]]}
}
