{
  "id": 1913795377,
  "type": "Feature",
  "properties": {
    "date:cessation_lower": "1950-01-08",
    "date:cessation_upper": "1950-01-08",
    "date:inception_lower": "1950-01-08",
    "date:inception_upper": "1950-01-08",
    "edtf:cessation": "1950-01-08",
    "edtf:inception": "1950-01-08",
    "geom:area": 2.475047457570636e-7,
    "geom:bbox": "-122.386472,37.616105,-122.385834,37.616611",
    "geom:latitude": 37.61635747477365,
    "geom:longitude": -122.38615540108617,
    "millsfield:airline_id": [
      1159284989
    ],
    "millsfield:category_id": 1511214251,
    "millsfield:collection_id": 1511214207,
    "millsfield:company_id": [
      1159286839
    ],
    "millsfield:images": [
      1913799649,
      1913799651
    ],
    "millsfield:images_colors_refs": {
      "crayola": [
        {
          "hex": "#efdecd"
        },
        {
          "hex": "#9f8170"
        },
        {
          "hex": "#efcdb8"
        },
        {
          "hex": "#414a4c"
        }
      ],
      "css4": [
        {
          "hex": "#808080"
        },
        {
          "hex": "#f5deb3"
        },
        {
          "hex": "#556b2f"
        }
      ],
      "marekm4": [
        {
          "hex": "#e6dbc0"
        },
        {
          "hex": "#484329"
        },
        {
          "hex": "#474228"
        },
        {
          "hex": "#e6dabe"
        },
        {
          "hex": "#989071"
        }
      ]
    },
    "millsfield:images_texts": [
      "Sunday\nJanuary 8, 1950\nDear Family,\nWe left Paris by Wegon Lits Friday night, arriving Brussels\nearly Saturday morning. Took off in a Constellation with thirty-five\nof its forty-one seats filled at 5:00 pm, flew down\n• the Rhone Valley\nto Marseilles, across Corsica to Rome - Naples - Athens, across Cyprus,\nover Beirut and after a nine hour flight arrived at Damascus at 2:00\na.m. this morning.\nOne of the drawbacks to my travel in the past has been the\nfact that I never quite enjoy any experience because I always wish so\nmuch that the family were along to enjoy it too. Well, this time they\nare - or at least the one most important member and ath of the others -\nor I should say 1/7th because the two Bills and Sam are included.\nWe thought Damascus would not be crowded but it was. In\nfact, we had to sit up until 5:00 a.m. to crawl into beds newly made up\nafter a plane departure at that hour.\nWe slept until about 10:00 a.m.,\nhad breakfest in our room not rooms\n- because Hebe was quartered with\nus, and then went out on the town with an English-speaking guide - one\nAbraham Baho, a Syrian Christian. (When Hebe had trouble pronouncing\nhis last name he said, \"Just call me 'Abrahem'.\") Debby and Hebe were\nenthusiastic over the native city - the Bazzar with its wonderful\nshops and the second largest mosque in the world - the old church of\nJohn the Baptist.\n•We saw the over-sized tomb which they claim holds\nthe head of John\nthe Beptist, and we also saw the tomb of Saladin.\nThen we went all through the\nex-sultan's palace and saw the quarters\nwhere his thirty-five wives lived. Our guide told us several times\nthat the wives were never permitted to leave the paloce, but to me\nthat repetition was unnecessery. If those thirty-five wives had got\nloose in those shops in the Bazzar the sultan would probably have become\na priest after the\nbankruptcy proceedings! After a drive dow the\nStreet called Streight we had lunch - very good - then drove about\ntwenty-five miles out along the excellent highway which runs to\nBagdad,\nturned off to e little mountain town called Malulah where\nthere is a small community the members of which - some five hundred\nstrong - still speak the language of Christ.\nthey have lived at the end of a fertile velley with their village at\nthe sheltered end and their Roman Catholic monastery high above on\nWe reached the church by walking up \u0026 narrow gorge\ncut in the massive rocks by a mountain stream which was still there.\nAlong the trail there were numerous eaves, hollowed out of the solid\nrock back in the days when the Romans were there. At the top, the\nShangri-la like monastery wes surrounded by hills many oi which were\nsnowspped. The view was magnificent.\nThe old Bishop - as fine a\nlooking character as you ever saw - had us served with twenty year old\nwine and gave us some unleavened bread and cheese - all very good\nindeed, especially the wine.\nThe latter is made on the place from\ntheir own vineyards.",
      "Monday\nJanuary 9, 1950\nToday we got off to an 8:00 a.m. start by cer - a\nChrysler - to a most wonderful experience.\nWe drove along the road\nwhich leads to Beirut in Lebanon and about half way turned north behind\nthe coastal range and on to Balbek, an old Roman ruin which should be -\nwe all think - as well known as any historic place. It was built on\nthe most tremendous plan and took over two hundred years and as many\nthousands of sleves to complete.\nIt is in a truly remarkable state of\npreservetion. The first structure was built around 200 B.C. and the\nwhole temple wes finally completed around 500 A.D. Some idea of its\nsize can be goined by the fact that the stairs leading to the temple\nwere 150' wide and the great courtyard approximately 100 yards in\neach direction. One of the buildings - the temple of Bacchus - des-\ncribed as \"perhaps the most beautiful of all the temples surviving\nfrom Roman times\" is in a good state of preservation.\nEven a small\npart of the roof is still in place.\nThe whole place is fascinating,\nbut it would take a small book to describe it properly. However, one\nitem will give you some idea of the prodigious effort expended.\nMany of the columns were fashioned from limestone in a quarry within\nsight of the temple.\noper or bar it to pite to\nThe\npillars - which, by the way, were decorated after they were put in\nplace - were carried on barges down the Nile, landed at Tyre in\nsouthern Lebanon and rolled to Baalbek more than one hundred miles\nalong a road built for that purpose.\nSo much for Baalbek. You will hear more about it from\nhave a look at the latter city and its modern airport now under con-\nstruction we drove over there.\nThe airport is a long way from\ncomplete but will be the best in this part of the world. The city\nis often called \"Little Paris\". It is built along the blue Medi-\nterranean shore with mountains rising three or four thousand feet\nin the background.\nThere are several attractive seaside resort\nhotels at one of which - the St. George - we had tea and picked up\na few shells on the beach. (For you collectors - no good ones !)\nDriving back to Damascus \"e got into a dense fog up in\nthe mountsins, but fortunately our Arab driver was good and we got\nhome about 8:00 p.m. all agreeing thst we have seen a lot considering\nthat we left Brussels only Saturday night and this is Monday!\nwill try to get off another femily letter from Delhi.\nAs ever,\nн. м. В.\nP.S.\nWe thought that Damascus - surrounded by desert - would be\nwarm but it was plenty cold and we nearly froze at Baalbek. Hebe\nwore three sweaters, one of my coats, all her own coats and a rain-\ncoat on top of it all and still was cold!"
    ],
    "millsfield:images_texts_ids": [
      1913799649,
      1913799651
    ],
    "millsfield:primary_image": 1913799649,
    "millsfield:subcategory_id": 1511213489,
    "mz:is_approximate": 1,
    "mz:is_current": 1,
    "sfomuseum:accession_number": "2019.121.1155 a b",
    "sfomuseum:airline": "Pan American World Airways",
    "sfomuseum:airline_id": [
      684
    ],
    "sfomuseum:category": "Employee Career History",
    "sfomuseum:classification_id": 195,
    "sfomuseum:collection": "Aviation Archive",
    "sfomuseum:creditline": "Collection of SFO Museum",
    "sfomuseum:date": "01/08/1950-01/09/1950",
    "sfomuseum:date_acquired": "2019-11-22",
    "sfomuseum:daterange_end": "1950-01-09",
    "sfomuseum:daterange_start": "1950-01-08",
    "sfomuseum:description": "Typewritten letter from Harold M. Bixby to his family, dated January 8 to 9, 1950; in Damascus; includes description of sightseeing in Damascus and Baalbek (Lebanon).",
    "sfomuseum:dimensions": "10 1/2 x 8 1/2 inches (26.7 x 21.6 cm)",
    "sfomuseum:medium": "paper, ink",
    "sfomuseum:object_id": 211518,
    "sfomuseum:placetype": "object",
    "sfomuseum:publication": ": , 01/08/1950-01/09/1950.",
    "sfomuseum:subcategory": "Correspondence, Personal",
    "src:geom": "sfomuseum#undetermined",
    "wof:belongsto": [
      102527513,
      1159162825,
      102191575,
      85633793,
      102087579,
      85922583,
      85688637,
      1159160869
    ],
    "wof:country": "XY",
    "wof:created": 1714548775,
    "wof:depicts": [
      1159284989,
      1159286839
    ],
    "wof:geomhash": "c281b9d9eefc83b5710e64b9d646067d",
    "wof:hierarchy": [
      {
        "building_id": -1,
        "campus_id": 102527513,
        "collection_id": 1159162825,
        "concourse_id": 1159162825,
        "continent_id": 102191575,
        "country_id": 85633793,
        "county_id": 102087579,
        "custom_id": 1913795377,
        "locality_id": 85922583,
        "neighbourhood_id": -1,
        "object_id": 1913795377,
        "region_id": 85688637,
        "wing_id": 1159160869
      }
    ],
    "wof:id": 1913795377,
    "wof:lastmodified": 1787988219,
    "wof:name": "correspondence: Harold M. Bixby, family circular letter",
    "wof:parent_id": 1159162825,
    "wof:placetype": "custom",
    "wof:placetype_alt": [
      "object"
    ],
    "wof:repo": "sfomuseum-data-collection",
    "wof:superseded_by": [],
    "wof:supersedes": []
  },
  "bbox": [
    -122.38647222518921,
    37.6161053594541,
    -122.38583385944366,
    37.61661101879963
  ],
  "geometry": {"type":"Polygon","coordinates":[[[-122.38647222518921,37.61631782178288],[-122.386434674263,37.61623283692423],[-122.38637566566466,37.61617759671399],[-122.38630056381224,37.6161308549656],[-122.38616108894348,37.6161053594541],[-122.38602161407469,37.6161308549656],[-122.38591432571411,37.61618609521055],[-122.38585531711577,37.61626683087935],[-122.38583385944366,37.61636881265146],[-122.38587141036987,37.61646654505181],[-122.38594114780425,37.61654303118856],[-122.38605380058287,37.61660252035167],[-122.38618254661559,37.61661101879963],[-122.3863059282303,37.61657277577607],[-122.3864185810089,37.61650903735973],[-122.3864668607712,37.61641130501523],[-122.38647222518921,37.61631782178288]]]}
}
