{
  "id": 1913796427,
  "type": "Feature",
  "properties": {
    "date:cessation_lower": "1949-06-26",
    "date:cessation_upper": "1949-06-26",
    "date:inception_lower": "1949-06-26",
    "date:inception_upper": "1949-06-26",
    "edtf:cessation": "1949-06-26",
    "edtf:inception": "1949-06-26",
    "geom:area": 2.475047457570636e-7,
    "geom:bbox": "-122.386472,37.616105,-122.385834,37.616611",
    "geom:latitude": 37.61635747477365,
    "geom:longitude": -122.38615540108617,
    "millsfield:airline_id": [
      1159284991
    ],
    "millsfield:category_id": 1511214251,
    "millsfield:collection_id": 1511214207,
    "millsfield:company_id": [
      1159286839
    ],
    "millsfield:images": [
      1913799523,
      1913799525,
      1913799527
    ],
    "millsfield:images_colors_refs": {
      "crayola": [
        {
          "hex": "#414a4c"
        },
        {
          "hex": "#efdecd"
        }
      ],
      "css4": [
        {
          "hex": "#faebd7"
        },
        {
          "hex": "#2f4f4f"
        }
      ],
      "marekm4": [
        {
          "hex": "#efe9d1"
        },
        {
          "hex": "#eee8cf"
        },
        {
          "hex": "#4f524e"
        },
        {
          "hex": "#50524e"
        },
        {
          "hex": "#4d4f4c"
        }
      ]
    },
    "millsfield:images_texts": [
      "Charles Hollmann\nGENERAL MANAGER\nSundan\n1949\nJune\n26\nMANILA HOTEL\nOVERLOOKING THE MANILA BAY — \"THE ARISTOCRAT OF THE ORIENT\" - CABLE \"MANHOCO\"\nManila, Philippines\nDiarist Debs.\nI'er teen excited all day cause thin\nbring\nthe 25t in\n54 in great Barriagton is the great\nđạy than gi\n9 realige for\nsome Experince\nin suck affais that\nthey dont always come\noff on shedali\" Alao Sir tria ixcited brown\nD'or tria planning\nal wirk to There you\ntonight - Sunday\nrates !\nIts tren a\nquit day. Lor arous tour\nthis morning with\nthe Oppenheimers. It is\nour #, here -\nwent through Santo Thomas\nwith flying colors - and stands afree, wel\nLur. His father was german am hi\nma sans -\n- writhe jewish - and Mrs o\nis Spanish.\nThey are both dark lout hair\na late furl aged 1'½ with bright red hair\nblue tyso and ery white skin. Afre, cute.\nThey dror me into Sunto Tomas - ace around\nQuezon G and shours me some ery attactur\nnew hausco wik lone, gardens.\nHad lunch wit the starkms, Jimm\nSampson\nand not man named mahone\nthink is in the Telephone Cs. Elsa",
      "astro lato of question baro on elmas cetters.\nShe shourd\nme the there wares\nCharles Hollmann\nWhich Ee ordered for\nGENERAL MANAGER\nMANILA HOTEL\nOVERLOOKING THE MANILA BAY ~\nTHE\nARISTOCRAT OF THE ORIENT \" - CABLE \"MANHOCO\"\nManila. Philippines\nyou or is that a sherct! At any rat than\nare very gord looking,\nand I wish that S\nhad room to bring\nthem alog. ur had\nven fine meat pir which mt cooks -\nit simo he like to cook and that and\nCurry Chickin an his sprcialities. He sais\nkat he us a recript for Curry that is\nin a cook book published len The Brachcombr\nOakland. Mayh Ee can get us a copy.\nThe 1 taskin apartment is apie,\nmae.\nI on\n35 floor o an\napartment facing Dear, Bus at the yacht\nClet with a love tres off the bay. Jimmy\nwas his old mon. communicatior seep. s\nthink he is detamined to do someting nice\nfor te ans certaing hop it ale works out.\nDont\nquite undustand whit he is going to\ndo with the mine leut its base metals -\nat gold at least mat for the presnt.\nThis Earning Din to hair dinner\nwith the Otis Bryans. It is an old frend\nWho o worked with a let during the war. He\nwas\ndIEINSIPI\nthen V-P of TWA while now he i V-P",
      "of the Philippine\nAir Lines. That is one\nof Andres foriano\npropertin along\nCharles Hollmann\nGENERAL MANAGER\nMANILA HOTEL\nOVERLOOKING THE MANILA BAY\n\" ТНЄ\nARISTOCRAT OF THE ORIENT\"~ CABLE \"MANHOCO\"\nManila, Philippines\nwit San maguce Bruis, the local coco Cola Co.\ncouple or Newpapus and sural mines.\nforiano has displaces judge aussirman\nand marsman\nBinguet mining has been listed on the\nbig board in N.Y.\nand if it go are 9\nthink some of the othe mining to world is\na good buy becaus the N.T. brokers are\nalways on the prose for new things an.\nte man tr\nhus are at an are time\nlow. Also thee is not jet any long thin\nCapital farm tax here so\nIf you do make\nsome money you\nkeep it.\nLath Back from the Bryans- they planed an\nout door barbeque of spare ribs but a clond burst\ndrous no inside - bout loto of fun. Juat talked to\nin and Cat. My that was grand to reassuring\nIs knows that are was.\nuse lent o really hard\nthat #s might har avers. Om getting awfully\nimpatient to get home speciall, wick franes a\nDo arriving on the\n184. That wile be my target\ndate. Lots and lot of ever to you and tit-\nyou our\nSIEN ISI.PIOS"
    ],
    "millsfield:images_texts_ids": [
      1913799523,
      1913799525,
      1913799527
    ],
    "millsfield:primary_image": 1913799523,
    "millsfield:subcategory_id": 1511213489,
    "mz:is_approximate": 1,
    "mz:is_current": 1,
    "sfomuseum:accession_number": "2019.121.1131 a c",
    "sfomuseum:airline": "Pan American Airways",
    "sfomuseum:airline_id": [
      685
    ],
    "sfomuseum:category": "Employee Career History",
    "sfomuseum:classification_id": 195,
    "sfomuseum:collection": "Aviation Archive",
    "sfomuseum:creditline": "Collection of SFO Museum",
    "sfomuseum:date": "06/26/1949",
    "sfomuseum:date_acquired": "2019-11-22",
    "sfomuseum:daterange_end": "1949-06-26",
    "sfomuseum:daterange_start": "1949-06-26",
    "sfomuseum:description": "Handwritten letter from Harold M. Bixby to his wife, Debby Bixby, dated June 26, [1949], on stationery from the Manila Hotel; mentions the Oppenheimers, the Harkins, Jimmie Sampson, Otis Bryan (Philippine Air Lines, formerly TWA).",
    "sfomuseum:dimensions": "11 x 8 1/2 inches (27.9 x 21.6 cm)",
    "sfomuseum:medium": "paper, ink",
    "sfomuseum:object_id": 211494,
    "sfomuseum:placetype": "object",
    "sfomuseum:publication": ": , 06/26/1949.",
    "sfomuseum:subcategory": "Correspondence, Personal",
    "src:geom": "sfomuseum#undetermined",
    "wof:belongsto": [
      102527513,
      1159162825,
      102191575,
      85633793,
      102087579,
      85922583,
      85688637,
      1159160869
    ],
    "wof:country": "XY",
    "wof:created": 1714549090,
    "wof:depicts": [
      1159286839,
      1159284991
    ],
    "wof:geomhash": "c281b9d9eefc83b5710e64b9d646067d",
    "wof:hierarchy": [
      {
        "building_id": -1,
        "campus_id": 102527513,
        "collection_id": 1159162825,
        "concourse_id": 1159162825,
        "continent_id": 102191575,
        "country_id": 85633793,
        "county_id": 102087579,
        "custom_id": 1913796427,
        "locality_id": 85922583,
        "neighbourhood_id": -1,
        "object_id": 1913796427,
        "region_id": 85688637,
        "wing_id": 1159160869
      }
    ],
    "wof:id": 1913796427,
    "wof:lastmodified": 1787988220,
    "wof:name": "correspondence: Harold M. Bixby to Debby Bixby",
    "wof:parent_id": 1159162825,
    "wof:placetype": "custom",
    "wof:placetype_alt": [
      "object"
    ],
    "wof:repo": "sfomuseum-data-collection",
    "wof:superseded_by": [],
    "wof:supersedes": []
  },
  "bbox": [
    -122.38647222518921,
    37.6161053594541,
    -122.38583385944366,
    37.61661101879963
  ],
  "geometry": {"type":"Polygon","coordinates":[[[-122.38647222518921,37.61631782178288],[-122.386434674263,37.61623283692423],[-122.38637566566466,37.61617759671399],[-122.38630056381224,37.6161308549656],[-122.38616108894348,37.6161053594541],[-122.38602161407469,37.6161308549656],[-122.38591432571411,37.61618609521055],[-122.38585531711577,37.61626683087935],[-122.38583385944366,37.61636881265146],[-122.38587141036987,37.61646654505181],[-122.38594114780425,37.61654303118856],[-122.38605380058287,37.61660252035167],[-122.38618254661559,37.61661101879963],[-122.3863059282303,37.61657277577607],[-122.3864185810089,37.61650903735973],[-122.3864668607712,37.61641130501523],[-122.38647222518921,37.61631782178288]]]}
}
