{
  "id": 1931107837,
  "type": "Feature",
  "properties": {
    "date:cessation_lower": "2007-01-01",
    "date:cessation_upper": "2007-12-31",
    "date:inception_lower": "2007-01-01",
    "date:inception_upper": "2007-12-31",
    "edtf:cessation": "2007",
    "edtf:inception": "2007",
    "geom:area": 2.475047457570636e-7,
    "geom:bbox": "-122.386472,37.616105,-122.385834,37.616611",
    "geom:latitude": 37.61635747477365,
    "geom:longitude": -122.38615540108617,
    "millsfield:aircraft_id": [
      1159289819
    ],
    "millsfield:airline_id": [
      1159285591
    ],
    "millsfield:category_id": 1762671311,
    "millsfield:collection_id": 1511214207,
    "millsfield:company_id": [
      1159293593
    ],
    "millsfield:images": [
      1931110125,
      1931110127,
      1931122695
    ],
    "millsfield:images_colors_refs": {
      "crayola": [
        {
          "hex": "#9f8170"
        },
        {
          "hex": "#d68a59"
        },
        {
          "hex": "#2e5894"
        },
        {
          "hex": "#6dae81"
        },
        {
          "hex": "#1a4876"
        },
        {
          "hex": "#fddde6"
        },
        {
          "hex": "#c46210"
        },
        {
          "hex": "#414a4c"
        },
        {
          "hex": "#9c2542"
        },
        {
          "hex": "#dbd7d2"
        }
      ],
      "css4": [
        {
          "hex": "#b22222"
        },
        {
          "hex": "#cd853f"
        },
        {
          "hex": "#708090"
        },
        {
          "hex": "#2f4f4f"
        },
        {
          "hex": "#dcdcdc"
        },
        {
          "hex": "#483d8b"
        }
      ],
      "marekm4": [
        {
          "hex": "#dce2e8"
        },
        {
          "hex": "#2b378b"
        },
        {
          "hex": "#62908c"
        },
        {
          "hex": "#2b2927"
        },
        {
          "hex": "#b9994d"
        },
        {
          "hex": "#b52d13"
        },
        {
          "hex": "#aa8e54"
        },
        {
          "hex": "#e4e2e1"
        },
        {
          "hex": "#294c9c"
        },
        {
          "hex": "#383939"
        },
        {
          "hex": "#be2918"
        },
        {
          "hex": "#bd2406"
        },
        {
          "hex": "#4c4c5f"
        },
        {
          "hex": "#eae5e3"
        }
      ]
    },
    "millsfield:images_texts": [
      "KEEP SEATBELT FASTENED DURING TAXI, TAKEOFF,\nLANDING, AND WHILE FASTEN SEATBELT LIGHT IS ON.\nMANTENGA EL CINTURÓN ABROCHADO DURANTE LA\nPREPARACIÓN PARA EL DESPEGUE, EL DESPEGUE, EL\nATERRIZAJE Y MIENTRAS LA LUZ DE ABROCHARSE EL\nCINTURÓN ESTÁ ENCENDIDA.\nSeatbelt Buckle / Hebilla del Cinturón de Seguridad.\nSeat and Tray Table /\nAsiento y Mesa Plegable\nOverhead Compartment /\nCompartimiento de Maletas\nPORTABLE\nELECTRONIC DEVICES\nMay Be Operated At All Times:\n• Hearing aids\n• Pacemakers\n• Electronic watches\nPlease refer to Spirit magazine for further details.\nDISPOSITIVOS\nELECTRÓNICOS PORTÁTILES\nPueden Utilizarse En Todo Momento:\n• Audífonos\n• Marcapasos\n• Relojes electrónicos\nPor favor lea la revista Spirit para información adicional.\nDO NOT USE\nON AIRCRAFT/\nNO USAR EN\nEL AVION\nLAVATORIES\nLAVATORIOS\nFederal law prohibits tampering with,\ndisabling, or destroying any smoke detector\nin any aircraft lavatory. Smoking is\nprohibited at all times.\nLa ley federal prohibe alterar, desactivar o\ndestruir cualquier detector de humo que se\nencuentre en el lavatorio de un avión.\nSOUTHWEST AIRLINES\n©1998, 2007 Southwest Airlines Co.\nAll rights reserved.\nFinal assembly of this airplane was\ncompleted in the United States of America.\nDerechos Literarios Southwest Airlines Co., 1998, 2007.\nTodos los derechos reservados.\nEnsamblaje final de este avión fue completado en\nlos Estados Unidos de América.\nIF-552-Revised 12/07\n2009.108.029",
      "IN CASE OF EMERGENCY LANDING\nEN CASO DE ATERRIZAJE DE EMERGENCIA\nEmergency Exits / Salidas de Emergencia\nA\nB\nA\nB\nA\nB\nB\nA\nB\nBracing Positions / Posiciones Más Seguras\nEmergency Exit Floor Lighting / Alumbrado de Piso Para Salida de Emergencia\nOR / O\nSafety Information\nBoeing 737\nPassengers must comply with safety\ninstructions including signs, placards,\nand instructions of Crew Members.\nSMOKING IS NOT PERMITTED\nON ANY FLIGHT.\nEMERGENCY\nEXIT SEATING\nIf you are seated in a row of seats having direct\naccess to an overwing window exit, you are in an\nemergency exit seat and may be called upon to open\nthe exit window and help other passengers leave the\naircraft if a Crew Member is unavailable to do so. If you\nthink you may not be able to assist in these ways, if you\ncannot understand Crew commands or the information on\nthis card, or if you are under 15 years of age, please\nask to be reseated.\nFederal regulations require that you ask for a non-exit\nseat if you cannot or do not wish to perform the\nfollowing activities: reach and manipulate the emergency\nexit and exit-operating mechanisms: open, remove,\nlift, and deposit the exit window; exit efficiently and\nquickly; remove obstructions similar in weight to the\nexit window; and assist others in sliding off the wing.\nPlease ask for a non-exit seat if you:\n2. Have a physical condition that may not be visible\nbut may prevent you from performing the above\n3. Have a responsibility, such as caring for a small\nchild, that will prevent you from performing the\n4. Lack sufficient mobility, strength, or dexterity in\nboth your arms and hands and both your legs\n5. Require the assistance of an adult companion,\nparent, or other person in order to perform the\n6. Are younger than 15 years of age;\n7. Are not able to read and understand written and\nspoken directions in English;\n8. Are visually impaired and need more than\ncontact lenses or eyeglasses to perform the\n9. Are hearing impaired and need more than a\nhearing aid to hear and understand instructions\n10. Are not able to give verbal commands in English\n11. Think you may suffer bodily harm as a result of\n12. Require a seatbelt extension.\nFunctions required of exit-seat ocupants:\nAn exit-seat occupant must be willing and able to\nperform the following functions if called upon to do so:\n1. Locate the emergency exit and recognize the\nemergency exit opening mechanism.\n2. Comprehend the instructions for operating the\nemergency exit.\n3. Operate the emergency exit.\n4. Assess whether opening the emergency exit will increase\nthe hazards to which passengers may be exposed.\n5. Follow oral directions and hand signals given by a\nCrew Member.\n6. Stow or secure the emergency exit window so that it\nwill not impede use of the exit.\n7. Pass expeditiously through the emergency exit.\n8. Assess, select, and follow a safe path away from the\nemergency exit.\nFor the safety of others, please do not remove\nthis card from the aircraft.\nInformación de Seguridad\nAviones Boeing Serie 737\nLos pasajeros deben cumplir con las\ninstrucciones de seguridad, incluyendo avisos,\npósters e instrucciones de la Tripulación.\nNO ESTÁ PERMITIDO FUMAR\nEN NINGUN VUELO.\nASIENTOS DE SALIDA\nDE EMERGENCIA\nSi usted está sentado en un asiento de una fila con\nacceso directo a la salida de emergencia por encima\ndel ala, entonces usted esta ubicado en un asiento\nde salida de emergencia y es posible que tenga que\nabrir la ventana de salida y ayudar a otros pasajeros\na salir del avión si un miembro de la Tripulación no\nestá disponible. Si cree que no podrá ayudar de esta\nmanera, no comprende las instrucciones de la\nTripulación o la información en esta tarjeta o si\nusted es menor de 15 años, por favor pida que lo\nLas regulaciones federales requieren que pida un\nasiento en pasillo sin salida si no puede o no desea\ncumplir las siguientes actividades: alcanzar y\nmanipular los mecanismos y abrir la salida; abrir,\nsacar, levantar y colocar la ventana de salida; salir\neficaz y rápidamente; sacar obstáculos del peso\naproximado de la ventana de salida; y ayudar a\nPor favor pida un asiento en pasillo sin salida si usted:\n1. Abordó el avión antes que los otros pasajeros.\n2. Tiene alguna condición física que quizá no se ve pero\nque podría impedirle ayudar con las actividades en\n3. Tiene una responsabilidad, como por ejemplo cuidar\na un niño pequeño, que le impediría ayudar con las\n4. Le falta suficiente movilidad, fuerza o habilidad en\nlos dos brazos, manos y las dos piernas para\ncumplir con las actividades en la lista de arriba.\n5. Requiere la ayuda de un acompañante adulto, padre u otro\nfamiliar para hacer las actividades en la lista de arriba.\n7. No puede leer y comprender instrucciones escritas\n8. No ve bien y lentes de contacto o lentes de vista no\nle son suficientes para ver.\n9. No escucha bien y su aparato de sordera (audífono)\nno es suficiente para escuchar y comprender las\ninstrucciones gritadas por miembros de la Tripulación.\n10. No puede dar instrucciones orales a otros en inglés.\n11. Piensa que podría sufrir daños físicos como resultado\nde hacer las actividades en la lista de arriba.\n12. Requiere una extensión para el cinturón de sequridad.\nPasos requeridos para las personas sentadas en los\nasientos ubicados en salidas de emergencia:\n1. Localizar la salida de emergencia y reconocer el\nmecanismo para abrir la salida de emergencia.\n2. Comprender las instrucciones para operar la salida\nde emergencia.\n3. Abrir la salida de emergencia.\n4. Evaluar si es que al abrir la salida de emergencia\naumentaria el riesgo a los pasajeros.\n5. Seguir direcciones orales y gestos de mano de un\nmiembro de la Tripulación.\n6. Sujetar la ventana de la salida de emergencia para\nque no impida el uso de la salida.\n7. Salir rápidamente por la salida de emergencia.\n8. Evaluar y escoger un camino seguro una vez que se\nhaya salido por la salida de emergencia.\nPara la seguridad de los demás, por favor no saque\nesta tarjeta del avión.",
      "Safety Information\nInformación de Seguridad\nSOUTHWEST\n00000000008 0000°00 00000222\nC09 0030\n737\nSOUTHWEST AIRLINES®\nSafety Information\nBoeing 737 Aircraft\n• For your safety, follow instructions given by\nthe Crew and study the contents of this card.\n• Learn the location of ALL the exits on this aircraft.\n• Comply with all signs and placards.\n• Keep your seatbelt fastened while seated.\n• No smoking at any time onboard this aircraft.\nInformación de Seguridad\nAviones Boeing Serie 737\n• Para su propia seguridad, siga las instrucciones\nde la Tripulación y estudie el contenido de esta tarjeta.\n• Ubique TODAS las salidas del avión.\n• Obedezca todos los avisos y pósters.\n• Mantenga el cinturón abrochado cuando está sentado/a.\n• Se prohíbe fumar en el avión en todo momento."
    ],
    "millsfield:images_texts_ids": [
      1931110125,
      1931110127,
      1931122695
    ],
    "millsfield:primary_image": 1931122695,
    "millsfield:subcategory_id": 1511213703,
    "mz:is_approximate": 1,
    "mz:is_current": 1,
    "sfomuseum:accession_number": "2009.108.029",
    "sfomuseum:aircraft": "Boeing 737",
    "sfomuseum:aircraft_id": [
      207
    ],
    "sfomuseum:airline": "Southwest Airlines",
    "sfomuseum:airline_id": [
      964
    ],
    "sfomuseum:category": "Passenger Amenity, Archive",
    "sfomuseum:classification_id": 581,
    "sfomuseum:collection": "Aviation Archive",
    "sfomuseum:creditline": "Gift of the William Hough Collection",
    "sfomuseum:date": "2007",
    "sfomuseum:date_acquired": "2010-03-03",
    "sfomuseum:daterange_end": "2007-12-31",
    "sfomuseum:daterange_start": "2007-01-01",
    "sfomuseum:description": "Safety information card issued by Southwest Airlines for its Boeing 737 fleet; double-sided tri-fold card with illustrations demonstrating inflight safety and emergency procedures; identification code: IF-552; revision date: 12/07.",
    "sfomuseum:dimensions": "11 x 6 1/2 inches (27.9 x 16.5 cm)",
    "sfomuseum:medium": "paper, ink",
    "sfomuseum:object_id": 100478,
    "sfomuseum:placetype": "object",
    "sfomuseum:publication": ": , 2007.",
    "sfomuseum:subcategory": "Safety Information Card",
    "src:geom": "sfomuseum#undetermined",
    "wof:belongsto": [
      102527513,
      1159162825,
      102191575,
      85633793,
      102087579,
      85922583,
      85688637,
      1159160869
    ],
    "wof:country": "XY",
    "wof:created": 1727196358,
    "wof:depicts": [
      1159293593,
      1159285591,
      1159289819
    ],
    "wof:geomhash": "c281b9d9eefc83b5710e64b9d646067d",
    "wof:hierarchy": [
      {
        "building_id": -1,
        "campus_id": 102527513,
        "collection_id": 1159162825,
        "concourse_id": 1159162825,
        "continent_id": 102191575,
        "country_id": 85633793,
        "county_id": 102087579,
        "custom_id": 1931107837,
        "locality_id": 85922583,
        "neighbourhood_id": -1,
        "object_id": 1931107837,
        "region_id": 85688637,
        "wing_id": 1159160869
      }
    ],
    "wof:id": 1931107837,
    "wof:lastmodified": 1787988222,
    "wof:name": "safety information card: Southwest Airlines, Boeing 737",
    "wof:parent_id": 1159162825,
    "wof:placetype": "custom",
    "wof:placetype_alt": [
      "object"
    ],
    "wof:repo": "sfomuseum-data-collection",
    "wof:superseded_by": [],
    "wof:supersedes": []
  },
  "bbox": [
    -122.38647222518921,
    37.6161053594541,
    -122.38583385944366,
    37.61661101879963
  ],
  "geometry": {"type":"Polygon","coordinates":[[[-122.38647222518921,37.61631782178288],[-122.386434674263,37.61623283692423],[-122.38637566566466,37.61617759671399],[-122.38630056381224,37.6161308549656],[-122.38616108894348,37.6161053594541],[-122.38602161407469,37.6161308549656],[-122.38591432571411,37.61618609521055],[-122.38585531711577,37.61626683087935],[-122.38583385944366,37.61636881265146],[-122.38587141036987,37.61646654505181],[-122.38594114780425,37.61654303118856],[-122.38605380058287,37.61660252035167],[-122.38618254661559,37.61661101879963],[-122.3863059282303,37.61657277577607],[-122.3864185810089,37.61650903735973],[-122.3864668607712,37.61641130501523],[-122.38647222518921,37.61631782178288]]]}
}
