{
  "id": 1913796067,
  "type": "Feature",
  "properties": {
    "date:cessation_lower": "1950-02-02",
    "date:cessation_upper": "1950-02-02",
    "date:inception_lower": "1950-02-02",
    "date:inception_upper": "1950-02-02",
    "edtf:cessation": "1950-02-02",
    "edtf:inception": "1950-02-02",
    "geom:area": 2.475047457570636e-7,
    "geom:bbox": "-122.386472,37.616105,-122.385834,37.616611",
    "geom:latitude": 37.61635747477365,
    "geom:longitude": -122.38615540108617,
    "millsfield:airline_id": [
      1159284989
    ],
    "millsfield:category_id": 1511214251,
    "millsfield:collection_id": 1511214207,
    "millsfield:company_id": [
      1159286839
    ],
    "millsfield:images": [
      1913799683,
      1913799685,
      1913799687,
      1913799689
    ],
    "millsfield:images_colors_refs": {
      "crayola": [
        {
          "hex": "#eceabe"
        },
        {
          "hex": "#757575"
        },
        {
          "hex": "#4a646c"
        },
        {
          "hex": "#efdecd"
        }
      ],
      "css4": [
        {
          "hex": "#ffe4c4"
        },
        {
          "hex": "#696969"
        },
        {
          "hex": "#708090"
        },
        {
          "hex": "#f5deb3"
        }
      ],
      "marekm4": [
        {
          "hex": "#6c7088"
        },
        {
          "hex": "#e9e2c5"
        },
        {
          "hex": "#6d7088"
        },
        {
          "hex": "#525066"
        },
        {
          "hex": "#eae2c5"
        },
        {
          "hex": "#53526c"
        },
        {
          "hex": "#eae2c4"
        },
        {
          "hex": "#555268"
        },
        {
          "hex": "#eae2c6"
        },
        {
          "hex": "#5a576c"
        }
      ]
    },
    "millsfield:images_texts": [
      "Tokyo\n76 2: 50\nDubs darling.\nWorked east might unte 2 aim and the\nsame\nthe night byay. But ur hair almost finish is the\nbest presentation 9 hair yet tim made loy\nT.A.C.\nNow is hair to clon the deal with the gap.\ngarnment\nand git subscriptions from gaps ant\nAmericans to the common stock.\nI dount if\nur can finish before tib 1?* and its sure that\nI wile nat tr ali to for you at Banglete\nor Hongkong O wick go with you\nand hop that, 9, want hur to come back\nher for by that time Iin going to need a\nvacation in the sun and in\nthe surf at\nIon alulu o\nNi Broils looks you up. 3 wante\nto much to gir him. some\neno which\narrurs for you.\nand kit from Paris - forwarded\nfrom Bangkok but\nthe portad inspectors hair\nJust fines paa $500 for the misuse of Cormpany\nmaie foreign and to instiad 9 sent them\nto you through the gap mails (at a coat\nthe Tot. They shoned.\nWont crite yor am\nmore lettersto\ni Bangkok but will\nsand\nmy mext to songkory.\n- Eryone her wants yin\nand Hits to\nstogi our in Japan but thres really to\nmuch red tape-\n- gilley a mietary.\n- Permit Hower, gor are very anxions to",
      "to sit up a 7 day tour and then not\ntake it. Thats about the only practicable\n- because of Hers dinne\ndicide\ndance\n- to stay\nstorial days\nlongar\nBangkit that wiee 12 ale right\nand cut peeit that you psh\nstay in Hongking\nIt wone at course.\ni trifir with the diplomats me zsting.-an.\ntra bar go room re\nrented\nBut loote into thatn\nOur muting at Nonale starto on the\n2otk and die the Düicos and most o\nJuer o thes you that o bought\nwatch in tongkong.\n9 cho not buy\nan attrone\nfor Tum but think us thones-\ndent you an it coned guad it to him on ou\nway backen though Bangkoks Max Palin\nenous a peacense le cap get as big\nridiction in prickef Hét lo to kep yor.\nAlre it yin hau\nMany eats (oo Ah)\nWhich!\nmed chaning and, adjustment tongin,\nthe plad to kis it dore\nLatu - At that point Hiatt calend me\nur had a\n- scotch and sodartin his\nroom\nthen to dinina at\n9 Bn.ve the hour\nI like.\n\" The food is rep good and not to\nExpensir.\nD kad consome and a ving ford\n201912111619",
      "filit mignon. Cost $2.30 wick no tips permitro.\nI hao starched Errywhers and made loto\noptinguires sre. shells,\nshells but no luck! also pac\nSharman\nWho is real intrusted and tenous a\na trp to an island near hars for that puspen\nbut found no one selling shello.\nI hair written\nto a magazine here.\na sort of buyus guide\nand may fit something fom them.\nBy th\nway speaking of shales.\nSolen you fit to Hong kong\nwhy dont you, buy some of the fesk crack\n(like his Linn has) and sind them to the Bait\nBox Captwa, Make youre a sort of. forziga\nbuyu for .\nthem -\nsup appoints - with the\ntrouber. you\nshell\nyou\nU.S. B for you\nN.Y. pusma Chick thin\nyo take;\nU.S. # to one of thor exchange\ndeatus on the\nstout opposite the Hopkoy\nHate andel\nabnt 4.50 H.K. for sach US #.\nAmos Itiatt and\n9 are motoug\nto Kot on Saturday with a very tintinating\nmun a nu. Hatta. He is a ving is tt,\nTurk who ten eird in Japan as chin\nall his ep. - Hi\nspeaks\nand Chinen too.\nlied in Sinkiang\nprovince for - years\n- and has trant ace\nthrough the\nwhat got to ace of thin\nPlaces which ur read\nabont Turfan, Hami",
      "Urumchi Ete\nHeader, etc.\nWe're goug\nmorning\nand\nnight\nmant for us\nliadashy\nthe\nHi used to try wool for rugo.\nto\nstart at 5 a.m. Saturday\ncome back\nto train hon day\ntold\nthat the #1\n-e: Japan, busineso\nhate is the head it\nPaa, agents in. Kok, That.\nbut the trip thored thes\nintuiting and wee sit so thing g ta\nCountry\nale\nthe\nThe road to jord\nand wide tu\nway.\nyou say in\nyour litte\nthat you re not erry\nbusy\n• but it sounds to\nis havin\nme\na good time.\nd cutant hop for are\nglad A tests hasten so nices Hous\nyour painting\nThe Fees chairs\nairtaine\nbott\npline girl, thin\nmy erst to\nmust go\nand non-\na to you mol and\nmore eas\nI restige me and mor\nWhat an paderjie prison jin are. Du\nlook forwait\ncray minutes to the N74\nuno!\nindo\n201912/116110"
    ],
    "millsfield:images_texts_ids": [
      1913799683,
      1913799685,
      1913799687,
      1913799689
    ],
    "millsfield:primary_image": 1913799683,
    "millsfield:subcategory_id": 1511213489,
    "mz:is_approximate": 1,
    "mz:is_current": 1,
    "sfomuseum:accession_number": "2019.121.1161 a b",
    "sfomuseum:airline": "Pan American World Airways",
    "sfomuseum:airline_id": [
      684
    ],
    "sfomuseum:category": "Employee Career History",
    "sfomuseum:classification_id": 195,
    "sfomuseum:collection": "Aviation Archive",
    "sfomuseum:creditline": "Collection of SFO Museum",
    "sfomuseum:date": "02/02/1950",
    "sfomuseum:date_acquired": "2019-11-22",
    "sfomuseum:daterange_end": "1950-02-02",
    "sfomuseum:daterange_start": "1950-02-02",
    "sfomuseum:description": "Handwritten letter from Harold M. Bixby to his wife, Debby Bixby, dated February 2, [1950], in Tokyo; includes description of presentation by IHC (InterContinental Hotels Corporation); mentions Hi [Hiram] Broiles, Jerry O’Donnell, Amos Hiatt, Max Polin.",
    "sfomuseum:dimensions": "11 x 8 inches (27.9 x 20.3 cm)",
    "sfomuseum:medium": "paper, ink",
    "sfomuseum:object_id": 211524,
    "sfomuseum:placetype": "object",
    "sfomuseum:publication": ": , 02/02/1950.",
    "sfomuseum:subcategory": "Correspondence, Personal",
    "src:geom": "sfomuseum#undetermined",
    "wof:belongsto": [
      102527513,
      1159162825,
      102191575,
      85633793,
      102087579,
      85922583,
      85688637,
      1159160869
    ],
    "wof:country": "XY",
    "wof:created": 1714548974,
    "wof:depicts": [
      1159284989,
      1159286839
    ],
    "wof:geomhash": "c281b9d9eefc83b5710e64b9d646067d",
    "wof:hierarchy": [
      {
        "building_id": -1,
        "campus_id": 102527513,
        "collection_id": 1159162825,
        "concourse_id": 1159162825,
        "continent_id": 102191575,
        "country_id": 85633793,
        "county_id": 102087579,
        "custom_id": 1913796067,
        "locality_id": 85922583,
        "neighbourhood_id": -1,
        "object_id": 1913796067,
        "region_id": 85688637,
        "wing_id": 1159160869
      }
    ],
    "wof:id": 1913796067,
    "wof:lastmodified": 1787988219,
    "wof:name": "correspondence: Harold M. Bixby to Debby Bixby",
    "wof:parent_id": 1159162825,
    "wof:placetype": "custom",
    "wof:placetype_alt": [
      "object"
    ],
    "wof:repo": "sfomuseum-data-collection",
    "wof:superseded_by": [],
    "wof:supersedes": []
  },
  "bbox": [
    -122.38647222518921,
    37.6161053594541,
    -122.38583385944366,
    37.61661101879963
  ],
  "geometry": {"type":"Polygon","coordinates":[[[-122.38647222518921,37.61631782178288],[-122.386434674263,37.61623283692423],[-122.38637566566466,37.61617759671399],[-122.38630056381224,37.6161308549656],[-122.38616108894348,37.6161053594541],[-122.38602161407469,37.6161308549656],[-122.38591432571411,37.61618609521055],[-122.38585531711577,37.61626683087935],[-122.38583385944366,37.61636881265146],[-122.38587141036987,37.61646654505181],[-122.38594114780425,37.61654303118856],[-122.38605380058287,37.61660252035167],[-122.38618254661559,37.61661101879963],[-122.3863059282303,37.61657277577607],[-122.3864185810089,37.61650903735973],[-122.3864668607712,37.61641130501523],[-122.38647222518921,37.61631782178288]]]}
}
