{
  "id": 1913795331,
  "type": "Feature",
  "properties": {
    "date:cessation_lower": "1933-12-09",
    "date:cessation_upper": "1933-12-09",
    "date:inception_lower": "1933-12-09",
    "date:inception_upper": "1933-12-09",
    "edtf:cessation": "1933-12-09",
    "edtf:inception": "1933-12-09",
    "geom:area": 2.475047457570636e-7,
    "geom:bbox": "-122.386472,37.616105,-122.385834,37.616611",
    "geom:latitude": 37.61635747477365,
    "geom:longitude": -122.38615540108617,
    "millsfield:airline_id": [
      1159284991,
      1159285931
    ],
    "millsfield:category_id": 1511214251,
    "millsfield:collection_id": 1511214207,
    "millsfield:company_id": [
      1159286721
    ],
    "millsfield:images": [
      1913801541,
      1913801543,
      1913801545
    ],
    "millsfield:images_colors_refs": {
      "crayola": [
        {
          "hex": "#efcdb8"
        },
        {
          "hex": "#6e5160"
        },
        {
          "hex": "#714b23"
        },
        {
          "hex": "#9f8170"
        }
      ],
      "css4": [
        {
          "hex": "#808080"
        },
        {
          "hex": "#556b2f"
        },
        {
          "hex": "#f5deb3"
        }
      ],
      "marekm4": [
        {
          "hex": "#e1d4b0"
        },
        {
          "hex": "#9a9170"
        },
        {
          "hex": "#9a9172"
        },
        {
          "hex": "#e3d5af"
        },
        {
          "hex": "#665f43"
        },
        {
          "hex": "#e3d5ae"
        },
        {
          "hex": "#9b9271"
        },
        {
          "hex": "#635b3d"
        },
        {
          "hex": "#625c42"
        }
      ]
    },
    "millsfield:images_texts": [
      "GRAND HOTEL DE PEKIN\nPEKIN\nTELEGRAPHIC ADDRESS (PEKINOTEL)\nCODES A. B. C. LIEBER \u0026 BENTLEY'S\nDearrot Dabs-\nSaturday mornings\nPAKIN, LE\nLeg as\nur has a marlam\nday -\nWe got up at 5:30 and took\na train out to the great worse abort\n50 miles to the mort from hus.\nfrom\nBond has some great fronds here\nhient + Mrs Creat of the Legation\nmarine guard. Us had dinne\nwick them Thuda night and\ninvitad Mrs. C. to go wet us as\nShe had ners sin the wale.\ner travens on thes fun, luce\nrail road. the one foregnus on\nthe train. Arring at the wale\nin left the tram which fors\non up to Kalgan - Climbre up\na small mountai and onto the\nwall. which is Just sacy what\nyou har ten in pictures lant its",
      "GRAND HOTEL DE PEKIN\nPEKIN\nPOKIN, ILE\n1893\nTELEGRAPHIC ADDRESS (PEKINOTEL)\nCODES A. B. C. LIEBER \u0026 BENTLEY'S\nтисе\nto hark ten\nthis us wel\nlucky for it was not trube, cold\nAnd three was no wind. Also\nthey pay the glas of the bleak\ntricen mountains in ordinaries\nor bad but\nyestre day the sky\nwa over cat\nand a little snow\nfice all the time, Cis took alt\nour lumer which us ate i\nthe railroad car left at the\nwale. I bought two like trees\none a donky bill and one a\nCamel bill. They hitch the bile to\nthe last came or donkery in the\ncaravan so they'll know when\nthe caravan pammo a certain\nPoint and Can always checke up\nto sur that all ammals are\nin the line.",
      "GRAND HOTEL DE PEKIN\nPEKIN\nICKIN, ILIE\n193..\nTELEGRAPHIC ADDRESS (PEKINOTEL)\nCODES A. B. C. LIEBER \u0026 BENTLEY'S\nOfth on lunch the train came along\nhooked on to our car. The Chinese in the\nNott are much bigge than the southen\nprople and but looking. Then went\nlots of soldino\naround to guard the\ntrain as ur was in bandit country, Wr\ngot off the train at nankoo where a\nmotor car mit us and us drove over\nthe most terrible road imaginable to\nthe ming Tombs -\nmarilous - cant ligin\nto describe now but will latu, eir\ndidn't lear tha unte 4 oclock d\nOn dren said he was afaid that\nuntie us got on the main highway,\nthat robters mugst stral his car. so he\ndrove as fast a le conle our zu\nmile of frightfue road and ur ac\ntracked Easin when us got to the\nmain road. Got in at 7Om had dinner\nwith the Criets at Wetre du Nord and at\n10:30 tumbled into bed. Toda, am makin\nbusiness calls \u0026 shagging. must sun nois.\ncoir - Bie"
    ],
    "millsfield:images_texts_ids": [
      1913801541,
      1913801543,
      1913801545
    ],
    "millsfield:primary_image": 1913801541,
    "millsfield:subcategory_id": 1511213489,
    "mz:is_approximate": 1,
    "mz:is_current": 1,
    "sfomuseum:accession_number": "2019.121.0805 a c",
    "sfomuseum:airline": "Pan American Airways",
    "sfomuseum:airline_id": [
      685,
      1131
    ],
    "sfomuseum:category": "Employee Career History",
    "sfomuseum:classification_id": 195,
    "sfomuseum:collection": "Aviation Archive",
    "sfomuseum:creditline": "Collection of SFO Museum",
    "sfomuseum:date": "12/09/1933",
    "sfomuseum:date_acquired": "2019-11-22",
    "sfomuseum:daterange_end": "1933-12-09",
    "sfomuseum:daterange_start": "1933-12-09",
    "sfomuseum:description": "Handwritten letter from Harold M. Bixby to his wife, Debby Bixby, dated December 9, [1933], on stationery from the Grand Hotel de Pékin; includes description of sightseeing tour to the Great Wall and the Ming tombs; mentions [William L.] Bond and the Crists.",
    "sfomuseum:dimensions": "10 3/4 x 8 1/4 inches (27.3 x 21 cm)",
    "sfomuseum:medium": "paper, ink",
    "sfomuseum:object_id": 211153,
    "sfomuseum:placetype": "object",
    "sfomuseum:publication": ": , 12/09/1933.",
    "sfomuseum:subcategory": "Correspondence, Personal",
    "src:geom": "sfomuseum#undetermined",
    "wof:belongsto": [
      102527513,
      1159162825,
      102191575,
      85633793,
      102087579,
      85922583,
      85688637,
      1159160869
    ],
    "wof:country": "XY",
    "wof:created": 1714548761,
    "wof:depicts": [
      1159284991,
      1159285931,
      1159286721
    ],
    "wof:geomhash": "c281b9d9eefc83b5710e64b9d646067d",
    "wof:hierarchy": [
      {
        "building_id": -1,
        "campus_id": 102527513,
        "collection_id": 1159162825,
        "concourse_id": 1159162825,
        "continent_id": 102191575,
        "country_id": 85633793,
        "county_id": 102087579,
        "custom_id": 1913795331,
        "locality_id": 85922583,
        "neighbourhood_id": -1,
        "object_id": 1913795331,
        "region_id": 85688637,
        "wing_id": 1159160869
      }
    ],
    "wof:id": 1913795331,
    "wof:lastmodified": 1787988219,
    "wof:name": "correspondence: Harold M. Bixby to Debby Bixby",
    "wof:parent_id": 1159162825,
    "wof:placetype": "custom",
    "wof:placetype_alt": [
      "object"
    ],
    "wof:repo": "sfomuseum-data-collection",
    "wof:superseded_by": [],
    "wof:supersedes": []
  },
  "bbox": [
    -122.38647222518921,
    37.6161053594541,
    -122.38583385944366,
    37.61661101879963
  ],
  "geometry": {"type":"Polygon","coordinates":[[[-122.38647222518921,37.61631782178288],[-122.386434674263,37.61623283692423],[-122.38637566566466,37.61617759671399],[-122.38630056381224,37.6161308549656],[-122.38616108894348,37.6161053594541],[-122.38602161407469,37.6161308549656],[-122.38591432571411,37.61618609521055],[-122.38585531711577,37.61626683087935],[-122.38583385944366,37.61636881265146],[-122.38587141036987,37.61646654505181],[-122.38594114780425,37.61654303118856],[-122.38605380058287,37.61660252035167],[-122.38618254661559,37.61661101879963],[-122.3863059282303,37.61657277577607],[-122.3864185810089,37.61650903735973],[-122.3864668607712,37.61641130501523],[-122.38647222518921,37.61631782178288]]]}
}
