{
  "id": 1913796307,
  "type": "Feature",
  "properties": {
    "date:cessation_lower": "1936-01-19",
    "date:cessation_upper": "1936-01-19",
    "date:inception_lower": "1936-01-19",
    "date:inception_upper": "1936-01-19",
    "edtf:cessation": "1936-01-19",
    "edtf:inception": "1936-01-19",
    "geom:area": 2.475047457570636e-7,
    "geom:bbox": "-122.386472,37.616105,-122.385834,37.616611",
    "geom:latitude": 37.61635747477365,
    "geom:longitude": -122.38615540108617,
    "millsfield:airline_id": [
      1159284991
    ],
    "millsfield:category_id": 1511214251,
    "millsfield:collection_id": 1511214207,
    "millsfield:company_id": [
      1159286839
    ],
    "millsfield:images": [
      1913801911,
      1913801915,
      1913801917,
      1913801919
    ],
    "millsfield:images_colors_refs": {
      "crayola": [
        {
          "hex": "#f8d568"
        },
        {
          "hex": "#e7c697"
        },
        {
          "hex": "#414a4c"
        },
        {
          "hex": "#fddde6"
        },
        {
          "hex": "#757575"
        },
        {
          "hex": "#edd19c"
        }
      ],
      "css4": [
        {
          "hex": "#deb887"
        },
        {
          "hex": "#f5f5dc"
        },
        {
          "hex": "#696969"
        },
        {
          "hex": "#faf0e6"
        },
        {
          "hex": "#f0e68c"
        },
        {
          "hex": "#2f4f4f"
        }
      ],
      "marekm4": [
        {
          "hex": "#e2ce6f"
        },
        {
          "hex": "#2e3420"
        },
        {
          "hex": "#363e2b"
        },
        {
          "hex": "#303220"
        },
        {
          "hex": "#628f66"
        },
        {
          "hex": "#343a22"
        },
        {
          "hex": "#ecdc9b"
        },
        {
          "hex": "#ebdb98"
        },
        {
          "hex": "#dcc877"
        },
        {
          "hex": "#f4f2e5"
        },
        {
          "hex": "#e2cf70"
        },
        {
          "hex": "#e0cc79"
        },
        {
          "hex": "#658f65"
        },
        {
          "hex": "#f4f1e2"
        }
      ]
    },
    "millsfield:images_texts": [
      "Sunday Jan 1g 11\n'36\nNearest Deles\n2 bai had a wondetas Sunday\nLayed out lats last nigit at the Corash\npang - lot of fun - Gondo, in 4. Ta\nriss Lockhar\nMr Turogood, a Mr and his S\nproque s and\nan unatacked S.0. man from Henkow\no Changshan. There is a good floor\nshore at the Calkay - labre ur all\nwint up to the tower fo\n_hat dogs\nand the pure broke up abont 3am\nThis morning 2 woke up abort\n9 had coffee in my room and\nthe juat sat around in my pajamas\nreading\nthe Sunday papu\nan e\nmy Count and My Fiople which o\nthink is by all odds the bist book\nwhen hair read on Chana. e\nCame our to the office to tus y\nthur wur an radios. None there\nso mow back at Metropole wick no\ningagiment or anything to do unte\ntom orou\nexceet just that dara\nplease.\nI hair\nbarn thinking a lot\nabont\na way out of our present\nChine dafficuties and think I hair\nfound wolat may turn out to de\na solution..\nAm stee planning on\ngoing sout on the 244\nfoo\nat macao. then a trip\nthe -\nP. I. undes. then\n. is sometking\nurgrat herr.\nRussie adosis from",
      "macao that the lawyn has tirrytig\nii\n-readine te te Argued, Cushman\nwice be then to complets the radio\ninstalatior and I shoned be able to\npraish, up ratte\nquickly:\nthe dats\nfor the averal of the fust clygu\nat Macao sens to be indefeate\npostponed to then wele probakey te\nof time for\nyor and the gerls\nan ornating bast.\nIts really pathetic hue in\nShanghai - ace the trouble\nand sO\nmany prople hair lost heavie.\nThe\nTruman Johneras kar gone home!\nale his\nentrato are involied and\nsuits hair tan filed ganet\nhini. Dick Vandentig is\nhere but\nes a\nsad figur . they too kar\nlost torrything\n1 Of course it looks\nas though Ravia and Brown crie\nbock .\ngo to jail.\n→ Lane Crawford\nhas gone into voluntary liquidation.\nthe clubs are having a tough time\nand s\nthe American Club is almost\ndea astral.\nThe Charley Rasks wire\ntranse to Montrial on very\nshot\nnotice and an leaving in a fr\ndays.\nAm sorry\nto ter them go\nbe cause\nI lik them\nbolt very\n20191210868",
      "actually ingaged. Bie said that the\nwas a very nier.\nque and that\nRus had taken he in confety\n(She was a situ of Louree Thomas)\ntree\nmaugh dust for tke\nmoment.\n@ letter from Benediat\ntold me of the men seey record\nWarner.\nfrom his war wounds and gas.\nAnath of our fuends ed troute (de\nJo rement him - she was veer\ntall and a great fund of kees)\ndivorced his tut to many his\npregnant stage apher.\nBy the wan\nEmma and Altit\nAnt us a grand big box of candy\nfor Christmad which I thanked them\nfor\nand\nam Eating.\nArttur Noskim\nwith out any comment\nso I guess it was for the give\nwice you pass along to thim i\npesos.\n- The\nSterns sint us a sures box\nof Busingers which o took to\nClarks. Mr a mus Dan fork sunt is\na big box of Hersheys.\nsome o-\nwhich o at and some Im saving\nfor the kids. I havr nit. thankeet\nthe Stroms on the Wantorths\nbut 9\ndid thank Gretur Hoskins.\nDebs 9\nYou got to shad a copy of that\nlast famie, letter to the Whittimors\n019.21.0868 6",
      "and many. thay\nyou can sand\nyou.\ncopy or y you.\nthank they\ncond be intuitis ask\nDon \u0026\ngloria to forward threes. (ounds\nas though\nI thought that litter\nuas \"\n\"sumpin \")\nSent cope. to\nall membra of family, alas Quttur\nH, Hun, \u0026 Kitt,\nand.\na. o. cuilson .\nHave had may trith cleaned\nand hair to go back for tive smace\nfree in ge\n-Alo saw Frances Nance and\nan taking some drops to shrank\nthe membrane in my nose\nso as to open up\nthat Ear.\nhas \"popped\" a comper of time\nand I hair hops that it cale\nsoon\nKrad tomorrow Exarmining\nJour love things just hope and\npray that thin\nans not ale\nruined.\nAle my loo to you\ndearist - lot\nof lour to Cat\nand the and the big gie. if\nten ant back when this ancs\nI lord you,\ntist seen from Bagai\nWhich i found waiting for me a\na compete and try pleasant\nAmpiss when I returned to the\nmetropole yastu day\nI los you lets.\n13 ix"
    ],
    "millsfield:images_texts_ids": [
      1913801911,
      1913801915,
      1913801917,
      1913801919
    ],
    "millsfield:primary_image": 1913801911,
    "millsfield:subcategory_id": 1511213489,
    "mz:is_approximate": 1,
    "mz:is_current": 1,
    "sfomuseum:accession_number": "2019.121.0868 a c",
    "sfomuseum:airline": "Pan American Airways",
    "sfomuseum:airline_id": [
      685
    ],
    "sfomuseum:category": "Employee Career History",
    "sfomuseum:classification_id": 195,
    "sfomuseum:collection": "Aviation Archive",
    "sfomuseum:creditline": "Collection of SFO Museum",
    "sfomuseum:date": "01/19/1936",
    "sfomuseum:date_acquired": "2019-11-22",
    "sfomuseum:daterange_end": "1936-01-19",
    "sfomuseum:daterange_start": "1936-01-19",
    "sfomuseum:description": "Handwritten letter from Harold M. Bixby to his wife, Debby Bixby, dated January 19, [1936]; includes description of financial crisis in Shanghai; family matters; mentions [William L. and Kitsi] Bond, M.Y. Tang, Mr. Twogood, Mr. and Mrs. Sprague, Miss Lockhart, [C.S] Russell, Dick Vandenberg, “Raven and Brown,” Lane Crawford, Charley Nash, [Dr.] Frances Nance.",
    "sfomuseum:dimensions": "13 x 8 inches (33 x 20.3 cm)",
    "sfomuseum:medium": "paper, ink",
    "sfomuseum:object_id": 211221,
    "sfomuseum:placetype": "object",
    "sfomuseum:publication": ": , 01/19/1936.",
    "sfomuseum:subcategory": "Correspondence, Personal",
    "src:geom": "sfomuseum#undetermined",
    "wof:belongsto": [
      102527513,
      1159162825,
      102191575,
      85633793,
      102087579,
      85922583,
      85688637,
      1159160869
    ],
    "wof:country": "XY",
    "wof:created": 1714549055,
    "wof:depicts": [
      1159284991,
      1159286839
    ],
    "wof:geomhash": "c281b9d9eefc83b5710e64b9d646067d",
    "wof:hierarchy": [
      {
        "building_id": -1,
        "campus_id": 102527513,
        "collection_id": 1159162825,
        "concourse_id": 1159162825,
        "continent_id": 102191575,
        "country_id": 85633793,
        "county_id": 102087579,
        "custom_id": 1913796307,
        "locality_id": 85922583,
        "neighbourhood_id": -1,
        "object_id": 1913796307,
        "region_id": 85688637,
        "wing_id": 1159160869
      }
    ],
    "wof:id": 1913796307,
    "wof:lastmodified": 1787988220,
    "wof:name": "correspondence: Harold M. Bixby to Debby Bixby",
    "wof:parent_id": 1159162825,
    "wof:placetype": "custom",
    "wof:placetype_alt": [
      "object"
    ],
    "wof:repo": "sfomuseum-data-collection",
    "wof:superseded_by": [],
    "wof:supersedes": []
  },
  "bbox": [
    -122.38647222518921,
    37.6161053594541,
    -122.38583385944366,
    37.61661101879963
  ],
  "geometry": {"type":"Polygon","coordinates":[[[-122.38647222518921,37.61631782178288],[-122.386434674263,37.61623283692423],[-122.38637566566466,37.61617759671399],[-122.38630056381224,37.6161308549656],[-122.38616108894348,37.6161053594541],[-122.38602161407469,37.6161308549656],[-122.38591432571411,37.61618609521055],[-122.38585531711577,37.61626683087935],[-122.38583385944366,37.61636881265146],[-122.38587141036987,37.61646654505181],[-122.38594114780425,37.61654303118856],[-122.38605380058287,37.61660252035167],[-122.38618254661559,37.61661101879963],[-122.3863059282303,37.61657277577607],[-122.3864185810089,37.61650903735973],[-122.3864668607712,37.61641130501523],[-122.38647222518921,37.61631782178288]]]}
}
