{
  "id": 1913795359,
  "type": "Feature",
  "properties": {
    "date:cessation_lower": "1933-11-06",
    "date:cessation_upper": "1933-11-06",
    "date:inception_lower": "1933-11-06",
    "date:inception_upper": "1933-11-06",
    "edtf:cessation": "1933-11-06",
    "edtf:inception": "1933-11-06",
    "geom:area": 2.475047457570636e-7,
    "geom:bbox": "-122.386472,37.616105,-122.385834,37.616611",
    "geom:latitude": 37.61635747477365,
    "geom:longitude": -122.38615540108617,
    "millsfield:airline_id": [
      1159284991,
      1159285931
    ],
    "millsfield:category_id": 1511214251,
    "millsfield:collection_id": 1511214207,
    "millsfield:company_id": [
      1159286721
    ],
    "millsfield:images": [
      1913801335,
      1913801339,
      1913801341,
      1913801343,
      1913801345
    ],
    "millsfield:images_colors_refs": {
      "crayola": [
        {
          "hex": "#edd19c"
        },
        {
          "hex": "#eceabe"
        },
        {
          "hex": "#000000"
        },
        {
          "hex": "#9f8170"
        },
        {
          "hex": "#6dae81"
        },
        {
          "hex": "#bab86c"
        }
      ],
      "css4": [
        {
          "hex": "#000000"
        },
        {
          "hex": "#eee8aa"
        },
        {
          "hex": "#bc8f8f"
        },
        {
          "hex": "#bdb76b"
        },
        {
          "hex": "#3cb371"
        },
        {
          "hex": "#f5deb3"
        }
      ],
      "marekm4": [
        {
          "hex": "#68a46b"
        },
        {
          "hex": "#e8daa0"
        },
        {
          "hex": "#a8a270"
        },
        {
          "hex": "#a09a71"
        },
        {
          "hex": "#332613"
        },
        {
          "hex": "#b19e71"
        },
        {
          "hex": "#ece0bc"
        },
        {
          "hex": "#23190a"
        },
        {
          "hex": "#5b975c"
        },
        {
          "hex": "#241e0e"
        },
        {
          "hex": "#aca76f"
        },
        {
          "hex": "#271f10"
        },
        {
          "hex": "#e9d8aa"
        },
        {
          "hex": "#a5956f"
        },
        {
          "hex": "#ede1bd"
        },
        {
          "hex": "#302a12"
        },
        {
          "hex": "#e7d7aa"
        }
      ]
    },
    "millsfield:images_texts": [
      "Monday \"/D\nDeariet Debo.\nthey teen - ten car.\na love, place on Manila Bar - larga\nopa hour with brantfe old spanida\nand Chinen furniturs - lets of games\nSummin pool.\nI could net go in for\n2 hair a\nmed cars of\nfoot\"\nand\nodde tough roy time\n2 go to NK\ncontagions and\nexpon anyone re for dost like to\nping gong, croquet and deck tenne\nhater- that was witten in the lawyers\nmiref\"\nin\nfor a\n\" my.\nroom.\nchangs and ant stayin\na on plent a got a surgerie toes; \"\nis lettis off\nBut 30, Oct, and 2nd Poor Caddy not\nhenring from\npon\nknew the lo when she thought\nwas ice and thin funding\nbut\nit that Tat Carried her late\naround for a couple of triks. I dot\nliks to\nhear that prople say jon do",
      "CABLE ADDRESS:\nMANHOCO - MANILA\n33\nALL TELEGRAPHIC CODES\nHUBERT C. ANDERSON\nMANAGER\nTHE\nSIGN OF SERVICE\nIN THE\nPHILIPPINES\nMANILA HOTEL TU\nManila, Philippines\nmot look wile. but a Cadd, says i\nher lette\nraryone\nalways\nsays that\nwhen you lon wright.\n9 do hopr. Debo\nthat\nJo are will and from what\nyou say judg that you must be. Iin\ncrazy to\nown self.\nS may to cone wan you\nthat prople say the same thing abort\nme\nwight B. rapacie ago of forke\nlike a bicaus my faer is to thin\nThe principat objiet which most critics\nof his portrait of me had to make\nI may hair lookrd like\nthat when I came to China - but no\n7 am dowr\nto 165 les goos a a porter a latle\nunder to net when is the fretest\nsouth\" sier the war. Neor fret bitter",
      "in my whole lif Dots you wont\nhan a chane to answ this litte\nbafor I start home and long trpor\nyou get this litter 9 will hair called\nto adorn\nJor of an addres\n-uss\nin - San Franciso or shoreon\nI land.\nIntrud to catch the very\ngret an plane tang for My an\ngas right\nstraight the ough. Cant tee\nyou how is be trise to phone\nyou and thanks In reach farli\n- mot to do so\n• for the connection\nio grufret\nand yo\na wored get, a\nreal kick out of it on, the cost\ni abort to and thats a lot of\nmoney to\nspind to that world take\nyou all the\nare thế way home for instinct\nand I'm sui\ngo to St.L. for\n'than tack\nto\nme.\nDebo\nWhen of fe East it\nthinke\nDee f straignt through coeth\nUntil Cerat ra\nva Chican - fa tet\n209.121.07765",
      "CABLE ADDRESS:\nMANHOCO - MANILA\nALL TELEGRAPHIC CODES\nHUBERT C. ANDERSON\nMANAGER\n(Nou\nSIGN OF\nSERVICE\nIN THE\nPHILIPPINES\nMANILA HOTEL\nManila, Philippines\nло\nthe fastist and most direct way. Hon\nto\nguir\nyou plent, of noter so you\nCan write me at Hondule. Ima, come\nhome on the Coolidge which is supponed\nto lear manile on Dre 1st and avior\nSan 7. (according to a new schedule)\non Dre 21nt then I could be home for\nChastmas.\nmayh Die be able to\ncatch an rarlier boat which I wored\nlik to do of coms.\nDibs in addition to \"lookin,\nbade,\" I must wars you that m\nhair is much\nthennes on top and\nmuch graye on the sider.\nI har to aggrar at a pubelie\nhearing tomorrow\nafternoon on the\nfran chios bile. that will not be ver,",
      "pleasant bent o must go throngh with it\nAnd hop that the\nthe commithe wout ask\ntoo many quentione or the mews gagre\nmisquete - whies the fuguett, do.\nmiat go to bid now had jit a\ngood nigeto deep for tomaraw wice t\nstrana ons -\nmangan a sentar paileas st\nno sumail\n-santando\nme ite trad nueras no votas\naisde o to varopo et ret e"
    ],
    "millsfield:images_texts_ids": [
      1913801335,
      1913801339,
      1913801341,
      1913801343,
      1913801345
    ],
    "millsfield:primary_image": 1913801335,
    "millsfield:subcategory_id": 1511213489,
    "mz:is_approximate": 1,
    "mz:is_current": 1,
    "sfomuseum:accession_number": "2019.121.0776 a c",
    "sfomuseum:airline": "Pan American Airways",
    "sfomuseum:airline_id": [
      685,
      1131
    ],
    "sfomuseum:category": "Employee Career History",
    "sfomuseum:classification_id": 195,
    "sfomuseum:collection": "Aviation Archive",
    "sfomuseum:creditline": "Collection of SFO Museum",
    "sfomuseum:date": "11/06/1933",
    "sfomuseum:date_acquired": "2019-11-22",
    "sfomuseum:daterange_end": "1933-11-06",
    "sfomuseum:daterange_start": "1933-11-06",
    "sfomuseum:description": "Handwritten letter from Harold M. Bixby to his wife, Debby Bixby, dated Monday, November 6, [1933]; includes personal matters, proposed schedule for trip home; mentions Judge [James] Ross, Dwight B. [Bridge].",
    "sfomuseum:dimensions": "13 x 8 1/2 inches (33 x 21.6 cm)",
    "sfomuseum:medium": "paper, ink",
    "sfomuseum:object_id": 211124,
    "sfomuseum:placetype": "object",
    "sfomuseum:publication": ": , 11/06/1933.",
    "sfomuseum:subcategory": "Correspondence, Personal",
    "src:geom": "sfomuseum#undetermined",
    "wof:belongsto": [
      102527513,
      1159162825,
      102191575,
      85633793,
      102087579,
      85922583,
      85688637,
      1159160869
    ],
    "wof:country": "XY",
    "wof:created": 1714548769,
    "wof:depicts": [
      1159285931,
      1159286721,
      1159284991
    ],
    "wof:geomhash": "c281b9d9eefc83b5710e64b9d646067d",
    "wof:hierarchy": [
      {
        "building_id": -1,
        "campus_id": 102527513,
        "collection_id": 1159162825,
        "concourse_id": 1159162825,
        "continent_id": 102191575,
        "country_id": 85633793,
        "county_id": 102087579,
        "custom_id": 1913795359,
        "locality_id": 85922583,
        "neighbourhood_id": -1,
        "object_id": 1913795359,
        "region_id": 85688637,
        "wing_id": 1159160869
      }
    ],
    "wof:id": 1913795359,
    "wof:lastmodified": 1787988219,
    "wof:name": "correspondence: Harold M. Bixby to Debby Bixby",
    "wof:parent_id": 1159162825,
    "wof:placetype": "custom",
    "wof:placetype_alt": [
      "object"
    ],
    "wof:repo": "sfomuseum-data-collection",
    "wof:superseded_by": [],
    "wof:supersedes": []
  },
  "bbox": [
    -122.38647222518921,
    37.6161053594541,
    -122.38583385944366,
    37.61661101879963
  ],
  "geometry": {"type":"Polygon","coordinates":[[[-122.38647222518921,37.61631782178288],[-122.386434674263,37.61623283692423],[-122.38637566566466,37.61617759671399],[-122.38630056381224,37.6161308549656],[-122.38616108894348,37.6161053594541],[-122.38602161407469,37.6161308549656],[-122.38591432571411,37.61618609521055],[-122.38585531711577,37.61626683087935],[-122.38583385944366,37.61636881265146],[-122.38587141036987,37.61646654505181],[-122.38594114780425,37.61654303118856],[-122.38605380058287,37.61660252035167],[-122.38618254661559,37.61661101879963],[-122.3863059282303,37.61657277577607],[-122.3864185810089,37.61650903735973],[-122.3864668607712,37.61641130501523],[-122.38647222518921,37.61631782178288]]]}
}
