{
  "id": 1511910373,
  "type": "Feature",
  "properties": {
    "date:cessation_lower": "1927-01-01",
    "date:cessation_upper": "1927-12-31",
    "date:inception_lower": "1927-01-01",
    "date:inception_upper": "1927-12-31",
    "edtf:cessation": "1927",
    "edtf:date": "1927",
    "edtf:inception": "1927",
    "geom:area": 0,
    "geom:bbox": "-122.370943,37.617990,-122.370943,37.617990",
    "geom:latitude": 37.61799,
    "geom:longitude": -122.370943,
    "iso:country": "US",
    "millsfield:airport_id": [
      102527513
    ],
    "millsfield:category_id": 1762679685,
    "millsfield:collection_id": 1511214207,
    "millsfield:images": [
      1527822751
    ],
    "millsfield:images_colors_refs": {
      "crayola": [
        {
          "hex": "#6e5160"
        },
        {
          "hex": "#dbd7d2"
        }
      ],
      "css4": [
        {
          "hex": "#dcdcdc"
        },
        {
          "hex": "#696969"
        }
      ],
      "marekm4": [
        {
          "hex": "#e0e0e0"
        },
        {
          "hex": "#606060"
        }
      ]
    },
    "millsfield:images_texts": [
      "(1- 02)\n+ 3780\n2161 7 545 F\ncarrlage\nbolts\n15:0\n3\" Splice PL\n2 Splice Angles - 5x32-2\n11-98\nPurlins Clips- t g\n1-6x0+3\n15% Holes\n24.2x2×2× × t0b)\nat all bottom choro\nd panels\n3'° Rivets for Main Tresses\n8:11\nSee sheet No. I for column base detail.\n+1220\nSee Sheet No. 2 for approach malk detail\nit Truss\n9-6\n27\"\n27°\n+\nLo.\n1EP rod:\nPlan of Beacon Tower.\nFE TrUss.\n87-101\n15 Golv. pipe hand rail, screwed fittings\nGalv. Flange, 4 - 3\" galv. screws per post.\n*8 gok. spikes; Driven thru planks, between k and clinch\n21717 Doug. Fir Plank, 54.\n\"×6\"x 382\nNe aussets\nFlashing.\nN. End Elevation of Beacon Tower.\nScale 1/4°=1\n+62,500\n+ 82,000\nWING WALL\nSEE SHEET NOT\n115. 5x32×?\n1R- 12\"8\"\nBRACE AT THIS END\n/ Top Concrete Floor (High Pt.)\n-4500\nThe Contractor shall camber the truss by increasing the\nlength\nof the top chord about b of an inch for each 1oft.\nof length\ngusset plates shall be \" unless noted\n5\"d Rivets or Bolts shall be used unless otherwise. noted.\nAll double angled truss members\nshall be stitch riveted ot\ninterrals not\ngreater than\n2-6 for compression members and\n4:6\" for tension members.\nAll structural steel to be hot dip gaivanized!] given one shop cool\no'rea lead and one field ceat of\n\"battleship grey:\nREVISIONS\nIn Red Made Sept. 1C, 19:\nCITY AND COUNTY OF SAN FRANCISCO\nDEPARTMENT OF PUBLIC WORKS\nBUREAU OF ENGINEERING\nM. M. O'SHAUGHNESSY\nCITY ENGINEER\nPEFERENCES\n7. 7891.\nSAN FRANCISCO MUNICIPAL AIRPORT\nCONTRACT NO. 4.\nHANGAR NO. 1.\nSCALE SKELETON F:9.0\nDETAIL / • 2:0\nSHEET S.\nSHEET NO. 4\ni shanghu A 212155-7706"
    ],
    "millsfield:images_texts_ids": [
      1527822751
    ],
    "millsfield:primary_image": 1527822751,
    "millsfield:subcategory_id": 1511213191,
    "mz:hierarchy_label": 1,
    "mz:is_approximate": 1,
    "mz:is_current": 1,
    "sfomuseum:accession_number": "1999.046.041",
    "sfomuseum:airport": "San Francisco International Airport",
    "sfomuseum:airport_id": [
      121
    ],
    "sfomuseum:category": "Design",
    "sfomuseum:classification_id": 25,
    "sfomuseum:collection": "Aviation Archive",
    "sfomuseum:continent": "North America",
    "sfomuseum:country": "United States",
    "sfomuseum:creditline": "Collection of SFO Museum",
    "sfomuseum:date": "1927",
    "sfomuseum:date_acquired": "2009-12-11",
    "sfomuseum:daterange_end": "1927-12-31",
    "sfomuseum:daterange_start": "1927-01-01",
    "sfomuseum:description": "Architectural drawing produced by City and County of San Francisco / Public Utilities Commission / Utilities Engineering Bureau for San Francisco Municipal Airport, titled “Contract No. 4 / Hangar No. 1”; drawing of roof truss for Hangar No. 1; dated July 29, 1927 with file #A-7706; scale: skeleton: 1\"=4', detail: 1\"=2'; page from bound book of 32 architectural drawings.",
    "sfomuseum:dimensions": "19 3/4 x 31 3/4 inches (50.2 x 80.6 cm)",
    "sfomuseum:media_ids": [
      1527822751
    ],
    "sfomuseum:medium": "vellum, paper, ink",
    "sfomuseum:object_id": 52297,
    "sfomuseum:placetype": "object",
    "sfomuseum:primary_media_id": 1527822751,
    "sfomuseum:publication": ": , 1927.",
    "sfomuseum:subcategory": "Architectural Design Drawing",
    "src:geom": "sfomuseum#derived",
    "src:geom_derived_from": [
      102527513
    ],
    "wof:belongsto": [
      102191575,
      85633793,
      102527513,
      85922583,
      102087579,
      85688637,
      554784711,
      102085387,
      1159162825,
      1159160869
    ],
    "wof:breaches": [],
    "wof:country": "US",
    "wof:created": 1579906684,
    "wof:depicts": [
      102527513
    ],
    "wof:geomhash": "bf40c3bc435019ba74db5659992d9e04",
    "wof:hierarchy": [
      {
        "campus_id": 102527513,
        "continent_id": 102191575,
        "country_id": 85633793,
        "county_id": 102087579,
        "custom_id": 1511910373,
        "locality_id": 85922583,
        "object_id": 1511910373,
        "postalcode_id": 554784711,
        "region_id": 85688637
      },
      {
        "campus_id": 102527513,
        "continent_id": 102191575,
        "country_id": 85633793,
        "county_id": 102085387,
        "custom_id": 1511910373,
        "object_id": 1511910373,
        "region_id": 85688637
      },
      {
        "building_id": -1,
        "campus_id": 102527513,
        "collection_id": 1159162825,
        "concourse_id": 1159162825,
        "continent_id": 102191575,
        "country_id": 85633793,
        "county_id": 102087579,
        "custom_id": 1511910373,
        "locality_id": 85922583,
        "neighbourhood_id": -1,
        "object_id": 1511910373,
        "region_id": 85688637,
        "wing_id": 1159160869
      }
    ],
    "wof:id": 1511910373,
    "wof:lastmodified": 1787988177,
    "wof:name": "architectural drawing: San Francisco Municipal Airport, Letters on Roof Hangar No. 1",
    "wof:parent_id": 1159162825,
    "wof:placetype": "custom",
    "wof:placetype_alt": [
      "object"
    ],
    "wof:repo": "sfomuseum-data-collection",
    "wof:superseded_by": [],
    "wof:supersedes": [],
    "wof:tags": []
  },
  "bbox": [
    -122.370943,
    37.61799,
    -122.370943,
    37.61799
  ],
  "geometry": {"type":"MultiPoint","coordinates":[[-122.370943,37.61799]]}
}
