{
  "id": 1511927837,
  "type": "Feature",
  "properties": {
    "date:cessation_lower": "1986-01-01",
    "date:cessation_upper": "1986-12-31",
    "date:inception_lower": "1986-01-01",
    "date:inception_upper": "1986-12-31",
    "edtf:cessation": "1986",
    "edtf:date": "1986",
    "edtf:inception": "1986",
    "geom:area": 0,
    "geom:bbox": "-122.386155,37.616357,-122.386155,37.616357",
    "geom:latitude": 37.616357,
    "geom:longitude": -122.386155,
    "iso:country": "XX",
    "millsfield:airline_id": [
      1159285415
    ],
    "millsfield:category_id": 1762679695,
    "millsfield:collection_id": 1511214203,
    "millsfield:company_id": [
      1159288779
    ],
    "millsfield:images": [
      1527856311
    ],
    "millsfield:images_colors_refs": {
      "crayola": [
        {
          "hex": "#979aaa"
        },
        {
          "hex": "#714b23"
        }
      ],
      "css4": [
        {
          "hex": "#556b2f"
        },
        {
          "hex": "#a9a9a9"
        }
      ],
      "marekm4": [
        {
          "hex": "#a8a7a6"
        },
        {
          "hex": "#4f3327"
        }
      ]
    },
    "millsfield:images_texts": [
      "aSSoCIaTon OF FLIGHT aTTenDANTS AFLCIO\nApril 26, 1986\nEdith Lauterbach\nsan Francisco, CA\n94131\nDear Edie:\nIt's difficult to know where\nDer to coank vou cor vonn\ntremendous contribution to the flight attendant occupation\nduring the past 42 years.\nit was die to\nyour determination and hard work that the roots\nof our\norganization began\ntake\nwonderful\nability to nurture al\nhold.\nJust as\nyou\nhave the\nFlower from the time it is a\nuntil lt stands tall and proud.\nso have you nurtured\nthe\nfirst flight attendant\ngrow\ninto\nthe present organi-\nzation we call the Association of Elicht Attendantal\nYour list of accomplishments is without equal.\nIn essence,\nwere responsible for beginning\nthe\nYOU\ntransition of our occupation\ncom a cemporaryl\nlow-paying job,\nto a respectable, well-paying\ncareer of\nlifetime.\nWe have recently developed a motto for AFA as we embark into a\nnew era:\nFLIGHT\nATTENDANT\nDIGNITY THROUGH\nFLIGHT ATTENDANT\nI think you will appreciate the full impact of its\nmeaning\nEdie, we will all miss you!\nWith deep appreciation and much affection,\nLinda\nLinda A. Puchala\nPresident"
    ],
    "millsfield:images_texts_ids": [
      1527856311
    ],
    "millsfield:primary_image": 1527856311,
    "millsfield:subcategory_id": 1511213359,
    "mz:hierarchy_label": 1,
    "mz:is_current": 1,
    "sfomuseum:accession_number": "2006.028.128",
    "sfomuseum:airline": "United Air Lines",
    "sfomuseum:airline_id": [
      884
    ],
    "sfomuseum:category": "Award",
    "sfomuseum:classification_id": 125,
    "sfomuseum:collection": "Aviation Museum",
    "sfomuseum:creditline": "Gift of Edith Lauterbach",
    "sfomuseum:date": "1986",
    "sfomuseum:date_acquired": "2006-04-18",
    "sfomuseum:daterange_end": "1986-12-31",
    "sfomuseum:daterange_start": "1986-01-01",
    "sfomuseum:description": "Letter of recognition mounted on plaque, presented to United Airlines flight attendant Edith Lauterbach by the Association of Flight Attendants AFL-CIO, dated April 26, 1986; letter set beneath clear plastic, mounted on wood.",
    "sfomuseum:dimensions": "13 1/4 x 10 3/4 x 1 inches (33.7 x 27.3 x 2.5 cm)",
    "sfomuseum:media_ids": [
      1527856311
    ],
    "sfomuseum:medium": "paper, ink, plastic, wood, metal",
    "sfomuseum:object_id": 80773,
    "sfomuseum:placetype": "object",
    "sfomuseum:primary_media_id": 1527856311,
    "sfomuseum:publication": ": , 1986.",
    "sfomuseum:subcategory": "Plaque",
    "src:geom": "sfomuseum#undetermined",
    "wof:belongsto": [
      1511214253,
      102527513,
      102191575,
      85633793,
      1511213359,
      85922583,
      102087579,
      1511214277,
      1511214207,
      85688637
    ],
    "wof:breaches": [],
    "wof:country": "XX",
    "wof:created": 1579906668,
    "wof:depicts": [
      1159285415,
      1159288779
    ],
    "wof:geomhash": "30c8a918561c84bb2daa2b97fc7c5353",
    "wof:hierarchy": [
      {
        "arcade_id": 1511213359,
        "building_id": 1511214277,
        "campus_id": 102527513,
        "concourse_id": 1511214253,
        "continent_id": 102191575,
        "country_id": 85633793,
        "county_id": 102087579,
        "custom_id": 1511927837,
        "locality_id": 85922583,
        "neighbourhood_id": -1,
        "object_id": 1511927837,
        "region_id": 85688637,
        "venue_id": 1511927837,
        "wing_id": 1511214207
      }
    ],
    "wof:id": 1511927837,
    "wof:lastmodified": 1787988179,
    "wof:name": "letter of recognition: Association of Flight Attendants, Edith Lauterbach",
    "wof:parent_id": 1159162825,
    "wof:placetype": "custom",
    "wof:placetype_alt": [
      "object"
    ],
    "wof:repo": "sfomuseum-data-collection",
    "wof:superseded_by": [],
    "wof:supersedes": [],
    "wof:tags": []
  },
  "bbox": [
    -122.386155,
    37.616357,
    -122.386155,
    37.616357
  ],
  "geometry": {"type":"Point","coordinates":[-122.386155,37.616357]}
}
