{
  "id": 1913796613,
  "type": "Feature",
  "properties": {
    "date:cessation_lower": "1933-06-13",
    "date:cessation_upper": "1933-06-13",
    "date:inception_lower": "1933-06-13",
    "date:inception_upper": "1933-06-13",
    "edtf:cessation": "1933-06-13",
    "edtf:inception": "1933-06-13",
    "geom:area": 2.475047457570636e-7,
    "geom:bbox": "-122.386472,37.616105,-122.385834,37.616611",
    "geom:latitude": 37.61635747477365,
    "geom:longitude": -122.38615540108617,
    "millsfield:airline_id": [
      1159284991,
      1159285931
    ],
    "millsfield:category_id": 1511214251,
    "millsfield:collection_id": 1511214207,
    "millsfield:company_id": [
      1159286721
    ],
    "millsfield:images": [
      1913800539,
      1913800541,
      1913800543,
      1913800547,
      1913800549,
      1913800551,
      1913800553,
      1913800555,
      1913800557,
      1913800559
    ],
    "millsfield:images_colors_refs": {
      "crayola": [
        {
          "hex": "#efcdb8"
        },
        {
          "hex": "#000000"
        },
        {
          "hex": "#414a4c"
        },
        {
          "hex": "#edd19c"
        }
      ],
      "css4": [
        {
          "hex": "#eee8aa"
        },
        {
          "hex": "#000000"
        },
        {
          "hex": "#f5deb3"
        },
        {
          "hex": "#2f4f4f"
        }
      ],
      "marekm4": [
        {
          "hex": "#242526"
        },
        {
          "hex": "#2b2e2f"
        },
        {
          "hex": "#2b2d2c"
        },
        {
          "hex": "#e5d4ab"
        },
        {
          "hex": "#e1d1a9"
        },
        {
          "hex": "#e1d1a8"
        },
        {
          "hex": "#282b2d"
        },
        {
          "hex": "#25211a"
        },
        {
          "hex": "#292724"
        },
        {
          "hex": "#323026"
        },
        {
          "hex": "#e5d5ac"
        },
        {
          "hex": "#e4d4ab"
        },
        {
          "hex": "#29251c"
        },
        {
          "hex": "#e1d0a6"
        },
        {
          "hex": "#231f18"
        },
        {
          "hex": "#e2d2a7"
        },
        {
          "hex": "#e5d6ae"
        },
        {
          "hex": "#e3d4ac"
        },
        {
          "hex": "#282d2f"
        }
      ]
    },
    "millsfield:images_texts": [
      "33\nATHAY HOTELS!\nMETROPOLE HOTEL\nSHANGHAI, CHINA.\nTuenday 6/13\nDearest Debs\ntune 13th that\nbun\nbungs back happy\nmemones and a lutle\nsadness too. max\nPolin and I hair just\ncome back prom\nshowing of moves\nby mark mood, who\nis one of the ecadiy\nAuto dealers out hin\nNe went to Peiping\nwith the Dooltles.",
      "and look some fine\npicturis from\nAir and\nat Priping\n( Pekin) They warz\nvery good gectur\nbut then he had\nto get ont a lot\nmors that he had\ntaken on othe trip.\nwhich wrent at\nall intricating to us.\nIn othe words the\nold old store of\namatier moire\nopriators - ta ds -\nlog, lc. The moody\nhair a love, place",
      "THAYHOMELS\nMETROPOLE HOTEL\nSHANGHAI, CHINA\nInd\nconed hair a\nbrantfue garden.\nThens uns\nlot of\nflowns but color\nand arrangrmint\nall wrong rurn to\nmy admitide, un-\ntrained Eye.\nOh Debs you\nmust come our heu\nin the sace if 9\ncant get home ta\nbung you back of\ncours\nI am otise",
      "hopefue of greting\naway\nbut our\nnegotiation\nCarE\ndragzing out much\nlonger than I had\nany idea they\nworld. of cours\nfor the\nJust 30\ndid nothin\nat all but wait -\nen fact from file.\n14 when\n2 arried\nuntie Aprie - but\n• Cant say that 9\nhan accomplished\nmuch in two months",
      "METROPOLE HOTEL\nSHANGHAI, CHINA.\nand a half sace\nthen other than\ngraduace, urar them\n(the Chinsor down.\nThis is no contr\nfor high pressure\nsalesmen - thus an\nlots hers and mam\nhair come and gone\nbut the ones who\nhair made good\nOut here are th on\nwho hair gamird\nthe fuendship and\nConfidence of the",
      "Chinen with whom\nthen\nthe, had to deal.\nI have tour, reason\nto tiler that me\nwork has\nbeen wiree\ndone. I hair brin\nfirm with out trig\nstuborn:\nfuen de\nwith out bring too\nCordial and mu\ntrends ale\ntrim to\nthink that I harr\nmade loto of\nPeogen.ca\naloo\noccamonal,\nthat the Chinin\nhar confidener in me",
      "ATHAY HOTELS\nMETROPOLE HOTEL\nSHANGHAI, CHINA.\nand kraue that im\ntruth fue wick them.\nDan american ha\nmade a most\nattractor offer and\nI am sticking b,\nthe termo againet\nsome ridiculon\ncountu offers from\nEurasia (Europi\nGaia)\navation Co which is\na Sino -\nperman\nouned 2/3-\nby the\nminise, of Communetin.\nand 1/3 le, Luft Hansa",
      "The germans har\nmade\nan offu to\nput up 90% of the\nmoney and take\n1/3 of the stock. i\nam asking the\nminestry of Communcatin\nto guarant, payment\nof any new planes\nfurnished\nand to\nдич us\n600.000 mex\npur year for 3 yrars.\nas a subords. Natur.\nale, my fib in\nnot cart and it.\nhard for the Chrice",
      "METROPOLE HOTEL\nSHANGHAI, CHINA.\nto ser\nany justice\nin our proportion\ncourse\n- the fact\nis that China cal\npay a subrid, of\n25. ¢ pur mile god\nwhere England gay\n$2.50 France 2.38\ngermany 2.12 and\nthe UlS. Auct and\ni drieet sumo from\nb0¢ мр.\nPan Amancin\nre cruing\n$ 2°\nwee Dorts\nI didnt\nmean to hair this",
      "lettu all shop. I\nwanted you to know\nwhy 9 am so slow\nand urgs you to\npear on\njorning me\nin the Fall if it\nturns out that 9\nCan not come home\nfor you.\nLoto and lots of\nlour to Jon dear rat\n7 min\nyou so\nand the\ncid\nyour own-\nВік\n209121.0655"
    ],
    "millsfield:images_texts_ids": [
      1913800539,
      1913800541,
      1913800543,
      1913800547,
      1913800549,
      1913800551,
      1913800553,
      1913800555,
      1913800557,
      1913800559
    ],
    "millsfield:primary_image": 1913800539,
    "millsfield:subcategory_id": 1511213489,
    "mz:is_approximate": 1,
    "mz:is_current": 1,
    "sfomuseum:accession_number": "2019.121.0655 a e",
    "sfomuseum:airline": "Pan American Airways",
    "sfomuseum:airline_id": [
      685,
      1131
    ],
    "sfomuseum:category": "Employee Career History",
    "sfomuseum:classification_id": 195,
    "sfomuseum:collection": "Aviation Archive",
    "sfomuseum:creditline": "Collection of SFO Museum",
    "sfomuseum:date": "06/13/1933",
    "sfomuseum:date_acquired": "2019-11-22",
    "sfomuseum:daterange_end": "1933-06-13",
    "sfomuseum:daterange_start": "1933-06-13",
    "sfomuseum:description": "Handwritten letter from Harold M. Bixby to his wife, Debby Bixby, dated Tuesday, June 13, [1933] on stationery from Metropole Hotel in Shanghai; includes description of contract negotiations with the Chinese government, other offers from Eurasia Aviation (backed by Lufthansa); mentions [James “Jimmy” and Josephine] Doolittle.",
    "sfomuseum:dimensions": "7 1/2 x 5 inches (19.1 x 12.7 cm)",
    "sfomuseum:medium": "paper, ink",
    "sfomuseum:object_id": 210993,
    "sfomuseum:placetype": "object",
    "sfomuseum:publication": ": , 06/13/1933.",
    "sfomuseum:subcategory": "Correspondence, Personal",
    "src:geom": "sfomuseum#undetermined",
    "wof:belongsto": [
      102527513,
      1159162825,
      102191575,
      85633793,
      102087579,
      85922583,
      85688637,
      1159160869
    ],
    "wof:country": "XY",
    "wof:created": 1714549144,
    "wof:depicts": [
      1159285931,
      1159286721,
      1159284991
    ],
    "wof:geomhash": "c281b9d9eefc83b5710e64b9d646067d",
    "wof:hierarchy": [
      {
        "building_id": -1,
        "campus_id": 102527513,
        "collection_id": 1159162825,
        "concourse_id": 1159162825,
        "continent_id": 102191575,
        "country_id": 85633793,
        "county_id": 102087579,
        "custom_id": 1913796613,
        "locality_id": 85922583,
        "neighbourhood_id": -1,
        "object_id": 1913796613,
        "region_id": 85688637,
        "wing_id": 1159160869
      }
    ],
    "wof:id": 1913796613,
    "wof:lastmodified": 1787988220,
    "wof:name": "correspondence: Harold M. Bixby to Debby Bixby",
    "wof:parent_id": 1159162825,
    "wof:placetype": "custom",
    "wof:placetype_alt": [
      "object"
    ],
    "wof:repo": "sfomuseum-data-collection",
    "wof:superseded_by": [],
    "wof:supersedes": []
  },
  "bbox": [
    -122.38647222518921,
    37.6161053594541,
    -122.38583385944366,
    37.61661101879963
  ],
  "geometry": {"type":"Polygon","coordinates":[[[-122.38647222518921,37.61631782178288],[-122.386434674263,37.61623283692423],[-122.38637566566466,37.61617759671399],[-122.38630056381224,37.6161308549656],[-122.38616108894348,37.6161053594541],[-122.38602161407469,37.6161308549656],[-122.38591432571411,37.61618609521055],[-122.38585531711577,37.61626683087935],[-122.38583385944366,37.61636881265146],[-122.38587141036987,37.61646654505181],[-122.38594114780425,37.61654303118856],[-122.38605380058287,37.61660252035167],[-122.38618254661559,37.61661101879963],[-122.3863059282303,37.61657277577607],[-122.3864185810089,37.61650903735973],[-122.3864668607712,37.61641130501523],[-122.38647222518921,37.61631782178288]]]}
}
