{
  "id": 1511908161,
  "type": "Feature",
  "properties": {
    "date:cessation_lower": "1978-01-01",
    "date:cessation_upper": "1978-12-31",
    "date:inception_lower": "1978-01-01",
    "date:inception_upper": "1978-12-31",
    "edtf:cessation": "1978",
    "edtf:date": "1976~",
    "edtf:inception": "1978",
    "geom:area": 0,
    "geom:bbox": "-122.386155,37.616357,-122.386155,37.616357",
    "geom:latitude": 37.616357,
    "geom:longitude": -122.386155,
    "iso:country": "US",
    "millsfield:airline_id": [
      1159284989
    ],
    "millsfield:category_id": 1511214239,
    "millsfield:collection_id": 1511214207,
    "millsfield:company_id": [
      1159286839
    ],
    "millsfield:images": [
      1746680851,
      1897762123
    ],
    "millsfield:images_colors_refs": {
      "crayola": [
        {
          "hex": "#757575"
        },
        {
          "hex": "#4a646c"
        },
        {
          "hex": "#95918c"
        },
        {
          "hex": "#2e5894"
        },
        {
          "hex": "#1a4876"
        },
        {
          "hex": "#b0b7c6"
        }
      ],
      "css4": [
        {
          "hex": "#191970"
        },
        {
          "hex": "#778899"
        },
        {
          "hex": "#2f4f4f"
        },
        {
          "hex": "#808080"
        },
        {
          "hex": "#008080"
        },
        {
          "hex": "#483d8b"
        },
        {
          "hex": "#a9a9a9"
        }
      ],
      "marekm4": [
        {
          "hex": "#365267"
        },
        {
          "hex": "#a7a794"
        },
        {
          "hex": "#386286"
        },
        {
          "hex": "#aeb3a8"
        },
        {
          "hex": "#8a887b"
        },
        {
          "hex": "#0e4178"
        },
        {
          "hex": "#75898f"
        },
        {
          "hex": "#195690"
        }
      ]
    },
    "millsfield:images_texts": [
      "PanAm\nFlight\nOperations\nManual\nVolume 1",
      "Pan Am Flight Operations Manual\nNov 17, 1978\nWhen a revision is entered in this manual, indicate the date it\nwas entered, alongside the revision number.\nREVISION\nDATE ENTERED\nREVISION\n118\n119\n120\n121\n122\n123\n124\n125\n126\n127\n128\n129\n130\n131\n132\n133\n134\n135\n136\n137\n138\n1-28-79\n1-15-79\n8-15-79\n1-20-80\n2-23-80\n5-1-80\n8-1-80\n139\n140\n141\n142\n143\n144\n145\n146\n147\n148\n149\n150\n151\n152\n153\n154\n155\n156\n157\n158\n159\nIntroduction 1\nRecord of Revisions\nMissing revisions on pages should be ordered from the Manual\nIssuing Section, Building 214, JFK, NYCDLPA, (212) 632-5577.\nDATE ENTERED\nREVISION\nDATE ENTERED\n9-5-80\n9-5-80\n9-5-80\n1-18-81\n(1\n2-15-81\n3-1-81\n6-28-81\n160\n8-25-81\n161\n162\n163\n164\n165\n166\n167\n168\n169\n170\n171\n172\n173\n174\n175\n176\n177\n178\n179\n180\n8-29-81\n81\n81\n81\n1-15-82\n8-15-82\n8-26-82\n8-25-81\n(FOM) Intro 1\n1997.57,19.01\nIndex\nDefinitions/\nAbbreviations"
    ],
    "millsfield:images_texts_ids": [
      1746680851,
      1897762123
    ],
    "millsfield:primary_image": 1746680851,
    "millsfield:subcategory_id": 1511213691,
    "mz:hierarchy_label": 1,
    "mz:is_current": 1,
    "sfomuseum:accession_number": "1997.57.19.01",
    "sfomuseum:airline": "Pan American World Airways",
    "sfomuseum:airline_id": [
      684
    ],
    "sfomuseum:category": "Company Record / Document",
    "sfomuseum:classification_id": 467,
    "sfomuseum:collection": "Aviation Archive",
    "sfomuseum:continent": "North America",
    "sfomuseum:country": "United States",
    "sfomuseum:creditline": "Gift of Lamar Lay",
    "sfomuseum:date": "1978",
    "sfomuseum:daterange_end": "1978-12-31",
    "sfomuseum:daterange_start": "1978-01-01",
    "sfomuseum:description": "Flight operations manual produced by Pan American World Airways; volume 1; blue binder with removable page; chapters: Index, Definitions / Abbreviations, Base Station Administration, Flight Operations Administration, Pan Am Administration, Flight Conduct, Nav / Comms / Met, ATC, All Weather, Dispatch, Loading, Cargo Charter Nonrevenue, Emergencies.",
    "sfomuseum:dimensions": "11 1/4 x 10 x 1 3/4 inches (28.6 x 25.4 x 4.4 cm)",
    "sfomuseum:maker": "Pan American World Airways, Inc.",
    "sfomuseum:medium": "plastic, metal, paper, ink",
    "sfomuseum:object_id": 46511,
    "sfomuseum:placetype": "object",
    "sfomuseum:publication": ": , 1978.",
    "sfomuseum:subcategory": "Manual, Flight",
    "src:geom": "sfomuseum#undetermined",
    "wof:belongsto": [
      102191575,
      85633793,
      136253057,
      1511214239,
      102527513,
      1511213691,
      85922583,
      102087579,
      1511214277,
      1511214207,
      85688637
    ],
    "wof:breaches": [],
    "wof:country": "US",
    "wof:created": 1618962252,
    "wof:depicts": [
      1159286839,
      1159284989
    ],
    "wof:geomhash": "30c8a918561c84bb2daa2b97fc7c5353",
    "wof:hierarchy": [
      {
        "continent_id": 102191575,
        "country_id": 85633793,
        "custom_id": 1511908161,
        "empire_id": 136253057,
        "object_id": 1511908161,
        "venue_id": 1511908161
      },
      {
        "arcade_id": 1511213691,
        "building_id": 1511214277,
        "campus_id": 102527513,
        "concourse_id": 1511214239,
        "continent_id": 102191575,
        "country_id": 85633793,
        "county_id": 102087579,
        "custom_id": 1511908161,
        "locality_id": 85922583,
        "neighbourhood_id": -1,
        "object_id": 1511908161,
        "region_id": 85688637,
        "venue_id": 1511908161,
        "wing_id": 1511214207
      }
    ],
    "wof:id": 1511908161,
    "wof:lastmodified": 1787988175,
    "wof:name": "flight operations manual: Pan American World Airways",
    "wof:parent_id": 1159162825,
    "wof:placetype": "custom",
    "wof:placetype_alt": [
      "object"
    ],
    "wof:repo": "sfomuseum-data-collection",
    "wof:superseded_by": [],
    "wof:supersedes": [],
    "wof:tags": []
  },
  "bbox": [
    -122.386155,
    37.616357,
    -122.386155,
    37.616357
  ],
  "geometry": {"type":"Point","coordinates":[-122.386155,37.616357]}
}
