{
  "id": 2015065425,
  "type": "Feature",
  "properties": {
    "date:cessation_lower": "1990-01-01",
    "date:cessation_upper": "1999-12-31",
    "date:inception_lower": "1990-01-01",
    "date:inception_upper": "1999-12-31",
    "edtf:cessation": "199X",
    "edtf:inception": "199X",
    "geom:area": 2.475047457570636e-7,
    "geom:bbox": "-122.386472,37.616105,-122.385834,37.616611",
    "geom:latitude": 37.61635747477365,
    "geom:longitude": -122.38615540108617,
    "millsfield:airline_id": [
      1159285641
    ],
    "millsfield:category_id": 1762671311,
    "millsfield:collection_id": 1511214207,
    "millsfield:company_id": [
      1159286761
    ],
    "millsfield:images": [
      2015065527
    ],
    "millsfield:images_texts": [
      "Salida de Emergencia\nExit\nSeguridad a bordo\nSafety on board\nSí usted está sentado en una fila de salida\nindicacioges de la Tripulacion a\nindicaciones de\ninformación de esta tarjeta, y/o no tiene\ncapacidad visual o auditiva suficiente, por\nfavor póngase en contacto con la Tripulación\nde Cabina para ser reubicado.\nCuando usted está sentado en una fila de\nsalida de emergencia, deberá poder abrirla\nen caso de emergencia, y asistir a los\ndemás pasajeros en abandonar el avión si\nun tripulante no está disponible para\nhacerlo. Por ello, la Autoridad Aeronáutica\nrequiere que los pasajeros sentados en\nfilas de salida de emergencia deban cumplir\ncon lo siguiente:\n- El pasajero debe tener mínimo 15 años\nde edad.\n- El pasajero debe contar con suficiente\nmovilidad, fuerza y destreza para poder\nremover obstrucciones, manipular las\nsalidas de emergencia y salir de forma\nexpedita asistiendo a otros pasajeros en\nbajar por el tobogán.\n- El pasajero no debe tener una condición\naparente que pueda impedirle ejercer estas\nfunciones,\ncausarle\ndaño\no una\nresponsabilidad\nbordo\ncon\nun\nacompanante como por ejemplo, con un\nnino pequeño.\n- El pasajero debe estar dispuesto a\nejecutar estas funciones.\nIf you are seated in a designated emergency\nexit row and do not understand the cabin\ncrew instructions or the information on this\ncard, and/or you have trouble seeing or\nhearing, please contact a cabin crew\nrepresentative to be moved to another seat.\nAll passengers seated in a designated\nemergency exit row should be able to open\nthe emergency exit door in case of an\nemergency and assist other passengers in\nevacuating the airplane in the event that\na cabin crew representative is not\navailable to do it. As a result, it is required\nby Aviation Authority that all passengers\nseated in a designated emergency exit row\nmust meet the following requirements:\n- The passenger must be 15 years or older\n- The passenger should be able to remove\nany potential obstructions, open and handle\nthe emergency exit door and assist other\npassengers in evacuating the airplane by\nusing the emergency\nevacuation slide.\n- The passenger should\nnot have any\napparent limitations that would prevent\nhim/her from performing the\nabove\nmentioned responsibilities or would cause\ninjury to him/her (i.e; caring for a small child\nor disabled companion seated in another\nrow).\n- The passenger should be willing to carry\nout these tasks.\nLAN"
    ],
    "millsfield:images_texts_ids": [
      2015065527
    ],
    "millsfield:primary_image": 2015065527,
    "millsfield:subcategory_id": 1511213703,
    "mz:is_approximate": 1,
    "mz:is_current": 1,
    "sfomuseum:accession_number": "2020.052.207",
    "sfomuseum:airline": "LAN-Chile (Linea Aerea Nacional)",
    "sfomuseum:airline_id": [
      993
    ],
    "sfomuseum:category": "Passenger Amenity, Archive",
    "sfomuseum:classification_id": 581,
    "sfomuseum:collection": "Aviation Archive",
    "sfomuseum:creditline": "Gift of The David Kliman Collection",
    "sfomuseum:date": "1990s",
    "sfomuseum:date_acquired": "2020-10-26",
    "sfomuseum:daterange_end": "1999-12-31",
    "sfomuseum:daterange_start": "1990-01-01",
    "sfomuseum:description": "Safety information card issued by LAN-Chile; double-sided card with illustrations demonstrating inflight safety and emergency procedures; no ID number; no revision date.",
    "sfomuseum:dimensions": "11 x 6 1/2 inches (27.9 x 16.5 cm)",
    "sfomuseum:medium": "paper, ink",
    "sfomuseum:object_id": 218019,
    "sfomuseum:placetype": "object",
    "sfomuseum:publication": ": , 1990s.",
    "sfomuseum:subcategory": "Safety Information Card",
    "src:geom": "sfomuseum#undetermined",
    "wof:belongsto": [
      102527513,
      1159162825,
      102191575,
      85633793,
      102087579,
      85922583,
      85688637,
      1159160869
    ],
    "wof:country": "XY",
    "wof:created": 1773991982,
    "wof:depicts": [
      1159285641,
      1159286761
    ],
    "wof:geomhash": "c281b9d9eefc83b5710e64b9d646067d",
    "wof:hierarchy": [
      {
        "building_id": -1,
        "campus_id": 102527513,
        "collection_id": 1159162825,
        "concourse_id": 1159162825,
        "continent_id": 102191575,
        "country_id": 85633793,
        "county_id": 102087579,
        "custom_id": 2015065425,
        "locality_id": 85922583,
        "neighbourhood_id": -1,
        "object_id": 2015065425,
        "region_id": 85688637,
        "wing_id": 1159160869
      }
    ],
    "wof:id": 2015065425,
    "wof:lastmodified": 1774083318,
    "wof:name": "safety information card: LAN",
    "wof:parent_id": 1159162825,
    "wof:placetype": "custom",
    "wof:placetype_alt": [
      "object"
    ],
    "wof:repo": "sfomuseum-data-collection",
    "wof:superseded_by": [],
    "wof:supersedes": []
  },
  "bbox": [
    -122.38647222518921,
    37.6161053594541,
    -122.38583385944366,
    37.61661101879963
  ],
  "geometry": {"type":"Polygon","coordinates":[[[-122.38647222518921,37.61631782178288],[-122.386434674263,37.61623283692423],[-122.38637566566466,37.61617759671399],[-122.38630056381224,37.6161308549656],[-122.38616108894348,37.6161053594541],[-122.38602161407469,37.6161308549656],[-122.38591432571411,37.61618609521055],[-122.38585531711577,37.61626683087935],[-122.38583385944366,37.61636881265146],[-122.38587141036987,37.61646654505181],[-122.38594114780425,37.61654303118856],[-122.38605380058287,37.61660252035167],[-122.38618254661559,37.61661101879963],[-122.3863059282303,37.61657277577607],[-122.3864185810089,37.61650903735973],[-122.3864668607712,37.61641130501523],[-122.38647222518921,37.61631782178288]]]}
}
