{
  "id": 1913795681,
  "type": "Feature",
  "properties": {
    "date:cessation_lower": "1954-01-14",
    "date:cessation_upper": "1954-01-14",
    "date:inception_lower": "1954-01-14",
    "date:inception_upper": "1954-01-14",
    "edtf:cessation": "1954-01-14",
    "edtf:inception": "1954-01-14",
    "geom:area": 2.475047457570636e-7,
    "geom:bbox": "-122.386472,37.616105,-122.385834,37.616611",
    "geom:latitude": 37.61635747477365,
    "geom:longitude": -122.38615540108617,
    "millsfield:airline_id": [
      1159284989
    ],
    "millsfield:category_id": 1511214251,
    "millsfield:collection_id": 1511214207,
    "millsfield:company_id": [
      1159286839
    ],
    "millsfield:images": [
      1913796787,
      1913796789,
      1913796791
    ],
    "millsfield:images_colors_refs": {
      "crayola": [
        {
          "hex": "#4a646c"
        },
        {
          "hex": "#fddde6"
        },
        {
          "hex": "#fcd975"
        },
        {
          "hex": "#eceabe"
        }
      ],
      "css4": [
        {
          "hex": "#faf0e6"
        },
        {
          "hex": "#ffe4c4"
        },
        {
          "hex": "#ffebcd"
        },
        {
          "hex": "#696969"
        },
        {
          "hex": "#f0e68c"
        },
        {
          "hex": "#2f4f4f"
        }
      ],
      "marekm4": [
        {
          "hex": "#f5f2e4"
        },
        {
          "hex": "#eee074"
        },
        {
          "hex": "#ede077"
        },
        {
          "hex": "#f6efbd"
        },
        {
          "hex": "#4c6155"
        },
        {
          "hex": "#f5efc6"
        },
        {
          "hex": "#526654"
        },
        {
          "hex": "#4f6456"
        },
        {
          "hex": "#efe278"
        }
      ]
    },
    "millsfield:images_texts": [
      "office\nThursday fan 144\nKraint Labs-\nDad nano.\nI har to go to gramany.\nA cable came through this moning tum\nto the uppet that I coned tr\nvery helpful in fact the deal might stard\nTal on whithe or net o came - and\nack. Talk it on with T.T. Ha i\nvery\n- anxions to hair me go\neno enar actsust.\nLeaky asked it O cones go this afteron.\nI cones nit\nbecause ta to mac\nto do lent De lar tomorors afternoon\nQt 4 Pm.\njong to London on the\nresidint Spicine\nwent\nHamburg on B.E.A. Where\nlo arruz\nanita job which iv\ntales nee\nrest lue han to stay on thus for\na wick at least and magh longer. Im\nvirg\nants to cate ct a dial\nspect, dract gapan and Bangkok har\nplopped.\nI had spaced down on Nad 1o\nTampa on 21d but ace cancel. 2 had\nspace back.\n1 hair for two very important Bond meting\nani Fee 2 Paa. 80\nD'ee stay hus wher\nI git back fin\nand come don to Captiva on\nthe turning of tele 3r (That work fur\nto clean up arring It.hyas on the 4I.\nIm dreadfully tory.\nto disapposit",
      "Caption than anythy con in the whate\nwires and my heart acho lent this died\nes so Clearly\n-duty that 9 must go.\nIm toug\n- abont the washing machine\nfore bad hks the orkh one apreial as\nJuri har to so through that same\nroutine I sippin of taking it back.\nJou lie of wadada, reached\nme this after when o was feling\nawful sog for myse It cheat\nlittes do. It must\nkar Lin in content has Ran ain\nLue arra Early and 9 Chat understa..\nuh Wah left an a bag him. I thought\nGlad yon had\nmr. Farijoy put in the\ncounters\nspecially in\nwarks aboar which now turns cat to\nis a month. Im so glad you like th\nCorte\nDu write salpa\nabont the change\nin my. Flam.\nSlem cama in today\nI told him of\nom plums and how cd eke to far he\nand Anne us the hous\nme know tomorrow. It was vary\nappreciatin\nSaid than d muck rather h thirs\n- While\nbut 9 toco him that d\nback mach zd after the Paa catas\nmeeting in miami of the 15 and that you'd\nbe back from konsta 2 thought\narom\nphoned 1ite and Cat. They anc\n2 am too.\nKit and Frank we\ngo anyway.\nDabs when mait yon go to Ft. myans\n2019.21181a",
      "I sue to take the enclord galow booke\nand get a health certfieate\nliks that i\nthe back of the book from for. Stipe: Thats\nnand for the Kuactors trip i the\nway of shats.\nAlso\nget and tand to\nmorris. 10 pas pot photos. Sind the\nnegator to min Jagan\nand shall kep\nit on fee in can\nmozz.\ncore har\nso much to do\ntonight that D'or made ant a lit.\nLu out the 2 baxes on the stors room\nthe toasta from Bie + Stake. Mar\nnat sent jut cokes it is. Also har\na lot af contracto\nto look omn. live\npan up appointment\nwth he lack it\nand sir hum on my\nreluma.\nDutt o wich\nTackid to Ands patet attorney today\nfor Automatic. Ir\n(the Pat. At) likers the idea - a cigarets\ntrap of conn. Wont say anything about\nit but it can be made l, a car company\nto see at hame stors for a dime. might\nдо.\nWhen Iget back am fong to tack\ngonnal Clay abnt it. it is Charman\nCostment al Can. Co now and no donti\nwin put me in touch with someone who\nvic to gui\nno, or mugh \"\nMust runs 8 Pa\ndarling angel - dont know when yaes\nLiar fom me agam - probat London or\nyou-"
    ],
    "millsfield:images_texts_ids": [
      1913796787,
      1913796789,
      1913796791
    ],
    "millsfield:primary_image": 1913796787,
    "millsfield:subcategory_id": 1511213489,
    "mz:is_approximate": 1,
    "mz:is_current": 1,
    "sfomuseum:accession_number": "2019.121.1181 a b",
    "sfomuseum:airline": "Pan American World Airways",
    "sfomuseum:airline_id": [
      684
    ],
    "sfomuseum:category": "Employee Career History",
    "sfomuseum:classification_id": 195,
    "sfomuseum:collection": "Aviation Archive",
    "sfomuseum:creditline": "Collection of SFO Museum",
    "sfomuseum:date": "01/14/1954",
    "sfomuseum:date_acquired": "2019-11-22",
    "sfomuseum:daterange_end": "1954-01-14",
    "sfomuseum:daterange_start": "1954-01-14",
    "sfomuseum:description": "Handwritten letter from Harold M. Bixby to his wife, Debby Bixby, dated January 14, [1954]; plans for business travel to Germany and various meetings; an idea for an invention; mentions J.T.T. [Juan Trippe], “Slim” [Charles A. Lindbergh].",
    "sfomuseum:dimensions": "12 1/2 x 8 inches (31.8 x 20.3 cm)",
    "sfomuseum:medium": "paper, ink",
    "sfomuseum:object_id": 211544,
    "sfomuseum:placetype": "object",
    "sfomuseum:publication": ": , 01/14/1954.",
    "sfomuseum:subcategory": "Correspondence, Personal",
    "src:geom": "sfomuseum#undetermined",
    "wof:belongsto": [
      102527513,
      1159162825,
      102191575,
      85633793,
      102087579,
      85922583,
      85688637,
      1159160869
    ],
    "wof:country": "XY",
    "wof:created": 1714548863,
    "wof:depicts": [
      1159286839,
      1159284989
    ],
    "wof:geomhash": "c281b9d9eefc83b5710e64b9d646067d",
    "wof:hierarchy": [
      {
        "building_id": -1,
        "campus_id": 102527513,
        "collection_id": 1159162825,
        "concourse_id": 1159162825,
        "continent_id": 102191575,
        "country_id": 85633793,
        "county_id": 102087579,
        "custom_id": 1913795681,
        "locality_id": 85922583,
        "neighbourhood_id": -1,
        "object_id": 1913795681,
        "region_id": 85688637,
        "wing_id": 1159160869
      }
    ],
    "wof:id": 1913795681,
    "wof:lastmodified": 1787988219,
    "wof:name": "correspondence: Harold M. Bixby to Debby Bixby",
    "wof:parent_id": 1159162825,
    "wof:placetype": "custom",
    "wof:placetype_alt": [
      "object"
    ],
    "wof:repo": "sfomuseum-data-collection",
    "wof:superseded_by": [],
    "wof:supersedes": []
  },
  "bbox": [
    -122.38647222518921,
    37.6161053594541,
    -122.38583385944366,
    37.61661101879963
  ],
  "geometry": {"type":"Polygon","coordinates":[[[-122.38647222518921,37.61631782178288],[-122.386434674263,37.61623283692423],[-122.38637566566466,37.61617759671399],[-122.38630056381224,37.6161308549656],[-122.38616108894348,37.6161053594541],[-122.38602161407469,37.6161308549656],[-122.38591432571411,37.61618609521055],[-122.38585531711577,37.61626683087935],[-122.38583385944366,37.61636881265146],[-122.38587141036987,37.61646654505181],[-122.38594114780425,37.61654303118856],[-122.38605380058287,37.61660252035167],[-122.38618254661559,37.61661101879963],[-122.3863059282303,37.61657277577607],[-122.3864185810089,37.61650903735973],[-122.3864668607712,37.61641130501523],[-122.38647222518921,37.61631782178288]]]}
}
