{
  "id": 1762828013,
  "type": "Feature",
  "properties": {
    "date:cessation_lower": "1927-01-01",
    "date:cessation_upper": "1927-12-31",
    "date:inception_lower": "1927-01-01",
    "date:inception_upper": "1927-12-31",
    "edtf:cessation": "1927",
    "edtf:inception": "1927",
    "geom:area": 0,
    "geom:bbox": "-122.391953,37.624731,-122.391953,37.624731",
    "geom:latitude": 37.624731,
    "geom:longitude": -122.391953,
    "iso:country": "US",
    "millsfield:airport_id": [
      1360695653
    ],
    "millsfield:category_id": 1511214239,
    "millsfield:collection_id": 1511214207,
    "millsfield:images": [
      1762897107,
      1762897109
    ],
    "millsfield:images_colors_refs": {
      "crayola": [
        {
          "hex": "#efcdb8"
        },
        {
          "hex": "#9f8170"
        },
        {
          "hex": "#6e5160"
        }
      ],
      "css4": [
        {
          "hex": "#f5deb3"
        },
        {
          "hex": "#808080"
        },
        {
          "hex": "#556b2f"
        }
      ],
      "marekm4": [
        {
          "hex": "#e0d6b4"
        },
        {
          "hex": "#948f72"
        },
        {
          "hex": "#666247"
        },
        {
          "hex": "#676349"
        },
        {
          "hex": "#d9cfad"
        }
      ]
    },
    "millsfield:images_texts": [
      "HILLS ESTATE INCORPORATED,\nMills Building,\nSan Francisco.\nJanuary 28, 1927,\nJOSEPH J. PHILLIPS, ESQ.,\nRight of Way Agent, City and County of San Francisco,\nSan Franciseo, Callio mia.\nDear Sir:\n1111s Estate Incorporated is willing to lease to\nthe City and County of San Francisco, for use\nas a\ntemporazy almo lis property at san Bruno heretofore\none hundred and 112y 250) acres, oz\nthereabouts to you.\npointed out\nThe terms of the lease acceptable\nto us are as follows:\nThe lease 1s to run or a period of three (5)\nyears at a rental of Ten Dollars (910) an acre per year.\nThis Ten Dollars (910) per acre per year is arrived at as\nfollows:\nThe value of the loss of the pasturage each year\nis estimated at five Dollars (35),\nand the maintenance\ncharges amount to Five Dollars (5) a yeaz.\nIn addition to the foregoing payments, we aze to be\npaid the sum of Iwenty Five Dollars ($25) per acre at the\nend of the lease in order to recondition the land for the\npurposes for which it is now used.\nThis reconditioning\ninvolves the blowing, dising, harrowing and reseeding of\nthe property.\nme shal 1 maintain the levees during the term of the\nLease just as we have maintained them in the past, but any\ndamages that may result from any brealing of the levees, oz\nany other cause, must be borne by yourselves.\nwe understand that you desize to seed some parts\nif not all of the land in question, and it so such seeding\nas may be done must be with our consent in order that we may\nbe assured that no deleterious grasses will be grown on the\nproperty®\nAt the time being, we are maintaining and we shall\ncontinue the maintenance of a pumping plant for use in\nconnection with this land.\nAny addl tional expenses over and\nthose now borne by us for this punping that may be\noccasioned because of your requirements, will be borne by\nyou•\nYou will be adven permission to erect a water tank\non the adjacent property belonging to us, and to run a pipe",
      "line from that property to the land in question which Jou\nmay pipe as you see fit.\nUpon the termination of the lease, you are to\nremove any and all structures and improvements erected by you and\nforeign substances hauled to the property, such as cinders,\ngravel, etc., to make it available for our uses.\nIn making\nsuch removals you will be peritted to dump the\nwaste in the\nold borrow pit or sloughs on the property in question.\nTrusting that the foregoing will be of assistance to\nyou in establishing your temporary airport, we are,\nVery truly yours,\nMILIS ESTATE INCORPORATED\nBy Ogden Mi118•"
    ],
    "millsfield:images_texts_ids": [
      1762897107,
      1762897109
    ],
    "millsfield:primary_image": 1762897107,
    "millsfield:subcategory_id": 1511213483,
    "mz:is_approximate": 1,
    "mz:is_current": 1,
    "sfomuseum:accession_number": "2000.018.040.005 a b",
    "sfomuseum:airport": "Mills Field Municipal Airport of San Francisco",
    "sfomuseum:airport_id": [
      162
    ],
    "sfomuseum:category": "Company Record / Document",
    "sfomuseum:classification_id": 190,
    "sfomuseum:collection": "Aviation Archive",
    "sfomuseum:creditline": "Collection of SFO Museum",
    "sfomuseum:date": "1927",
    "sfomuseum:date_acquired": "2009-12-11",
    "sfomuseum:daterange_end": "1927-12-31",
    "sfomuseum:daterange_start": "1927-01-01",
    "sfomuseum:description": "Facsimile of correspondence from Ogden Mills of Mills Estate Incorporated, to Joseph J. Phillips, Right of Way Agent for City and County of San Francisco, January 28, 1927, concerning terms of three-year lease of 150 acres of Mills Estate in San Bruno for use as temporary airport; two pages; file copy, not signed or mailed.",
    "sfomuseum:dimensions": "11 x 8 1/2 inches (27.9 x 21.6 cm)",
    "sfomuseum:medium": "paper, ink",
    "sfomuseum:object_id": 165024,
    "sfomuseum:placetype": "object",
    "sfomuseum:publication": ": , 1927.",
    "sfomuseum:subcategory": "Correspondence, Company",
    "src:geom": "sfomuseum#derived",
    "src:geom_derived_from": [
      1360695653
    ],
    "wof:belongsto": [
      102527513,
      1159162825,
      102191575,
      85633793,
      102087579,
      85922583,
      85688637,
      1159160869,
      1360695653,
      554784711,
      102085387
    ],
    "wof:country": "US",
    "wof:created": 1642729283,
    "wof:depicts": [
      1360695653
    ],
    "wof:geomhash": "3abf1c04b00c12d6593e9cd3c35f0056",
    "wof:hierarchy": [
      {
        "campus_id": 1360695653,
        "continent_id": 102191575,
        "country_id": 85633793,
        "county_id": 102085387,
        "custom_id": 1762828013,
        "object_id": 1762828013,
        "region_id": 85688637
      },
      {
        "building_id": -1,
        "campus_id": 102527513,
        "collection_id": 1159162825,
        "concourse_id": 1159162825,
        "continent_id": 102191575,
        "country_id": 85633793,
        "county_id": 102087579,
        "custom_id": 1762828013,
        "locality_id": 85922583,
        "neighbourhood_id": -1,
        "object_id": 1762828013,
        "region_id": 85688637,
        "wing_id": 1159160869
      },
      {
        "campus_id": 1360695653,
        "continent_id": 102191575,
        "country_id": 85633793,
        "county_id": 102087579,
        "custom_id": 1762828013,
        "locality_id": 85922583,
        "object_id": 1762828013,
        "postalcode_id": 554784711,
        "region_id": 85688637
      }
    ],
    "wof:id": 1762828013,
    "wof:lastmodified": 1787988200,
    "wof:name": "correspondence: Mills Estate Incorporated, Joseph J. Phillips, Right of Way Agent for City and County of San Francisco",
    "wof:parent_id": 1159162825,
    "wof:placetype": "custom",
    "wof:placetype_alt": [
      "object"
    ],
    "wof:repo": "sfomuseum-data-collection",
    "wof:superseded_by": [],
    "wof:supersedes": []
  },
  "bbox": [
    -122.391953,
    37.624731,
    -122.391953,
    37.624731
  ],
  "geometry": {"type":"MultiPoint","coordinates":[[-122.391953,37.624731]]}
}
