{
  "id": 1511938091,
  "type": "Feature",
  "properties": {
    "date:cessation_lower": "1947-01-01",
    "date:cessation_upper": "1947-12-31",
    "date:inception_lower": "1947-01-01",
    "date:inception_upper": "1947-12-31",
    "edtf:cessation": "1947",
    "edtf:date": "1947",
    "edtf:inception": "1947",
    "geom:area": 0,
    "geom:bbox": "-122.386155,37.616357,-122.386155,37.616357",
    "geom:latitude": 37.616357,
    "geom:longitude": -122.386155,
    "iso:country": "XX",
    "millsfield:airline_id": [
      1159285957
    ],
    "millsfield:category_id": 1511214223,
    "millsfield:collection_id": 1511214207,
    "millsfield:company_id": [
      1159286901
    ],
    "millsfield:images": [
      1527842755,
      1527850507
    ],
    "millsfield:images_colors_refs": {
      "crayola": [
        {
          "hex": "#dd9475"
        },
        {
          "hex": "#414a4c"
        },
        {
          "hex": "#cd4a4c"
        },
        {
          "hex": "#757575"
        },
        {
          "hex": "#e7c697"
        },
        {
          "hex": "#cdc5c2"
        },
        {
          "hex": "#9c2542"
        }
      ],
      "css4": [
        {
          "hex": "#2f4f4f"
        },
        {
          "hex": "#b22222"
        },
        {
          "hex": "#cd5c5c"
        },
        {
          "hex": "#708090"
        },
        {
          "hex": "#e9967a"
        },
        {
          "hex": "#d2b48c"
        }
      ],
      "marekm4": [
        {
          "hex": "#272a41"
        },
        {
          "hex": "#c9573e"
        },
        {
          "hex": "#d88c6e"
        },
        {
          "hex": "#af1b0d"
        },
        {
          "hex": "#7a858a"
        },
        {
          "hex": "#cbbda4"
        },
        {
          "hex": "#3b425e"
        },
        {
          "hex": "#cfc2a1"
        }
      ]
    },
    "millsfield:images_texts": [
      "JULY 1, 1947\nTRANS-\nCANADA\nAir Lines\nTCA\nTRANSCONTINENTAL\nINTERNATIONAL\nTRANS-OCEAN",
      "TO HAWAII, AUSTRALASIA and the ORIENTA\nTRANS-CANADA AIR LINES\nWHITE HORSE\n•PORT RADIUM\nT.C.A. Routes\nOther Airlines\nTime Zones (Canadian)\nProposed T.C.A. Routes -------\n•POR NELSON\nFORT SMITH\n¡OLOFIELDS\nHUDSON\nO PEACE RIVER\nJOUNTAI\nRAIRI\nCHURCHILL O\nSTANDARD\n- EDMONTON\nSTANDARDO\nGOOSE BAY\nBLANC SABLONA,\nNATASHQUAN\nBANDARO\nEUROPI\nANDER\nTO ST. JOHN'S\nPORT ALBERNI O-\nVANCOUVER\nVICTORIA\nSEATTLE.\nÁCOMA\nPORTLAND\n\"LETHBRIDGE\nPOKANE\nGREAT FALLS\nO-PENDLETON\nWEST YELLOWSIONE d\nOrdcalano\nподба ноя\nTHE PASO\nCALGARY\nSASKATOON\nO NORUSE\nSWIFT CURRENT\nDAUPHIN\nDOOD'S LAKE\nSPICKLE LAKE\nMEDICINE HAT-\nREGINA\nWINNIPEG\nMILES CITY\nOMINOT\nGRAND FORKS O\nFORT. WILLIAM DO PORT ARTHUR\nBISMARCR\nFARGO\nRAPID CITY\nDULUTH SAULT STE. MARIE\nMINNEAPOLIS\n/ST. PAUL\nANDAR®\nSLANDS\nBATE\nKAPUSKASING\n• SUMMERSIOE\nRON CON\nSYDNEY\nSENNSTERR\nQUEBEC\nPORQUIS\nNORTH BAY\nST. JOVITEO\nSAINT JO\nMONTREAL\nOTTAWA\nHALIFAX\nYARMOUTH\nORENO\n\u0026 SACRAMENTO\nSAKLAND\nSAN FRANCISCO\nLAS VEGAS\nSALT LAKE CITY\u003e\nO CASPER\nCHEYEN\nDENVER\nCOLORADO SPRINGS O\nPUERLOO\nSOUX FALL\nN. PLATTE\nЭМАН\nbEs MONE CHICAGO,\nKANSAS CITY\nST. LOUIS\nTORONTO\nBOSTON\nROVIDENCE\nDETROIT\nSWINDSO\nONDON.\nCLEVELAND\nNEW YORK\nPHILADELPHIA\n/PITTSBURGHS\nHO READING\n* BALTIMORE\nATTON\nCINCINNA\nWASHINGTON\nTRUSTION\nLOUSVILLE\nLOS ANGELES\nSAN DEGO C\nWINSLOW\nALBUQUER ON\nRALEICH\nOKLAHOMA CITY\nCHAITANDOGA\nFT. WORTH\nEL PASO\n(DALLAS\nнатом стом\nLITTLE ROCK\nLEVIORI\nJACKSON\nNEW ORLEANS\n/cau\nBERMUDA\nSATLANTA\nP CHARLESTON\n\u0026 MACON\n→ SAVANNA\nJACKSONVILLE\nDAYIONA BEACH\nWEST PALM BEACH\nTO MEXICO CITY\nO CORPUS CHESTI\n• MIAMI\nTrans-Atlantic Service\n10 FLIGHTS PER WEEK IN EACH DIRECTION\nLight Face Figures Indicate A.M.\nFLIGHT NOS.\nMONTREAL\n¿SYDNEY\nSYDNEY\nGLASGOW (Prestwick)\nGLASGOW\nLONDON.\n(EST)\n(AST)\nLv\nAr\n(GMT)\nLv\nAr\nLv\nAr\n2200\nTues.,\nThur., Sat.\n10.00\n2.\n.20\n.30\n200\nDaily\nFLIGHT NOS.-\n4.00\nLONDON\n(GMT)\n8.20\nLv\nGLASGOW (Prestwick)\n9.20\nAr\nGLASGOW\n11.30\nSYDNEY\n12.30\nSYDNEY\n(AST)\nLv\nAr\n2.30\nMONTREAL\n(EST\nLv\nAr\nDark Face Figures Indicate P.M.\n2201\nSun.,\nWed.,\nFri.\n1.30\n3.30\n5\n.00\n1.25\n2.25\n5.00\n201\nDaily\n7.30\n9.30\n11.00\n7.25\n8.25\n11.00\n•Flights will stop at Sydney for passenger traffic and cargo, subject to availability of space and providing 24 hours advance notice is received by the Company.\nSTOPS WILL BE MADE AT GOOSE BAY, LABRADOR, ON APPROXIMATELY THE 1st AND 15th OF EACH MONTH.\nTCA's exclusive LONDON VISITORS' BUREAU is at your SERVICE-Hotel Accomodation, Sightseeing, Shopping, Amusements, Recreation, etc.\nPAGE ONE"
    ],
    "millsfield:images_texts_ids": [
      1527842755,
      1527850507
    ],
    "millsfield:primary_image": 1527842755,
    "millsfield:subcategory_id": 1511213425,
    "mz:hierarchy_label": 1,
    "mz:is_current": 1,
    "sfomuseum:accession_number": "2005.132.105.001",
    "sfomuseum:airline": "Trans-Canada Air Lines (TCA)",
    "sfomuseum:airline_id": [
      1143
    ],
    "sfomuseum:category": "Scheduling / Ticketing",
    "sfomuseum:classification_id": 158,
    "sfomuseum:collection": "Aviation Archive",
    "sfomuseum:creditline": "Gift of the William Hough Collection",
    "sfomuseum:date": "1947",
    "sfomuseum:date_acquired": "2006-12-05",
    "sfomuseum:daterange_end": "1947-12-31",
    "sfomuseum:daterange_start": "1947-01-01",
    "sfomuseum:description": "Timetable issued by Trans-Canada Air Lines, effective July 1, 1947; seven page fold-out; red cover with illustration of a four-engine aircraft.",
    "sfomuseum:dimensions": "9 x 4 inches (22.9 x 10.2 cm)",
    "sfomuseum:media_ids": [
      1527842755,
      1527850507
    ],
    "sfomuseum:medium": "paper, ink",
    "sfomuseum:object_id": 98578,
    "sfomuseum:placetype": "object",
    "sfomuseum:primary_media_id": 1527842755,
    "sfomuseum:publication": ": , 1947.",
    "sfomuseum:subcategory": "Timetable",
    "src:geom": "sfomuseum#undetermined",
    "wof:belongsto": [
      1511214223,
      102527513,
      102191575,
      85633793,
      1511213425,
      85922583,
      102087579,
      1511214277,
      1511214207,
      85688637
    ],
    "wof:breaches": [],
    "wof:country": "XX",
    "wof:created": 1579906655,
    "wof:depicts": [
      1159286901,
      1159285957
    ],
    "wof:geomhash": "30c8a918561c84bb2daa2b97fc7c5353",
    "wof:hierarchy": [
      {
        "arcade_id": 1511213425,
        "building_id": 1511214277,
        "campus_id": 102527513,
        "concourse_id": 1511214223,
        "continent_id": 102191575,
        "country_id": 85633793,
        "county_id": 102087579,
        "custom_id": 1511938091,
        "locality_id": 85922583,
        "neighbourhood_id": -1,
        "object_id": 1511938091,
        "region_id": 85688637,
        "venue_id": 1511938091,
        "wing_id": 1511214207
      }
    ],
    "wof:id": 1511938091,
    "wof:lastmodified": 1787988183,
    "wof:name": "timetable: Trans-Canada Air Lines (TCA)",
    "wof:parent_id": 1159162825,
    "wof:placetype": "custom",
    "wof:placetype_alt": [
      "object"
    ],
    "wof:repo": "sfomuseum-data-collection",
    "wof:superseded_by": [],
    "wof:supersedes": [],
    "wof:tags": []
  },
  "bbox": [
    -122.386155,
    37.616357,
    -122.386155,
    37.616357
  ],
  "geometry": {"type":"Point","coordinates":[-122.386155,37.616357]}
}
