{
  "id": 1511956619,
  "type": "Feature",
  "properties": {
    "date:cessation_lower": "1981-01-01",
    "date:cessation_upper": "1981-12-31",
    "date:inception_lower": "1981-01-01",
    "date:inception_upper": "1981-12-31",
    "edtf:cessation": "1981",
    "edtf:date": "1981",
    "edtf:inception": "1981",
    "geom:area": 0,
    "geom:bbox": "-122.386155,37.616357,-122.386155,37.616357",
    "geom:latitude": 37.616357,
    "geom:longitude": -122.386155,
    "iso:country": "XX",
    "millsfield:airline_id": [
      1159284989
    ],
    "millsfield:category_id": 1511214223,
    "millsfield:collection_id": 1511214207,
    "millsfield:company_id": [
      1159286839
    ],
    "millsfield:images": [
      1527853645
    ],
    "millsfield:images_colors_refs": {
      "crayola": [
        {
          "hex": "#cd9575"
        },
        {
          "hex": "#a57164"
        },
        {
          "hex": "#fdbcb4"
        },
        {
          "hex": "#414a4c"
        }
      ],
      "css4": [
        {
          "hex": "#2f4f4f"
        },
        {
          "hex": "#808080"
        },
        {
          "hex": "#ffdab9"
        },
        {
          "hex": "#bc8f8f"
        }
      ],
      "marekm4": [
        {
          "hex": "#9b6b5d"
        },
        {
          "hex": "#fdc7b4"
        },
        {
          "hex": "#3a2620"
        },
        {
          "hex": "#bd8a77"
        }
      ]
    },
    "millsfield:images_texts": [
      "ao n\nJFK\nORD\nJFK\nLHR\nBRU\nLHR\nFRA\nTXL\nOXB\nвом\nDKR\nJNB\nJNB\nDKR\nDEL\nOxB\nTXL\nBRU\nLHR\nBRU\nJFK\nMIA\nEFFECTIVE: 15 FEBRUARY, 1981\nFOR SCHEDULES PRIOR TO 15 FEBRUARY SEE JANUARY ISSUE\nEASTBOUND\nATLANTIC ALL-CARGO SERVICES\nWe\nTh\nHours\nEffective 15 February\nNEW YORK. J. F. Kennedy International\nCHICAGO, O' Hare .....\nNEW YORK, J. F. Kennedy International\n+I A BRUSSELS...\n0 A LONDON, Heathrow ......\nHIA FRANKFURT.............\n+I A BERLIN, Togel\n+4\nDUBAI\n+51\nDELHI.\n+54\nBOMBAY\nDAKAR.\nHouri\nамт\n+2\nJOHANNESBURG, Jan Smute .....\nABIDJAN\nRAMAN\n4.54\nBOMBAY\n+54\n+4\nDUBAI\n+I A BERLIN, Terel.\nI A BRUSSELS...........\n0 A LONDON, Heathrow\nLI RANKFURT.\n+I A BRUSSELS...\n0A LONDON, Heathrow\nNEW YORK. J. F. Kennedy International\nMIAMI\ndep\ndep\n{.\ndep\narr\narr\n.. den\n. dep\n... der\ndep\n0430\n20A50\nMo\n14 50\n21A50\n74F\n06 00\n04 30\n04 30\n08 00\n07 30\nIBASO\n20435\n21435\nTh\n20A50\n02 35\n02 35\n11 30\n20 00\n70 00\n05\n23 05\n08 00\n08\n17400\nWe\nO0203\n02425\n04440\n04A40\n04445\n04A45\n\"'is\n11 50\nSa\nMo\nSi\nTh\nTU\n07 00\n1130\n14 25\n:: 30\n20135\n22,400\n22,400\n20is0\n00425\n23400\n03400\n00A05\n03400\n02 50\n01 25\n414:\n09 30\nO6ASS\n14 50\nöi 35\n0735\n23 30\nJFK\nLAX\nHNL\nNAN\nAKL\nSYD\nJFK\nMIA\nMAR\nccs\nPOS\nVCP\ncce\nMAR\nPACIFIC ALL-CARGO SERVICES\nWESTBOUND\nEASTBOUND\nfours\nGMT\n-8\n-10\n+12\n+ HA\n+ 134\n+ HA\nI1 55\n89\n14430\n17430\n22415\nEffective IS February\nNEW YORK. IF. Kennedy International.\narr) LOS ANGELES\ndepl\nTu\n233\n09 40\n1M30\n10\n- INTERNATIONAL DATE LINE\n*(r) NADI (PUD)\nSYDNEY\ndep |\n*'') AUCKLAND\ndep J\nrom omar hour earlier.\nX-Operational landing.\n(der\ndep\ndep\n01Д00\nm11S\nSOUTHBOUND\nLATIN AMERICA ALL-CARGO\nSERVICES\nTu Th\nTo We\nSa\nWe\nTu\nHours\nEffective 15 February\nNEW YORK, J. F. Kennedy International ..\n04 15\n04 15\n- 4\n-4\n-3\nMIAMI\nMATEMALA CITY...\nMARACAIBO\nCARACAS\nPORT OF SPAIN (TRINIDAD-TOBAGO)\ndep\narr\n=8.\n08 45\n05 40\n0745\n2015\n12 00\n12 30\nAA A\narr\ndep\n19'20\n21 35\n22 s0\nSAO PAULO, Viracopos\nNORTHBOUND\n18'20\nEffective 15 February\nBUENOS AIRES, Exeixa.\nSAO PAULO, Viracopos.......\nPORT OF SPAIN (TRINIDAD.TOBAGO)\nCARACAS\nMARACAIBO\nGUATEMALA CITY..........\nMIAMI\narr\ndep\ndep\n- dep\n21 35\n05 20\n02 00\nis 30\n12 20\n1710\nMo\n20 00\n23 55\n10 50\n05 30\n05'35\n-From 29 Mar one hour later.\nJFK\nNEW YORK, J. F. Kennedy International\n15'25\n17 00\n21 20\n23 45\n01 25\n1730\na1'10"
    ],
    "millsfield:images_texts_ids": [
      1527853645
    ],
    "millsfield:primary_image": 1527853645,
    "millsfield:subcategory_id": 1511213425,
    "mz:hierarchy_label": 1,
    "mz:is_current": 1,
    "sfomuseum:accession_number": "2005.127.002.003",
    "sfomuseum:airline": "Pan American World Airways",
    "sfomuseum:airline_id": [
      684
    ],
    "sfomuseum:category": "Scheduling / Ticketing",
    "sfomuseum:classification_id": 158,
    "sfomuseum:collection": "Aviation Archive",
    "sfomuseum:creditline": "Gift of the William Hough Collection",
    "sfomuseum:date": "1981",
    "sfomuseum:date_acquired": "2006-12-14",
    "sfomuseum:daterange_end": "1981-12-31",
    "sfomuseum:daterange_start": "1981-01-01",
    "sfomuseum:description": "Cargo schedule for Pan American World Airways; effective February 15, 1981; single-sided on pink paper; with information on services in the Atlantic, Latin America and Pacific; part of 11 issues dated 1980-1981.",
    "sfomuseum:dimensions": "14 x 8 1/2 inches (35.6 x 21.6 cm)",
    "sfomuseum:media_ids": [
      1527853645
    ],
    "sfomuseum:medium": "paper, ink",
    "sfomuseum:object_id": 151526,
    "sfomuseum:placetype": "object",
    "sfomuseum:primary_media_id": 1527853645,
    "sfomuseum:publication": ": , 1981.",
    "sfomuseum:subcategory": "Timetable",
    "src:geom": "sfomuseum#undetermined",
    "wof:belongsto": [
      1511214223,
      102527513,
      102191575,
      85633793,
      1511213425,
      85922583,
      102087579,
      1511214277,
      1511214207,
      85688637
    ],
    "wof:breaches": [],
    "wof:country": "XX",
    "wof:created": 1579906659,
    "wof:depicts": [
      1159284989,
      1159284991,
      1159286839
    ],
    "wof:geomhash": "30c8a918561c84bb2daa2b97fc7c5353",
    "wof:hierarchy": [
      {
        "arcade_id": 1511213425,
        "building_id": 1511214277,
        "campus_id": 102527513,
        "concourse_id": 1511214223,
        "continent_id": 102191575,
        "country_id": 85633793,
        "county_id": 102087579,
        "custom_id": 1511956619,
        "locality_id": 85922583,
        "neighbourhood_id": -1,
        "object_id": 1511956619,
        "region_id": 85688637,
        "venue_id": 1511956619,
        "wing_id": 1511214207
      }
    ],
    "wof:id": 1511956619,
    "wof:lastmodified": 1787988190,
    "wof:name": "timetable: Pan American World Airways, cargo schedule",
    "wof:parent_id": 1159162825,
    "wof:placetype": "custom",
    "wof:placetype_alt": [
      "object"
    ],
    "wof:repo": "sfomuseum-data-collection",
    "wof:superseded_by": [],
    "wof:supersedes": [],
    "wof:tags": []
  },
  "bbox": [
    -122.386155,
    37.616357,
    -122.386155,
    37.616357
  ],
  "geometry": {"type":"Point","coordinates":[-122.386155,37.616357]}
}
