{
  "id": 1511942071,
  "type": "Feature",
  "properties": {
    "date:cessation_lower": "1975-01-01",
    "date:cessation_upper": "1975-12-31",
    "date:inception_lower": "1975-01-01",
    "date:inception_upper": "1975-12-31",
    "edtf:cessation": "1975~",
    "edtf:date": "1975~",
    "edtf:inception": "1975~",
    "geom:area": 0,
    "geom:bbox": "-122.370943,37.617990,-122.370943,37.617990",
    "geom:latitude": 37.61799,
    "geom:longitude": -122.370943,
    "iso:country": "US",
    "millsfield:airline_id": [
      1159285413
    ],
    "millsfield:airport_id": [
      102527513
    ],
    "millsfield:category_id": 1762671311,
    "millsfield:collection_id": 1511214207,
    "millsfield:company_id": [
      1159288779
    ],
    "millsfield:images": [
      1527846555,
      1527846559
    ],
    "millsfield:images_colors_refs": {
      "crayola": [
        {
          "hex": "#414a4c"
        },
        {
          "hex": "#fddde6"
        },
        {
          "hex": "#95918c"
        },
        {
          "hex": "#9c7c38"
        },
        {
          "hex": "#d68a59"
        },
        {
          "hex": "#000000"
        },
        {
          "hex": "#cdc5c2"
        }
      ],
      "css4": [
        {
          "hex": "#a0522d"
        },
        {
          "hex": "#808080"
        },
        {
          "hex": "#faf0e6"
        },
        {
          "hex": "#000000"
        },
        {
          "hex": "#c0c0c0"
        },
        {
          "hex": "#cd853f"
        },
        {
          "hex": "#2f4f4f"
        }
      ],
      "marekm4": [
        {
          "hex": "#bd9746"
        },
        {
          "hex": "#89798b"
        },
        {
          "hex": "#ecece8"
        },
        {
          "hex": "#33322d"
        },
        {
          "hex": "#9b6426"
        },
        {
          "hex": "#29281b"
        },
        {
          "hex": "#d4c6ba"
        }
      ]
    },
    "millsfield:images_texts": [
      "Par\nCocktails\nUNITED'S VERY DRY BEEFEATER MARTINI\nUNITED'S VERY DRY SMIRNOFF SILVER VODKA MARTINI\nOLD FASHIONED\nMANHATTAN\nSCREWDRIVER\nBLOODY MARY\nMALTALIN\nDAIQUIRI\nWHISKEY SOUR\nDRY SACK SHERRY\nDOMESTIC BEER\nSpirits\nOLD GRAND DAD BOURBON\nCHIVAS REGAL SCOTCH\nCROWN ROYAL CANADIAN WHISKY\nJACK DANIELS TENNESSEE WHISKEY\nBEEFEATER GIN\nSMIRNOFF VODKA\nBACARDI RUM\nWines\nPAUL MASSON CABERNET SAUVIGNON\nALMADEN PINOT CHARDONNAY\nPAUL MASSON EXTRA DRY CHAMPAGNE\nLiqueurs\nCREME DE MENTHE COGNAC\nBENEDICTINE AND BRANDY\nDRAMBUIE\nKAHLUA\nGRAND MARNIER\nGALLIANO\nThe colden Italian cordial -\n• a secret blend of herbs distilled, acording\nto legend, from the rays of the sun.\nTOMATO JUICE\nSOFT BEVERAGES\nHAWAIIAN MACADAMIA NUTS\nTo Begin\nOur Friend Ship Salad Bar Cart\nA crispy mix of fresh salad greens served on a chilled plate. You are invited to create your\nown from our assortment of specially selected garnishes and marinated vegetables.\n¡opoeo out with ne oressino or vour choice\nCaesar\nJavanese\nYour Choice of\nROAST RIB EYE OF BEEF, AU JUS\nWe carefully select the very best beef, rub it with savory herbs and spices, then roast it with its\nnatura luices. nis american tavorite will de carved ar vour table l\n. tor pertect accomoaniment\ntry our homemade mild Horseradish Sauce.\nPOTATOES AU GRATIN\nCAULIFLOWER AND CARROTS\nor\nTHE CHEF'S FRIEND SHIP SPECIALTY\nRACK OF VEAL HUNGARIAN STYLE\nRoasted rack of veal served with a creamv Paprika Sauce and fresh oarden veaetables.\nFROM THE KITCHENS OF YOUR LAND\nPrepared from an original early American recipe, today's revolutionary dish is a delicious\npart ot our heritage.\nYou will find it described on the enclosed menu card alona with some\ninteresting, perhaps less known, facts and fun about food during our short, proud 200 years.\nSavor a bit of history - We're sure you'll enjoy it.\nOUR LIGHTER AIR FARE\nIt is as satisfying - but not quite as filling - as our more elaborate entrees. Today we offer:\nCHEF'S SALAD PLATE\nAttractively arranged plate consisting of julienne of ham, turkey and Swiss cheese\ncarnished with asparaqus, egas, tomato and olives\nASSORTED DINNER ROLLS\nBUTTER CURLS\nDessert Selection\nOLD FASHIONED ICE CREAM SUNDAE CART\nASSORTED FRUITS AND CHEESES\nCOFFEE\nBEVERAGES\nSANKA\nTEA\nMILK\nIt has been our oleasure to prepare this repast for vour eniovment\nWilli Niedver\nWilli Niederer, Executive Chef\nUnited Airlines Elicht Kitchen at San Francisco International Airport\nMemher American Culinary sederatior\nMember, Gastronome Club of San Francisco\nPlease accent our apoloav if vour choice is not available\nSFOHK\nL/D11-1"
    ],
    "millsfield:images_texts_ids": [
      1527846559
    ],
    "millsfield:primary_image": 1527846555,
    "millsfield:subcategory_id": 1511213567,
    "mz:hierarchy_label": 1,
    "mz:is_approximate": 1,
    "mz:is_current": 1,
    "sfomuseum:accession_number": "2010.167.001",
    "sfomuseum:airline": "United Airlines",
    "sfomuseum:airline_id": [
      883
    ],
    "sfomuseum:airport": "San Francisco International Airport",
    "sfomuseum:airport_id": [
      121
    ],
    "sfomuseum:artist": "Peter Hayward",
    "sfomuseum:category": "Passenger Amenity, Archive",
    "sfomuseum:classification_id": 242,
    "sfomuseum:collection": "Aviation Archive",
    "sfomuseum:creditline": "Gift of Rochelle (Webb) Malatesta, Barbara (Webb) Pearson and Charlotte (Webb) Farr in memory of our parents, U. S. (Bob) Webb and Helen Metcalf Webb",
    "sfomuseum:date": "c. 1975",
    "sfomuseum:date_acquired": "2010-11-30",
    "sfomuseum:daterange_end": "1980-12-31",
    "sfomuseum:daterange_start": "1970-01-01",
    "sfomuseum:description": "Menu issued by United Airlines with color reproduction of painting of Water Tower Place in Chicago; menu items include roast beef au jus and rack of veal, Hungarian style; menu prepared in San Francisco for San Francisco - Hong Kong route; information about artist on verso;  SFOHK L/D11-1; undated.",
    "sfomuseum:dimensions": "11 x 8 1/2 inches (27.9 x 21.6 cm)",
    "sfomuseum:media_ids": [
      1527846555,
      1527846559
    ],
    "sfomuseum:medium": "paper, ink",
    "sfomuseum:object_id": 108628,
    "sfomuseum:placetype": "object",
    "sfomuseum:primary_media_id": 1527846555,
    "sfomuseum:publication": ": , c. 1975.",
    "sfomuseum:subcategory": "Menu",
    "src:geom": "sfomuseum#derived",
    "src:geom_derived_from": [
      102527513
    ],
    "wof:belongsto": [
      1159162825,
      102527513,
      102191575,
      85633793,
      85922583,
      102087579,
      1159160869,
      85688637,
      554784711,
      102085387
    ],
    "wof:breaches": [],
    "wof:country": "US",
    "wof:created": 1579906667,
    "wof:depicts": [
      1159285413,
      102527513,
      1159288779
    ],
    "wof:geomhash": "bf40c3bc435019ba74db5659992d9e04",
    "wof:hierarchy": [
      {
        "building_id": -1,
        "campus_id": 102527513,
        "collection_id": 1159162825,
        "concourse_id": 1159162825,
        "continent_id": 102191575,
        "country_id": 85633793,
        "county_id": 102087579,
        "custom_id": 1511942071,
        "locality_id": 85922583,
        "neighbourhood_id": -1,
        "object_id": 1511942071,
        "region_id": 85688637,
        "wing_id": 1159160869
      },
      {
        "campus_id": 102527513,
        "continent_id": 102191575,
        "country_id": 85633793,
        "county_id": 102087579,
        "custom_id": 1511942071,
        "locality_id": 85922583,
        "object_id": 1511942071,
        "postalcode_id": 554784711,
        "region_id": 85688637
      },
      {
        "campus_id": 102527513,
        "continent_id": 102191575,
        "country_id": 85633793,
        "county_id": 102085387,
        "custom_id": 1511942071,
        "object_id": 1511942071,
        "region_id": 85688637
      }
    ],
    "wof:id": 1511942071,
    "wof:lastmodified": 1787988185,
    "wof:name": "menu: United Airlines",
    "wof:parent_id": 1159162825,
    "wof:placetype": "custom",
    "wof:placetype_alt": [
      "object"
    ],
    "wof:repo": "sfomuseum-data-collection",
    "wof:superseded_by": [],
    "wof:supersedes": [],
    "wof:tags": []
  },
  "bbox": [
    -122.370943,
    37.61799,
    -122.370943,
    37.61799
  ],
  "geometry": {"type":"MultiPoint","coordinates":[[-122.370943,37.61799]]}
}
