{
  "id": 1779736003,
  "type": "Feature",
  "properties": {
    "date:cessation_lower": "1964-01-01",
    "date:cessation_upper": "1964-12-31",
    "date:inception_lower": "1964-01-01",
    "date:inception_upper": "1964-12-31",
    "edtf:cessation": "1964",
    "edtf:inception": "1964",
    "geom:area": 2.475047457570636e-7,
    "geom:bbox": "-122.386472,37.616105,-122.385834,37.616611",
    "geom:latitude": 37.61635747477365,
    "geom:longitude": -122.38615540108617,
    "millsfield:airline_id": [
      1159284989
    ],
    "millsfield:category_id": 1762671311,
    "millsfield:collection_id": 1511214207,
    "millsfield:company_id": [
      1159286839
    ],
    "millsfield:images": [
      1779736857,
      1779736859,
      1779736861,
      1779736863
    ],
    "millsfield:images_colors_refs": {
      "crayola": [
        {
          "hex": "#bab86c"
        },
        {
          "hex": "#efdecd"
        },
        {
          "hex": "#9c7c38"
        },
        {
          "hex": "#414a4c"
        },
        {
          "hex": "#d68a59"
        }
      ],
      "css4": [
        {
          "hex": "#faebd7"
        },
        {
          "hex": "#cd853f"
        },
        {
          "hex": "#a0522d"
        },
        {
          "hex": "#ffe4c4"
        },
        {
          "hex": "#191970"
        },
        {
          "hex": "#bdb76b"
        },
        {
          "hex": "#2f4f4f"
        }
      ],
      "marekm4": [
        {
          "hex": "#382d63"
        },
        {
          "hex": "#35295d"
        },
        {
          "hex": "#ece3cd"
        },
        {
          "hex": "#ebe1c8"
        },
        {
          "hex": "#c6b149"
        },
        {
          "hex": "#372f17"
        },
        {
          "hex": "#f4ecd8"
        },
        {
          "hex": "#b9973e"
        },
        {
          "hex": "#c0a049"
        },
        {
          "hex": "#a27031"
        },
        {
          "hex": "#eee6d1"
        }
      ]
    },
    "millsfield:images_texts": [
      "NUE\nORLEANS\nLA HAVANE\nMIAMI\nNASSAU\nNANTO\nDOMINGOI\nMEXICO S\n*HEUBL\n/HONDURASLA\nO BELIZE)\nPORT\nAU PRINCE\nICEGALPA\nJAMAICAL!\nGUATEMALA O\nSUATEMALAL\nIL SALVADOR SALVADOR\nI COSTA RIGAT\nPANAMA\nMANAGUA\nPANAMA\nPBOGOTAO\nQUITO C\nEQUATEUR\nRÉR DOMİNİCAIN\nPUERTO RICOTO ST. MAARTENTI\nANTIGUAN\nTST. LUCIAH\nLEUA BELOUPE\nMARTINI QUL\n[BARBADOSI\nTRINITED\nCARACAS\nNEZUELA\nGUYANE BRITTANIQU\nBiE L\nGUYANE FRANSAISELL\nRASIL\nLIMA\n3 PARAGUAY\nASUNCIONE\nRIO DE JANEIRO\nSÃO PAULO\nFLAMERIQUE\nAliNE\n800\nHiL\nURUGUAY\n• MONTEVIDEO\nBUENOS\nAIRES\nLiness\nLio:",
      "THE\nPRESIDENT\nBOiSSONS\nSherry\nDubonnet\nAPERTiES\nCampari\nDry Vermouth\nBloody Mary\nVodka Martini\nCOCKTAiLS\nManhattan\nScrewdriver\nMartini\nWhiskey Sour\nDaiquiri\nScotch\nWHiSKiES\nBourbon\nCanadian\nGin and Tonic\nTom Collins\nVodka Collins\nGin\nVodka\nBeer and Sott Drinks\nNOTRE SELEĆTION DES GRANDS VINS DE FRANCE\nOUR\nSELECTION OF VINTAGE FRENCH WINES\nBourgogne Blanc Tête de Cuvee\nBordeaux Rouge Grand Crû classé\nWHITE BURGUNDY\nRED BORDEAUX\nChampagne Brut Millésimé-Cuvée spéciale pour Pan American\nCHAMPAGNE SPECIALLY SELECTED FOR PAN AMERICAN\nCrème de Menthe\nBenédictine and Brandy\nLiQUEURS\nBénédictine\nVSOP Cognac\nCointreau\nDrambuie\nRefreshments available throughout your flight\nRum",
      "SPECIAL\nDiNER\nLe Caviar Malossol de la Caspienne\nCAVIAR MALOSSOL FROM THE CASPIAN\nSEA\nVodka ou Champagne\nHORS D'OEUVRE\nLes savoureuses Spécialités de tous Pays\nSPECIALTIES FROM VARIOUS COUNTRIES\nBourgogne Blanc\nPoTAGE\nLe Consommé de Queue de Boeuf à l'Armagnac\nCLEAR\nOX-TAIL SOUP WITH ARMAGNAC\nLes Paillettes dorées au Paprika\nPUFF PASTE STICKS WITH PAPRIKA\nENIPEES\nLa Côte de Boeuf rôtie\nROAST RIB EYE OF BEEF\nBordeaux Rouge\nLe Médaillon de Veau à l'Estragon\nVEAL STEAK WITH\nTARRAGON SAUCE\nBordeaux Rouge\nLe Canard aux Pêches\nDUCK WITH PEACHES\nBordeaux Rouge\nLes Filets de Sole sautés Amandine\nFILLETS OF SOLE WITH ALMONDS\nBourgogne Blanc\nLe Sauté d'Agneau au Curry de Madras\nMADRAS LAMB CURRY\nBordeaux Rouge\nL'Aiguillette de Boeuf Tastevin\nBRAISED SIRLOIN BUTT OF BEEF TASTEVIN\nBordeaux Rouge\nLes Petits Pois au Beurre\nBUTTERED PEAS\nLe Riz Pilaff aux Champignons\nPILAFF RICE WITH MUSHROOMS\nFROMAGES\nLa Sélection de Fromages de Pays\nSELECTION OF CHEESE\nBordeaux Rouge\nDESSERT\nLe Gâteau Saint Honoré\nGATEAU SAINT HONORE\nChampagne\nUn Choix de Fruits des Iles et des Continents\nFRUIT BASKET\nCafé Américain\nAMERICAN COFFEE\nCafé Sanka\nSANKA COFFEE\nThe Orange Pekoe\nORANGE PEKOE TEA\nLiqueurs\nPAN AMERiCAN CUiSINE BY MAXiNS DE PARiS\n\"La bonne Cuisine est la base du véritable bonheur. \"'A. Escoffier\n\"GOOD FOOD IS THE BASIS FOR TRUE HAPPINESS\"",
      "MAP COPYRIGHT 1951 PAN AMERICAN WORLD AIRWAYS, INC. -FROM \"SAVOIR-VIVRE INTERNATIONAL\", ODE PARIS, REVISED 1964\nDIETARY NEEDS • RELIGIOUS PREFERENCES\nSpecial meals can be provided for passengers who require them for\ndietary needs or religious preferences, if advised in advance.\nFor the Roman Catholic passenger on Pan\nAmerican, a special dispensation has been granted\nby the Sacred Congregation of the Council whereby they\nare not obligated to abstain from meat on Friday and other days of abstinence.\nOur Kosher meals are prepared, packed under strict Orthodox\nsupervision in accordance with Jewish dietary law.\nLITHO\nUSA-9243•7395\n2016.4°132"
    ],
    "millsfield:images_texts_ids": [
      1779736857,
      1779736859,
      1779736861,
      1779736863
    ],
    "millsfield:primary_image": 1779736857,
    "millsfield:subcategory_id": 1511213567,
    "mz:is_approximate": 1,
    "mz:is_current": 1,
    "sfomuseum:accession_number": "2016.117.133",
    "sfomuseum:airline": "Pan American World Airways",
    "sfomuseum:airline_id": [
      684
    ],
    "sfomuseum:artist": "Jacques Liozu",
    "sfomuseum:category": "Passenger Amenity, Archive",
    "sfomuseum:classification_id": 242,
    "sfomuseum:collection": "Aviation Archive",
    "sfomuseum:creditline": "In memory of Jane Anne Thoe-Meyer",
    "sfomuseum:date": "1964",
    "sfomuseum:date_acquired": "2017-04-26",
    "sfomuseum:daterange_end": "1964-12-31",
    "sfomuseum:daterange_start": "1964-01-01",
    "sfomuseum:description": "Menu issued by Pan American World Airways; color illustration depicting map of Central and South America, titled “L’Amerique Latine”; menu items include veal steak and Madras lamb curry; menu number: 2020; class: President (first); undated.",
    "sfomuseum:dimensions": "10 x 12 1/2 inches (25.4 x 31.8 cm)",
    "sfomuseum:medium": "paper, ink",
    "sfomuseum:object_id": 185213,
    "sfomuseum:placetype": "object",
    "sfomuseum:publication": ": , 1964.",
    "sfomuseum:subcategory": "Menu",
    "src:geom": "sfomuseum#undetermined",
    "wof:belongsto": [
      102527513,
      1159162825,
      102191575,
      85633793,
      102087579,
      85922583,
      85688637,
      1159160869
    ],
    "wof:country": "XY",
    "wof:created": 1656057933,
    "wof:depicts": [
      1159284989,
      1159286839
    ],
    "wof:geomhash": "c281b9d9eefc83b5710e64b9d646067d",
    "wof:hierarchy": [
      {
        "building_id": -1,
        "campus_id": 102527513,
        "collection_id": 1159162825,
        "concourse_id": 1159162825,
        "continent_id": 102191575,
        "country_id": 85633793,
        "county_id": 102087579,
        "custom_id": 1779736003,
        "locality_id": 85922583,
        "neighbourhood_id": -1,
        "object_id": 1779736003,
        "region_id": 85688637,
        "wing_id": 1159160869
      }
    ],
    "wof:id": 1779736003,
    "wof:lastmodified": 1787988209,
    "wof:name": "menu: Pan American World Airways, President (first) class",
    "wof:parent_id": 1159162825,
    "wof:placetype": "custom",
    "wof:placetype_alt": [
      "object"
    ],
    "wof:repo": "sfomuseum-data-collection",
    "wof:superseded_by": [],
    "wof:supersedes": []
  },
  "bbox": [
    -122.38647222518921,
    37.6161053594541,
    -122.38583385944366,
    37.61661101879963
  ],
  "geometry": {"type":"Polygon","coordinates":[[[-122.38647222518921,37.61631782178288],[-122.386434674263,37.61623283692423],[-122.38637566566466,37.61617759671399],[-122.38630056381224,37.6161308549656],[-122.38616108894348,37.6161053594541],[-122.38602161407469,37.6161308549656],[-122.38591432571411,37.61618609521055],[-122.38585531711577,37.61626683087935],[-122.38583385944366,37.61636881265146],[-122.38587141036987,37.61646654505181],[-122.38594114780425,37.61654303118856],[-122.38605380058287,37.61660252035167],[-122.38618254661559,37.61661101879963],[-122.3863059282303,37.61657277577607],[-122.3864185810089,37.61650903735973],[-122.3864668607712,37.61641130501523],[-122.38647222518921,37.61631782178288]]]}
}
