{
  "id": 1511909093,
  "type": "Feature",
  "properties": {
    "date:cessation_lower": "1960-01-01",
    "date:cessation_upper": "1960-12-31",
    "date:inception_lower": "1960-01-01",
    "date:inception_upper": "1960-12-31",
    "edtf:cessation": "1960",
    "edtf:date": "1960",
    "edtf:inception": "1960",
    "geom:area": 0,
    "geom:bbox": "-122.386155,37.616357,-122.386155,37.616357",
    "geom:latitude": 37.616357,
    "geom:longitude": -122.386155,
    "iso:country": "US",
    "millsfield:aircraft_id": [
      1159290443
    ],
    "millsfield:airline_id": [
      1159285415
    ],
    "millsfield:category_id": 1511214223,
    "millsfield:collection_id": 1511214207,
    "millsfield:company_id": [],
    "millsfield:images": [
      1527838123,
      1527851221
    ],
    "millsfield:images_colors_refs": {
      "crayola": [
        {
          "hex": "#cd9575"
        },
        {
          "hex": "#1a4876"
        },
        {
          "hex": "#ff2b2b"
        },
        {
          "hex": "#414a4c"
        },
        {
          "hex": "#2e5894"
        },
        {
          "hex": "#efcdb8"
        },
        {
          "hex": "#dbd7d2"
        }
      ],
      "css4": [
        {
          "hex": "#bdb76b"
        },
        {
          "hex": "#b22222"
        },
        {
          "hex": "#dc143c"
        },
        {
          "hex": "#191970"
        },
        {
          "hex": "#f5deb3"
        },
        {
          "hex": "#483d8b"
        },
        {
          "hex": "#d3d3d3"
        }
      ],
      "marekm4": [
        {
          "hex": "#213988"
        },
        {
          "hex": "#c2a473"
        },
        {
          "hex": "#c71610"
        },
        {
          "hex": "#e1d6cd"
        },
        {
          "hex": "#dfd0b5"
        },
        {
          "hex": "#db2225"
        },
        {
          "hex": "#112066"
        },
        {
          "hex": "#3a4096"
        },
        {
          "hex": "#311b5d"
        }
      ]
    },
    "millsfield:images_texts": [
      "SYSTEM TIMETABLE EFFECTIVE MAY 25,\n1960\nUNITED\nAIR LINES\nONLY UNITED FLIES THE DOUGLAS\nDC08\nJET\nCOAST TO COAST... ALONG THE\nCOAST... AND TO HAWAII",
      "HONOLULU TIME\nTo ALASKA\nVANCOUVER, 8.\nTo the ORIENT\nSEATTLE\nTACOMA\nPORTLAND/\nSALEM S\nEUGENER\nMEDFORD -\nTo the ORIENT\nHANTAL\nHONOLULU\nTo AUSTRALIA and\nNEW ZEALAND\nOAKLAND\nSAN FRANCISCO\nSALINAS\nIONTEREY-\nCARMEL\nRENO\nSACRAMENTO\nSTOCKTON\nMODESTO\nMERCED\n• FRESNO\nSALIA\nLAS VEGAS\n• BAKERSFJELD\nSANTA BARBARA\nBURBANK\nLOS ANGELES\nLONG BEACH\nSAN DIEGO\nTo MEXICO, CENTRAL\nand SOUTH AMERICA\nUNITED\nPACIFIC TIME\n11 12 1\nMOUNTAIN TIME\nCENTRAL TIME\nEASTERN TIME\nTo EDMONTON\nCALGARY\nLETHBRIDGE\nWINNIPEG\nSPOKANE\nREGINA\nPORT ARTHUR\nFT. WILLIAM,\n© KAPUSKASING\nPRESQUE ISLE\nWALLA WAL\nPENDLETON\nREAT FALLS\nLEWISTOWN\nBUTTE\nBILLINGS\nBOISE\nWESTOYELLOWSTUNE\nSUN VALLEY\nSHERIDAN\nPOCATELLO\nNORTH BAY\nOTTAWA\nMONTREAL\nJ'BANGOR\nMILES CITY\n• FARGO\nMINNEAPOLIS\n-SAINT PAUL\n/PORTLAND\nCHARLEVOIX hi\nELKO\nELY\n•HOOVER DAM\nTORONTO\n-o ALBANY\nBOSTON D\nTo EUROPE\nRAPID CITY\nHARTFORD\nMILWAUKEE /\n7 BUFFALO SPRINGEIEN\nCASPER\nO-DETROIT S\nCLEVELAND\nPROVIDENCE\nJENTOWN BETHLEHEM-EASTON\nHEW YORK\nCEDAR RI\nCHICAGO\nLINCOLN.\nDES MOINES\nHOWA CITY\nNEWARK\nTo NASSAU,\nCHEYENNE\nMOLINE\nPITTSBUR\nPHILADELPHIA\nBERMUDA,\nthe CARIBBEAN,\nSALT\n- OMAHA\nDAVENPORT\nWAYNE AKRON.CANTON a\nROCK ISLAND\nLAKE\nBALTIMORE\nand AFRICA\nCITY\nCOLUMBUS\nWASHINGTON, D. C.\nDENY-R\nGRAND JUNCTION\nCOLORADO Comos\nPUEBLOS\nKANSAS CITY O\nSAINT LOUIS\nLOUISVILLE\nQ WICHITA\nNASHVILLE\nKNOXILLE\nNORFOLK\nRALEIGH\nALBUQUERQUE\nTULSA\nAMARILLO\nS OKLAHOMA CITY\n- MEMPHIS\nLITTLE ROCK\nPHOENIX\nTUCSON®\nBIRMINGHAM\nDALLAS\nBIG SPRING FORT WORTHY\nEL PASO\nSHREVEPORL\nMOBILE,\nSNEW ORLEANS\nJACKSONVILLE\nALLARASSEE\nSAN ANTONIO\nUnited Mainliners\nare timed to the\nstars by the Elgin\nNational Watch\nObservatory.\nTo CENTRAL\nand SOUTH AMERICA\nUNITED AIR LINES\n- INTERLINE THROUGH SERVICE\nOTHER AIR LINES\nTAMPA\nKEY\n¡LAREDO .\n• BROWNSVILLE\n→ To MEXICO,\nthe CARIBBEAN,\nKEY\nWEST\nand SOUTH AMERICA\nDC-8 JETS to still more cities..\nDENVER\nThe only DC-8 Jet to Chicago\nThe only DC-8 Jet to Los Angeles\nThe only through Jet to New York\nDETROIT/\nThe only Jet nonstop\nto Los Angeles\nThe only Jet to Philadelphia\n*Starting June 22\nUNITED\nAIR LINES\nMake a date with the \"8\" on"
    ],
    "millsfield:images_texts_ids": [
      1527838123,
      1527851221
    ],
    "millsfield:primary_image": 1527838123,
    "millsfield:subcategory_id": 1511213425,
    "mz:hierarchy_label": 1,
    "mz:is_current": 1,
    "sfomuseum:accession_number": "1999.015.135",
    "sfomuseum:aircraft": "Douglas DC-8",
    "sfomuseum:aircraft_id": [
      498
    ],
    "sfomuseum:airline": "United Air Lines",
    "sfomuseum:airline_id": [
      884
    ],
    "sfomuseum:category": "Scheduling / Ticketing",
    "sfomuseum:classification_id": 158,
    "sfomuseum:collection": "Aviation Archive",
    "sfomuseum:continent": "North America",
    "sfomuseum:country": "United States",
    "sfomuseum:creditline": "Gift of Homer Hudson",
    "sfomuseum:date": "1960",
    "sfomuseum:date_acquired": "1999-07-06",
    "sfomuseum:daterange_end": "1960-12-31",
    "sfomuseum:daterange_start": "1960-01-01",
    "sfomuseum:description": "System timetable issued by United Air Lines, effective May 25, 1960; r; white, red, and blue cover with airline’s shield servicemark and announcement of coast-to-coast Douglas DC-8 service.",
    "sfomuseum:dimensions": "9 x 4 inches (22.9 x 10.2 cm)",
    "sfomuseum:media_ids": [
      1527838123,
      1527851221
    ],
    "sfomuseum:medium": "paper, ink",
    "sfomuseum:object_id": 48873,
    "sfomuseum:placetype": "object",
    "sfomuseum:primary_media_id": 1527838123,
    "sfomuseum:publication": ": , 1960.",
    "sfomuseum:subcategory": "Timetable",
    "src:geom": "sfomuseum#undetermined",
    "wof:belongsto": [
      102191575,
      85633793,
      136253057,
      1511214223,
      102527513,
      1511213425,
      85922583,
      102087579,
      1511214277,
      1511214207,
      85688637
    ],
    "wof:breaches": [],
    "wof:country": "US",
    "wof:created": 1579906674,
    "wof:depicts": [
      1159288779,
      1159290443,
      1159285415
    ],
    "wof:geomhash": "30c8a918561c84bb2daa2b97fc7c5353",
    "wof:hierarchy": [
      {
        "continent_id": 102191575,
        "country_id": 85633793,
        "custom_id": 1511909093,
        "empire_id": 136253057,
        "object_id": 1511909093,
        "venue_id": 1511909093
      },
      {
        "arcade_id": 1511213425,
        "building_id": 1511214277,
        "campus_id": 102527513,
        "concourse_id": 1511214223,
        "continent_id": 102191575,
        "country_id": 85633793,
        "county_id": 102087579,
        "custom_id": 1511909093,
        "locality_id": 85922583,
        "neighbourhood_id": -1,
        "object_id": 1511909093,
        "region_id": 85688637,
        "venue_id": 1511909093,
        "wing_id": 1511214207
      }
    ],
    "wof:id": 1511909093,
    "wof:lastmodified": 1787988176,
    "wof:name": "timetable: United Air Lines",
    "wof:parent_id": 1159162825,
    "wof:placetype": "custom",
    "wof:placetype_alt": [
      "object"
    ],
    "wof:repo": "sfomuseum-data-collection",
    "wof:superseded_by": [],
    "wof:supersedes": [],
    "wof:tags": []
  },
  "bbox": [
    -122.386155,
    37.616357,
    -122.386155,
    37.616357
  ],
  "geometry": {"type":"Point","coordinates":[-122.386155,37.616357]}
}
