{
  "id": 1914430765,
  "type": "Feature",
  "properties": {
    "date:cessation_lower": "1977-01-01",
    "date:cessation_upper": "1977-12-31",
    "date:inception_lower": "1977-01-01",
    "date:inception_upper": "1977-12-31",
    "edtf:cessation": "1977",
    "edtf:inception": "1977",
    "geom:area": 2.475047457570636e-7,
    "geom:bbox": "-122.386472,37.616105,-122.385834,37.616611",
    "geom:latitude": 37.61635747477365,
    "geom:longitude": -122.38615540108617,
    "millsfield:aircraft_id": [
      1159289789
    ],
    "millsfield:airline_id": [
      1159286455
    ],
    "millsfield:category_id": 1762671311,
    "millsfield:collection_id": 1511214207,
    "millsfield:company_id": [
      1159293593,
      1159289759
    ],
    "millsfield:images": [
      1914430859,
      1914430861
    ],
    "millsfield:images_colors_refs": {
      "crayola": [
        {
          "hex": "#efdecd"
        },
        {
          "hex": "#000000"
        },
        {
          "hex": "#b4674d"
        },
        {
          "hex": "#dbd7d2"
        }
      ],
      "css4": [
        {
          "hex": "#dcdcdc"
        },
        {
          "hex": "#000000"
        },
        {
          "hex": "#cd853f"
        }
      ],
      "marekm4": [
        {
          "hex": "#140e09"
        },
        {
          "hex": "#24160d"
        },
        {
          "hex": "#e8e4df"
        },
        {
          "hex": "#bd723d"
        },
        {
          "hex": "#bd6f38"
        },
        {
          "hex": "#e2dcd5"
        }
      ]
    },
    "millsfield:images_texts": [
      "Emergency Information\nYour jet is under the command of an experienced Captain and crew.\nThey have been thoroughly trained in every emergency procedure.\nPlease follow their instructions should an emergency arise. For your\nadded safety and comfort we urge you to note the locations of the\nexits and safety equipment indicated on this chart.\nQUICK EXIT LOCATIONS\nBOEING 727/200\nFORE\nOCKP\nSLIDE\nFORWARD\nCABIN DOOR\nSLIDE\nFORWARD\nGALLEY DOOR\nWINDOW EXITS\nWINDOW EXITS\nSLIDE\nSLIDE\nAFT\nCABIN DOOR\nREAR CABIN\nDOOR\nCAN BE USED IF OPENED DURING\nEMERGENCIES\nAFT\nGALLEY DOOR\nTHE PRIMARY EXITS\nBESEISECONDARY EXITS\nSEE OTHER SIDE FOR ADDITIONAL INFORMATION\nBRANIFF InTERNATIOnAL\n963-525035 (REV. 11-77)",
      "SMOKING AND SEAT BELTS\nSeat belts must be fastened when\ncigarette lighters with clear plastic\nthe seat belt sign is on.\nYou may\nreservoirs.\nAs these constitute a\nwalk about the cabin freely when\nserious fire hazard at altitude\nthe sign is off; however, you will\nELECTRONIC DEVICES: Federal\nnotice most experienced air travel-\ners keep their belts loosely fas-\nAviation regulations prohibit opera-\ntion of all electronic devices other\ntened whenever they are seated.\nWe recommend this practice.\nthan portable voice recorders (dic-\ntation equipment), hearing aids\nYou may smoke at any time except\nheart pacemakers, calculators, and\nin the designated no smoking sec.\nelectric\nshavers\naboard\ntions located in the front of\neach\nthe\nairplane in flight. Portable electronic\ncompartment, or when the Captain\ndevices other than those specified\nturns on the \"No Smoking\" sign.\nabove may interfere with the navi-\nCIGARETTE LIGHTERS: You are\ngation or communication systems\nkindly requested not to use\nof the aircraft.\nTHE BOTTOM\nSEAT CUSHION IS A FLOTATION DEVICE. LIFE VEST UNDER\nSEAT\nON OVERWATER FLIGHTS.\nWINDOW EXIT OPERATION\nPULL INWARD ON WINDOW HANDLE\nLIFT WINDOW INTO CABIN\nDOOR OPERATION\nEXIT AND SLIDE OFF\nREAR OF WING\nEVACUATION SLIDES\nOPEN\u0026\nROTATE HANDLE TO\n\"OPEN\" POSITION\nOPEN DOOR\nSLIDES ARE PROVIDED NEAR DOOR EXITS\nREMOVE SHOES\nOXYGEN SYSTEM\nBRACING POSITION\nPLEASE SEE OTHER SIN\nFORWARD-FACING SEAT\nPLEASE DO NOT REMOVE CARD FROM PLANE"
    ],
    "millsfield:images_texts_ids": [
      1914430859,
      1914430861
    ],
    "millsfield:primary_image": 1914430859,
    "millsfield:subcategory_id": 1511213703,
    "mz:is_approximate": 1,
    "mz:is_current": 1,
    "sfomuseum:accession_number": "2002.127.178",
    "sfomuseum:aircraft": "Boeing 727-200",
    "sfomuseum:aircraft_id": [
      194
    ],
    "sfomuseum:airline": "Braniff International",
    "sfomuseum:airline_id": [
      1378
    ],
    "sfomuseum:category": "Passenger Amenity, Archive",
    "sfomuseum:classification_id": 581,
    "sfomuseum:collection": "Aviation Archive",
    "sfomuseum:creditline": "Gift of Thomas G. Dragges",
    "sfomuseum:date": "1977",
    "sfomuseum:date_acquired": "2003-12-22",
    "sfomuseum:daterange_end": "1977-12-31",
    "sfomuseum:daterange_start": "1977-01-01",
    "sfomuseum:description": "Safety information card issued by Braniff International for the Boeing 727-200 fleet; orange double-sided card with illustrations depicting inflight safety and emergency procedures; identification code: 963-525035; revision date: 11-77.",
    "sfomuseum:dimensions": "10 1/2 x 4 1/2 inches (26.7 x 11.4 cm)",
    "sfomuseum:medium": "paper, ink",
    "sfomuseum:object_id": 68678,
    "sfomuseum:placetype": "object",
    "sfomuseum:publication": ": , 1977.",
    "sfomuseum:subcategory": "Safety Information Card",
    "src:geom": "sfomuseum#undetermined",
    "wof:belongsto": [
      102527513,
      1159162825,
      102191575,
      85633793,
      102087579,
      85922583,
      85688637,
      1159160869
    ],
    "wof:country": "XY",
    "wof:created": 1719300723,
    "wof:depicts": [
      1159286455,
      1159289789,
      1159293593,
      1159289759
    ],
    "wof:geomhash": "c281b9d9eefc83b5710e64b9d646067d",
    "wof:hierarchy": [
      {
        "building_id": -1,
        "campus_id": 102527513,
        "collection_id": 1159162825,
        "concourse_id": 1159162825,
        "continent_id": 102191575,
        "country_id": 85633793,
        "county_id": 102087579,
        "custom_id": 1914430765,
        "locality_id": 85922583,
        "neighbourhood_id": -1,
        "object_id": 1914430765,
        "region_id": 85688637,
        "wing_id": 1159160869
      }
    ],
    "wof:id": 1914430765,
    "wof:lastmodified": 1787988220,
    "wof:name": "safety information card: Braniff International, Boeing 727-200",
    "wof:parent_id": 1159162825,
    "wof:placetype": "custom",
    "wof:placetype_alt": [
      "object"
    ],
    "wof:repo": "sfomuseum-data-collection",
    "wof:superseded_by": [],
    "wof:supersedes": []
  },
  "bbox": [
    -122.38647222518921,
    37.6161053594541,
    -122.38583385944366,
    37.61661101879963
  ],
  "geometry": {"type":"Polygon","coordinates":[[[-122.38647222518921,37.61631782178288],[-122.386434674263,37.61623283692423],[-122.38637566566466,37.61617759671399],[-122.38630056381224,37.6161308549656],[-122.38616108894348,37.6161053594541],[-122.38602161407469,37.6161308549656],[-122.38591432571411,37.61618609521055],[-122.38585531711577,37.61626683087935],[-122.38583385944366,37.61636881265146],[-122.38587141036987,37.61646654505181],[-122.38594114780425,37.61654303118856],[-122.38605380058287,37.61660252035167],[-122.38618254661559,37.61661101879963],[-122.3863059282303,37.61657277577607],[-122.3864185810089,37.61650903735973],[-122.3864668607712,37.61641130501523],[-122.38647222518921,37.61631782178288]]]}
}
