{
  "id": 1511937551,
  "type": "Feature",
  "properties": {
    "date:cessation_lower": "1952-01-01",
    "date:cessation_upper": "1952-12-31",
    "date:inception_lower": "1952-01-01",
    "date:inception_upper": "1952-12-31",
    "edtf:cessation": "1952",
    "edtf:date": "1952",
    "edtf:inception": "1952",
    "geom:area": 0,
    "geom:bbox": "-122.386155,37.616357,-122.386155,37.616357",
    "geom:latitude": 37.616357,
    "geom:longitude": -122.386155,
    "iso:country": "XX",
    "millsfield:airline_id": [
      1159285415
    ],
    "millsfield:category_id": 1511214223,
    "millsfield:collection_id": 1511214207,
    "millsfield:company_id": [
      1159288779
    ],
    "millsfield:images": [
      1527838233,
      1527851129
    ],
    "millsfield:images_colors_refs": {
      "crayola": [
        {
          "hex": "#cd9575"
        },
        {
          "hex": "#1a4876"
        },
        {
          "hex": "#e7c697"
        },
        {
          "hex": "#bf4f51"
        },
        {
          "hex": "#ff2b2b"
        },
        {
          "hex": "#414a4c"
        }
      ],
      "css4": [
        {
          "hex": "#2f4f4f"
        },
        {
          "hex": "#cd5c5c"
        },
        {
          "hex": "#d2b48c"
        },
        {
          "hex": "#f5deb3"
        },
        {
          "hex": "#b22222"
        },
        {
          "hex": "#191970"
        },
        {
          "hex": "#e9967a"
        }
      ],
      "marekm4": [
        {
          "hex": "#32345a"
        },
        {
          "hex": "#dabf9f"
        },
        {
          "hex": "#ddcaa5"
        },
        {
          "hex": "#151c56"
        },
        {
          "hex": "#c82411"
        },
        {
          "hex": "#d09177"
        },
        {
          "hex": "#be5040"
        }
      ]
    },
    "millsfield:images_texts": [
      "System Timetable, August-September, 1952\nUNITED\nAIR LINES\nHawaii\nMAINLINER\nSTRATOCRUISER\nExcursion Fare ROUND-TRIP\n$240\nSEE DETAILS ON PAGE 2\nALL SCHEDULES QUOTED IN STANDARD TIME",
      "To ALASKA\nto EDMONTON\nMOUNTAIN TIME\nBASTERNME\nMONOU SE\nTo the ORIENT\nTo the ORIENT\nHAWAII\nHONOLULI:\nTo AUSTRALIA\nNEW ZEALAND\nthe ORIENT\nSEATTLE\nLETHBRIDGE\nTACOMA\nPORTLAND\nSPOKANE\nMISSOULA\nGREAT FALLS\nWALLA WALLA\nPALLES\nPENDLETON\n_LEWISTOWN\nUGENE\nBEND • REDMOND\nBILLINGS\nSUN VALLEY WEST YELLOWSTONE\nJACKSON\nTPOCATELLO\nCASPER\nOGOEI\nROCK SPRINGS\nOAKLAND\nSALT LAKE CITY\nSAN FRANCISCO\nSACRAMENTO\nSTOCKTON\nSAUNA\nGRAND JUNCTION\nMONTEREY\nCEDAR CITY\nVISALIA\nLAS VEGAS\nBAKERSFIELD\nHOOVER\nSANTA RARRAS\nBURBANK\nLOS ANGELES • LONG BEACH\nCATALINA\nSAN DIEGO\nTIJUANA\nWINSLOW\nALBUQUERQUE\nPHOENIX\nTUCSON\nNOGALES\nREGINA\nMILES CITY\nSHERIDAN\nRAPID CITY:\nCHEYENNE\nDENVER-\nWINNIPEG\nFARGO\n1т. мІшАне?\n-PORT ARTHUR\nKAPUSKASING\nPRESQUE\nMONTREAL\nNORTH BAY\nOTTAWA,\nBANGOR,\nAUGUSTAS\nPORTLAND,\nTo EUROPE\nMINNEAPOLIS\nSAINT PAUL\nALBANY,\n*BOSTON\nROCHESTER\nSPRINGFIELD\nPROVIDENCE TO EUROPE\nSIOUX FALLS\nMILWAUKEE\n(HARTEORO\nDES MOINES\n• DETROIT Z- CLEVELAND\nALLENTOWN-BETHLEHEM.EASTON\nNEW YORK\nLINCOLN\n/ CEDAR RAPIDS\nYOUNGSTOWK\nNEWARK\n* PITTSBURGH\nRAND ISLAND\nI PHILADELPHIA\nCANTON\nINDIANAPOLIS\n7 BALTIMORE\nTo BERMUDA\nJAYTON\nWASHINGTON and AFRICA\nCINCINNATI\nKANSAS CITY SAINT LOUIS\nLOUISVILLE\nRALEIGH\n/NASHVILLE!\nKNOXVILLİ\nAMARILLO\nOKLAHOMA CITY\nFORT WOR\nMEMPHIS\nLITTLE ROCK\nBIRMINGHAM\nBIG SPRING\nSHREVEPORT,\nAll United Mainliners\nare timed to the stars\nby the Elgin National\nWatch observatory.\nMAZATLAN\nMONTERREY\nTORREON\nFRESNILLO\nSAN LUIS POTOSI\nJUBILE\nPHEW ORLEANS\nTo LATIN AMERICA\nKEY\nUNITED AIR LINES,\nOTHER AIR LINES\nIn Mexico\nLAMSA AIRLINES\nfrom Nogales and El Paso\nJACKSONVILLE\nHOUSTON\nSAN ANTONIQ\nCHIHUAHUA\nPARRAL\nDURANGO\nTo the WEST INDIES\nand SOUTH AMERICA\nMEXICO CITY\nTYPICAL ELAPSED TIMES BETWEEN MAJOR CITIES\n(In hours and minutes)\nTO\nCall 1\nUnited AIR LINES\nFIRST whenever you\nplan to travel\nSave time and money on your next trip\n... Call United first for reservations\nanywhere in the nation, anywhere in\nthe world.\nFROM\nBOSTON\nBOSTON\nCHICAGO\n5:00\nCLEVELAND\n3:05\nDENVER\n9:00\nDETROIT\nHONOLULU\n24:00\nLOS ANGELES\n12:15\nNEW YORK\nОМАНА\n7:15\nPHILADELPHIA\nPORTLAND\n14:40\nSALT LAKE CITY\n10:10\nSAN FRANCISCO\n12:30\nSEATTLE-TACOMA\n13:35\nWASHINGTON, D.C.\nCHICAGO\nCLEVELAND\nDENVER\nDETROIT\nHONOLULU\nLOS ANGELES\nNEW YORK\n5:20\n3:20\n11:20\n13:20\n1:25\n3:45\n20:00\n7:10\n2:55\n1:30\n5:50\n24:50\n9:25\n1:50\n3:30\n5:25\n16:55\n3:45\n6:00\n1:10\n5:30\n23:35\n8:55\n3:00\n18:00\n20:20\n17:45\n19:40\n10:45\n21:25\n6:30\n8:35\n3:25\n10:30\n9:55\n3:15\n2:00\n6:40\n23:45\n10:55\n1:45\n3:40\n3:25\n19:40\n6:30\n5:10\n3:00\n2:35\n8:15\n2:15\n26:10\n111:40\n:45\n8:00\n11:05\n4:00\n9:55\n116:25\n3:35\n11:35\n4-40\n7:35\n2:00\n6:25\n14:15\n9:05\n6:45\n8:50\n4:00\n8:25\n9:45\n1:40\n10:10\n8:05\n10:00\n4:05|11:15\n16:00\n4:50\n10:30\n2:40\n6:10\n24:00\n10:25\nОМАНА\nPHILADELPHIA\nPORTLAND\nSALT LAKE CITY\n8:20\n13:00\n2:00\n2:40\n8:35\n5:35\n4:25\n2:15\n11:20\n8:30\n2:00\n6:40\n4:20\n2:10\n3:55\n2:00\n10:40\n8:35\n20:15\n22:00\n15:00\n15:15\n5:55\n9:35\n3:35\n5:55\n:40\n12:35\n9:30\n5:45\n7:45\n4:55\n6:20\n13:25\n11:20\n6:55\n11:10\n3:15\n4:30\n8:55\n3:20\n7:00\n10:45\n2:25\n3:10\n8:15\n12:30\n:50\n2:50\n5:25\n11:05\n10:05\nSAN FRANCISCO\nSEATTLE-TACOMA\n7:45\n8:45\n9:45\n11:45\n4:15\n4:30\n9:25\n10:30\n10:00\n114:35\n1:40\n4:50\n11:35\n12:35\n8:45\n9:00\n12:10 13:15\n2:25\n:50\n2:40\n3:00\n2.55\n2:55\n10:55\n12:05\nWASHINGTON, D.C.\n5:15\n22:00\n9:20\n4:50\n9:40\n7:45\n9:45\n11:00"
    ],
    "millsfield:images_texts_ids": [
      1527838233,
      1527851129
    ],
    "millsfield:primary_image": 1527838233,
    "millsfield:subcategory_id": 1511213425,
    "mz:hierarchy_label": 1,
    "mz:is_current": 1,
    "sfomuseum:accession_number": "2005.132.036.028",
    "sfomuseum:airline": "United Air Lines",
    "sfomuseum:airline_id": [
      884
    ],
    "sfomuseum:category": "Scheduling / Ticketing",
    "sfomuseum:classification_id": 158,
    "sfomuseum:collection": "Aviation Archive",
    "sfomuseum:creditline": "Gift of the William Hough Collection",
    "sfomuseum:date": "1952",
    "sfomuseum:date_acquired": "2006-12-05",
    "sfomuseum:daterange_end": "1952-12-31",
    "sfomuseum:daterange_start": "1952-01-01",
    "sfomuseum:description": "System timetable issued by United Air Lines, effective August 1, 1952; 15-page fold-out; white, red, and blue cover with airline’s shield servicemark and illustration of two surfers with text promoting travel to Hawaii.",
    "sfomuseum:dimensions": "9 x 4 inches (22.9 x 10.2 cm)",
    "sfomuseum:media_ids": [
      1527838233,
      1527851129
    ],
    "sfomuseum:medium": "paper, ink",
    "sfomuseum:object_id": 98323,
    "sfomuseum:placetype": "object",
    "sfomuseum:primary_media_id": 1527838233,
    "sfomuseum:publication": ": , 1952.",
    "sfomuseum:subcategory": "Timetable",
    "src:geom": "sfomuseum#undetermined",
    "wof:belongsto": [
      1511214223,
      102527513,
      102191575,
      85633793,
      1511213425,
      85922583,
      102087579,
      1511214277,
      1511214207,
      85688637
    ],
    "wof:breaches": [],
    "wof:country": "XX",
    "wof:created": 1579906675,
    "wof:depicts": [
      1159288779,
      1159285415
    ],
    "wof:geomhash": "30c8a918561c84bb2daa2b97fc7c5353",
    "wof:hierarchy": [
      {
        "arcade_id": 1511213425,
        "building_id": 1511214277,
        "campus_id": 102527513,
        "concourse_id": 1511214223,
        "continent_id": 102191575,
        "country_id": 85633793,
        "county_id": 102087579,
        "custom_id": 1511937551,
        "locality_id": 85922583,
        "neighbourhood_id": -1,
        "object_id": 1511937551,
        "region_id": 85688637,
        "venue_id": 1511937551,
        "wing_id": 1511214207
      }
    ],
    "wof:id": 1511937551,
    "wof:lastmodified": 1787988183,
    "wof:name": "timetable: United Air Lines",
    "wof:parent_id": 1159162825,
    "wof:placetype": "custom",
    "wof:placetype_alt": [
      "object"
    ],
    "wof:repo": "sfomuseum-data-collection",
    "wof:superseded_by": [],
    "wof:supersedes": [],
    "wof:tags": []
  },
  "bbox": [
    -122.386155,
    37.616357,
    -122.386155,
    37.616357
  ],
  "geometry": {"type":"Point","coordinates":[-122.386155,37.616357]}
}
