{
  "id": 1511956893,
  "type": "Feature",
  "properties": {
    "date:cessation_lower": "1970-01-01",
    "date:cessation_upper": "1979-12-31",
    "date:inception_lower": "1970-01-01",
    "date:inception_upper": "1979-12-31",
    "edtf:cessation": "197X",
    "edtf:date": "197x",
    "edtf:inception": "197X",
    "geom:area": 0,
    "geom:bbox": "-122.386155,37.616357,-122.386155,37.616357",
    "geom:latitude": 37.616357,
    "geom:longitude": -122.386155,
    "iso:country": "XX",
    "millsfield:airline_id": [
      1159284989
    ],
    "millsfield:category_id": 1762671311,
    "millsfield:collection_id": 1511214207,
    "millsfield:company_id": [
      1159286839
    ],
    "millsfield:images": [
      1763381287,
      1763381289,
      1863470209
    ],
    "millsfield:images_colors_refs": {
      "crayola": [
        {
          "hex": "#bab86c"
        },
        {
          "hex": "#9f8170"
        },
        {
          "hex": "#9c7c38"
        },
        {
          "hex": "#cdc5c2"
        },
        {
          "hex": "#efdecd"
        },
        {
          "hex": "#414a4c"
        }
      ],
      "css4": [
        {
          "hex": "#556b2f"
        },
        {
          "hex": "#c0c0c0"
        },
        {
          "hex": "#ffe4c4"
        },
        {
          "hex": "#cd853f"
        },
        {
          "hex": "#bdb76b"
        },
        {
          "hex": "#2f4f4f"
        },
        {
          "hex": "#a0522d"
        },
        {
          "hex": "#faebd7"
        }
      ],
      "marekm4": [
        {
          "hex": "#bfa670"
        },
        {
          "hex": "#483d3f"
        },
        {
          "hex": "#50472f"
        },
        {
          "hex": "#a79052"
        },
        {
          "hex": "#d5ccb5"
        },
        {
          "hex": "#423e27"
        },
        {
          "hex": "#f0e4ca"
        },
        {
          "hex": "#8e7227"
        },
        {
          "hex": "#f0e7cc"
        },
        {
          "hex": "#916636"
        }
      ]
    },
    "millsfield:images_texts": [
      "PAINTED BY J. P. BUTTERWORTH\nI. Donald Mo Kay Oog. Builder of the Leviathon\nCLIPPER SHIP \"GREAT REPUBLIC\"\nLITH. BY N. CURRIER",
      "ThE PRESTDENT\nSherry Dubonnet Campari Try Vamoute Sake\nManhattan Martini\nBloody Mary Soretiver Whiskey Sour\nTom Collins Volka Collins\nScotch Bourbon Canadian\nGin Vodka\nOUR SELECTiON OF VINTAGE WiNES\nGreat Wines of Burgundy Great Wines of Bordeaux\nChampagne\nCointreau Drambuie Bénetticine\nCièmo do Mentho Cognac VS P Bénitine and Brant\nSPECAL\nSOUP\nDouble Consemene with Sherry\n*am a\nENTREES\nBroiled Filet Mignon - Maitre d'Hotel\nx=xx8xx-z2\nVichy Carrots\nCurrial Lumb Matras with Rice Pitaf\nDESSERT\nFruit Tartlet\n4:3 01\nAmerican Coffee\nOrange Pekoe Tea\nJapanese\nGreen Tea\nHAN*\nHAM*\nPAN AMERiCAN CUiSiNE BY MAXiM'S DE PARiS",
      "CLIPPER SHIP \"GREAT REPUBLIC\"\nThe front cover of this menu is a reproduction of an authentic Currier \u0026 Ives clipper ship print.\nCurrier \u0026 Ives, known as the \"Printmakers of America\", graphically preserved the glorious clipper\nship era in a magnificent series of clipper ship prints. This print, one of a series, is being reproduced\nthrough the courtesy of The Mariners Museum, Newport News, Virginia.\nThe clipper ship \"Great Republic\" stood for the summit of achievement in the world of sailing\nships. She was, from the standpoint of size, appearance and cost, exactly what her builder Donald\nMcKay had originally intended to name her: The King of Clippers. The triumph of marine archi-\ntecture was launched in 1853 in East Boston. The \"Great Republic\" was considered the largest,\nsharpest and most magnificent craft that was ever produced by any nation of age.\nOn the night of December 26th, before she had barely tasted salt water, fire broke out on\nFront Street in New York and within minutes, the rigging of the \"Great Republic\", lying at wharf,\nwas a network of flames. The ship was rebuilt, but her former tonnage of 4,555 tons was reduced\nand her sail plan and spars cut down so that she needed only half of her original 130 man crew.\nNevertheless, she served her new owners well and remained the largest merchant ship of her time.\nLike Pan Am's modern Clippers* of the air, the early clipper ships traveled the lanes of com-\nmerce to all the far places of the world... to Japan... to Australia... and, in the days of the\ngreat gold rush, from America's east coast, around Cape Horn, South America, to California.\nOur current equipment...the the Clipper fleet of the Twentieth Century... consists of the finest\ncommercial aircraft ever developed—aircraft that have helped us establish an unparalleled record\nfor safety, speed and service.\n*CLIPPER TRADE MARK-REG US PAT OFFICE-COPYRIGHT 1966 PAN AMERICAN WORLD AIRWAYS INC\nLITHO IN USA -8739-0393\nW13.096.028"
    ],
    "millsfield:images_texts_ids": [
      1763381287,
      1763381289,
      1863470209
    ],
    "millsfield:primary_image": 1763381287,
    "millsfield:subcategory_id": 1511213567,
    "mz:hierarchy_label": 1,
    "mz:is_current": 1,
    "sfomuseum:accession_number": "2014.083.352",
    "sfomuseum:airline": "Pan American World Airways",
    "sfomuseum:airline_id": [
      684
    ],
    "sfomuseum:category": "Passenger Amenity, Archive",
    "sfomuseum:classification_id": 242,
    "sfomuseum:collection": "Aviation Archive",
    "sfomuseum:creditline": "Gift of Thomas G. Dragges",
    "sfomuseum:date": "1970s",
    "sfomuseum:date_acquired": "2014-07-25",
    "sfomuseum:daterange_end": "1979-12-31",
    "sfomuseum:daterange_start": "1970-01-01",
    "sfomuseum:description": "Menu issued by Pan American World Airways; color reproduction of print titled \"Clipper Ship ‘Great Republic’\"; entree choices include filet mignon and curried lamb madras; cuisine by Maxim’s of Paris; menu number: 3711 0808; class: President (first); undated.",
    "sfomuseum:dimensions": "7 x 8 3/4 inches (17.8 x 22.2 cm)",
    "sfomuseum:medium": "paper, ink",
    "sfomuseum:object_id": 156175,
    "sfomuseum:placetype": "object",
    "sfomuseum:publication": ": , 1970s.",
    "sfomuseum:subcategory": "Menu",
    "src:geom": "sfomuseum#undetermined",
    "wof:belongsto": [
      1159162825,
      102527513,
      102191575,
      85633793,
      85922583,
      102087579,
      1159160869,
      85688637
    ],
    "wof:breaches": [],
    "wof:country": "XX",
    "wof:created": 1618962265,
    "wof:depicts": [
      1159286839,
      1159284989
    ],
    "wof:geomhash": "30c8a918561c84bb2daa2b97fc7c5353",
    "wof:hierarchy": [
      {
        "building_id": -1,
        "campus_id": 102527513,
        "concourse_id": 1159162825,
        "continent_id": 102191575,
        "country_id": 85633793,
        "county_id": 102087579,
        "custom_id": 1511956893,
        "locality_id": 85922583,
        "neighbourhood_id": -1,
        "object_id": 1511956893,
        "region_id": 85688637,
        "venue_id": 1511956893,
        "wing_id": 1159160869
      }
    ],
    "wof:id": 1511956893,
    "wof:lastmodified": 1787988190,
    "wof:name": "menu: Pan American World Airways, President (first) class",
    "wof:parent_id": 1159162825,
    "wof:placetype": "custom",
    "wof:placetype_alt": [
      "object"
    ],
    "wof:repo": "sfomuseum-data-collection",
    "wof:superseded_by": [],
    "wof:supersedes": [],
    "wof:tags": []
  },
  "bbox": [
    -122.386155,
    37.616357,
    -122.386155,
    37.616357
  ],
  "geometry": {"type":"Point","coordinates":[-122.386155,37.616357]}
}
