{
  "id": 1511931967,
  "type": "Feature",
  "properties": {
    "date:cessation_lower": "1947-01-01",
    "date:cessation_upper": "1947-12-31",
    "date:inception_lower": "1947-01-01",
    "date:inception_upper": "1947-12-31",
    "edtf:cessation": "1947",
    "edtf:date": "1947",
    "edtf:inception": "1947",
    "geom:area": 0,
    "geom:bbox": "-122.386155,37.616357,-122.386155,37.616357",
    "geom:latitude": 37.616357,
    "geom:longitude": -122.386155,
    "iso:country": "XX",
    "millsfield:airline_id": [
      1159285395
    ],
    "millsfield:category_id": 1511214223,
    "millsfield:collection_id": 1511214207,
    "millsfield:company_id": [
      1159287531
    ],
    "millsfield:images": [
      1527835255,
      1527835259
    ],
    "millsfield:images_colors_refs": {
      "crayola": [
        {
          "hex": "#8a795d"
        },
        {
          "hex": "#cd9575"
        },
        {
          "hex": "#414a4c"
        },
        {
          "hex": "#e7c697"
        },
        {
          "hex": "#9f8170"
        }
      ],
      "css4": [
        {
          "hex": "#deb887"
        },
        {
          "hex": "#bdb76b"
        },
        {
          "hex": "#bc8f8f"
        },
        {
          "hex": "#2f4f4f"
        },
        {
          "hex": "#808080"
        }
      ],
      "marekm4": [
        {
          "hex": "#89775f"
        },
        {
          "hex": "#bba275"
        },
        {
          "hex": "#3d3736"
        },
        {
          "hex": "#e6cd94"
        },
        {
          "hex": "#aa9874"
        },
        {
          "hex": "#e2c993"
        },
        {
          "hex": "#3e3a38"
        }
      ]
    },
    "millsfield:images_texts": [
      "TWA\nTRANS WORLD AIRLINE\nNEW NONSTOP FLIGHTS\n* Effective June 15, 1947\nup-to-date schedules\nTEMPORARY TIMETABLE\nhave been reworked accordingly and are also shown in the insert\nproviding\nfastest,\ndirect\nservice between\nall TWA\ncities. New\ntimetable showing these and further schedule improvements will be\nissued July 1. See your TWA office or favorite Travel Agent.\nEASTBOUND\nEFFECTIVE JUNE 15, 1947\nFLIGHT NO.-\n74\nL-49\nSAN FRANCISCO....SPS\n218-\n96\nMaster\n86\n218\nDC.3\nceives\nAS ANGHA\n4703(\nWindow\n10.50\n1:00\nCST\n*7:40\n8:05\n100s\n+935\n8:20\n10.15\n10:00\n52=:\nTAN\n: OLST A\nFUGHT NO.→ 74\n* Effective June 15, 1947\n50\nDC.3\n262\n340\nDC-3\n2,30\n12:45\n4:00\n6:20\n•aa-\n10.00\nSEE OTHER SIDE FOR WESTBOUND SCHEDULES\nEASTBOUND\n152-\n20-\n38-\nShor\nSpirite\n64-\nContin\nEFFECTIVE HINE 15. 1917\n550\n456\n12\n38\n88\n368\n140\n520\n18\n210\n14\n210-\n84\n400\n120\n152\n300\n604\n420\n600\n460\n602\n338\n422\n430\n450\n374\n640\n380\n370\n362\n388\n794\nSIGHT NO\nDC-3\nDC-3\nDC-3\nDC-3\nDC-3\nDC-3\nDC-3\nDC-3\nDC-3\nDC-3\nDC-3\nDC-3\nDC-3\nB-307\nDC.3\nDC-3\nEQUIPMENT\n*12:30*12:30\n3:00\n10:40\n4:00\n5:15\n10:40\n6:45\nLV SAN FRANCISCO..\nAr Galland\n10,30\n10:35\nRe-\ncrives\n12,00\n2:40\n5:10\n5:10\n11.04\n2:00\n*1:00\n2:25\n3:00\n*5:20\n* 5:26\n*6:45\n10:20\n10:00\n10:00\n12:05\n120.\nly LOS ANGELES\necce\n6:15\n*6:20\n*6:15\n8:30\n@20-MANNENAZON\n7.05\n*7,30\n*940\n*7:30\n*0.30\n*2,45\n3.05\n5:55\n*740\n9.25\n9.00\n10.15\n9.10\n10.30\n9:10 *1-1:40\n12.00\n*12:05\n2\n*12:30\n200\n7.40\n*9,45\n*30S\nbair\n1205E\n6.10\n0-10\n*12:55\n2:00\n4:30\n6:40\n17.55\n11:55\n1:15\n*12:15\n1:30\n5:00\n3:30\n3:00\n5.кO\n*6-00\n8-00\n8:55\n7.15\n7:45\n8:15\n9:05\n10:40\n9:35\n10:23\n12.40\n\u003e\u003e 222\u003e222\n• BOSTON\nSchedules and Flight Numbers in Italics indicate Connecting Flights\nREFERENCE MARKS\nAll Flights Daily Except as Noted\nHostess Service on All Passenger Flights\n-fuel stops may be made at Boulder City, las Vegas, Needles, Phoenix or Winslow on these Flights shown operating non-stop between\nlos Angeles and Albuquerque in either direction.\n-local passengers not carried between Boulder City and las Vegas, between las Vegas and los Angeles, between Burbank and los\nAngeles or between Oakland and San Francisco.\n422\n430\n450\n374\n640\n380\n370\n362\n388\nDARK TYPE (10:20) INDICATES P.M.\n-In terms of Local Daylight Time all flights arrive and deport one hour later than shown.\n-This flight is routed over Grand Canyon and Hoover Dam.\nPlease consult current food service schedule issued by Passenger Service Dept.\n*_Complimentary mool served aloft.\n+-Luncheon served en route.",
      "NEW NONSTOP FLIGHTS\n* Effective June 15, 1947\nShown herewith are completely revised and up-to-date schedules\neffective June 15 through June 30, including new non-stop Constella-\ntion flights between Chicago and west coast terminals. All connections\nhave been reworked accordingly and are also shown in the insert\nproviding fastest,\ndirect service between all TWA\nNew\ntimetable showing these and further schedule improvements will be\nissued July 1. See your TWA office or favorite Travel Agent.\n2008. 055.922\nWESTBOUND\nSee other side for Eastbound schedules\nEFFECTIVE JUNE 15, 1947\nFLIGHT NO.\n263\nDC-3\nDC-3\nEQUIPMENT\nBOSTON..\n*5:00\n8:20\n*11:00\n11.00\n12:20\n12:05\n1:40\n9.50\n*10.05\n10:20\n0.20\n11199\nAN:\n]xmz--0-\u003e0-0|13\n12.60\n*1:00\n2:30\n6.05\n1.20\nCITY\n12:30\n*11.40\n1:35\n1:35\n2:00\n*2:25\n*5:35\n*5.35\n* 6.00\n8:35\nCity\n6:30\n12:30\n2:00\n2:00\n12.20\n*2:25\n*2:25\n20ANNA020\n9120-YANNBY0200\n6:30\n5:35\n5:35\n5:30\n.00aa\n10:00\n10:40\n1:00\n3,30\nLas Ver\nLOS ANGRES\nRuck ant\n9:25\nCon-\nCon\n9:25\n9:55\n10-050\n10:25\n10:36\n10:30\n•O-M ZOZ\n31le*\n6.34\n357\n201\n641\n457\n387\n401\nTWA\nTRANS WORLD AIRLINE\nTEMPORARY\nTIMETABLE\n* Effective June 15, 1947\nSee other side for Eastbound schedules\n12:30\n2:30\n2:20\n2:25\n3:00\n·5:00\n3:35\n3:40\n5:00\n6:55\n7:05\n4:40\n7,40\n2,00\n10:3C\n9:45\n10.35\n17:10\n9:45\n10-00\n11:34\n1056\nHiso\n7:00\n9:30\nINN\n11:03\n11.15\n10:20\n11:10\n11:05\n12:00\n10:35\n11:30\n11:30\n•0-4707\n12:55\n*10:40\n*3:00\n12:40\nSAN FRANCISCO.\nFIGHT NO\n263\n373\n651\n251\n601\n459\n253\n471\nUGHT TYPE (10:20) INDICATES A.M.\n139\n603\n367\n319\n421\n369\nSchedules and Flight Numbers in Italics indicate Connecting Flights\nDEEEDENCE MADKI\nAll Flights Daily Except as Noted\nHostess Service on All Passenger Flights\n•-fuel stops may be made at Boulder City, Las Vegas, Needles, Phoenix or Winslow on these Flights shown operating non-stop between\ntos Angeles and Albuquerque in either direction.\n-Local passengers not carried between Boulder City and las Vegas, between las Vegas and los Angeles, between Burbank and los Angeles\nAr hatwean Galland and San francites\n343\n467\n605\n359\n385\n461\n37\n119\n551\nDARK TYPE (10:20) INDICATES P.M.\n© In terms of Local Daylight Time all flights arrive and depart one hour later than shown.\n-This flight is routed over Grand Canyon and Hoover Dam\nPlease consult current food service schedule issued by Passenger Service Dant All man ervice s\n*-Complimentary meal served aloft.\n+-Luncheon served en route.\n-Meal Service for through passengers only.\nWA\nTRANS WORLD AIRLINE\nTEMPORARY\nTIMETABLE\n* Effective June 15, 1947\nWESTBOUND\nSing\n37\nEFFECTIVE JUNE 15, 1947\n551-\n203\nDC-3\nDC-3\n423-\n203\nDC-3\nEQUIPMENT\n• BOSTON\n9:15\n9.00\n• NEW YORK\n11:00\n11:10\n11:00\n1.15\n\u003e 2\u003e2\u003e2\u003e2\u003e2\nForre\n• KANSAS CITY\nKANSAS CITY\nTopeka\n206\n*10:35\n*10:35\n11.25\n12:55\n12:55\n2:25\n423\n10.22\nIv LOS ANGELES\nOaklan.\nSAN FRANCISCO.\nHICUT MA"
    ],
    "millsfield:images_texts_ids": [
      1527835255,
      1527835259
    ],
    "millsfield:primary_image": 1527835255,
    "millsfield:subcategory_id": 1511213425,
    "mz:hierarchy_label": 1,
    "mz:is_current": 1,
    "sfomuseum:accession_number": "2008.055.922",
    "sfomuseum:airline": "Transcontinental \u0026 Western Air",
    "sfomuseum:airline_id": [
      875
    ],
    "sfomuseum:category": "Scheduling / Ticketing",
    "sfomuseum:classification_id": 158,
    "sfomuseum:collection": "Aviation Archive",
    "sfomuseum:creditline": "Gift of the William Hough Collection",
    "sfomuseum:date": "1947",
    "sfomuseum:date_acquired": "2008-04-13",
    "sfomuseum:daterange_end": "1947-12-31",
    "sfomuseum:daterange_start": "1947-01-01",
    "sfomuseum:description": "Temporary timetable issued by Transcontinental \u0026 Western Air (TWA), effective June 15, 1947; fold-out schedule.",
    "sfomuseum:dimensions": "9 x 4 inches (22.9 x 10.2 cm)",
    "sfomuseum:media_ids": [
      1527835255,
      1527835259
    ],
    "sfomuseum:medium": "paper, ink",
    "sfomuseum:object_id": 91839,
    "sfomuseum:placetype": "object",
    "sfomuseum:primary_media_id": 1527835255,
    "sfomuseum:publication": ": , 1947.",
    "sfomuseum:subcategory": "Timetable",
    "sfomuseum:subject": "Airlines -- Commercial -- TWA (Trans World Airlines)",
    "src:geom": "sfomuseum#undetermined",
    "wof:belongsto": [
      1511214223,
      102527513,
      102191575,
      85633793,
      1511213425,
      85922583,
      102087579,
      1511214277,
      1511214207,
      85688637
    ],
    "wof:breaches": [],
    "wof:country": "XX",
    "wof:created": 1579906665,
    "wof:depicts": [
      1159287531,
      1159285393,
      1159285395
    ],
    "wof:geomhash": "30c8a918561c84bb2daa2b97fc7c5353",
    "wof:hierarchy": [
      {
        "arcade_id": 1511213425,
        "building_id": 1511214277,
        "campus_id": 102527513,
        "concourse_id": 1511214223,
        "continent_id": 102191575,
        "country_id": 85633793,
        "county_id": 102087579,
        "custom_id": 1511931967,
        "locality_id": 85922583,
        "neighbourhood_id": -1,
        "object_id": 1511931967,
        "region_id": 85688637,
        "venue_id": 1511931967,
        "wing_id": 1511214207
      }
    ],
    "wof:id": 1511931967,
    "wof:lastmodified": 1787988180,
    "wof:name": "timetable: TWA (Trans World Airlines)",
    "wof:parent_id": 1159162825,
    "wof:placetype": "custom",
    "wof:placetype_alt": [
      "object"
    ],
    "wof:repo": "sfomuseum-data-collection",
    "wof:superseded_by": [],
    "wof:supersedes": [],
    "wof:tags": []
  },
  "bbox": [
    -122.386155,
    37.616357,
    -122.386155,
    37.616357
  ],
  "geometry": {"type":"Point","coordinates":[-122.386155,37.616357]}
}
