{
  "id": 1913795639,
  "type": "Feature",
  "properties": {
    "date:cessation_lower": "1933-11-12",
    "date:cessation_upper": "1933-11-12",
    "date:inception_lower": "1933-11-12",
    "date:inception_upper": "1933-11-12",
    "edtf:cessation": "1933-11-12",
    "edtf:inception": "1933-11-12",
    "geom:area": 2.475047457570636e-7,
    "geom:bbox": "-122.386472,37.616105,-122.385834,37.616611",
    "geom:latitude": 37.61635747477365,
    "geom:longitude": -122.38615540108617,
    "millsfield:airline_id": [
      1159284991,
      1159285931
    ],
    "millsfield:category_id": 1511214251,
    "millsfield:collection_id": 1511214207,
    "millsfield:company_id": [
      1159286721
    ],
    "millsfield:images": [
      1913801381,
      1913801383,
      1913801385
    ],
    "millsfield:images_colors_refs": {
      "crayola": [
        {
          "hex": "#edd19c"
        },
        {
          "hex": "#bab86c"
        },
        {
          "hex": "#714b23"
        }
      ],
      "css4": [
        {
          "hex": "#000000"
        },
        {
          "hex": "#bdb76b"
        },
        {
          "hex": "#eee8aa"
        },
        {
          "hex": "#556b2f"
        },
        {
          "hex": "#f5deb3"
        }
      ],
      "marekm4": [
        {
          "hex": "#a8a372"
        },
        {
          "hex": "#3e3513"
        },
        {
          "hex": "#e9d7a8"
        },
        {
          "hex": "#b19c6a"
        },
        {
          "hex": "#3c2a0d"
        },
        {
          "hex": "#e5d4a6"
        },
        {
          "hex": "#b19e71"
        },
        {
          "hex": "#422d0e"
        },
        {
          "hex": "#e7d6a8"
        }
      ]
    },
    "millsfield:images_texts": [
      "33\nCABLE ADRESS:\nMANHOCO - MANILA\nALL TELEGRAPHIC CODES\nHUBERT C. ANDERSON\nMANAGER\nKAN\nKOT\nTHE\nSIGN OF SERVICE\nPHILIPPINES\nMANILA HOTEL\nManila, Philippines\nSund ay 01/12\nDear iat Debo-\nSaw a grunte Movie lact might -\nfick Bue andr — was it the the one tor\nsac ia England\n\"Taney our masting - in\nyes hr broo -\nthe nawal typs of\nEnglish picture\nwith poor sound-\nmediocre cast and below standard\nin als reageeto. Wint to bad arty\nslept latr - too a long walk alone\nalong Dewey Blod facing the baiy\nwith the whole Pacifie fleet at\nin a blie sky - bright.\nI neon corie\na hatt mo\none Evr\ndoro in Manila = night a day you\nwile laugh when o sa, that thi\npaprtual samenen of the wräther",
      "would get me down in time. 20\nis lage wrathi and no one can\nrecist it. As you know fir\nAlways maintained that 9 cond\nstand hot wrather for Ever - bout\nan willing to admit the inno\nof that statiment and confro\nthat manila\nwored roituace,\nsap tin bit of ven vigor. and\nvitalit which .\nI might sto\nhar board. Their is neve\na time when you fre cold -\nshouth standing\nin pont of the opening when-\ntomdows ordinaies an ford. you\nnein fre coes.\nThat probabl\nwice suprin you to menn my\nnot liking it -\nmayte it home sickness\nfor ace 9 can think of is home\nright now but anywa, I'm fed\nand oil be glad to go on\nthat boat tomorow\nDirt beca\n2019.121.07800",
      "out to so many dinners that fir\nratin too much in manila and\nnow hair to\nstart cutting down\nagan.\nLittle lonesome today-\nSunday is alway tough. Harr\nbun re rading your citro. Dits\nI sint thee sits of than houses\nand was thinking of many Scott\nand many A with the thind st\nto go to anyone you wishs bout\nwoned cour to\nhai cadd, hav it\nif you think the world liks one.\nconed nit faid but the as sit. Ar\nnot goung.\nCanes any chiness\nfigurs - ito too Enay to make\nmataks \u0026 i'd rathn eet you fit\nyour own when you come own.\nwart git any mandarm coats Ectte.\nAm going out now to T.g. was\nhous\nwher\nI was invited for tea\nHe a his frend one very mies\nAll my look to you eleanet\nBix"
    ],
    "millsfield:images_texts_ids": [
      1913801381,
      1913801383,
      1913801385
    ],
    "millsfield:primary_image": 1913801381,
    "millsfield:subcategory_id": 1511213489,
    "mz:is_approximate": 1,
    "mz:is_current": 1,
    "sfomuseum:accession_number": "2019.121.0780 a b",
    "sfomuseum:airline": "Pan American Airways",
    "sfomuseum:airline_id": [
      685,
      1131
    ],
    "sfomuseum:category": "Employee Career History",
    "sfomuseum:classification_id": 195,
    "sfomuseum:collection": "Aviation Archive",
    "sfomuseum:creditline": "Collection of SFO Museum",
    "sfomuseum:date": "11/12/1933",
    "sfomuseum:date_acquired": "2019-11-22",
    "sfomuseum:daterange_end": "1933-11-12",
    "sfomuseum:daterange_start": "1933-11-12",
    "sfomuseum:description": "Handwritten letter from Harold M. Bixby to his wife, Debby Bixby, dated Sunday, November 12, [1933], on stationery from the Manila Hotel; includes personal matters and observations.",
    "sfomuseum:dimensions": "11 x 8 1/2 inches (27.9 x 21.6 cm)",
    "sfomuseum:medium": "paper, ink",
    "sfomuseum:object_id": 211128,
    "sfomuseum:placetype": "object",
    "sfomuseum:publication": ": , 11/12/1933.",
    "sfomuseum:subcategory": "Correspondence, Personal",
    "src:geom": "sfomuseum#undetermined",
    "wof:belongsto": [
      102527513,
      1159162825,
      102191575,
      85633793,
      102087579,
      85922583,
      85688637,
      1159160869
    ],
    "wof:country": "XY",
    "wof:created": 1714548851,
    "wof:depicts": [
      1159285931,
      1159286721,
      1159284991
    ],
    "wof:geomhash": "c281b9d9eefc83b5710e64b9d646067d",
    "wof:hierarchy": [
      {
        "building_id": -1,
        "campus_id": 102527513,
        "collection_id": 1159162825,
        "concourse_id": 1159162825,
        "continent_id": 102191575,
        "country_id": 85633793,
        "county_id": 102087579,
        "custom_id": 1913795639,
        "locality_id": 85922583,
        "neighbourhood_id": -1,
        "object_id": 1913795639,
        "region_id": 85688637,
        "wing_id": 1159160869
      }
    ],
    "wof:id": 1913795639,
    "wof:lastmodified": 1787988219,
    "wof:name": "correspondence: Harold M. Bixby to Debby Bixby",
    "wof:parent_id": 1159162825,
    "wof:placetype": "custom",
    "wof:placetype_alt": [
      "object"
    ],
    "wof:repo": "sfomuseum-data-collection",
    "wof:superseded_by": [],
    "wof:supersedes": []
  },
  "bbox": [
    -122.38647222518921,
    37.6161053594541,
    -122.38583385944366,
    37.61661101879963
  ],
  "geometry": {"type":"Polygon","coordinates":[[[-122.38647222518921,37.61631782178288],[-122.386434674263,37.61623283692423],[-122.38637566566466,37.61617759671399],[-122.38630056381224,37.6161308549656],[-122.38616108894348,37.6161053594541],[-122.38602161407469,37.6161308549656],[-122.38591432571411,37.61618609521055],[-122.38585531711577,37.61626683087935],[-122.38583385944366,37.61636881265146],[-122.38587141036987,37.61646654505181],[-122.38594114780425,37.61654303118856],[-122.38605380058287,37.61660252035167],[-122.38618254661559,37.61661101879963],[-122.3863059282303,37.61657277577607],[-122.3864185810089,37.61650903735973],[-122.3864668607712,37.61641130501523],[-122.38647222518921,37.61631782178288]]]}
}
