{
  "id": 1913795895,
  "type": "Feature",
  "properties": {
    "date:cessation_lower": "1933-03-14",
    "date:cessation_upper": "1933-03-14",
    "date:inception_lower": "1933-03-14",
    "date:inception_upper": "1933-03-14",
    "edtf:cessation": "1933-03-14",
    "edtf:inception": "1933-03-14",
    "geom:area": 2.475047457570636e-7,
    "geom:bbox": "-122.386472,37.616105,-122.385834,37.616611",
    "geom:latitude": 37.61635747477365,
    "geom:longitude": -122.38615540108617,
    "millsfield:airline_id": [
      1159284991,
      1159285931
    ],
    "millsfield:category_id": 1511214251,
    "millsfield:collection_id": 1511214207,
    "millsfield:company_id": [
      1159286721
    ],
    "millsfield:images": [
      1913800243,
      1913800245,
      1913800247,
      1913800249,
      1913800251
    ],
    "millsfield:images_colors_refs": {
      "crayola": [
        {
          "hex": "#9f8170"
        },
        {
          "hex": "#edd19c"
        },
        {
          "hex": "#fae7b5"
        },
        {
          "hex": "#414a4c"
        }
      ],
      "css4": [
        {
          "hex": "#2f4f4f"
        },
        {
          "hex": "#808080"
        },
        {
          "hex": "#bdb76b"
        },
        {
          "hex": "#f5deb3"
        },
        {
          "hex": "#bc8f8f"
        },
        {
          "hex": "#eee8aa"
        }
      ],
      "marekm4": [
        {
          "hex": "#2e2c1c"
        },
        {
          "hex": "#a49972"
        },
        {
          "hex": "#eddcaa"
        },
        {
          "hex": "#eeddaa"
        },
        {
          "hex": "#a3976e"
        },
        {
          "hex": "#9f956f"
        },
        {
          "hex": "#eadaa9"
        },
        {
          "hex": "#9f9670"
        },
        {
          "hex": "#323123"
        },
        {
          "hex": "#302e1e"
        },
        {
          "hex": "#393421"
        },
        {
          "hex": "#ecddad"
        },
        {
          "hex": "#342d1a"
        },
        {
          "hex": "#a59970"
        },
        {
          "hex": "#ebdaa6"
        }
      ]
    },
    "millsfield:images_texts": [
      "'33\nCATHAY\nHOTEL\nCABLE ADDRESS\n\"CATHOTEL\"\nSHANGHAI, CHINA Juesday 3/14\nDearest Irts.\nwork begins in carnest\ndeal in Reu\nclord - had a cable to that\neffect this Q. In. Chinese\nalicials hair bun ediesed\nO the deal and now\nthe fun begins. ? wee\nprobaby go to\nRanking\nofun negotiations in\nthe next day or two.\nJoday Pawley recure\na lot of maie from home\nbut i got mon\ni. maybe\nthe nate City went wrong",
      "somewhur, and I may git\nsome lettus tomorrow.\nI am certain,\ndistriand our no sailings\nfor ite U.S.\nCalled you\ntonight just so you\nworld hair a message\npom me and not fue\nthat I hair compete\njoyoten you.\nIt sermed\nretravagant when wor arr\ntrying so hard to sack but\nDibs dear 9 hair real,\ngrat practical mathing\nsies leaving home. I change\nrorything to rexprun account\nexcept stamps, the few clothin\nIis had to buy, hair cuts te\nThe last time\nthe total was\nabont\nzo mouths for dress shirt.",
      "CATHAY\nHOTEL\nCABLE ADDRESS\nCATHOTEL**\nSHANGHAI, CHINA\nand collars which I had\nto buy in Seattle.\nI wat shopping the\nothe day with Pawley. the\nbought abont 50090 mek.\nworth of junk - you would\nnot want any of it. I diel\nnot sir anything real,\ngood recept ivory- all\nnew and conorntional in\ndesign. The department\nstore us wint to is a\nmodera Chinese stors -\nAnd quite the most\nremarkable 2vr her sin\nIt woned makes ren mac",
      "look bad by comparison. o\nhai neon in my life sun\nsuch a broad line of goods\nfor example they had a\nstock of bar chocolats with\nall angs of meek chocolats\nin all brands- the counter\nwas at least 30 fut long.\nTheir China was\nlovely -\nlots of caston wear - but\nMr Polin (who is a prach\nby the way said it wored\nte fooes to beg that\nherr brcaun you guat\npray the changes on shippe\nit from Canton. You womes\nlorr\nthat stors though and\nSee take you this ar\nsoon ao you land here.",
      "CATHAY\nHOTEL\nCABLE ADDRESS\nCATHOTEL**\nSHANGHAI, CHINA\nThe had some brantfue\ncame hair robis and material\naloo of courn silks. most\nof the popular lives are\nimported from the U.s. on\ncopied from the U.s. styles.\nAll the propremir chiness\ncopy American clottis str.\nLast night Pawley and\nPolin took me to sir.\n\"A Due of Awarerment\n-\na grand movie. and\nafterwards ur wint to a\nnew. Chiness dance\n\"palacs\" - sort of a shanghai\nDuramland.\nJork it was"
    ],
    "millsfield:images_texts_ids": [
      1913800243,
      1913800245,
      1913800247,
      1913800249,
      1913800251
    ],
    "millsfield:primary_image": 1913800243,
    "millsfield:subcategory_id": 1511213489,
    "mz:is_approximate": 1,
    "mz:is_current": 1,
    "sfomuseum:accession_number": "2019.121.0603 a c",
    "sfomuseum:airline": "Pan American Airways",
    "sfomuseum:airline_id": [
      685,
      1131
    ],
    "sfomuseum:category": "Employee Career History",
    "sfomuseum:classification_id": 195,
    "sfomuseum:collection": "Aviation Archive",
    "sfomuseum:creditline": "Collection of SFO Museum",
    "sfomuseum:date": "03/14/1933",
    "sfomuseum:date_acquired": "2019-11-22",
    "sfomuseum:daterange_end": "1933-03-14",
    "sfomuseum:daterange_start": "1933-03-14",
    "sfomuseum:description": "Handwritten letter from Harold M. Bixby to his wife, Debby Bixby, dated Tuesday, March 14, [1933], on stationery from the Cathay Hotel in Shanghai; includes description of [William] Pawley and Mr. [Max] Polin.",
    "sfomuseum:dimensions": "8 1/4 x 5 1/4 inches (21 x 13.3 cm)",
    "sfomuseum:medium": "paper, ink",
    "sfomuseum:object_id": 210878,
    "sfomuseum:placetype": "object",
    "sfomuseum:publication": ": , 03/14/1933.",
    "sfomuseum:subcategory": "Correspondence, Personal",
    "src:geom": "sfomuseum#undetermined",
    "wof:belongsto": [
      102527513,
      1159162825,
      102191575,
      85633793,
      102087579,
      85922583,
      85688637,
      1159160869
    ],
    "wof:country": "XY",
    "wof:created": 1714548925,
    "wof:depicts": [
      1159284991,
      1159285931,
      1159286721
    ],
    "wof:geomhash": "c281b9d9eefc83b5710e64b9d646067d",
    "wof:hierarchy": [
      {
        "building_id": -1,
        "campus_id": 102527513,
        "collection_id": 1159162825,
        "concourse_id": 1159162825,
        "continent_id": 102191575,
        "country_id": 85633793,
        "county_id": 102087579,
        "custom_id": 1913795895,
        "locality_id": 85922583,
        "neighbourhood_id": -1,
        "object_id": 1913795895,
        "region_id": 85688637,
        "wing_id": 1159160869
      }
    ],
    "wof:id": 1913795895,
    "wof:lastmodified": 1787988219,
    "wof:name": "correspondence: Harold M. Bixby to Debby Bixby",
    "wof:parent_id": 1159162825,
    "wof:placetype": "custom",
    "wof:placetype_alt": [
      "object"
    ],
    "wof:repo": "sfomuseum-data-collection",
    "wof:superseded_by": [],
    "wof:supersedes": []
  },
  "bbox": [
    -122.38647222518921,
    37.6161053594541,
    -122.38583385944366,
    37.61661101879963
  ],
  "geometry": {"type":"Polygon","coordinates":[[[-122.38647222518921,37.61631782178288],[-122.386434674263,37.61623283692423],[-122.38637566566466,37.61617759671399],[-122.38630056381224,37.6161308549656],[-122.38616108894348,37.6161053594541],[-122.38602161407469,37.6161308549656],[-122.38591432571411,37.61618609521055],[-122.38585531711577,37.61626683087935],[-122.38583385944366,37.61636881265146],[-122.38587141036987,37.61646654505181],[-122.38594114780425,37.61654303118856],[-122.38605380058287,37.61660252035167],[-122.38618254661559,37.61661101879963],[-122.3863059282303,37.61657277577607],[-122.3864185810089,37.61650903735973],[-122.3864668607712,37.61641130501523],[-122.38647222518921,37.61631782178288]]]}
}
