{
  "id": 1913795659,
  "type": "Feature",
  "properties": {
    "date:cessation_lower": "1933-01-30",
    "date:cessation_upper": "1933-01-30",
    "date:inception_lower": "1933-01-30",
    "date:inception_upper": "1933-01-30",
    "edtf:cessation": "1933-01-30",
    "edtf:inception": "1933-01-30",
    "geom:area": 2.475047457570636e-7,
    "geom:bbox": "-122.386472,37.616105,-122.385834,37.616611",
    "geom:latitude": 37.61635747477365,
    "geom:longitude": -122.38615540108617,
    "millsfield:airline_id": [
      1159284991,
      1159285931
    ],
    "millsfield:category_id": 1511214251,
    "millsfield:collection_id": 1511214207,
    "millsfield:company_id": [
      1159286721
    ],
    "millsfield:images": [
      1913800063
    ],
    "millsfield:images_colors_refs": {
      "crayola": [
        {
          "hex": "#414a4c"
        },
        {
          "hex": "#efcdb8"
        },
        {
          "hex": "#9f8170"
        }
      ],
      "css4": [
        {
          "hex": "#556b2f"
        },
        {
          "hex": "#808080"
        },
        {
          "hex": "#f5deb3"
        }
      ],
      "marekm4": [
        {
          "hex": "#e5dabb"
        },
        {
          "hex": "#595441"
        },
        {
          "hex": "#968e75"
        }
      ]
    },
    "millsfield:images_texts": [
      "we are going to be vacinated. Groeger was very much worried about the \"shots\" and\nwould have backed out t his morning if I hadn't dug him out of his room and drag-\ned him down to the ship doctor telling him that I had promised Mr.Trippe that I\nwould see to it that we both were vacinated, etc.\nYou may have noticed some improvement in my typewriting, but whether\nyou have or not, I am very glad to have the machine along because it would be\nvery difficult to write long hand with the boat rollång the way it is. They say\nthis weather will last all the way over. You see we follow the great circle\ncourse which takes us far north, in fact we will be within sight (with reasonably\ngood visability) of the Alutian Islands for two or three days.\nGroeger and I sit at a table with the Chief Executive Officer who is\nsecond in command and whose duties on board ship correspond to those of a general\nmanager in busines concerns. He has been so busy that we have seen him only once\nthe rest of the time he has been what the Chinese steward who serves our table\ncalls \"top side\" which I assume means in Mi dwest landlubber language \"up stairs!\nHis name is Claxton and he looks like an English character on the Comic Opera\nstage, but he is very agreable and I imagine rather nice if you could ever get\nunder his conservat ive skin. While I am writing t his we are ploughing through\nthe biggest waves I've ever seen, and just to add to the fun also a snow storm\nof blizzard proportions. Its nice and warm in my stateroom. Groeger has just come\nin to tell me that he feels sort of sick from his innoculation, but I guess its\nnot very serious for his next comment was \"When do we eat\" an indoor pastime at\nwhich I have found him moat proficient. The food is very good and the menu like\nmost ship menus includes every thing from soup to nuts. Groeger has not take n\nmany finesses to date. He is very good company and tells some amusing stories\nabout his experiences on sailing vessels, in flying operations at Havana and in\nBrazil where he has been in charge for Pan American. He has promised to get me\na Honey Bear for Bo. Or maybe we had better give the Honey Be ar to Ralph as\nGroeger says it is Impossible to \"housebreak\" them. He said that he had one for\na year in which time he trained him to get his slippers and do a lot of tricks\nbut he was not able to teach him not to do certain tricks and had to ultimately\nmake a choice between Mrs. Groeger or the Honey Bear. So the H.B. got the air.\nMust stop now for Lunch. Personal message follows, and I'll write\nagam toon. Wilby dearnt que aufull, alone\nOut hers- it some consort to with this to you\nfor o know that later on o wort he quite\nlenero with\nso loreant, and need grade i sen cue\nright. O miss you tribly.\nYour own - trad\n5120/S1PIO"
    ],
    "millsfield:images_texts_ids": [
      1913800063
    ],
    "millsfield:primary_image": 1913800063,
    "millsfield:subcategory_id": 1511213489,
    "mz:is_approximate": 1,
    "mz:is_current": 1,
    "sfomuseum:accession_number": "2019.121.0577",
    "sfomuseum:airline": "Pan American Airways",
    "sfomuseum:airline_id": [
      685,
      1131
    ],
    "sfomuseum:category": "Employee Career History",
    "sfomuseum:classification_id": 195,
    "sfomuseum:collection": "Aviation Archive",
    "sfomuseum:creditline": "Collection of SFO Museum",
    "sfomuseum:date": "01/30/1933",
    "sfomuseum:date_acquired": "2019-11-22",
    "sfomuseum:daterange_end": "1933-01-30",
    "sfomuseum:daterange_start": "1933-01-30",
    "sfomuseum:description": "Typewritten letter from Harold M. Bixby to his wife, Debby Bixby, undated [likely January 30, 1933]; same typewritten text as 2019.121.0576, but with different handwritten message at the end; includes personal and family matters; mentions [Paul] Groeger.",
    "sfomuseum:dimensions": "14 x 8 1/2 inches (35.6 x 21.6 cm)",
    "sfomuseum:medium": "paper, ink",
    "sfomuseum:object_id": 210852,
    "sfomuseum:placetype": "object",
    "sfomuseum:publication": ": , 01/30/1933.",
    "sfomuseum:subcategory": "Correspondence, Personal",
    "src:geom": "sfomuseum#undetermined",
    "wof:belongsto": [
      102527513,
      1159162825,
      102191575,
      85633793,
      102087579,
      85922583,
      85688637,
      1159160869
    ],
    "wof:country": "XY",
    "wof:created": 1714548857,
    "wof:depicts": [
      1159286721,
      1159284991,
      1159285931
    ],
    "wof:geomhash": "c281b9d9eefc83b5710e64b9d646067d",
    "wof:hierarchy": [
      {
        "building_id": -1,
        "campus_id": 102527513,
        "collection_id": 1159162825,
        "concourse_id": 1159162825,
        "continent_id": 102191575,
        "country_id": 85633793,
        "county_id": 102087579,
        "custom_id": 1913795659,
        "locality_id": 85922583,
        "neighbourhood_id": -1,
        "object_id": 1913795659,
        "region_id": 85688637,
        "wing_id": 1159160869
      }
    ],
    "wof:id": 1913795659,
    "wof:lastmodified": 1787988219,
    "wof:name": "correspondence: Harold M. Bixby to Debby Bixby",
    "wof:parent_id": 1159162825,
    "wof:placetype": "custom",
    "wof:placetype_alt": [
      "object"
    ],
    "wof:repo": "sfomuseum-data-collection",
    "wof:superseded_by": [],
    "wof:supersedes": []
  },
  "bbox": [
    -122.38647222518921,
    37.6161053594541,
    -122.38583385944366,
    37.61661101879963
  ],
  "geometry": {"type":"Polygon","coordinates":[[[-122.38647222518921,37.61631782178288],[-122.386434674263,37.61623283692423],[-122.38637566566466,37.61617759671399],[-122.38630056381224,37.6161308549656],[-122.38616108894348,37.6161053594541],[-122.38602161407469,37.6161308549656],[-122.38591432571411,37.61618609521055],[-122.38585531711577,37.61626683087935],[-122.38583385944366,37.61636881265146],[-122.38587141036987,37.61646654505181],[-122.38594114780425,37.61654303118856],[-122.38605380058287,37.61660252035167],[-122.38618254661559,37.61661101879963],[-122.3863059282303,37.61657277577607],[-122.3864185810089,37.61650903735973],[-122.3864668607712,37.61641130501523],[-122.38647222518921,37.61631782178288]]]}
}
