{
  "id": 1964167349,
  "type": "Feature",
  "properties": {
    "date:cessation_lower": "2013-01-01",
    "date:cessation_upper": "2013-12-31",
    "date:inception_lower": "2013-01-01",
    "date:inception_upper": "2013-12-31",
    "edtf:cessation": "2013",
    "edtf:inception": "2013",
    "geom:area": 2.475047457570636e-7,
    "geom:bbox": "-122.386472,37.616105,-122.385834,37.616611",
    "geom:latitude": 37.61635747477365,
    "geom:longitude": -122.38615540108617,
    "millsfield:aircraft_id": [
      1796314381
    ],
    "millsfield:airline_id": [
      1159285179
    ],
    "millsfield:category_id": 1762671311,
    "millsfield:collection_id": 1511214207,
    "millsfield:company_id": [
      1159288685
    ],
    "millsfield:images": [
      1964167489,
      1964167491,
      1964167493
    ],
    "millsfield:images_colors_refs": {
      "crayola": [
        {
          "hex": "#414a4c"
        },
        {
          "hex": "#eceabe"
        },
        {
          "hex": "#ff2b2b"
        },
        {
          "hex": "#ffa343"
        },
        {
          "hex": "#dbd7d2"
        },
        {
          "hex": "#2e5894"
        },
        {
          "hex": "#324ab2"
        },
        {
          "hex": "#bab86c"
        }
      ],
      "css4": [
        {
          "hex": "#4682b4"
        },
        {
          "hex": "#ffa500"
        },
        {
          "hex": "#eee8aa"
        },
        {
          "hex": "#2f4f4f"
        },
        {
          "hex": "#b22222"
        },
        {
          "hex": "#dcdcdc"
        },
        {
          "hex": "#228b22"
        },
        {
          "hex": "#bdb76b"
        },
        {
          "hex": "#daa520"
        }
      ],
      "marekm4": [
        {
          "hex": "#2f65a6"
        },
        {
          "hex": "#2b5db5"
        },
        {
          "hex": "#2a2f22"
        },
        {
          "hex": "#d99c15"
        },
        {
          "hex": "#dcdeb5"
        },
        {
          "hex": "#cc230e"
        },
        {
          "hex": "#355cb2"
        },
        {
          "hex": "#c1b46d"
        },
        {
          "hex": "#dadee4"
        },
        {
          "hex": "#398a1c"
        },
        {
          "hex": "#232838"
        },
        {
          "hex": "#e69f01"
        },
        {
          "hex": "#e0e3d8"
        }
      ]
    },
    "millsfield:images_texts": [
      "CRJ700 CANADAIR REGIONAL JET\n3\nPASSENGER\nSAFETY CARD\nSkyWest\nE S ®",
      "Use of portable electronic devices is\nprohibited when main cabin door\nclosed unless indicated by a crewmember\nSmoking or use of\ne-cigarettes is pronibica di\nanytime onboard the aircraft\nC\nB\nB\nA\nEXT\nSMOKE/FIRE\nWATER\nDEBRIS\nA\nIFPSC4 Rev. 03 04/13",
      "CRJ700 CANADAIR REGIONAL JET\n3\nEXIT SEAT CRITERIA\nIF YOU ARE SEATED IN AN EXIT SEAT, READ THE INFORMATION BELOW\nTo be in compliance with federal regulations, passengers seated in an exit seat must be able to assist\ncrewmembers in the event of an emergency.\n1. Ask the agent or a flight attendant to move you to another seat if:\nYou cannot meet the exit seat criteria;\nYou have a condition that will prevent you from performing the exit seat criteria;\nYou may suffer bodily harm as the result of performing one or more of the exit seat criteria;\nYou do not wish to perform one or more of the exit seat criteria.\nNOTE: You do not have to explain why, simply state, \"I do not want to sit in an exit seat.\"\n2. Passengers sitting in an exit seat must be:\nAt least 15 years of age.\nTraveling with no one that requires special assistance or care, such as a small child or someone\nphysically or mentally unable to care for him or herself.\n3. Passengers sitting in an exit seat must be able to:\nRead and understand English, as well as these instructions and other emergency procedures as\nB. Speak English well enough to relay information to crewmembers and/or other passengers in an\n4.\nemergency.\nC. - Hear and understand commands given to you by crewmembers for opening exits and following\nemergency procedures. Exit seat passengers may use a hearing aid.\nD.\nSee hand signals given by crewmembers and visually assess dangers outside the window/exit,\nsuch as fire, smoke, water, or debris that would make the exit unusable. Exit seat passengers may\nwear glasses or contact lenses.\nE.\nLocate the emergency exit, recognize the emergency exit opening mechanism, and operate the\nemergency exit with sufficient mobility, strength, and dexterity in both arms, both hands, and\nboth legs. Exit seat passengers must be able to:\nReach upward, sideways, and downward to the location of emergency exit opening\nmechanisms;\n• Grasp, push, pull, and turn or otherwise manipulate those mechanisms;\nPush, shove, pull, or otherwise open emergency exits;\nLift out, hold, and deposit the overwing exit door, weighing up to 42 Ibs., out the exit\ndoor opening;\nRemove obstructions similar in size and weight to overwing exit doors;\nReach the emergency exit expeditiously;\n• Maintain balance while removing obstructions;\n• Exit expeditiously.\nF.\nAssess, select, and follow a safe path away from the emergency exit.\nAssist and lead others away from the aircraft.\nPassengers sitting in an exit seat must not:\nA.\nB.\nC.\nTravel with a service animal, emotional support animal, or cabin pet.\nRequire the use of a wheelchair or other assistive device\nRequire the use of a portable oxygen concentrator or supplemental oxygen.\nFederal aviation regulations require passenger compliance with the lighted\npassenger information signs, posted placards, and crewmember instructions.\nATENCIÓN: Leyes federales de aviación requieren que los pasajeros cumplen con información en los\nletreros iluminados, los carteles de aviso, y las instrucciones de la tripulación\nSe aconseja mantener el cinturón de seguridad abrachado todo el tiempo.\nLos pasajeros en los asientos de salida de emergencia deben avisarle a la tripulación si no pueden leer,\nhablar, o entender inglés. No se permite el uso de ciertos aparatos electrónicos portátil durante este vuelo.\nSi es nesesario, pide más información de la tripulación de la cabina de pasejeros.\nDO NOT REMOVE FROM AIRCRAFT\nFinal assembly of this aircraft was completed in Canada\nIFPSC4 Rev. 03 04/13\n2014.054.003\nThis synthetic paper\nis 100% recyclable"
    ],
    "millsfield:images_texts_ids": [
      1964167489,
      1964167491,
      1964167493
    ],
    "millsfield:primary_image": 1964167489,
    "millsfield:subcategory_id": 1511213703,
    "mz:is_approximate": 1,
    "mz:is_current": 1,
    "sfomuseum:accession_number": "2014.054.003",
    "sfomuseum:aircraft": "Canadair CRJ700",
    "sfomuseum:aircraft_id": [
      1476
    ],
    "sfomuseum:airline": "SkyWest Airlines",
    "sfomuseum:airline_id": [
      771
    ],
    "sfomuseum:category": "Passenger Amenity, Archive",
    "sfomuseum:classification_id": 581,
    "sfomuseum:collection": "Aviation Archive",
    "sfomuseum:creditline": "Anonymous gift",
    "sfomuseum:date": "2013",
    "sfomuseum:date_acquired": "2014-04-17",
    "sfomuseum:daterange_end": "2013-12-31",
    "sfomuseum:daterange_start": "2013-01-01",
    "sfomuseum:description": "Safety information card issued by SkyWest Airlines for the Canadair CRJ700 fleet; blue double-sided bi-fold card with illustrations depicting inflight safety and emergency procedures; identification code: IFPSC4 Rev. 03; revision date: 04/13.",
    "sfomuseum:dimensions": "11 x 6 inches (27.9 x 15.2 cm)",
    "sfomuseum:medium": "paper, ink",
    "sfomuseum:object_id": 154043,
    "sfomuseum:placetype": "object",
    "sfomuseum:publication": ": , 2013.",
    "sfomuseum:subcategory": "Safety Information Card",
    "src:geom": "sfomuseum#undetermined",
    "wof:belongsto": [
      102527513,
      1159162825,
      102191575,
      85633793,
      102087579,
      85922583,
      85688637,
      1159160869
    ],
    "wof:country": "XY",
    "wof:created": 1743579138,
    "wof:depicts": [
      1796314381,
      1159288685,
      1159285179
    ],
    "wof:geomhash": "c281b9d9eefc83b5710e64b9d646067d",
    "wof:hierarchy": [
      {
        "building_id": -1,
        "campus_id": 102527513,
        "collection_id": 1159162825,
        "concourse_id": 1159162825,
        "continent_id": 102191575,
        "country_id": 85633793,
        "county_id": 102087579,
        "custom_id": 1964167349,
        "locality_id": 85922583,
        "neighbourhood_id": -1,
        "object_id": 1964167349,
        "region_id": 85688637,
        "wing_id": 1159160869
      }
    ],
    "wof:id": 1964167349,
    "wof:lastmodified": 1787988222,
    "wof:name": "safety information card: SkyWest Airlines, CRJ700 Canadair Regional Jet",
    "wof:parent_id": 1159162825,
    "wof:placetype": "custom",
    "wof:placetype_alt": [
      "object"
    ],
    "wof:repo": "sfomuseum-data-collection",
    "wof:superseded_by": [],
    "wof:supersedes": []
  },
  "bbox": [
    -122.38647222518921,
    37.6161053594541,
    -122.38583385944366,
    37.61661101879963
  ],
  "geometry": {"type":"Polygon","coordinates":[[[-122.38647222518921,37.61631782178288],[-122.386434674263,37.61623283692423],[-122.38637566566466,37.61617759671399],[-122.38630056381224,37.6161308549656],[-122.38616108894348,37.6161053594541],[-122.38602161407469,37.6161308549656],[-122.38591432571411,37.61618609521055],[-122.38585531711577,37.61626683087935],[-122.38583385944366,37.61636881265146],[-122.38587141036987,37.61646654505181],[-122.38594114780425,37.61654303118856],[-122.38605380058287,37.61660252035167],[-122.38618254661559,37.61661101879963],[-122.3863059282303,37.61657277577607],[-122.3864185810089,37.61650903735973],[-122.3864668607712,37.61641130501523],[-122.38647222518921,37.61631782178288]]]}
}
