{
  "id": 1762687339,
  "type": "Feature",
  "properties": {
    "date:cessation_lower": "1932-01-01",
    "date:cessation_upper": "1932-12-31",
    "date:inception_lower": "1932-01-01",
    "date:inception_upper": "1932-12-31",
    "edtf:cessation": "1932",
    "edtf:inception": "1932",
    "geom:area": 2.475047457570636e-7,
    "geom:bbox": "-122.386472,37.616105,-122.385834,37.616611",
    "geom:latitude": 37.61635747477365,
    "geom:longitude": -122.38615540108617,
    "millsfield:airline_id": [
      1159285415
    ],
    "millsfield:category_id": 1511214223,
    "millsfield:collection_id": 1511214207,
    "millsfield:company_id": [
      1159288779
    ],
    "millsfield:images": [
      1762698499,
      1762698503
    ],
    "millsfield:images_colors_refs": {
      "crayola": [
        {
          "hex": "#414a4c"
        },
        {
          "hex": "#ceff1d"
        },
        {
          "hex": "#dbd7d2"
        },
        {
          "hex": "#757575"
        },
        {
          "hex": "#cdc5c2"
        }
      ],
      "css4": [
        {
          "hex": "#708090"
        },
        {
          "hex": "#2f4f4f"
        },
        {
          "hex": "#daa520"
        },
        {
          "hex": "#d3d3d3"
        },
        {
          "hex": "#191970"
        }
      ],
      "marekm4": [
        {
          "hex": "#1c1b3b"
        },
        {
          "hex": "#6c6d8a"
        },
        {
          "hex": "#d3be13"
        },
        {
          "hex": "#212341"
        },
        {
          "hex": "#d7d2c1"
        },
        {
          "hex": "#dbd7c9"
        },
        {
          "hex": "#d9c508"
        }
      ]
    },
    "millsfield:images_texts": [
      "EFFECTIVE JUNE 1, 1932\nUNITED\nAIR LINES\nLOWEST AIR FARES\nIN HISTORY TO...\n137 Cities in 38 States\nSAVE 20% ON RETURN TICKET\nBY BUYING A ROUND TRIP\nSEATTLE\nTACOMA OSPOKANE\nPasco\n•Great Falls\nPORTLAND\nMedford\nRENO\nRock Springs\nCHEYENNE\nSour ali\nPhiladelphie\nN FRANCISCI\ninaton\nWichita\nPonca City\nLOS ANGELES\nOKLAHOMA CITY\nSAN DIEGOR Phoeni\n• Tucsor\nFORT WOR\nCODALLAS\nsalveston\nUNITED\nAir Transportation at Its Best\nCopyright 1931, United Air Lines, Inc.\nBOEING AIR TRANSPORT\nPACIFIC AIR TRANSPORT\nUNITED\nAIR LINES\nNATIONAL AIR TRANSPORT\nVARNEY AIR LINES\nSUBSIDIARY OF UNITED AIRCRAFT \u0026 TRANSPORT CORP.",
      "SEATTLE\nTACOMA\nOSPOKANE\nPasco\nO Great Falls\nPORTLAND\nHelena\nDuluth\nO Butte\nBOISE\n• Medford\nPocatello\nWatertown\nMinneapolis\nSioux Falls\n• St. Paul\nElko\nOgden\nLAKE\nRENO\nSALT\nRock Springs\nCHEYENNE\nSioux City\nLincoln\nlowa City\nCHICAGO\nSacramento\nOAKLAND\nDenverg\nSAN FRANCISCO\nNorth Platte\nOMAH Moines\nMoline\nDes\n• Fresno\nColorado\nSprings\nPuebloo\nWichita,\nmangOSt. Louis\no Louisville\nPonca City\nANGELES\nOKLAHOMA CITY\nTULSA\nSubsidiaries of\nUNITED AIR LINES\nShown with Heavy Lines\nDougla ammaliaso\nFORT WORTH\nШовВеВІ\n••••••••••• •DALLAS\nWacolo\nAusting\nAntoniog\nGalveston\nCONNECTING ROUTES I\nSy,\nAlbany\nNEW YORK\nPittsburgh\nhiladelphia\nflantic\nCity\ntimore\naton\nUNITED AIR LINES\n\"AIR TRANSPORTATION AT ITS BEST\"\nU\nNITED AIR LINES serves forty-six cities in twenty states\nment for transport pilots, are generally recognized as being on a par\nwith direct air and rail connections to scores of other points.\nwith any group of commercial flyers in the world. They are thoroughly\nIts lines, in addition to linking the Atlantic to the Pacific\nexperienced transport pilots, accustomed to all variations of flying\nseaboards, connect the Great Lakes area to the Southwest, the Pacific\nconditions-night or day, winter or summer, at sea level or over\nNorthwest to\nthe Rocky Mountain\nregion and provide the only\nmountainous terrain. Included in the personnel are nine of the\nthrough service on the Pacific Coast.\nnation's ten ranking air mail pilots in point of continuous service.\nUnited Air Lines has a pilot personnel of 150. Their first consider-\nPioneer Operators On Five Strategic, National Routes\nUnited Air Lines' four subsidiaries are the pioneer air mail, express\nand passenger-plane operators on the five strategic, national routes\npictured above.\nThe subsidiary companies of United Air Lines are:\nNational Air Transport (New York-Chicago and Chicago-Dallas);\nBoeing Air Transport (Chicago-San Francisco); Varney Air Lines\n(Salt Lake City-Seattle), and Pacific Air Transport (San Diego-Seattle).\n21,000,000 Miles NIGHT Flying Experience\nUnited Air Lines provides \"air transportation at its best\" - the\nonly air line in the world with 45 million miles flying experienall\nwith more miles flown\nat night (over 21 million miles) than\nEuropean nations combined!\nwhere subsidiaries\ninaugurated air-mail, express and passenger service five years ago,\nUnited AirLines now operates a fleet of 100 Boeing and Ford\nplanes 37,500 miles a day, or 13,500,000 miles annually, over 6,378\nmiles of Government improved and lighted airways.\nFamous Wasp and Hornet Engines\nThe latest features of aeronautical design and construction suggested\nby millions of miles of regular schedule flying are incorporated in\nUnited's fleet of passenger planes, all of which are powered with\nthe reliable Pratt \u0026 Whitney \"Wasp\" and \"Hornet\" engines.\nVeteran Passenger and Mail Pilots\nUnited's veteran passenger and mail pilots, whose average experience\nis more than 20 times the flying experience required by the Govern-\nFour Experts Aground For Every Pilot Aloft\nWith United Air Lines, travel by air is much more than just a plane\nin the sky. Back of the millions of dollars invested in 100 late-type\ntransport planes, modern hangar-depots, servicing plants and ex\ntensive ground facilities, is a highly skilled operating and executive\npersonnel (a ground staff of 600). There are four experts on the\nground for every pilot aloft.\nAll Proved Aids to Air Navigation Employed\nAll proved aids to aerial navigation are employed, including the\nmost extensive two-way voice radio communication system (between\npilots and ground stations) of any air line in the world. This airplane\nradio-telephone equipment not only permits communication between\npilots and ground stations and other planes in flight, but also reception\nof U. S. Department of Commerce directive radio beam signals.\nPilots also have the benefit of the extensive and complete airways\nweather reporting service provided by trained meteorologists of the\nUnited States Weather Bureau and broadcast hourly by the Aero-\nnautics Branch of the Department of Commerce.\nFly With United Air Lines\nBased on the firm foundation of five years' flying experience and\n45,000,000 miles of successful air transport operations, United Air\nLines invites you to travel on its nation-wide air passenger, mail and\nexpress service. \"It Costs No More to Travel by Air\".\n* 2 €"
    ],
    "millsfield:images_texts_ids": [
      1762698499,
      1762698503
    ],
    "millsfield:primary_image": 1762698499,
    "millsfield:subcategory_id": 1511213425,
    "mz:is_current": 1,
    "sfomuseum:accession_number": "2014.082.023",
    "sfomuseum:airline": "United Air Lines",
    "sfomuseum:airline_id": [
      884
    ],
    "sfomuseum:category": "Scheduling / Ticketing",
    "sfomuseum:classification_id": 158,
    "sfomuseum:collection": "Aviation Archive",
    "sfomuseum:creditline": "Gift of Thomas G. Dragges",
    "sfomuseum:date": "1932",
    "sfomuseum:date_acquired": "2015-01-06",
    "sfomuseum:daterange_end": "1932-12-31",
    "sfomuseum:daterange_start": "1932-01-01",
    "sfomuseum:description": "Timetable issued by United Air Lines, effective June 1, 1932; folded multipage booklet; yellow and blue cover with route map, illustration of Boeing 80A, and text promoting low-cost fares.",
    "sfomuseum:dimensions": "9 x 4 inches (22.9 x 10.2 cm)",
    "sfomuseum:medium": "paper, ink, metal",
    "sfomuseum:object_id": 156407,
    "sfomuseum:placetype": "object",
    "sfomuseum:publication": ": , 1932.",
    "sfomuseum:subcategory": "Timetable",
    "src:geom": "sfomuseum#undetermined",
    "wof:belongsto": [
      102527513,
      1159162825,
      102191575,
      85633793,
      102087579,
      85922583,
      85688637,
      1159160869
    ],
    "wof:country": "XY",
    "wof:created": 1641341937,
    "wof:depicts": [
      1159285415,
      1159288779
    ],
    "wof:geomhash": "c281b9d9eefc83b5710e64b9d646067d",
    "wof:hierarchy": [
      {
        "building_id": -1,
        "campus_id": 102527513,
        "collection_id": 1159162825,
        "concourse_id": 1159162825,
        "continent_id": 102191575,
        "country_id": 85633793,
        "county_id": 102087579,
        "custom_id": 1762687339,
        "locality_id": 85922583,
        "neighbourhood_id": -1,
        "object_id": 1762687339,
        "region_id": 85688637,
        "wing_id": 1159160869
      }
    ],
    "wof:id": 1762687339,
    "wof:lastmodified": 1787988195,
    "wof:name": "timetable: United Air Lines",
    "wof:parent_id": 1159162825,
    "wof:placetype": "custom",
    "wof:placetype_alt": [
      "object"
    ],
    "wof:repo": "sfomuseum-data-collection",
    "wof:superseded_by": [],
    "wof:supersedes": []
  },
  "bbox": [
    -122.38647222518921,
    37.6161053594541,
    -122.38583385944366,
    37.61661101879963
  ],
  "geometry": {"type":"Polygon","coordinates":[[[-122.38647222518921,37.61631782178288],[-122.386434674263,37.61623283692423],[-122.38637566566466,37.61617759671399],[-122.38630056381224,37.6161308549656],[-122.38616108894348,37.6161053594541],[-122.38602161407469,37.6161308549656],[-122.38591432571411,37.61618609521055],[-122.38585531711577,37.61626683087935],[-122.38583385944366,37.61636881265146],[-122.38587141036987,37.61646654505181],[-122.38594114780425,37.61654303118856],[-122.38605380058287,37.61660252035167],[-122.38618254661559,37.61661101879963],[-122.3863059282303,37.61657277577607],[-122.3864185810089,37.61650903735973],[-122.3864668607712,37.61641130501523],[-122.38647222518921,37.61631782178288]]]}
}
