{
  "id": 1511935599,
  "type": "Feature",
  "properties": {
    "date:cessation_lower": "1969-01-01",
    "date:cessation_upper": "1969-12-31",
    "date:inception_lower": "1969-01-01",
    "date:inception_upper": "1969-12-31",
    "edtf:cessation": "1969",
    "edtf:date": "1969",
    "edtf:inception": "1969",
    "geom:area": 0,
    "geom:bbox": "-122.386155,37.616357,-122.386155,37.616357",
    "geom:latitude": 37.616357,
    "geom:longitude": -122.386155,
    "iso:country": "XX",
    "millsfield:airline_id": [
      1159284119
    ],
    "millsfield:category_id": 1511214223,
    "millsfield:collection_id": 1511214207,
    "millsfield:company_id": [
      1159288143
    ],
    "millsfield:images": [
      1527832171,
      1527844247
    ],
    "millsfield:images_colors_refs": {
      "crayola": [
        {
          "hex": "#fdbcb4"
        },
        {
          "hex": "#414a4c"
        },
        {
          "hex": "#757575"
        }
      ],
      "css4": [
        {
          "hex": "#ffb6c1"
        },
        {
          "hex": "#2f4f4f"
        },
        {
          "hex": "#808080"
        }
      ],
      "marekm4": [
        {
          "hex": "#8b7375"
        },
        {
          "hex": "#edb6b2"
        },
        {
          "hex": "#584c50"
        },
        {
          "hex": "#322328"
        },
        {
          "hex": "#eeb9b8"
        }
      ]
    },
    "millsfield:images_texts": [
      "101 21\nAERO\n9\n3\n8\n7\n6 5\nCOMMUTER\nand CATALINA AIR LINES\nFLIGHT SCHEDULE\nEFFECTIVE APRIL 30, 1969\n11 121,\n2\n3\n9\n8\n265\nTurbo Tet\nTOMORROW'S SERVICE TODAY!",
      "12\nAERO\n7\n6\n5\nCOMMUTER\nCATALINA AIR LINES\nTOMORROW'S SERVICE... TODAY!\nLEAVE\nFLIGHT\nFREQUENCY\nEQUIPMENT\nSTOPS,\nNUMBER\nARRIVE\nFROM LOS ANGELES (Continued)\nTO EL MONTE\nFare: $5.95\n7:30A\n8:30A\n9:30A\n10:30A\n7:50A\n8:50A\n9:50A\n10:50A\n11:30A\n12:30P\n12:50P\n1:30P\n1:50P\n2:30P\n2:50P\n3:30P\n3:50P\n4:30P\n5:30P\n4:50P\n5:50P\n6:30P\n6:50P\n7:30P\n8:30P\n7:50P\n321\n322\n323\n324\n325\n326\n327\n328\n29\n330\n331\n32\n8:50P\n334\n9:30P\n10:30P\n9:50P\n10:50P\n3:\n35\n336\nTO\nTO\nTO\nEx. Sat.\nDaily\nEX.\nSat.\nDaily\nEx.\nSat.\nDaily\nEx.\nSat.\nDaily\nEx. Sat.\nDaily\nEx. Sat.\nDaily\nEX.\nSat.\nDaily\nEx. Sat.\nDaily\nAll flights use TWA\nSatellite\nTO FULLERTON\nFare: $6.67\n7:05A\n7:25A\n501\n8:05A\n8:25A\n503\nTO\nTO\n8:10A\n9:05A\n8:55A\n9:25A\n500\n505\n9:35A\n10:20A\n11:00A\n506\n11:45A\n507\n12:25P\n12:45P\n1:50P\n3:15P\n2:10P\n508\n3:35P\n509\n4:40P\n5:00P\n510\nTO\nTO\nTO\nTO\nTO\nTO\n51\n6:05P\n6:25P\n513\n6:15P\n6:35P\n514\n7:15P\n7:30P\n7:35P\n7:50P\n515\n517\n8:15P\n8:35P\n8:55P\n9:15P\n518\n520\n9:15P\n9:50P\n9:35P\n521\n10:30P\n522\nTO\nTO\nTO\nTO\nTO\nTO\nTO\nTO\nEx. Sat.\nEx. Sat.\nSat. Only\nEx. Sat.\nDaily\nDaily\nDaily\nDaily\nDaily\nDaily\nSat.\nOnly\nEx. Sat.\nEx. Sat.\nSat. Only\nEx. Sat.\nSat. Only\nEx.\nSat.\nEx. Sat.\nAll flights use\nWestern\nSatellite\nTO LANCASTER\nFare: $7.86\nTO LONG BEACH\nFare: $6.00\n10:05A 10:40A\n5:00P\n5:35P\n526\n525\n10:15A\n10:35A\n337\n11:10A\n11:30A\n11:35A\n1:50P\n11:55A\n347\n536\n2:10P\n4:30P\n4:50P\n350\n525\nTO\nTO\nB-99\nTO\nTO\nTO\n7:10P\n7:30P\n9:00P\n358\n9:20P\n9:10P\n9:30P\n548\n•••\n339\n9:50P\n10:10P\n361\n11:10P |11:30P\n299\nB-99\nDaily\nDaily\nDaily\nEx. Sat.\nDaily\nEx.\nSat.\nDaily\nEx. Sat.\nDaily\nDaily\nEx.\nSat\nEx.\nSat.\nAll 300 Series flights use TWA Satellite\nAll 500 Series flights use Western Satellite\nTO OCEANSIDE -\n8:10A | 9:10A | 528\nTO\nFare: $10.95\n8:10A\n7:30P\n8:50A\n560\n| 8:15P | 549\n0\nTO\nTO\nEx. Sat.\nSat. Only\nDaily\nAll flights use\nWestern\nSatellite\nTO ONTARIO\nFare: $7.62\n6:45A | 7:50A |\n7:45A\n301\n8:50A\n302\n8:45A\n9:50A\n303\n9:45A\n10:50A\n10:45A\n304\n11:50A\n305\n11:45A\n12:50P\n12:45P\n1:25P\n306\n1:45P\n2:25P\n307\n2:45P\n308\n3:25P\n309\n3:45P\n4:25P\n4:45P\n5:25P\n310\n5:45P\n6:25P\n311\n312\n6:30P\n7:00P\n547\n6:45P\n7:25P\n313\n7:45P\n8:25P\n314\n8:45P\n9:25P\n9:45P\n315\n10:25P\n316\n10:45P |11:25P\n317\nTO\nTO\nTO\nTO\nTO\nTO\nTO\nTO\nTO\nTO\nTO\nTO\nTO\nTO\nTO\nTO\nTO\nTO\nSat.\nSat.\nSat.\nSat.\nSat.\nSat.\nFlight #547 uses Western Satellite-All others use TWA Satellite\nAERO\n5\nCOMMUTER\nCATALINA AIR LINES\nTOMORROW'S SERVICE...TODAY!\nLEAVE\nFLIGHT\nFREQUENCY\nEQUIPMENT\nSTOPS\nNUMBER\nARRIVE\nFROM LOS ANGELES (Continued)\nTO ORANGE COUNTY/\nSANTA ANA\nFare: $7.62\n7:15A\n7:40A\n8:10A\n8:35A\n8:10A\n8:35A\n8:15A\n8:40A\n8:25A\n8:50A\n9:35A\n10:00A\n11:00A 11:25A\n12:25P\n1:10P\n1:50P\n3:15P\n2:30P\n4:40P\n3:55P\n5:20P\n6:05P\n6:30P\n6:05P\n6:45P\n7:30P\n7:55P\n7:30P\n8:10P\n8:40P\n9:05P\n8:55P\n9:35P\n9:50P 10:15P\nAll flights use Western\n502\n500\n528\n530\n504\n506\n507\n508\n509\n510\n511\n512\n513\n516\n517\n519\n520\n522\nSatellite\nTO\nOXNARD\nFare: $9.05\n6:50A\n8:10A\n7:30A\n8:50A\n340\n9:30A\n342\n10:10A\n10:50A\n345\n11:30A\n346\n12:10P\n12:50P\n1:30P\n2:10P\n348\n351\n2:50P\n3:30P\n352\n4:10P\n4:50P\n355\n5:30P\n6:10P\n6:50P\n356\n8:20P\n7:30P\n9:00P\n359\n360\n10:00P 10.40P\n364\nAll flights use TWA Satellite\nTO PALM SPRINGS — 8:15A | 9:35A\nFare: $15.00\n9.20P 10:10P|\n530\n1\n550\n0\nAll flights use\nWestern Satellite\nTO\nTO\nTO\nTO\nTO\n••\n90°\nTO\nTO\nTO\nTO\nRIVERSIDE\nFare: $10.52\n6:45A\n7:25A\n301\n7:45A\n8:25A\n302\n8:45A\n9:25A\n303\n9:45A\n0:25A\n304\n10:45A 11:25A\n305\n11:45A\n12:25P\n12:45P\n1:40P\n306\n1:45P\n2:45P\n2:50P\n307\n308\n3:50P\n309\n3:45P\n4:45P\n4:50P\n310\n5:50P\n311\n5:45P\n6:50P\n6:45P\n7:45P\n7:50P\n312\n313\n8:50P\n8:45P\n9:50P\n314\n315\n9:45P 10:50P\n316\nAll flights use TWA Satellite\nTO\nTO\nTO SAN DIEGO\nFare: $15.24\n8:10A\n9:35A\n528\n8:10A |\n9:20A |\nAll flights use Western Satellite\nTO\nTO\nTO SANTA BARBARA -\nFare: $12.00\n8:50A\n9:30A\n365\n11:35A\n1:30P\n12:15P\n2:10P\n366\n5:50P\n6:30P\n367\n8:40P\n9:20P\n368\n369\n10:00P 11:10P\n364\n•••\nAll flights use TWA Satellite\nB-99\nB\n- 99\nB-\n99\n-99\nB-99\nTO\nTO SANTA MARIA -\nFare: $18.00\n2:15A |\n3:15A\n199\n8:50A\n9:55A\n365\n1:30P\n2:40P\n5:50P\n7:00P\n367\n8:40P\n9:50P\n368\n369\nAll flights use TWA Satellite\nB-99\nB-99\nB\nB\n• 99\n-99\n-99\nEx.\nSat.\nSat. Only\nEX.\nSat.\nDaily\nEX.\nSat.\nDaily\nDaily\nDaily\nDaily\nDaily\nDaily\nSat.\nOnly\nSat.\nOnly\nSat.\nOnly\nSat.\nEx. Sat.\nDaily\nEx.\nSat.\nDaily\nEx. Sat.\nDaily\nEx. Sat.\nDaily\nEx.\nSat.\nDaily\nEx. Sat.\nDaily\nDaily\nDaily\nSat.\nSat.\nSat.\nSat.\nSat.\nEx.\nSat.\nSat. Only\nDaily\nDaily\nDaily\nDaily\nEx.\nSat.\nDaily\nEx.\nSun.\nDaily\nDaily\nDaily\nEx. Sat."
    ],
    "millsfield:images_texts_ids": [
      1527832171,
      1527844247
    ],
    "millsfield:primary_image": 1527832171,
    "millsfield:subcategory_id": 1511213425,
    "mz:hierarchy_label": 1,
    "mz:is_current": 1,
    "sfomuseum:accession_number": "2005.132.001.004",
    "sfomuseum:airline": "Catalina Airlines",
    "sfomuseum:airline_id": [
      292
    ],
    "sfomuseum:category": "Scheduling / Ticketing",
    "sfomuseum:classification_id": 158,
    "sfomuseum:collection": "Aviation Archive",
    "sfomuseum:creditline": "Gift of the William Hough Collection",
    "sfomuseum:date": "1969",
    "sfomuseum:date_acquired": "2006-12-05",
    "sfomuseum:daterange_end": "1969-12-31",
    "sfomuseum:daterange_start": "1969-01-01",
    "sfomuseum:description": "Timetable issued by Aero Commuter and Catalina Air Lines, effective April 30, 1969; pink cover with illustration of tail section of aircraft; two route maps and airline contacts on reverse.",
    "sfomuseum:dimensions": "9 x 4 inches (22.9 x 10.2 cm)",
    "sfomuseum:media_ids": [
      1527832171,
      1527844247
    ],
    "sfomuseum:medium": "paper, ink",
    "sfomuseum:object_id": 97433,
    "sfomuseum:placetype": "object",
    "sfomuseum:primary_media_id": 1527832171,
    "sfomuseum:publication": ": , 1969.",
    "sfomuseum:subcategory": "Timetable",
    "src:geom": "sfomuseum#undetermined",
    "wof:belongsto": [
      1511214223,
      102527513,
      102191575,
      85633793,
      1511213425,
      85922583,
      102087579,
      1511214277,
      1511214207,
      85688637
    ],
    "wof:breaches": [],
    "wof:country": "XX",
    "wof:created": 1579906656,
    "wof:depicts": [
      1159284119,
      1159288143
    ],
    "wof:geomhash": "30c8a918561c84bb2daa2b97fc7c5353",
    "wof:hierarchy": [
      {
        "arcade_id": 1511213425,
        "building_id": 1511214277,
        "campus_id": 102527513,
        "concourse_id": 1511214223,
        "continent_id": 102191575,
        "country_id": 85633793,
        "county_id": 102087579,
        "custom_id": 1511935599,
        "locality_id": 85922583,
        "neighbourhood_id": -1,
        "object_id": 1511935599,
        "region_id": 85688637,
        "venue_id": 1511935599,
        "wing_id": 1511214207
      }
    ],
    "wof:id": 1511935599,
    "wof:lastmodified": 1787988182,
    "wof:name": "timetable: Aero Commuter and Catalina Air Lines",
    "wof:parent_id": 1159162825,
    "wof:placetype": "custom",
    "wof:placetype_alt": [
      "object"
    ],
    "wof:repo": "sfomuseum-data-collection",
    "wof:superseded_by": [],
    "wof:supersedes": [],
    "wof:tags": []
  },
  "bbox": [
    -122.386155,
    37.616357,
    -122.386155,
    37.616357
  ],
  "geometry": {"type":"Point","coordinates":[-122.386155,37.616357]}
}
