{
  "id": 1897196813,
  "type": "Feature",
  "properties": {
    "date:cessation_lower": "1942-01-01",
    "date:cessation_upper": "1942-12-31",
    "date:inception_lower": "1942-01-01",
    "date:inception_upper": "1942-12-31",
    "edtf:cessation": "1942~",
    "edtf:inception": "1942~",
    "geom:area": 2.475047457570636e-7,
    "geom:bbox": "-122.386472,37.616105,-122.385834,37.616611",
    "geom:latitude": 37.61635747477365,
    "geom:longitude": -122.38615540108617,
    "millsfield:airline_id": [
      1159285415
    ],
    "millsfield:category_id": 1763416373,
    "millsfield:collection_id": 1511214203,
    "millsfield:company_id": [
      1159288779
    ],
    "millsfield:images": [
      1897196899
    ],
    "millsfield:images_colors_refs": {
      "crayola": [
        {
          "hex": "#8a795d"
        },
        {
          "hex": "#6699cc"
        },
        {
          "hex": "#9f8170"
        },
        {
          "hex": "#414a4c"
        },
        {
          "hex": "#cdc5c2"
        }
      ],
      "css4": [
        {
          "hex": "#2f4f4f"
        },
        {
          "hex": "#778899"
        },
        {
          "hex": "#c0c0c0"
        },
        {
          "hex": "#808080"
        }
      ],
      "marekm4": [
        {
          "hex": "#453d39"
        },
        {
          "hex": "#c9c1b9"
        },
        {
          "hex": "#89776c"
        },
        {
          "hex": "#958779"
        },
        {
          "hex": "#778ec0"
        }
      ]
    },
    "millsfield:images_texts": [
      "2181IN\nARLINA\nA Salute to Transportation\n•.DOING A JOB FOR THE NATION!\nThis is a war of transportation. The materials of war are now being produced in great\nquantities. Men are being trained for the Army and Navy in every corner of the land.\nKnitting this vast continent together... moving men and materials of war from one\npart of the United States to another with utmost speed... and then to the battle grounds\noverseas... that is the job of transportation.... And it is a job that is being well done!\nWe of United Air Lines are as proud of the job\nothers are doing as we are of our own. And that\ngoes for the other airlines, the railroads, the mer-\nchant marine, the bus and truck lines.\nNaturally, we know more about our own indus-\ntry than we do about the others in the transporta-\ntion field. With fewer planes, we, the airlines of\nthe country, are maintaining schedules that com\npare favorably with peacetime ones...and our\noperating standards are at bighest efficiency.\nIn travel time, we have shrunk the United States\nto the size of Pennsylvania. During the last war\nit took five days to cross the continent-now\nit is overnight. New York was nearly a full day's\njourney from Chicago-now it is less than five\nhours.\nThis saving of time is of incalculable\nvalue to the whole war effort. Thousands of key\nmen, civilians as well as Army and Navy officers\nand Government officials, are saving priceless\nhours because they fly.\nNot much can be told about it yet, but in addi-\ntionto maintaining an extensive domestictransport\nsystem the airlines are flying cargoes and passen-\ngers to all parts of the world.\nMuch of the credit for the airlines' war achieve-\nments must go to their 50,000 men and women:\nthe mechanics, the pilots, the dispatchers, the\nradio operators, the engineers and inspectors,\nthe meteorologists, the traffic and reservations\npersonnel, the passenger agents and the steward-\nesses, and the many other aircraftsmen who are\nserving so vitally in saving time for the nation.\nTheirs is a task that requires skill and judgment\nand experience. Like the men and women of many\nother war industries, they have an important job\nto do... and they are doing it well.\n*\n*\n*\n*\nUnited\nAIR\nUNITED UNH\nAIR LINES\nTHE MAIN LINE AIRWAY\nBUY\nWAR BONDS FOR VICTORY"
    ],
    "millsfield:images_texts_ids": [
      1897196899
    ],
    "millsfield:primary_image": 1897196899,
    "millsfield:subcategory_id": 1511213365,
    "mz:is_approximate": 1,
    "mz:is_current": 1,
    "sfomuseum:accession_number": "2015.148.008",
    "sfomuseum:airline": "United Air Lines",
    "sfomuseum:airline_id": [
      884
    ],
    "sfomuseum:artist": "Ruth Taylor",
    "sfomuseum:category": "Promotional, Museum",
    "sfomuseum:classification_id": 128,
    "sfomuseum:collection": "Aviation Museum",
    "sfomuseum:creditline": "Collection of SFO Museum",
    "sfomuseum:date": "c. 1942",
    "sfomuseum:date_acquired": "2015-12-02",
    "sfomuseum:daterange_end": "1947-12-31",
    "sfomuseum:daterange_start": "1937-01-01",
    "sfomuseum:description": "Poster produced by United Air Lines promoting the purchase of war bonds; black and white illustration of Douglas DC-3 aircraft in flight over an industrial port; text “A Salute to Transportation / ...Doing A Job For The Nation!” with additional text; airline servicemark at lower right.",
    "sfomuseum:dimensions": "42 1/2 x 27 1/2 inches (108 x 69.9 cm)",
    "sfomuseum:medium": "paper, ink",
    "sfomuseum:object_id": 173422,
    "sfomuseum:placetype": "object",
    "sfomuseum:publication": ": , c. 1942.",
    "sfomuseum:subcategory": "Poster, Airline",
    "src:geom": "sfomuseum#undetermined",
    "wof:belongsto": [
      102527513,
      1159162825,
      102191575,
      85633793,
      102087579,
      85922583,
      85688637,
      1159160869
    ],
    "wof:country": "XY",
    "wof:created": 1706171488,
    "wof:depicts": [
      1159285415,
      1159288779
    ],
    "wof:geomhash": "c281b9d9eefc83b5710e64b9d646067d",
    "wof:hierarchy": [
      {
        "building_id": -1,
        "campus_id": 102527513,
        "collection_id": 1159162825,
        "concourse_id": 1159162825,
        "continent_id": 102191575,
        "country_id": 85633793,
        "county_id": 102087579,
        "custom_id": 1897196813,
        "locality_id": 85922583,
        "neighbourhood_id": -1,
        "object_id": 1897196813,
        "region_id": 85688637,
        "wing_id": 1159160869
      }
    ],
    "wof:id": 1897196813,
    "wof:lastmodified": 1787988218,
    "wof:name": "poster: United Air Lines, A Salute to Transportation",
    "wof:parent_id": 1159162825,
    "wof:placetype": "custom",
    "wof:placetype_alt": [
      "object"
    ],
    "wof:repo": "sfomuseum-data-collection",
    "wof:superseded_by": [],
    "wof:supersedes": []
  },
  "bbox": [
    -122.38647222518921,
    37.6161053594541,
    -122.38583385944366,
    37.61661101879963
  ],
  "geometry": {"type":"Polygon","coordinates":[[[-122.38647222518921,37.61631782178288],[-122.386434674263,37.61623283692423],[-122.38637566566466,37.61617759671399],[-122.38630056381224,37.6161308549656],[-122.38616108894348,37.6161053594541],[-122.38602161407469,37.6161308549656],[-122.38591432571411,37.61618609521055],[-122.38585531711577,37.61626683087935],[-122.38583385944366,37.61636881265146],[-122.38587141036987,37.61646654505181],[-122.38594114780425,37.61654303118856],[-122.38605380058287,37.61660252035167],[-122.38618254661559,37.61661101879963],[-122.3863059282303,37.61657277577607],[-122.3864185810089,37.61650903735973],[-122.3864668607712,37.61641130501523],[-122.38647222518921,37.61631782178288]]]}
}
