{
  "id": 1511909731,
  "type": "Feature",
  "properties": {
    "date:cessation_lower": "1981-01-01",
    "date:cessation_upper": "1981-12-31",
    "date:inception_lower": "1981-01-01",
    "date:inception_upper": "1981-12-31",
    "edtf:cessation": "1981",
    "edtf:date": "1981",
    "edtf:inception": "1981",
    "geom:area": 0,
    "geom:bbox": "-122.386155,37.616357,-122.386155,37.616357",
    "geom:latitude": 37.616357,
    "geom:longitude": -122.386155,
    "iso:country": "US",
    "millsfield:airline_id": [
      1159285413
    ],
    "millsfield:category_id": 1511214223,
    "millsfield:collection_id": 1511214207,
    "millsfield:company_id": [
      1159288779
    ],
    "millsfield:images": [
      1527838837
    ],
    "millsfield:images_colors_refs": {
      "crayola": [
        {
          "hex": "#dbd7d2"
        },
        {
          "hex": "#9c2542"
        },
        {
          "hex": "#1164b4"
        },
        {
          "hex": "#6699cc"
        }
      ],
      "css4": [
        {
          "hex": "#6495ed"
        },
        {
          "hex": "#dcdcdc"
        },
        {
          "hex": "#483d8b"
        },
        {
          "hex": "#b22222"
        }
      ],
      "marekm4": [
        {
          "hex": "#c61316"
        },
        {
          "hex": "#1a4eb5"
        },
        {
          "hex": "#6c8dc5"
        },
        {
          "hex": "#e4dfd4"
        }
      ]
    },
    "millsfield:images_texts": [
      "/ UNITED AIRLInES\nRUS\nDenver\nEffective July 2, 1981\nLeave\nArrive\nFlight\nService Via\nTo Akron, Ohio/\nCanton, Ohio. (EDT)\n10:20a\n5:44p\n914 / 616\nChi\n3:50р\n10:06p\n492 / 552\n: 7 X • Chi\nFrom Akron, Ohio/\n535-5792\nCanton, Ohio. (EDT)\n453-8201\n7:30a\n11:49a\n431 / 263\n• y so Chi\n11:45a\n4:35р\n2:30p\n365 / 463\n8:12D\n7 X • Chi\n534 / 461\n8:15p\n10:58P\n573 / 237\nChi\n* Chi\nTo Allentown /Bethlehem /\nEaston, Penn. (EDT)\n7:35a\n2:17p\n280 / 898\n12:50p\n9:18p\nA YX•Chi\n240 / 812 • * X •Chi\nFrom Allentown /Bethlehem /\nEaston, Penn. (EDT)\n215-821-7870\n8:05a\n11:49a\n619 / 263\n10:05a\n2:30p\n• Yao Chi\n279 / 463л 7 X • Chi\n4:30p\n8:12p\n383 / 461\n7X\nTo Baltimore, Md. (EDT)\n7:35a\n2:25p\n10:20a\n5:04p\n1:05p\n6:15p\n4:40p\n9:50p\n280 / 338\n914 / 242\n162\n174\nFrom Baltimore, Md. (EDT)\n766-7600\n7:30a\n8:00a\n9:05a\n11:10a\n11:49a\nx\n0\n2:30p\n107 / 463\n1:55p\n6:10p\n5:10p\n68/08 1 72001\n669 / 205\n7:45р\n7:30p\n177\n0\n10:58p\n667 / 237 ^ •x•Ch\nTo Birmingham, Ala. (CDT)\n11:15a\n3:22р\n406\nFrom Birmingham, Ala. (CDT)\n4:10p\n7:00p\n7X\n326-4123\n7X\nTo Boise, Id. (MDT)\n10:00a\n11:49a\n9:10p\n10:52p\n587\n233\nFrom Boise, Id. (MDT)\n• •\n342-2781\n8:50a\n2:00p\n10:27a\n3:34p\n726\n798\n00\nTo Boston, Mass. (EDT)\n7:35a\n2:44p\n280 / 366\n5:00p\nX • Chi\n11:15a\n154\n7X\n12:50p\n4:40p\n8:18p\n240 / 200 л\n7 X• Chi\n10:20p\n368\nFrom Boston, Mass. (EDT)\n9:20a\n10:45a\n11:35a\n861\n2:30p\n171 / 463\n1:10p\n4:00p\n5:10p\n8:12p\n205\n135 / 461\n6:05p\n6:45p\n8:20p\n631\n10:58p\n237\n482-7900\nл 1X\n0\n7X•Chi\n7 X• Chi\n7X\n7x.i\nLeave\nArrive Flight\nService Via\nTo Buffalo, /\nNiagara Falls N.Y. (EDT)\n10:20a\n4:39p\n914 / 496\n7X\n11:35a\n3:50p\n6:27p\n642 / 70\n10:20p\n492 / 300\nFrom Buffalo, /\nChi\nCle\n7 X • Chi\n856-2900\nNiagara Falls N.Y. (EDT)\n8:45a\n5:22р\n11:49a\n8:10p\n8:12p\n687 / 263\n289 / 461\n10:58p\n421 / 237\nY see Chi\nChi\nFrom Cancun, Mx. (CST)\n1:05p\n10:58p\n41 / 237\n1:10p\n2:20p\n10:58p\n39 / 237\n2:25p\n10:58p\n45 / 237\n10:58p\n65 / 237\n3-00-99\n7X• Chi\n7 X• Chi\n7 X • Chi\n7 X • Chi\nTo Cedar Rapids/\nlowa City, la. (CDT)\n12:55p\n3:37p\n8:05p\n11:30p\n576\n512\nFrom Cedar Rapids/\nlowa City, la. (CDT)\n364-2481\n1-800-323-8711\n7:30a\n4:25p\n9:06a\n819\n7:20p\n7:46p\n227 / 441\n8:08p\n895\nDsm\nTo Charlotte, N.C. (EDT)\n11:20a\n4:10p\n3:50p\n9:43p\n356\n418 / 244\nMem\nFrom Charlotte, N.C. (EDT)\n8:55a\n11:44a\n7:00p\n203 / 251\n8:15p\n411\n0\nTo Chicago, III. (CDT)\n7:35a\n10:45a (0)\n280\n10:20a\n1:31p (0)\n914\n12:50p\n3:50p\n4:06p (0)\n240\nTX\n7X•\n7:03p (0)\n6:30p\n492\n9:36p (0)\n916\nFrom Chicago, III. (CDT)\n569-3000\n10:25a (0) 11:49a\n1:10p (0)\n2:30p\n263\n463\n3:45p (0)\n6:45p (0)\n5:10p\n205\n8:12p\n461\n9:40p (0) 10:58p\n237\nYX®\n\" Y\nTo Cincinnati, O. (EDT)\n7:35a\n1:41p\n280 / 816 ^ 7 X• Chi\nх6 10:20a\n12:50p\n4:21p\n914 / 758\nChi\n3:50p\n7:01p\n240 / 352 ^ 7 X• Chi\n10:11p\n492 / 778л 7 X• Chi\nFrom Cincinnati, O. (EDT)\n8:55a\n12:05p\n11:49a\n721-3303\n561 / 263\nA Yao Chi\n2:30p\n831 / 46:\n2:35p\n5:10p\n603 / 205\n5:40p\n8:12p\n897 / 461\n7 see Chi\n7 X Chi\nThe friendly skies\nUNITED AIRLINES"
    ],
    "millsfield:images_texts_ids": [
      1527838837
    ],
    "millsfield:primary_image": 1527838837,
    "millsfield:subcategory_id": 1511213425,
    "mz:hierarchy_label": 1,
    "mz:is_current": 1,
    "sfomuseum:accession_number": "1999.047.454",
    "sfomuseum:airline": "United Airlines",
    "sfomuseum:airline_id": [
      883
    ],
    "sfomuseum:category": "Scheduling / Ticketing",
    "sfomuseum:classification_id": 158,
    "sfomuseum:collection": "Aviation Archive",
    "sfomuseum:continent": "North America",
    "sfomuseum:country": "United States",
    "sfomuseum:creditline": "Gift of United Airlines Archives",
    "sfomuseum:date": "1981",
    "sfomuseum:date_acquired": "2000-05-11",
    "sfomuseum:daterange_end": "1981-12-31",
    "sfomuseum:daterange_start": "1981-01-01",
    "sfomuseum:description": "Joint quick reference timetable issued by United Airlines and Air U.S. for service to and from Denver, effective July 2, 1981; tri-fold format.",
    "sfomuseum:dimensions": "9 x 4 inches (22.9 x 10.2 cm)",
    "sfomuseum:media_ids": [
      1527838837
    ],
    "sfomuseum:medium": "paper, ink",
    "sfomuseum:object_id": 49808,
    "sfomuseum:placetype": "object",
    "sfomuseum:primary_media_id": 1527838837,
    "sfomuseum:publication": ": , 1981.",
    "sfomuseum:subcategory": "Timetable",
    "src:geom": "sfomuseum#undetermined",
    "wof:belongsto": [
      102191575,
      85633793,
      136253057,
      1511214223,
      102527513,
      1511213425,
      85922583,
      102087579,
      1511214277,
      1511214207,
      85688637
    ],
    "wof:breaches": [],
    "wof:country": "US",
    "wof:created": 1579906676,
    "wof:depicts": [
      1159288779,
      1159285413
    ],
    "wof:geomhash": "30c8a918561c84bb2daa2b97fc7c5353",
    "wof:hierarchy": [
      {
        "continent_id": 102191575,
        "country_id": 85633793,
        "custom_id": 1511909731,
        "empire_id": 136253057,
        "object_id": 1511909731,
        "venue_id": 1511909731
      },
      {
        "arcade_id": 1511213425,
        "building_id": 1511214277,
        "campus_id": 102527513,
        "concourse_id": 1511214223,
        "continent_id": 102191575,
        "country_id": 85633793,
        "county_id": 102087579,
        "custom_id": 1511909731,
        "locality_id": 85922583,
        "neighbourhood_id": -1,
        "object_id": 1511909731,
        "region_id": 85688637,
        "venue_id": 1511909731,
        "wing_id": 1511214207
      }
    ],
    "wof:id": 1511909731,
    "wof:lastmodified": 1787988176,
    "wof:name": "timetable: United Airlines and Air U.S., Denver",
    "wof:parent_id": 1159162825,
    "wof:placetype": "custom",
    "wof:placetype_alt": [
      "object"
    ],
    "wof:repo": "sfomuseum-data-collection",
    "wof:superseded_by": [],
    "wof:supersedes": [],
    "wof:tags": []
  },
  "bbox": [
    -122.386155,
    37.616357,
    -122.386155,
    37.616357
  ],
  "geometry": {"type":"Point","coordinates":[-122.386155,37.616357]}
}
