{
  "id": 1762832719,
  "type": "Feature",
  "properties": {
    "date:cessation_lower": "1963-01-01",
    "date:cessation_upper": "1963-12-31",
    "date:inception_lower": "1963-01-01",
    "date:inception_upper": "1963-12-31",
    "edtf:cessation": "1963",
    "edtf:inception": "1963",
    "geom:area": 2.475047457570636e-7,
    "geom:bbox": "-122.386472,37.616105,-122.385834,37.616611",
    "geom:latitude": 37.61635747477365,
    "geom:longitude": -122.38615540108617,
    "millsfield:aircraft_id": [
      1159290223
    ],
    "millsfield:airline_id": [
      1159283849
    ],
    "millsfield:category_id": 1762671311,
    "millsfield:collection_id": 1511214207,
    "millsfield:company_id": [
      1159293605
    ],
    "millsfield:images": [
      1762898941
    ],
    "millsfield:images_colors_refs": {
      "crayola": [
        {
          "hex": "#efdecd"
        },
        {
          "hex": "#9f8170"
        },
        {
          "hex": "#414a4c"
        }
      ],
      "css4": [
        {
          "hex": "#dcdcdc"
        },
        {
          "hex": "#808080"
        },
        {
          "hex": "#2f4f4f"
        }
      ],
      "marekm4": [
        {
          "hex": "#eae1cc"
        },
        {
          "hex": "#322f25"
        },
        {
          "hex": "#928b74"
        }
      ]
    },
    "millsfield:images_texts": [
      "DETAIL\nMAIN ENTRANCE \u0026 SERVICE DOORS\nTHERE ARE FOUR DOORS\nTo open, push release catch, pull handle, rotate\nto straight position and swing open.The door\nmoves upwards os the handle is turned.\nAMERICAN AIRLINES\nHYDRAULIC FLUID\nRESERVOIRS\nHydraulic Fluid Reservoirs\ncontain Skydrol 500 which\nis fire resistant but not\nfire proof. Avoid body contact\nwith fluid.\nSEE DETAIL B\n0000000\n0000 g\nSEE DETAIL D\nDETAIL\nEMERGENCY EXIT DOORS\nTHERE IS ONE OVER EACH WING\nTo open from the outside, push plate, push door\nin, pull out. A rope is located in the upper\nwindowsill if needed.\nFIRST AID KITS\nGenerally located in closets\nFIRE EXTINGUISHERS\nA portable CO2 unit is located\nin the flight compartment.\nThree portable liquid units\nare located in main cabin.\nSEE DETAIL E\nDETAIL C\nPILOT \u0026 CO-PILOT SLIDING WINDOWS\nTo open, push release, grasp handle and crank open\nthe window. A rope is fostened and stored inside a panel\nover both windows in the cockpit ceiling if needed.\n28-VOLT BATTERY\nLocated above on right\nside of access panel above\nthe nose wheel well\nNOSE \u0026 MAIN\nLANDING GEAR AREAS\nSkydrol 500 may ignite\nspontaneously over 1100°F\nif it contacts overheated\nbrakes. Keep clear of overheated\ntires. Approach from front or\nback, not broadside.\nSEE DETAIL C\nDETAIL D\nEMERGENCY LIGHTS\nPortable emergency lights are located adjacent to each\ndoor and over the window emergency exits.\nMAIN AIR CONDITIONING DUCT.\nOXYGEN TUBING\nWINDOW FRAME\nDETAIL\nE\nPORTABLE\nEQUIPMENT AND OXYGEN\nSMOKE MASKS\nPortable oxygen\nequipment is located in or adjacent to\ncoat closets and buffets and in the flight compartment.\nSTRINGERS\nFLOORS\nHYDRAULIC LINE\nFIRST AID KITS\nINFLATABLE TYPE\nEVACUATION SLIDES\nare located at allfour doors\nFUEL TANK VENT SCOOPS\nare located in anti-shock bodies\nFuel vapors or spillage may occur;\nkeep clear.\n0°\nO00C\nSEE DETAIL A\nOXYGEN \u0026 HYDRAULIC\nSYSTEM TUBING\nMain oxygen bottles on left\nside of flight compartment.\nHydraulic tubing along left\nside of fuselage under floor\nand in wing leading edges.\nAvoid cutting, rupturing or\nheating bottles and tubing.\n42\nINCHES?\nCABIN TRIM IS\nFIBERGLAS \u0026 PLASTIC\nFIBERGLAS DUCT\nЗ ЕЕЕТ-ОРТІМОМ\nCUT THROUGH AREA\nNOTE: This is very\ndifficult and will\ntake considerable\ntime\nENGINE OIL TANKS\nTypical eoch engine\nFUEL TANKS\nAll kerosene type fuel is\ncontained in the wings,\nfuselage center-section,\nanti-shock bodies and\nfuel lines in pylons.\nENGINE FIRE\nCONTROL DOORS\n(TYPICAL EACH ENGINE)\nPush door in with CO,\nextinguisher nozzle;\nactuate extinguisher.\nENGINE INLET \u0026\nEXHAUST AREAS\nSuction danger area\nexists in 25ft. radius in\nfront of each engine\nwhen engines are\noperating.\nExhaust danger area\nexists forloOft. aft of\nengines when engines\nare operating and\nimmediately after\nengine shut down.\nGROUND\nEMERGENCY FEATURES\nCONVAIR 990\n5/1/63"
    ],
    "millsfield:images_texts_ids": [
      1762898941
    ],
    "millsfield:primary_image": 1762898941,
    "millsfield:subcategory_id": 1511213703,
    "mz:is_current": 1,
    "sfomuseum:accession_number": "2010.005.021",
    "sfomuseum:aircraft": "Convair 990",
    "sfomuseum:aircraft_id": [
      389
    ],
    "sfomuseum:airline": "American Airlines",
    "sfomuseum:airline_id": [
      169
    ],
    "sfomuseum:category": "Passenger Amenity, Archive",
    "sfomuseum:classification_id": 581,
    "sfomuseum:collection": "Aviation Archive",
    "sfomuseum:creditline": "Gift of Bard Cosman",
    "sfomuseum:date": "1963",
    "sfomuseum:date_acquired": "2010-05-05",
    "sfomuseum:daterange_end": "1963-12-31",
    "sfomuseum:daterange_start": "1963-01-01",
    "sfomuseum:description": "Safety information card issued by American Airlines for the Convair 990; white double-sided sheet with illustrations and text demonstrating safety instructions and emergency procedures; dated 5/1/1963.",
    "sfomuseum:dimensions": "11 x 8 1/2 inches (27.9 x 21.6 cm)",
    "sfomuseum:medium": "paper, ink",
    "sfomuseum:object_id": 105208,
    "sfomuseum:placetype": "object",
    "sfomuseum:publication": ": Air Transport Association of America, Inc, 1963.",
    "sfomuseum:publisher": "Air Transport Association of America, Inc",
    "sfomuseum:subcategory": "Safety Information Card",
    "src:geom": "sfomuseum#undetermined",
    "wof:belongsto": [
      102527513,
      1159162825,
      102191575,
      85633793,
      102087579,
      85922583,
      85688637,
      1159160869
    ],
    "wof:country": "XY",
    "wof:created": 1642730540,
    "wof:depicts": [
      1360700619,
      1159283849,
      1159290223,
      1159293605
    ],
    "wof:geomhash": "c281b9d9eefc83b5710e64b9d646067d",
    "wof:hierarchy": [
      {
        "building_id": -1,
        "campus_id": 102527513,
        "collection_id": 1159162825,
        "concourse_id": 1159162825,
        "continent_id": 102191575,
        "country_id": 85633793,
        "county_id": 102087579,
        "custom_id": 1762832719,
        "locality_id": 85922583,
        "neighbourhood_id": -1,
        "object_id": 1762832719,
        "region_id": 85688637,
        "wing_id": 1159160869
      }
    ],
    "wof:id": 1762832719,
    "wof:lastmodified": 1787988202,
    "wof:name": "safety information card: American Airlines, Convair 990",
    "wof:parent_id": 1159162825,
    "wof:placetype": "custom",
    "wof:placetype_alt": [
      "object"
    ],
    "wof:repo": "sfomuseum-data-collection",
    "wof:superseded_by": [],
    "wof:supersedes": []
  },
  "bbox": [
    -122.38647222518921,
    37.6161053594541,
    -122.38583385944366,
    37.61661101879963
  ],
  "geometry": {"type":"Polygon","coordinates":[[[-122.38647222518921,37.61631782178288],[-122.386434674263,37.61623283692423],[-122.38637566566466,37.61617759671399],[-122.38630056381224,37.6161308549656],[-122.38616108894348,37.6161053594541],[-122.38602161407469,37.6161308549656],[-122.38591432571411,37.61618609521055],[-122.38585531711577,37.61626683087935],[-122.38583385944366,37.61636881265146],[-122.38587141036987,37.61646654505181],[-122.38594114780425,37.61654303118856],[-122.38605380058287,37.61660252035167],[-122.38618254661559,37.61661101879963],[-122.3863059282303,37.61657277577607],[-122.3864185810089,37.61650903735973],[-122.3864668607712,37.61641130501523],[-122.38647222518921,37.61631782178288]]]}
}
