{
  "id": 1511925505,
  "type": "Feature",
  "properties": {
    "date:cessation_lower": "1982-01-01",
    "date:cessation_upper": "1982-12-31",
    "date:inception_lower": "1982-01-01",
    "date:inception_upper": "1982-12-31",
    "edtf:cessation": "1982",
    "edtf:date": "1982",
    "edtf:inception": "1982",
    "geom:area": 0,
    "geom:bbox": "-122.386155,37.616357,-122.386155,37.616357",
    "geom:latitude": 37.616357,
    "geom:longitude": -122.386155,
    "iso:country": "XX",
    "millsfield:airline_id": [
      1159285341
    ],
    "millsfield:category_id": 1511214223,
    "millsfield:collection_id": 1511214207,
    "millsfield:company_id": [
      1159287873
    ],
    "millsfield:images": [
      1527844649,
      1527844651
    ],
    "millsfield:images_colors_refs": {
      "crayola": [
        {
          "hex": "#efdecd"
        },
        {
          "hex": "#1cac78"
        },
        {
          "hex": "#414a4c"
        },
        {
          "hex": "#000000"
        },
        {
          "hex": "#1974d2"
        },
        {
          "hex": "#158078"
        }
      ],
      "css4": [
        {
          "hex": "#008b8b"
        },
        {
          "hex": "#2f4f4f"
        },
        {
          "hex": "#000000"
        },
        {
          "hex": "#4169e1"
        },
        {
          "hex": "#008080"
        },
        {
          "hex": "#f5f5dc"
        }
      ],
      "marekm4": [
        {
          "hex": "#262b1e"
        },
        {
          "hex": "#079178"
        },
        {
          "hex": "#29261b"
        },
        {
          "hex": "#056cc8"
        },
        {
          "hex": "#edebdf"
        },
        {
          "hex": "#edeadd"
        },
        {
          "hex": "#1ca08c"
        }
      ]
    },
    "millsfield:images_texts": [
      "Stops/\nVia\nFrequency\nLeave\nArrive\nFit. No.\nFrom OAKLAND (OAK) Oakland Int'l. Airport, Oakland, California\nTo LOS ANGELES (LAX)\n3\n10:45 a\n12:00 p\nTV 346\nTo SHANNON (SNN)\n3\n10:45 a\n7:00 a + 1\n5\n8:30 p\n2:15p + 1\nTV 346\nTV 344\nFrom SHANNON (SNN) Shannon Int'l. Airport, Shannon, Ireland\nTo Amsterdam\n6\n6\n9:30 a\n9:30 a\n10:30 a\nTV 330\nTV 330\nTV 330\n0\nLAX\n0\n8:00 a\n7:00 a\n8:00 a\nTo CHICAGO (ORD)\n6\n2:00 p\nTo LOS ANGELES (LAX)\n2\n12:00 p\n2\n1:00 p\n2\n1:00 p\nTo NEW YORK (JFK)\n6\n1:30 p\n7\n2:00 p\n2:00 p\n6\n2:30 p\n6\n2:30 p\n6\n6:00 p\nTo OAKLAND (OAK)\n2\n12:00 p\n2\n1:00 p\n5\n1:15 p\n0\n0\n0\n4:00 p\nTV 351\n0\n5:15 p\n5:15 p\n5:15 p\n*TV 347\n*TV 343\n*TV 347\n0\n0\n4:30 p\n4:00\n4:00 p\n4:30 p\n4:30 p\n8:00 p\nTV 331\nTV 311\nTV 307\nTV 331\nTV 331\nTV 309\n0\n0\n0\n0\n0\n0\n8:30 p\n8:30 p\n5:30 p\n*TV 347\n*TV 347\n*TV 345\nLAX\nLAX\n0\nAll times shown are local.\nTransamerica Flights operate on SUPER-73 wide-body interior jet aircraft.\n*TV 343, 345 and 347 - arrival times include provision for possible enroute\nfuel stop. All schedules and aircraft shown are for information only and are\nsubject to change without notice. Because of weather and other factors which\naffect operating conditions, departure and arrival times cannot be guaranteed.\nFor Reservations/Reconfirmation and\nCurrent Fare Information Call:\nCONTINENTAL U.S.A.\n(except in California)\n(800) 227-2888\nWITHIN CALIFORNIA\n(except 415 Area Code)\n(800) 772-2694\nAirport\nTelephone Numbers\nAMSTERDAM\nCHICAGO\nDUBLIN\nLOS ANGELES\nNEW YORK\nOAKLAND\nSHANNON (Call Dublin)\nWITHIN 415 AREA CODE\n577-6300\nFAR AWAY PLACES AT\nDOWN TO EARTH FARES\nPrinted in USA 7/82 50M\nMeals\nS\nS/L/S/CB\nD/S/CB\nS\nS\nS\nLIS\nL/D/S\nL/D/S\nL/D/S\nUS\nL/S\nL/S\nUS\nDIS\nL/S/D/S\nL/S/D/S\nUS/D\nMeal Codes\nB-Breakfast\nD-Dinner\nL-Lunch\nS-Snack\nCB-Continental\nBreakfast\nFor Reservations\n\u0026 Reconfirmation\n(020) 174711\n(800) 227-2888\n(01) 770551\n(800) 772-2694\n(800) 227-2888\n(415) 577-6300\n(01) 770551\nFlight Time\nInformation\n(020) 5110432\n(312) 686-7681\n(01) 770551\n(213) 646-3301\n(212) 632-2750\n(415) 562-6227\n(01) 770551\nTransamerica\nAirlines\nE-Effective\nD-Discontinued\nE9/08\nE9/08\nE10/16\nE10/30\nE11/06\nE10/26\nE9/07\nE10/30\nE10/16\nE11/06\nE10/26\nE9/07\nD10/13\nD10/13\nD9/03\nD10/22\nD10/29\nD10/02\nD10/26\nD8/31\nD10/19\nD10/30\nD10/17\nD10/14\nD10/23\nD9/04\nD10/26\nD10/19\nD9/03\nFrequency Codes\n2 Tuesday 4 Fridaday\n2 Tuesday\n3 Wednesday 6 Saturday\n7 Sunday",
      "Ireland \u0026 Holland\nTransamerica Airlines\n1982 Fall Schedule\nStops/\nVia\nFrequency\nLeave\nArrive\nFit. No.\nFrom AMSTERDAM (AMS) Schiphol Airport, Amsterdam, The Netherlands\nTo NEW YORK (JFK)\n6\n11:30 a\n2 6\n11:45 p\n6\n12:30 p\n26\n12:45 p\n4:30 p\n2:45\np\n4:30\n2:45\nTV 331\nTV 301\nTV 331\nTV 301\nSNN\n0\nSNN\n0\nTo SHANNON (SNN)\n6\n11:30 a\n1:15 p\n6\n11:30 a\n12:15 p\n6\n12:30 p\n1:15 p\nTV 331\nTV 331\nTV 331\n0\n0\nFrom CHICAGO (ORD) O'Hare Int'l. Airport, Chicago, Illinois\nTO SHANNON\n5\n10:00 p\n11:00 a + 1\nTV 350\nFrom LOS ANGELES (LAX) Los Angeles Int'l. Airport, Los Angeles, California\nTo OAKLAND (OAK)\n2\n7:15 p\n8:30 p\nTV 347\n0\nTo SHANNON (SNN)\n3\n1:30 p\n7:00 a + 1\n3\n1:30 p\n7:00 a + 1\nTV 342\nTV 346\n0\nFrom NEW YORK (JFK) John F. Kennedy Int'l. Airport, New York, New York\nTo AMSTERDAM (AMS)\n15\n8:00 p\n1 5\n8:00 p\n5\n8:00 p\n5\n8:00 p\n9:15 a + 1\n8:15 a + 1\n9:30 a + 1\n10:30 a + 1\nTV 300\nTV 300\nTV 330\nTV 330\nSNN\nTo SHANNON (SNN)\n5\n8:00 p\n5\n8:00 p\n5\n8:00 p\n11:45 p\n11:45 p\n7\n11:45 p\n7:00 a + 1\n6:00 a + 1\n7:00 a + 1\n10:45 a + 1\n10:45 a + 1\n10:45 a + 1\nTV 330\nTV 330\nTV 330\nTV 306\nTV 310\nTV 306\n0\n0\n0\n0\n0\n0\n2004.106.103\nMeals\nS/U/S\nL/S\nS/L/S\nL/S\nS\nS\nS/B\nS\nL/S/CB\nL/S/CB\nD/S\nD/S\nD/S/S\nD/S/S\nD/S\nD/S\nD/S\nS/B\nS/B\nS/B\nE-Effective\nD-Discontinued\nE10/16\nE9/28\nE11/06\nE10/16\nE10/30\nE11/06\nD10/30\nD10/12\nD9/25\nD10/23\nD10/30\nE9/07\nE9/08\nE9/27\nE10/15\nE11/5\nE10/15\nE10/29\nE11/05\nD10/01\nD10/26\nD9/01\nD10/13\nD9/24\nD10/11\nD10/29\nD10/22\nD10/29\nD9/2\nD10/16\nD10/10"
    ],
    "millsfield:images_texts_ids": [
      1527844649,
      1527844651
    ],
    "millsfield:primary_image": 1527844651,
    "millsfield:subcategory_id": 1511213425,
    "mz:hierarchy_label": 1,
    "mz:is_current": 1,
    "sfomuseum:accession_number": "2004.106.103",
    "sfomuseum:airline": "Transamerica Airlines",
    "sfomuseum:airline_id": [
      848
    ],
    "sfomuseum:category": "Scheduling / Ticketing",
    "sfomuseum:classification_id": 158,
    "sfomuseum:collection": "Aviation Archive",
    "sfomuseum:creditline": "Gift of the William Hough Collection",
    "sfomuseum:date": "1982",
    "sfomuseum:date_acquired": "2006-12-05",
    "sfomuseum:daterange_end": "1982-12-31",
    "sfomuseum:daterange_start": "1982-01-01",
    "sfomuseum:description": "Timetable issued by Transamerica Airlines for service to Ireland and Holland, effective September 7, 1982, fall schedule.",
    "sfomuseum:dimensions": "11 x 8 1/2 inches (27.9 x 21.6 cm)",
    "sfomuseum:media_ids": [
      1527844649,
      1527844651
    ],
    "sfomuseum:medium": "paper, ink",
    "sfomuseum:object_id": 76105,
    "sfomuseum:placetype": "object",
    "sfomuseum:primary_media_id": 1527844651,
    "sfomuseum:publication": ": , 1982.",
    "sfomuseum:subcategory": "Timetable",
    "sfomuseum:subject": "Airlines -- timetables",
    "src:geom": "sfomuseum#undetermined",
    "wof:belongsto": [
      1511214223,
      102527513,
      102191575,
      85633793,
      1511213425,
      85922583,
      102087579,
      1511214277,
      1511214207,
      85688637
    ],
    "wof:breaches": [],
    "wof:country": "XX",
    "wof:created": 1579906661,
    "wof:depicts": [
      1159287873,
      1159285341
    ],
    "wof:geomhash": "30c8a918561c84bb2daa2b97fc7c5353",
    "wof:hierarchy": [
      {
        "arcade_id": 1511213425,
        "building_id": 1511214277,
        "campus_id": 102527513,
        "concourse_id": 1511214223,
        "continent_id": 102191575,
        "country_id": 85633793,
        "county_id": 102087579,
        "custom_id": 1511925505,
        "locality_id": 85922583,
        "neighbourhood_id": -1,
        "object_id": 1511925505,
        "region_id": 85688637,
        "venue_id": 1511925505,
        "wing_id": 1511214207
      }
    ],
    "wof:id": 1511925505,
    "wof:lastmodified": 1787988178,
    "wof:name": "timetable: Transamerica Airlines, fall schedule",
    "wof:parent_id": 1159162825,
    "wof:placetype": "custom",
    "wof:placetype_alt": [
      "object"
    ],
    "wof:repo": "sfomuseum-data-collection",
    "wof:superseded_by": [],
    "wof:supersedes": [],
    "wof:tags": []
  },
  "bbox": [
    -122.386155,
    37.616357,
    -122.386155,
    37.616357
  ],
  "geometry": {"type":"Point","coordinates":[-122.386155,37.616357]}
}
