{
  "id": 1913796287,
  "type": "Feature",
  "properties": {
    "date:cessation_lower": "1936-07-11",
    "date:cessation_upper": "1936-07-11",
    "date:inception_lower": "1936-07-11",
    "date:inception_upper": "1936-07-11",
    "edtf:cessation": "1936-07-11",
    "edtf:inception": "1936-07-11",
    "geom:area": 2.475047457570636e-7,
    "geom:bbox": "-122.386472,37.616105,-122.385834,37.616611",
    "geom:latitude": 37.61635747477365,
    "geom:longitude": -122.38615540108617,
    "millsfield:airline_id": [
      1159284991
    ],
    "millsfield:category_id": 1511214251,
    "millsfield:collection_id": 1511214207,
    "millsfield:company_id": [
      1159286839
    ],
    "millsfield:images": [
      1913802221,
      1913802223,
      1913802225,
      1913802227,
      1913802229,
      1913802231,
      1913802233
    ],
    "millsfield:images_colors_refs": {
      "crayola": [
        {
          "hex": "#414a4c"
        },
        {
          "hex": "#cd9575"
        },
        {
          "hex": "#85754e"
        },
        {
          "hex": "#efdecd"
        },
        {
          "hex": "#714b23"
        },
        {
          "hex": "#e7c697"
        },
        {
          "hex": "#4a646c"
        },
        {
          "hex": "#757575"
        },
        {
          "hex": "#bab86c"
        },
        {
          "hex": "#fddde6"
        },
        {
          "hex": "#efcdb8"
        }
      ],
      "css4": [
        {
          "hex": "#dcdcdc"
        },
        {
          "hex": "#f5deb3"
        },
        {
          "hex": "#708090"
        },
        {
          "hex": "#f5f5dc"
        },
        {
          "hex": "#696969"
        },
        {
          "hex": "#2f4f4f"
        },
        {
          "hex": "#bdb76b"
        },
        {
          "hex": "#556b2f"
        },
        {
          "hex": "#d2b48c"
        }
      ],
      "marekm4": [
        {
          "hex": "#bda576"
        },
        {
          "hex": "#e0d2b2"
        },
        {
          "hex": "#4b5969"
        },
        {
          "hex": "#44361c"
        },
        {
          "hex": "#555f63"
        },
        {
          "hex": "#e9e8e2"
        },
        {
          "hex": "#c4a577"
        },
        {
          "hex": "#8b7551"
        },
        {
          "hex": "#eae9e3"
        },
        {
          "hex": "#e7e6dd"
        },
        {
          "hex": "#61728a"
        },
        {
          "hex": "#3c311a"
        },
        {
          "hex": "#45526a"
        },
        {
          "hex": "#414e64"
        },
        {
          "hex": "#d7bd98"
        },
        {
          "hex": "#e0d3ba"
        },
        {
          "hex": "#e7e7e0"
        },
        {
          "hex": "#b59d6d"
        },
        {
          "hex": "#44403b"
        }
      ]
    },
    "millsfield:images_texts": [
      "PID PAN\nAMERICAN AIRWAYS, INC.\nGENERAL\nOFFICES - CHRYSLER BUILDING - NEW YORK CITY\nsaturda\nDearest Debs\nogr\nAn trying to write on the train on my\nway to sound the wick ind with gro.\nmerck a ser Mary Scott and fTi\nEast Hampton.\nQuaque. Had to gur up\ntram was too rough. The mere\nGome to play tennis and thary Scott is\nOn her way over fom East Hamplon to\npick me up\nso die finich this latter.\nand mail it in time\nto catch the\nPlane leaving Alameda on tird. the 15z\nSo burn two warks since.\nI wrote last -\nthe longrat strater - Except the time when\n5 pitca\nI furst. Came home from Chana - during which\nI hair no written to won- and o dont liks\nwits to you tire if\nI may get thre\nbefore my ee.. Howzorr\nbun planning on leaving nie. con\nthe 1411\no back and\nit hao sumed\nMarlen to\n-wait a late\nwhich wone.\njust\ngo alony\n-wit me\nbut now it is\nquite\nEvident that I wont get awa,\nwashington the -",
      "incidentally\non friday feas a danger aunt the sama\nStake, morgan ahe\nus unt straight out to his place at barchmont and\nand plans.\nhospital in n.y.\n.BAnd was outre town but got\nback while o\nusas there.\nsail end Fud fo camp. Caddy look\nhai.\nhe lost bifary a simp grand.\nand has\n- worky la\n- hard\nand thou it.\nmonday\nКлуй\n- al found\ngret her\ncope on Wednenda\nteas\nMonday\nmet a cock\nDie parts gurn la, some\nold\nManila it Did mt then afai but she that\nher brot\nthis girls. She is gorip ti\nRussia to st\nHONDURAS\nSerenetion gentado\ne s\nout of townan is morgan\ncutt\nis cHIN gettin alon\nTATIONA\nI speat\nВідпоВіх\nmost of the day with him but urat out to\nhair dinne that night with And and Caddy.\nWitnesday I had dinin with than, D, Nobly and\nHy coop just a grand old reunion - sinpe\nsure. Hy is throngh t\nwith Bree Hospital -\n• Just the same ol\ncourse ur just talked abont you and the gie\nfor that ale\nthe wanted to hear. Thursda, nigh\nlath had dinna\n3 mut thanes cal a hugus\nthe same lout If has aged and thows that\nshe has ben sick.\nHy is taking care of her.\nand the is crazy abort him. Frida, night\nI wint up\nto L.G.\nand stayed our the 4th\n9.121.09/20",
      "Ruth and hug\nmet me. Raph, had gone back\nto St. L\nto try to get a job banging land\nPALO\non the\nPAN\nAMERICAN AIRWAYS, INC.\nRain front\nthere in the Krauth Houss and sim\nquit happy though it looks sat of dismicl\nto me - did it it to you? Ruth is fine and\nthe and hug, botk unchangid. Ken hous look\nfine with its coat of white paint. I what\nUmay it and foind everything about as wi\neut it.\nWhen us go back then I wand\nyou to har the ketchen fixed up capraales\nthe sunk. + Saw the Becks - botk wale. Also\nsaro Clem\nJim Ror - Phimes\n-and called on his Clem.\nalso\n*te also Abbote. Sagamou\nsams to be doing wiel. and abbot an\nusual has his haps. Wint to denne at\ngro Reis boat house.\nSaur Petu Kerman who\nNat his bist to\nApparanel, he has\napons Past in find of list, as we at\nwhat Rutk claims.\nThis last wack d'ur bun\nout one with Hang and once with Stolen\nMorgan and once to a Foreign affair dinne\nfor c.T. Wang\n- wher go. Forts presided. He\nwants me to visit hin at Nauthor\nDaland and said he had a lot that he\nwanted to talk to me abont.\nTree try to\ngo the tome dan next tuck guo merchi\nplace is funny right it a hole\nbehind a\nbig tand,\ndune where you cant ern sei the\nand\ncant\nhair\ngarden\nfor theis\nOUTIES due FOR AIR MAIL SERVICE BETWEEN THE GOT BEERS CURTEST INDIES MESSES COUTH AMERIC\nRATES AND SCHEDULES OBTAINABLE AT ANY U. S. OR FOREIGN POST OFFICE, OR AT ANY OFFICE OF THE PAN AMERICAN AIRWAYS SYSTEN",
      "no ground\n- only sand..\n- Poor Mary Scott\nyou know grogge\nis en a bad wanesE\ndont\nwant\nit known!\nbut ten i in a\nLatu Monday morning fues Hair had a he tie want\nEnd Phones fIt fom grogs much and he sand\nthat mary\nwanted me to stay with hear at her\nsisters ms Velmith\nand that many wones. come\nOn for me. o dran our to East Hampton with\nmany\nand les molln-T.T. arked me\nhum Sundan Q.m\nso phoned beck\nthat Id star in EN\nThe girt. played\ngoe sunday a.m\nhad many\nSunday with some\nork prople including\nsms tetchen? who knew home used to hir\nin Java o tigapores\nMe, flags guer\nagain\ninviting\n- no for dance\nafter when\n.T. T. and I ded\nkar a\ntack for aboat\ntwo hours and Appall, sad laky\nto is continued.\nThen thi a.m. plus\nArmed\nvery\nabont grougs bit he\nmonths moir.\nIn let an ale\naway\n3 and.\nof course the miss th m. mut\nmalesthe mous.\n. Hany Kaght is in town\nand wee me him today. Qie my lov to\nyou dearist a\n• Du be with\nyou soon.\n019,121,00\nan,я -",
      "From Manila To N. Y. City In\nEight Days Is Record Made By Bixby\nFrom Manila to New York City\nWake and Midway are about finish-\nin eight days, with a two-day stop\ned, but he declined to comment as\nat San Francisco and a one-day stop\nto when the company would be ready\nto carry passengers.\nat St. Louis, is a record established\nArriving on the Clipper with Mr.\nby H. M. Bixby, Far Eastern re-\nBixby were Clarence M. Young, gen-\npresentative of Pan American Air-\neral manager of the Pacific divi-\nways.\nsion, and T. K. Morris, acting\nMr. Bixby, returned to Manila Jes-\nchief of the commissary department,\nterday afternoon on the Hawaiian\nwho are making an inspection of the\nClipper, the first man to make a\nvarious Pacific bases. Mr. Young\nround trip airplane flight\nbetween\nplans to return to Alameda, Califor-\nManila and New York City. He\nnia, on the same plane.\nwas away about six weeks, four\nAnother passenger on the Clipper\nof which he spent in the\nUnited\nwas Phil. B Berst, assistant main-\nStates.\ntenance\nsupervisor,\nLeaving Manila on June 19, Fri-\nwho\nreturned\nfrom a visit to Alameda.\nday, Mr. Bixby arrived in New\nYork\nThe Hawaiian Clipper landed at\nthe following Friday - eight days,\nCavite at 3:15 p.m. yesterday. She\nconsidering the difference in the in-\nis under the command of Captain\nternational\ndate line. He could\nEdwin C. Musick, who is assisted by\nhave made the trip a lot quicker,\na crew of seven men. The plane is\nbut he stopped two days\nin San\nscheduled to take off at dawn next\nFrancisco and one day in St. Louis.\nFriday August 7,\non her return\nMr. Bixby expressed himself\nas\nflight to Alameda, and is due to ar-\nwell satisfied, with the trip.\n•He said\nrive at her home port the following\nthat the hotel installations at Guam,\nTuesday.",
      "AUGUST 4,\n1936\nHAWAII CLIPPER\nCol. Bixby, Two Other Airways\nOfficials Are Passengers Due\nAt Cavite at 4 P.M.\nCol. H. M. Bixby, Far Eastern\nrepresentative of the Pan-Ameri-\ncan Airways, and two other offi-\ncials of the company are passen-\ngers on the giant\nflying boat\nHawaiian Clipper which is expect-\ned to arrive at Cavite before 4\nơ'clock this afternoon from Ala-\nmeda, California, via the usual\nstations. Captain Edwin C. Musick,\nwho piloted the China Clipper on\nher inaugural flight across the Pa-\ncific to the Orient, is in command\nof the Hawaiian Clipper.\nMr. Bixby is returning to Ma-\nnila from a six weeks' business\ntrip to the States where he con-\nferred with the Pan-American Air-\nways officials at New York. He\nflew across the Pacific on the Chi-\nna Clipper and from Alameda ano-\nther piane took him to New York.\nC. M. Young, general manager\nof the Pacific division, and T. K.\nMorris. acting chief of the com-",
      "Hab\nPAN AMERICAN AIRWAYS SYSTEM\n135 EAST 42nd STREET\nNEW YORK CITY\nPORKIN\nVia Clipin Cure\n1130 A*\ntrans-\nMrs H in. Biaby\nCoom 507 Doem Benga\n5, Canton Rógil\nShanghai: Chứng"
    ],
    "millsfield:images_texts_ids": [
      1913802221,
      1913802223,
      1913802225,
      1913802227,
      1913802229,
      1913802231,
      1913802233
    ],
    "millsfield:primary_image": 1913802221,
    "millsfield:subcategory_id": 1511213489,
    "mz:is_approximate": 1,
    "mz:is_current": 1,
    "sfomuseum:accession_number": "2019.121.0912 a e",
    "sfomuseum:airline": "Pan American Airways",
    "sfomuseum:airline_id": [
      685
    ],
    "sfomuseum:category": "Employee Career History",
    "sfomuseum:classification_id": 195,
    "sfomuseum:collection": "Aviation Archive",
    "sfomuseum:creditline": "Collection of SFO Museum",
    "sfomuseum:date": "07/11/1936",
    "sfomuseum:date_acquired": "2019-11-22",
    "sfomuseum:daterange_end": "1936-07-11",
    "sfomuseum:daterange_start": "1936-07-11",
    "sfomuseum:description": "Handwritten letter from Harold M. Bixby to his wife, Debby Bixby, dated July 11, [1936], en route to Quoge, on stationery from Pan American Airways; includes brief report on meeting with Stokely Morgan, dinner and meetings with J.T.T. [Juan Trippe]; family news; mentions George Merck, Mary Scott, Stokely W. Morgan, C.T. Wang, Governor Forbes; includes two newspaper clippings regarding Bixby’s flight on the Hawaii Clipper.",
    "sfomuseum:dimensions": "11 x 8 1/2 inches (27.9 x 21.6 cm)",
    "sfomuseum:medium": "paper, ink",
    "sfomuseum:object_id": 211275,
    "sfomuseum:placetype": "object",
    "sfomuseum:publication": ": , 07/11/1936.",
    "sfomuseum:subcategory": "Correspondence, Personal",
    "src:geom": "sfomuseum#undetermined",
    "wof:belongsto": [
      102527513,
      1159162825,
      102191575,
      85633793,
      102087579,
      85922583,
      85688637,
      1159160869
    ],
    "wof:country": "XY",
    "wof:created": 1714549047,
    "wof:depicts": [
      1159286839,
      1159284991
    ],
    "wof:geomhash": "c281b9d9eefc83b5710e64b9d646067d",
    "wof:hierarchy": [
      {
        "building_id": -1,
        "campus_id": 102527513,
        "collection_id": 1159162825,
        "concourse_id": 1159162825,
        "continent_id": 102191575,
        "country_id": 85633793,
        "county_id": 102087579,
        "custom_id": 1913796287,
        "locality_id": 85922583,
        "neighbourhood_id": -1,
        "object_id": 1913796287,
        "region_id": 85688637,
        "wing_id": 1159160869
      }
    ],
    "wof:id": 1913796287,
    "wof:lastmodified": 1787988219,
    "wof:name": "correspondence: Harold M. Bixby to Debby Bixby",
    "wof:parent_id": 1159162825,
    "wof:placetype": "custom",
    "wof:placetype_alt": [
      "object"
    ],
    "wof:repo": "sfomuseum-data-collection",
    "wof:superseded_by": [],
    "wof:supersedes": []
  },
  "bbox": [
    -122.38647222518921,
    37.6161053594541,
    -122.38583385944366,
    37.61661101879963
  ],
  "geometry": {"type":"Polygon","coordinates":[[[-122.38647222518921,37.61631782178288],[-122.386434674263,37.61623283692423],[-122.38637566566466,37.61617759671399],[-122.38630056381224,37.6161308549656],[-122.38616108894348,37.6161053594541],[-122.38602161407469,37.6161308549656],[-122.38591432571411,37.61618609521055],[-122.38585531711577,37.61626683087935],[-122.38583385944366,37.61636881265146],[-122.38587141036987,37.61646654505181],[-122.38594114780425,37.61654303118856],[-122.38605380058287,37.61660252035167],[-122.38618254661559,37.61661101879963],[-122.3863059282303,37.61657277577607],[-122.3864185810089,37.61650903735973],[-122.3864668607712,37.61641130501523],[-122.38647222518921,37.61631782178288]]]}
}
