{
  "id": 1913795615,
  "type": "Feature",
  "properties": {
    "date:cessation_lower": "1935-08-19",
    "date:cessation_upper": "1935-08-19",
    "date:inception_lower": "1935-08-19",
    "date:inception_upper": "1935-08-19",
    "edtf:cessation": "1935-08-19",
    "edtf:inception": "1935-08-19",
    "geom:area": 2.475047457570636e-7,
    "geom:bbox": "-122.386472,37.616105,-122.385834,37.616611",
    "geom:latitude": 37.61635747477365,
    "geom:longitude": -122.38615540108617,
    "millsfield:airline_id": [
      1159284991
    ],
    "millsfield:category_id": 1511214251,
    "millsfield:collection_id": 1511214207,
    "millsfield:company_id": [
      1159286839
    ],
    "millsfield:images": [
      1913802361,
      1913802365
    ],
    "millsfield:images_colors_refs": {
      "crayola": [
        {
          "hex": "#edd19c"
        },
        {
          "hex": "#9f8170"
        },
        {
          "hex": "#efcdb8"
        },
        {
          "hex": "#000000"
        }
      ],
      "css4": [
        {
          "hex": "#000000"
        },
        {
          "hex": "#bdb76b"
        },
        {
          "hex": "#f5deb3"
        }
      ],
      "marekm4": [
        {
          "hex": "#af9b6b"
        },
        {
          "hex": "#e8d8ac"
        },
        {
          "hex": "#291f11"
        },
        {
          "hex": "#2e2312"
        },
        {
          "hex": "#ab986b"
        },
        {
          "hex": "#e8d6a8"
        }
      ]
    },
    "millsfield:images_texts": [
      "Monday 8/19\nDearest -\nact night john and 9 hae\ndennis with the\nSalers and the\nfust sat around. Mr Nich's little\nbay was tribe low last night\nand. Bond called me up to san\nthat he and Kitsie ur going\nlay the hospital this morning for\nboy blood trat.\n9 joined than\nshorily after nine\noclock and\nlined up with than and ther\nChimes for the teat. Aft a lon\ntime Dr Maner came down ani\nsaid that my blood world be\nbrot so I went up to the\nsprating room and found the lit\nconnicted with a ven in his foot\nThe doctors firing a taken slution\ndid not make a\nduct transfusion but quet look\nmy blood\nand added it\nto\nthe salone solution. The little\nPet ate some permit\nthe is aftanoon ke parse\naway\n(9 fire tribe, tang aton",
      "I did so kopr that he\nworld lur ane it was such\na real prugs to reace, do\nsomething for the child. Book\nhu nick u\n= so gratifue that it\nwas really. patkitic.. Of course\nhe and his\nbe blamee\nand relatur.\nfor going to a foreyn\nhospital, Etc.\nm. Dan far a luncheon for\nJohn Strale -\nhad Ki Chun, Pry. coon.\n1. go, ma Pa go felt and trek.\nalson want to tar\nkow today. 2t\nevas a ma party.\nuree Deba\nmust to bed - hair\nJust come from sum, the \"Seoundee\" wee\nHowion Joh\nand found the fet that it was huntertis.\nfurs in good conditio\nWhat was the d\nd - also cost\nof the doilis. John man star unti\nAng 31. ho you\nwant him to take\nthin\nif\nthe has to pay diety?\nQue any lor darly 1\nBix\nTuesday AM john got cable to sail today. Dont know\nwhat value t\nplace on furs on dories."
    ],
    "millsfield:images_texts_ids": [
      1913802361,
      1913802365
    ],
    "millsfield:primary_image": 1913802361,
    "millsfield:subcategory_id": 1511213489,
    "mz:is_approximate": 1,
    "mz:is_current": 1,
    "sfomuseum:accession_number": "2019.121.0934 a b",
    "sfomuseum:airline": "Pan American Airways",
    "sfomuseum:airline_id": [
      685
    ],
    "sfomuseum:category": "Employee Career History",
    "sfomuseum:classification_id": 195,
    "sfomuseum:collection": "Aviation Archive",
    "sfomuseum:creditline": "Collection of SFO Museum",
    "sfomuseum:date": "08/19/1935",
    "sfomuseum:date_acquired": "2019-11-22",
    "sfomuseum:daterange_end": "1935-08-19",
    "sfomuseum:daterange_start": "1935-08-19",
    "sfomuseum:description": "Handwritten letter from Harold M. Bixby to his wife, Debby Bixby, dated August 19, [1935]; includes personal matters; mentions “John”, [Cecil “Pop” and Mrs.] Sellers, Mr. [K.I.] Nieh, [William L.] and Kitsie Bond, Dr. Nance, Mr. Dai [Enki], John Steele, Ki Chun, P.Y. Wong, T.J. Ho, Max Polin, George Sellett, [Oscar] Wilkie, [Ernest] Allison.",
    "sfomuseum:dimensions": "11 x 8 1/4 inches (27.9 x 21 cm)",
    "sfomuseum:medium": "paper, ink",
    "sfomuseum:object_id": 211297,
    "sfomuseum:placetype": "object",
    "sfomuseum:publication": ": , 08/19/1935.",
    "sfomuseum:subcategory": "Correspondence, Personal",
    "src:geom": "sfomuseum#undetermined",
    "wof:belongsto": [
      102527513,
      1159162825,
      102191575,
      85633793,
      102087579,
      85922583,
      85688637,
      1159160869
    ],
    "wof:country": "XY",
    "wof:created": 1714548844,
    "wof:depicts": [
      1159284991,
      1159286839
    ],
    "wof:geomhash": "c281b9d9eefc83b5710e64b9d646067d",
    "wof:hierarchy": [
      {
        "building_id": -1,
        "campus_id": 102527513,
        "collection_id": 1159162825,
        "concourse_id": 1159162825,
        "continent_id": 102191575,
        "country_id": 85633793,
        "county_id": 102087579,
        "custom_id": 1913795615,
        "locality_id": 85922583,
        "neighbourhood_id": -1,
        "object_id": 1913795615,
        "region_id": 85688637,
        "wing_id": 1159160869
      }
    ],
    "wof:id": 1913795615,
    "wof:lastmodified": 1787988219,
    "wof:name": "correspondence: Harold M. Bixby to Debby Bixby",
    "wof:parent_id": 1159162825,
    "wof:placetype": "custom",
    "wof:placetype_alt": [
      "object"
    ],
    "wof:repo": "sfomuseum-data-collection",
    "wof:superseded_by": [],
    "wof:supersedes": []
  },
  "bbox": [
    -122.38647222518921,
    37.6161053594541,
    -122.38583385944366,
    37.61661101879963
  ],
  "geometry": {"type":"Polygon","coordinates":[[[-122.38647222518921,37.61631782178288],[-122.386434674263,37.61623283692423],[-122.38637566566466,37.61617759671399],[-122.38630056381224,37.6161308549656],[-122.38616108894348,37.6161053594541],[-122.38602161407469,37.6161308549656],[-122.38591432571411,37.61618609521055],[-122.38585531711577,37.61626683087935],[-122.38583385944366,37.61636881265146],[-122.38587141036987,37.61646654505181],[-122.38594114780425,37.61654303118856],[-122.38605380058287,37.61660252035167],[-122.38618254661559,37.61661101879963],[-122.3863059282303,37.61657277577607],[-122.3864185810089,37.61650903735973],[-122.3864668607712,37.61641130501523],[-122.38647222518921,37.61631782178288]]]}
}
