{
  "id": 1762683191,
  "type": "Feature",
  "properties": {
    "date:cessation_lower": "1947-01-01",
    "date:cessation_upper": "1947-12-31",
    "date:inception_lower": "1947-01-01",
    "date:inception_upper": "1947-12-31",
    "edtf:cessation": "1947",
    "edtf:inception": "1947",
    "geom:area": 0,
    "geom:bbox": "-79.930199,40.354401,-79.930199,40.354401",
    "geom:latitude": 40.354401,
    "geom:longitude": -79.930199,
    "iso:country": "",
    "millsfield:aircraft_id": [
      1159290417
    ],
    "millsfield:airline_id": [
      1159285009
    ],
    "millsfield:airport_id": [
      102529209
    ],
    "millsfield:category_id": 1511214215,
    "millsfield:collection_id": 1511214207,
    "millsfield:company_id": [],
    "millsfield:images": [
      1762712107,
      1762712111
    ],
    "millsfield:images_colors_refs": {
      "crayola": [
        {
          "hex": "#e7c697"
        },
        {
          "hex": "#714b23"
        },
        {
          "hex": "#414a4c"
        },
        {
          "hex": "#9c7c38"
        },
        {
          "hex": "#fddde6"
        },
        {
          "hex": "#bab86c"
        }
      ],
      "css4": [
        {
          "hex": "#a0522d"
        },
        {
          "hex": "#556b2f"
        },
        {
          "hex": "#deb887"
        },
        {
          "hex": "#bdb76b"
        },
        {
          "hex": "#cd853f"
        },
        {
          "hex": "#faf0e6"
        }
      ],
      "marekm4": [
        {
          "hex": "#977423"
        },
        {
          "hex": "#a88633"
        },
        {
          "hex": "#44330c"
        },
        {
          "hex": "#c4aa6f"
        },
        {
          "hex": "#eae8e3"
        },
        {
          "hex": "#445b2e"
        },
        {
          "hex": "#dec99a"
        }
      ]
    },
    "millsfield:images_texts": [
      "927—Penna. Central Airlines\nat County Airport\n4200\nNC 2787",
      "Planes of the Penna. Central Airlines at the\nCounty Airport, Pittsburgh, Pa., near McKees-\nport, Pa.\n*URGH\nReu\nMAY 14\n-\n6 - PM\n1947°\nda\nglad\nBLISHING\ntill barseng you\nabout leema - 2102240\nBRO\nshope lcant make\nNSKY\nBoss well be a\nPaulner about Junb-7\nFrank\n'C.T. ART-COLORTONE\" (REG\nUNITED\nSTATES\nPOSTAGE\n1847 CENTENAR\nANATIONAL\nPHILATELIC\nEXHIBITION\n247\nCENT\nPOST -CARD\n) STAMPS\nMr airs Ast Waves\n]I2 CNMANSFIELDAVE\nHoLlyrroos\nCalifomin\n2015,166.2212"
    ],
    "millsfield:images_texts_ids": [
      1762712107,
      1762712111
    ],
    "millsfield:primary_image": 1762712107,
    "millsfield:subcategory_id": 1511213363,
    "mz:is_approximate": 1,
    "mz:is_current": 1,
    "sfomuseum:accession_number": "2015.166.2210",
    "sfomuseum:aircraft": "Douglas DC-3",
    "sfomuseum:aircraft_id": [
      487
    ],
    "sfomuseum:airline": "Pennsylvania Central Airlines",
    "sfomuseum:airline_id": [
      695
    ],
    "sfomuseum:airport": "Allegheny County Airport",
    "sfomuseum:airport_id": [
      155
    ],
    "sfomuseum:category": "Philately",
    "sfomuseum:classification_id": 127,
    "sfomuseum:collection": "Aviation Archive",
    "sfomuseum:creditline": "Gift of Thomas G. Dragges",
    "sfomuseum:date": "1947",
    "sfomuseum:date_acquired": "2017-01-13",
    "sfomuseum:daterange_end": "1947-12-31",
    "sfomuseum:daterange_start": "1947-01-01",
    "sfomuseum:description": "Black and white postcard with illustration depicting Pennsylvania Central Airlines Douglas DC-3 aircraft on ground at Allegheny County Airport, three-quarter views; mailed.",
    "sfomuseum:dimensions": "3 1/2 x 5 1/2 inches (8.9 x 14 cm)",
    "sfomuseum:medium": "paper, ink",
    "sfomuseum:object_id": 181971,
    "sfomuseum:placetype": "object",
    "sfomuseum:publication": ": , 1947.",
    "sfomuseum:subcategory": "Postcard",
    "src:geom": "sfomuseum#derived",
    "src:geom_derived_from": [
      102529209
    ],
    "wof:belongsto": [
      102527513,
      1159162825,
      102191575,
      85633793,
      102087579,
      85922583,
      85688637,
      1159160869,
      102529209,
      102080887,
      404484243,
      101718717,
      85688481
    ],
    "wof:country": "",
    "wof:created": 1641340588,
    "wof:depicts": [
      102529209,
      1159290417,
      1159288787,
      1159285009
    ],
    "wof:geomhash": "bc830f1fd9556d42d3df3cf9f218d111",
    "wof:hierarchy": [
      {
        "building_id": -1,
        "campus_id": 102527513,
        "collection_id": 1159162825,
        "concourse_id": 1159162825,
        "continent_id": 102191575,
        "country_id": 85633793,
        "county_id": 102087579,
        "custom_id": 1762683191,
        "locality_id": 85922583,
        "neighbourhood_id": -1,
        "object_id": 1762683191,
        "region_id": 85688637,
        "wing_id": 1159160869
      },
      {
        "campus_id": 102529209,
        "continent_id": 102191575,
        "country_id": 85633793,
        "county_id": 102080887,
        "custom_id": 1762683191,
        "localadmin_id": 404484243,
        "locality_id": 101718717,
        "object_id": 1762683191,
        "region_id": 85688481
      }
    ],
    "wof:id": 1762683191,
    "wof:lastmodified": 1787988193,
    "wof:name": "postcard: Allegheny County Airport, Pennsylvania Central Airlines, Douglas DC-3",
    "wof:parent_id": 1159162825,
    "wof:placetype": "custom",
    "wof:placetype_alt": [
      "object"
    ],
    "wof:repo": "sfomuseum-data-collection",
    "wof:superseded_by": [],
    "wof:supersedes": []
  },
  "bbox": [
    -79.930199,
    40.354401,
    -79.930199,
    40.354401
  ],
  "geometry": {"type":"MultiPoint","coordinates":[[-79.930199,40.354401]]}
}
