{
  "id": 1846754741,
  "type": "Feature",
  "properties": {
    "date:cessation_lower": "1959-01-01",
    "date:cessation_upper": "1959-12-31",
    "date:inception_lower": "1959-01-01",
    "date:inception_upper": "1959-12-31",
    "edtf:cessation": "1959",
    "edtf:inception": "1959",
    "geom:area": 2.475047457570636e-7,
    "geom:bbox": "-122.386472,37.616105,-122.385834,37.616611",
    "geom:latitude": 37.61635747477365,
    "geom:longitude": -122.38615540108617,
    "millsfield:airline_id": [
      1159284989
    ],
    "millsfield:category_id": 1511214215,
    "millsfield:collection_id": 1511214207,
    "millsfield:company_id": [
      1159286839
    ],
    "millsfield:images": [
      1846756907,
      1846756909
    ],
    "millsfield:images_colors_refs": {
      "crayola": [
        {
          "hex": "#8a795d"
        },
        {
          "hex": "#000000"
        },
        {
          "hex": "#1ca9c9"
        },
        {
          "hex": "#9f8170"
        },
        {
          "hex": "#714b23"
        },
        {
          "hex": "#bf4f51"
        },
        {
          "hex": "#cdc5c2"
        }
      ],
      "css4": [
        {
          "hex": "#000000"
        },
        {
          "hex": "#696969"
        },
        {
          "hex": "#c0c0c0"
        },
        {
          "hex": "#cd5c5c"
        },
        {
          "hex": "#20b2aa"
        },
        {
          "hex": "#808080"
        },
        {
          "hex": "#8b4513"
        }
      ],
      "marekm4": [
        {
          "hex": "#20a5c5"
        },
        {
          "hex": "#9e8f75"
        },
        {
          "hex": "#5a3624"
        },
        {
          "hex": "#c1c0a7"
        },
        {
          "hex": "#2a201a"
        },
        {
          "hex": "#ab5351"
        },
        {
          "hex": "#a08e75"
        },
        {
          "hex": "#c4c1b0"
        },
        {
          "hex": "#916f5c"
        }
      ]
    },
    "millsfield:images_texts": [
      "Stig AL 6 CONTINENTS\nPAN AMERICAN\nWORLD'S MOST DAPERENCED\nAIRLINE\nFAIDD AM\n- SAN FRANCISCO 4701.\nOSLO 10330 =\nLOS ANGELES 4859.\nNEW YORK 7281.\nLONDON 10398=\nPARIS 10330.\nROME 9946-.\nHONOLATU 2301.\nNEXED CITY RAY,\nSYDNEY 7455 -j\nBANEROS 4458\nWake Island\nPAN AMERICANT LETTOMS\nOF THE PICNIC\nLAT. 1915 NORTH\nLONS.166 39 EAST",
      "Although Wake Island's land area is less than 3\nsquare miles, Pan Am's Directional Sign Post\nreminds Clipper* passengers that Wake is a\nkeystone of trans-Pacific travel.\nmade a crash land\nmart a crash landar\ndreamed ive had\nMont a bit hit\nlast night. Not\nDenan thron\nWe went Kurgh\nWake Island\nPAN AMERICAN\nPRINTED\nIN\nU,S. A.\n*TRADE MARK. PAN AMERICAN WORLD AIRWAYS, INC.\nAIR (MAIL5°\nWAK\n2\nE\n2*\n8\nADDRESS\n1950\nE\nU.S.\nPOSTAGE\nP.O. Box 776\nTolly Hill\nFlorida\n2022124599"
    ],
    "millsfield:images_texts_ids": [
      1846756907,
      1846756909
    ],
    "millsfield:primary_image": 1846756907,
    "millsfield:subcategory_id": 1511213363,
    "mz:is_approximate": 1,
    "mz:is_current": 1,
    "sfomuseum:accession_number": "2022.124.599",
    "sfomuseum:airline": "Pan American World Airways",
    "sfomuseum:airline_id": [
      684
    ],
    "sfomuseum:category": "Philately",
    "sfomuseum:classification_id": 127,
    "sfomuseum:collection": "Aviation Archive",
    "sfomuseum:creditline": "Gift of Jon E. Krupnick",
    "sfomuseum:date": "1959",
    "sfomuseum:date_acquired": "2022-12-14",
    "sfomuseum:daterange_end": "1959-12-31",
    "sfomuseum:daterange_start": "1959-01-01",
    "sfomuseum:description": "Color postcard with photographic image depicting two people standing next to Pan American World Airways directional sign post on Wake Island; postmarked October 20, 1959 on Wake Island.",
    "sfomuseum:dimensions": "3 1/2 x 5 1/2 inches (8.9 x 14 cm)",
    "sfomuseum:medium": "paper, ink",
    "sfomuseum:object_id": 233521,
    "sfomuseum:placetype": "object",
    "sfomuseum:publication": ": , 1959.",
    "sfomuseum:subcategory": "Postcard",
    "src:geom": "sfomuseum#undetermined",
    "wof:belongsto": [
      102527513,
      1159162825,
      102191575,
      85633793,
      102087579,
      85922583,
      85688637,
      1159160869
    ],
    "wof:country": "XY",
    "wof:created": 1680078389,
    "wof:depicts": [
      1159284989,
      1159286839
    ],
    "wof:geomhash": "c281b9d9eefc83b5710e64b9d646067d",
    "wof:hierarchy": [
      {
        "building_id": -1,
        "campus_id": 102527513,
        "collection_id": 1159162825,
        "concourse_id": 1159162825,
        "continent_id": 102191575,
        "country_id": 85633793,
        "county_id": 102087579,
        "custom_id": 1846754741,
        "locality_id": 85922583,
        "neighbourhood_id": -1,
        "object_id": 1846754741,
        "region_id": 85688637,
        "wing_id": 1159160869
      }
    ],
    "wof:id": 1846754741,
    "wof:lastmodified": 1787988214,
    "wof:name": "postcard: Pan American World Airways, Wake Island, directional sign",
    "wof:parent_id": 1159162825,
    "wof:placetype": "custom",
    "wof:placetype_alt": [
      "object"
    ],
    "wof:repo": "sfomuseum-data-collection",
    "wof:superseded_by": [],
    "wof:supersedes": []
  },
  "bbox": [
    -122.38647222518921,
    37.6161053594541,
    -122.38583385944366,
    37.61661101879963
  ],
  "geometry": {"type":"Polygon","coordinates":[[[-122.38647222518921,37.61631782178288],[-122.386434674263,37.61623283692423],[-122.38637566566466,37.61617759671399],[-122.38630056381224,37.6161308549656],[-122.38616108894348,37.6161053594541],[-122.38602161407469,37.6161308549656],[-122.38591432571411,37.61618609521055],[-122.38585531711577,37.61626683087935],[-122.38583385944366,37.61636881265146],[-122.38587141036987,37.61646654505181],[-122.38594114780425,37.61654303118856],[-122.38605380058287,37.61660252035167],[-122.38618254661559,37.61661101879963],[-122.3863059282303,37.61657277577607],[-122.3864185810089,37.61650903735973],[-122.3864668607712,37.61641130501523],[-122.38647222518921,37.61631782178288]]]}
}
