{
  "id": 1914555551,
  "type": "Feature",
  "properties": {
    "date:cessation_lower": "1975-01-01",
    "date:cessation_upper": "1975-12-31",
    "date:inception_lower": "1975-01-01",
    "date:inception_upper": "1975-12-31",
    "edtf:cessation": "1975~",
    "edtf:inception": "1975~",
    "geom:area": 2.475047457570636e-7,
    "geom:bbox": "-122.386472,37.616105,-122.385834,37.616611",
    "geom:latitude": 37.61635747477365,
    "geom:longitude": -122.38615540108617,
    "millsfield:aircraft_id": [
      1159289819
    ],
    "millsfield:airline_id": [
      1762973287
    ],
    "millsfield:category_id": 1762671311,
    "millsfield:collection_id": 1511214207,
    "millsfield:company_id": [
      1159293593
    ],
    "millsfield:images": [
      1914556357,
      1914556359,
      1914556361,
      1914556363
    ],
    "millsfield:images_colors_refs": {
      "crayola": [
        {
          "hex": "#ffae42"
        },
        {
          "hex": "#000000"
        },
        {
          "hex": "#ff2b2b"
        },
        {
          "hex": "#cd4a4c"
        },
        {
          "hex": "#cdc5c2"
        },
        {
          "hex": "#edd19c"
        },
        {
          "hex": "#414a4c"
        },
        {
          "hex": "#faa76c"
        },
        {
          "hex": "#cd9575"
        },
        {
          "hex": "#bab86c"
        },
        {
          "hex": "#c46210"
        },
        {
          "hex": "#f0e891"
        }
      ],
      "css4": [
        {
          "hex": "#eee8aa"
        },
        {
          "hex": "#ff0000"
        },
        {
          "hex": "#2f4f4f"
        },
        {
          "hex": "#000000"
        },
        {
          "hex": "#c0c0c0"
        },
        {
          "hex": "#b22222"
        },
        {
          "hex": "#d2691e"
        },
        {
          "hex": "#f4a460"
        },
        {
          "hex": "#ff6347"
        },
        {
          "hex": "#bdb76b"
        },
        {
          "hex": "#f5deb3"
        },
        {
          "hex": "#deb887"
        }
      ],
      "marekm4": [
        {
          "hex": "#ccc4b1"
        },
        {
          "hex": "#14110d"
        },
        {
          "hex": "#eddda5"
        },
        {
          "hex": "#bf672a"
        },
        {
          "hex": "#e7ad47"
        },
        {
          "hex": "#f3e19c"
        },
        {
          "hex": "#333b37"
        },
        {
          "hex": "#e4caa5"
        },
        {
          "hex": "#d1bd70"
        },
        {
          "hex": "#d4a962"
        },
        {
          "hex": "#d90304"
        },
        {
          "hex": "#e25343"
        },
        {
          "hex": "#efbc70"
        },
        {
          "hex": "#15160d"
        },
        {
          "hex": "#ac3913"
        },
        {
          "hex": "#1b1710"
        }
      ]
    },
    "millsfield:images_texts": [
      "FRONTIER AIRLINES\nIMPORTANT\nINFORMATION\nFOR THE SAFETY OF OTHER PASSENGERS\nPLEASE DO NOT REMOVE CARD FROM AIRPLANE\nPrinted in U.S.A.\n904-2036 SS7409-737",
      "SEC\nSEC\nSEC\nSEC\nSEC\nSEC",
      "2\n1\n5\nREGULATIONS\nPets in The Cabin\nA pet being transported in the cabin must remain in its kennel and the kennel must remain under\nthe seat at all times.\nSeat Backs and Seat Trays\nEach passenger seat back and seat tray must be in an upright position prior to taxiing, take-off or\nlanding. Each passenger must comply with instructions given by crew members in compliance\nwith this regulation.\nAlcoholic Beverages\nNo person shall drink any alcoholic beverage aboard an air carrier unless such beverage has\nbeen served to him/her by the air carrier operating the aircraft.\nNo air carrier shall serve any alcoholic beverage to any person aboard an air carrier aircraft if\nsuch person appears to be intoxicated.\nNo air carrier shall permit any person to board an air carrier aircraft if such person appears to be\nintoxicated.\nAlcoholic beverages cannot be served to persons under the age of 21 years.\nPortable Electronic Devices\nONLY PORTABLE VOICE RECORDERS, HEARING AIDS, HEART PACEMAKERS, AND ELECTRIC\nSHAVERS MAY BE USED WHILE AIRCRAFT IS IN FLIGHT. Portable radios (AM or FM), TV\nreceivers and other electronic devices may have circuits which radiate signals. These circuits act\nlike miniature broadcasting stations and, in some cases, these signals are strong enough to\ninterfere with the aircraft's radio navigation systems.\nIn recognition of this and to insure your safety, all airlines found it necessary to phohibit the use\nof these items in flight.\nCarry-on Baggage\nCarry-on baggage is limited to an amount that can be placed beneath the seat, with the exception\nof hang-up bags which may be hung in the closet, and coats and hats which may be placed in\nthe overhead rack. ALL CARRY-ON RETAINED BY THE PASSENGER MUST BE PLACED BENEATH\nTHE SEAT DURING TAKE-OFF AND LANDING.\nNo-Smoking Section\nA seat must be provided for each person desiring a seat in the No-Smoking Section. It is fre-\nquently necessary to expand the No-Smoking Section to accommodate everyone. In the event of\na full flight, it is sometimes necessary to seat smokers in the remaining seats of the last No-\nSmoking row. Smoking is prohibited in all rows permanently or temporarily designated \"No-\nSmoking.\nREGLAMENTOS\nAnimales Domesticos en la Cabina\nCualquier animal domestico que sea transportado en la cabina debera de quedarse en su jaula y\nla jaula debera de permanecer debajo del asiento todo el tiempo.\nRespaldos del los Asientos y Mesitas\nEl respaldo del asiento y la mesita de cada pasajero debera de estar en una posicion vertical\nantes de que el avion ruede, despegue o aterrize. Cada pasajero debera de cumplir con todas las\ninstrucciones dadas por la tripulacion de acuerdo con este reglamento.\nBebidas Alcoholicas\nNinguna persona podra beber bebidas alcoholicas a bordo de un avion, a menos de que dichas\nbebidas hayan sido servidas a el o ella por la tripulacion que opera dentro del avion.\nNinguna linea area podra servir bebida alcoholica alguna a cualquier persona que muestre estar\nintoxicada dentro del avion.\nNinauna linea area podra permitir personas que muestren estar intoxicadas, que puedan abordar\nel avion\nAparatos Electronicos Portatiles\nSOLAMENTE GRABADORAS PORTATILES, APARATOS CONTRA LA SORDERA,\nMARCAPASOS\nPARA EL CORAZON.\nY RASURADORAS ELECTRICAS PODRAN SER USADAS DURANTE EL\nVUELO DEL AVION. Radios portatiles (AM o FM).\nreceptores de television y calquier otro\naparato electronico que tenga circuitos que puedan radiar señales no podran ser usados. Dichos\ncircuitos son nocivos ya que emiten emisiones en miniatura como si fueran estaciones de\nradiodifucion, y en algunos casos, esas señales son suficientemente fuertes para interferir con el\nsistema de radio-navegacion del avion.\nReconociendo lo anterior y con el objeto de asegurar su seguridad, todas las lineas aereas se han\nvisto en la necesidad de prohibir los aparatos anteriormente mencionados durante el vuelo.\nEquipaie de Mano\nEl equipaje de mano queda limitado a una cantidad de piesas que puedan ponerse debajo del\nasiento, con la excepcion de bolsas de vuelo que puedan colgarse en el closet del avion, asi como\nlos abrigos y sombreros que puedan colocarse en el anaquel de arriba.\nTODOS LOS OBJETOS\nQUE TRAIGA A LA MANO EL\nPASAJERO DERERAN DE COLOCARSE DEBAJO DEL ASIENTO\nDURANTE EL DESPEGUE Y EL ATERRIZAJE.\nSeccion de No Fumar\nmucha frecuencia es necesario expander la Seccion de No Fumar para poder acomodar a todos.\nEn el evento de que un vuelo este totalmente lleno, algunas veces es necesario sentar a ciertas\npersonas que fuman en los asientos que sobren en las ultimas filas de No Fumar.\nQueda\nprohibido fumar en todas las filas que estan designadas permanente o temporalmente como \"No"
    ],
    "millsfield:images_texts_ids": [
      1914556357,
      1914556359,
      1914556363
    ],
    "millsfield:primary_image": 1914556357,
    "millsfield:subcategory_id": 1511213703,
    "mz:is_approximate": 1,
    "mz:is_current": 1,
    "sfomuseum:accession_number": "2002.127.311",
    "sfomuseum:aircraft": "Boeing 737",
    "sfomuseum:aircraft_id": [
      207
    ],
    "sfomuseum:airline": "Frontier Airlines",
    "sfomuseum:airline_id": [
      1503
    ],
    "sfomuseum:category": "Passenger Amenity, Archive",
    "sfomuseum:classification_id": 581,
    "sfomuseum:collection": "Aviation Archive",
    "sfomuseum:creditline": "Gift of Thomas G. Dragges",
    "sfomuseum:date": "c. 1975",
    "sfomuseum:date_acquired": "2003-12-22",
    "sfomuseum:daterange_end": "1980-12-31",
    "sfomuseum:daterange_start": "1970-01-01",
    "sfomuseum:description": "Safety information card issued by Frontier Airlines for the Boeing 737 fleet; off-white double-sided tri-fold card with illustrations depicting inflight safety and emergency procedures; identification code: 904-2036 SS7409-737; no revision date.",
    "sfomuseum:dimensions": "9 3/4 x 5 inches (24.8 x 12.7 cm)",
    "sfomuseum:medium": "paper, ink",
    "sfomuseum:object_id": 68882,
    "sfomuseum:placetype": "object",
    "sfomuseum:publication": ": , c. 1975.",
    "sfomuseum:subcategory": "Safety Information Card",
    "src:geom": "sfomuseum#undetermined",
    "wof:belongsto": [
      102527513,
      1159162825,
      102191575,
      85633793,
      102087579,
      85922583,
      85688637,
      1159160869
    ],
    "wof:country": "XY",
    "wof:created": 1720459736,
    "wof:depicts": [
      1159293593,
      1762973287,
      1159289819
    ],
    "wof:geomhash": "c281b9d9eefc83b5710e64b9d646067d",
    "wof:hierarchy": [
      {
        "building_id": -1,
        "campus_id": 102527513,
        "collection_id": 1159162825,
        "concourse_id": 1159162825,
        "continent_id": 102191575,
        "country_id": 85633793,
        "county_id": 102087579,
        "custom_id": 1914555551,
        "locality_id": 85922583,
        "neighbourhood_id": -1,
        "object_id": 1914555551,
        "region_id": 85688637,
        "wing_id": 1159160869
      }
    ],
    "wof:id": 1914555551,
    "wof:lastmodified": 1787988221,
    "wof:name": "safety information card: Frontier Airlines, Boeing 737",
    "wof:parent_id": 1159162825,
    "wof:placetype": "custom",
    "wof:placetype_alt": [
      "object"
    ],
    "wof:repo": "sfomuseum-data-collection",
    "wof:superseded_by": [],
    "wof:supersedes": []
  },
  "bbox": [
    -122.38647222518921,
    37.6161053594541,
    -122.38583385944366,
    37.61661101879963
  ],
  "geometry": {"type":"Polygon","coordinates":[[[-122.38647222518921,37.61631782178288],[-122.386434674263,37.61623283692423],[-122.38637566566466,37.61617759671399],[-122.38630056381224,37.6161308549656],[-122.38616108894348,37.6161053594541],[-122.38602161407469,37.6161308549656],[-122.38591432571411,37.61618609521055],[-122.38585531711577,37.61626683087935],[-122.38583385944366,37.61636881265146],[-122.38587141036987,37.61646654505181],[-122.38594114780425,37.61654303118856],[-122.38605380058287,37.61660252035167],[-122.38618254661559,37.61661101879963],[-122.3863059282303,37.61657277577607],[-122.3864185810089,37.61650903735973],[-122.3864668607712,37.61641130501523],[-122.38647222518921,37.61631782178288]]]}
}
