{
  "id": 1913796235,
  "type": "Feature",
  "properties": {
    "date:cessation_lower": "1938-01-01",
    "date:cessation_upper": "1938-12-31",
    "date:inception_lower": "1938-01-01",
    "date:inception_upper": "1938-12-31",
    "edtf:cessation": "1938~",
    "edtf:inception": "1938~",
    "geom:area": 2.475047457570636e-7,
    "geom:bbox": "-122.386472,37.616105,-122.385834,37.616611",
    "geom:latitude": 37.61635747477365,
    "geom:longitude": -122.38615540108617,
    "millsfield:airline_id": [
      1159284991
    ],
    "millsfield:category_id": 1511214251,
    "millsfield:collection_id": 1511214207,
    "millsfield:company_id": [
      1159286839
    ],
    "millsfield:images": [
      1913799165,
      1913799167,
      1913799169
    ],
    "millsfield:images_colors_refs": {
      "crayola": [
        {
          "hex": "#efcdb8"
        },
        {
          "hex": "#9f8170"
        },
        {
          "hex": "#414a4c"
        },
        {
          "hex": "#efdecd"
        }
      ],
      "css4": [
        {
          "hex": "#556b2f"
        },
        {
          "hex": "#2f4f4f"
        },
        {
          "hex": "#f5deb3"
        },
        {
          "hex": "#faebd7"
        },
        {
          "hex": "#808080"
        }
      ],
      "marekm4": [
        {
          "hex": "#4b4b44"
        },
        {
          "hex": "#efebd7"
        },
        {
          "hex": "#e2d9be"
        },
        {
          "hex": "#ece7d3"
        },
        {
          "hex": "#504c3c"
        },
        {
          "hex": "#8d8977"
        },
        {
          "hex": "#4c4b40"
        }
      ]
    },
    "millsfield:images_texts": [
      "There lived in San Franciseo at this time, 1.e.\n1909, a Chinese lad fired with a determination to fly,\nand though he read with no little apprehension of\nHenri Farman's financial failure on Long Island, his\nambition was none the less diminished. This boy, a\nyouth of twenty Jears, was employed on the staff of THE\nWORLD, San Francisco's leading contemporary Chinese\ndaily•\nIn 1914, at Canton and other South China cities,\nan old Curtiss \"Pusher\" biplane flown by the illustrious\n\"Art\" Lym, aroused nation-wide interest. He, the\nChinese lad late of San Francisco, had realized his an-\nbition to fly, then embarked for China, together with a\nyouthful understudy named Chan Pon, two second-hand\nplanes, and an abundance of enthusiasm. He speedily set\nabout injecting the latter possession into the more ven-\nturesome of his countrymen. Lym failed to find flying a\nprofitable undertaking in the beginning, however, as\nthose bold enough to desire instruction seldom possessed\nthe means with which to pay for it. He experienced a\nserious setback shortly after his arrival in China when\nhe wrecked one of the two planes and sustained a broken\nleg while making an exhibition flight at Swatow. Never-\ntheless, success finally arrived, and his future as an\nairman was established in China.\nOne day a part of the fleet anchored in the Pearl",
      "River off Canton revolted, and Lym offered for a con-\nsideration to restore peace and order. His offer was\naccepted, but not without some skepticism. Since there\nwere no aerial bombs available, the city was bared of\nempty bottles, and these were taken to the airfield and\nfilled with gasoline and nails, one heaping handful of\nnails to each bottle. This ammunition was stowed on\nboard the plane and Lym took to the air, barely clearing\na row of trees at the windward end, so great was the\nload of his craft. He Ilew out over the river, and\nafter running the gauntlet of a heavy rifle fusilade\nfrom the revolting tars, swooped low over the ships and\nrained down a dozen or so missiles on cach. The bottles\nburst on striking the decks of the ships and sparks from\nthe flying nails ignited the gasoline. Iwo ships were\nthus set afire and the rebels surrendered forthwith.\nLym, now a hero, returned to the airfield a few minutes\nlater, and overjoyed with his success and with the large\ncrowd that had assembled in the meantime to pay him hom-\nage, he zoomed wildly \u0026 few times low over their heads,\nhauled his plane around in a steep bank, then cut his\nmotor and levelled off for a landing. At about this\npoint in his maneuvers he doffed helmet and goggles in\nrecognition of the crowd's wild cheers. The rushing air\nfilled his eyes with tears, his coat sleeves became en-\ntangled with the airleron control yoke and, so the story\ncontinues, the plane completed the first outside loop\naccomplished in China. The craft was demolished and Lym\n-2-",
      "was rushed to the nearest hospital where he spent the\nensuing three months recovering from shock and from a\nbadly shattered hip.\n\"Art\" Lym (Lym Fu-Juan)\nwas born at San Francisco\nIn 1891, and Learned to fly at North Island in 1913.\nAt one time he held International Pilot License No. 245.\nHe is now a Brigadier-General and is second in cornand\nof the Canton air force, a corps surpassed in China\nonly by that of the National Government. Since the\ndeath of Tom Gunn, \"Art\" Lym 1s reputed to be the old-\nest living Chinese aviator in point of service.\n- 3"
    ],
    "millsfield:images_texts_ids": [
      1913799165,
      1913799167,
      1913799169
    ],
    "millsfield:primary_image": 1913799165,
    "millsfield:subcategory_id": 1511213489,
    "mz:is_approximate": 1,
    "mz:is_current": 1,
    "sfomuseum:accession_number": "2019.121.1071 a c",
    "sfomuseum:airline": "Pan American Airways",
    "sfomuseum:airline_id": [
      685
    ],
    "sfomuseum:category": "Employee Career History",
    "sfomuseum:classification_id": 195,
    "sfomuseum:collection": "Aviation Archive",
    "sfomuseum:creditline": "Collection of SFO Museum",
    "sfomuseum:date": "c. 1938",
    "sfomuseum:date_acquired": "2019-11-22",
    "sfomuseum:daterange_end": "1943-12-31",
    "sfomuseum:daterange_start": "1933-01-01",
    "sfomuseum:description": "Typewritten document written by L.C. [Tom] Reynolds, undated; biography of “Art” Lym / Lym Fu-yuan; enclosure for 2019.121.1070 a c.",
    "sfomuseum:dimensions": "11 x 8 1/2 inches (27.9 x 21.6 cm)",
    "sfomuseum:medium": "paper, ink",
    "sfomuseum:object_id": 211434,
    "sfomuseum:placetype": "object",
    "sfomuseum:publication": ": , c. 1938.",
    "sfomuseum:subcategory": "Correspondence, Personal",
    "src:geom": "sfomuseum#undetermined",
    "wof:belongsto": [
      102527513,
      1159162825,
      102191575,
      85633793,
      102087579,
      85922583,
      85688637,
      1159160869
    ],
    "wof:country": "XY",
    "wof:created": 1714549026,
    "wof:depicts": [
      1159284991,
      1159286839
    ],
    "wof:geomhash": "c281b9d9eefc83b5710e64b9d646067d",
    "wof:hierarchy": [
      {
        "building_id": -1,
        "campus_id": 102527513,
        "collection_id": 1159162825,
        "concourse_id": 1159162825,
        "continent_id": 102191575,
        "country_id": 85633793,
        "county_id": 102087579,
        "custom_id": 1913796235,
        "locality_id": 85922583,
        "neighbourhood_id": -1,
        "object_id": 1913796235,
        "region_id": 85688637,
        "wing_id": 1159160869
      }
    ],
    "wof:id": 1913796235,
    "wof:lastmodified": 1787988219,
    "wof:name": "document: L.C. [Tom] Reynolds",
    "wof:parent_id": 1159162825,
    "wof:placetype": "custom",
    "wof:placetype_alt": [
      "object"
    ],
    "wof:repo": "sfomuseum-data-collection",
    "wof:superseded_by": [],
    "wof:supersedes": []
  },
  "bbox": [
    -122.38647222518921,
    37.6161053594541,
    -122.38583385944366,
    37.61661101879963
  ],
  "geometry": {"type":"Polygon","coordinates":[[[-122.38647222518921,37.61631782178288],[-122.386434674263,37.61623283692423],[-122.38637566566466,37.61617759671399],[-122.38630056381224,37.6161308549656],[-122.38616108894348,37.6161053594541],[-122.38602161407469,37.6161308549656],[-122.38591432571411,37.61618609521055],[-122.38585531711577,37.61626683087935],[-122.38583385944366,37.61636881265146],[-122.38587141036987,37.61646654505181],[-122.38594114780425,37.61654303118856],[-122.38605380058287,37.61660252035167],[-122.38618254661559,37.61661101879963],[-122.3863059282303,37.61657277577607],[-122.3864185810089,37.61650903735973],[-122.3864668607712,37.61641130501523],[-122.38647222518921,37.61631782178288]]]}
}
