{
  "id": 1511909885,
  "type": "Feature",
  "properties": {
    "date:cessation_lower": "1984-01-01",
    "date:cessation_upper": "1984-12-31",
    "date:inception_lower": "1984-01-01",
    "date:inception_upper": "1984-12-31",
    "edtf:cessation": "1984",
    "edtf:date": "1984",
    "edtf:inception": "1984",
    "geom:area": 0,
    "geom:bbox": "-122.386155,37.616357,-122.386155,37.616357",
    "geom:latitude": 37.616357,
    "geom:longitude": -122.386155,
    "iso:country": "US",
    "millsfield:airline_id": [
      1159285413
    ],
    "millsfield:category_id": 1511214223,
    "millsfield:collection_id": 1511214207,
    "millsfield:company_id": [
      1159288779
    ],
    "millsfield:images": [
      1527818521,
      1527818523
    ],
    "millsfield:images_colors_refs": {
      "crayola": [
        {
          "hex": "#6699cc"
        },
        {
          "hex": "#2e5894"
        },
        {
          "hex": "#5d76cb"
        },
        {
          "hex": "#cd4a4c"
        },
        {
          "hex": "#414a4c"
        },
        {
          "hex": "#fddde6"
        },
        {
          "hex": "#ffffff"
        },
        {
          "hex": "#000000"
        }
      ],
      "css4": [
        {
          "hex": "#f5f5f5"
        },
        {
          "hex": "#000000"
        },
        {
          "hex": "#2f4f4f"
        },
        {
          "hex": "#5f9ea0"
        },
        {
          "hex": "#4682b4"
        },
        {
          "hex": "#d2691e"
        }
      ],
      "marekm4": [
        {
          "hex": "#5289aa"
        },
        {
          "hex": "#cf4231"
        },
        {
          "hex": "#2f6ea0"
        },
        {
          "hex": "#f4f2f3"
        },
        {
          "hex": "#2f4030"
        },
        {
          "hex": "#efeff0"
        },
        {
          "hex": "#242421"
        },
        {
          "hex": "#427399"
        },
        {
          "hex": "#5698b2"
        }
      ]
    },
    "millsfield:images_texts": [
      "UNITED AIRLINES\nEUROPEAN EDITION - RATES \u0026 SCHEDULES\nOur Friendly Times\nJune 1, 1984\nVol. 3\nYVUSA Fares\nincluded in special \"Yellow\" section\nLos Angeles, site of the 1984 Summer Olympics",
      "United Airlines\nP.O. Box 391\nGeneva, Illinois 60134\nWESTIN HOTELS\nPartners in travel\nTha Wowin Galleria and The Ween Oaky. Houstor\nJUNE\nSMI W\n6 7\n10 11 12 13 14\n17 18 19 20 21 22 23\n24 25 26 27 28 29\n30\nJULY\n12\n4 5\n89 10 11 12 13 14\n15 16 17 18 19 20 21\n30 30 31\nAUGUST\nSM T\n5 6 7\nN\n891011\n12 13 14 15 16 17 18\n19 20 21 22 23 24 26\n26 21 28 20 30 31\nUnited Airlines foreign offices\n230021\n730.0081\n580-03-06\nCairo. Egypt - 16 Adty St\nFraoklurt, Germany — Muenchener Strasse 7.\nmen Freland - 20 Sail Rol\nMan 159 - 100206\nParis, France — 25 Rae Dartos..\n2238 55\n..247222\n- 117 Ben Yetuss St"
    ],
    "millsfield:images_texts_ids": [
      1527818521,
      1527818523
    ],
    "millsfield:primary_image": 1527818521,
    "millsfield:subcategory_id": 1511213425,
    "mz:hierarchy_label": 1,
    "mz:is_current": 1,
    "sfomuseum:accession_number": "1999.047.512",
    "sfomuseum:airline": "United Airlines",
    "sfomuseum:airline_id": [
      883
    ],
    "sfomuseum:category": "Scheduling / Ticketing",
    "sfomuseum:classification_id": 158,
    "sfomuseum:collection": "Aviation Archive",
    "sfomuseum:continent": "North America",
    "sfomuseum:country": "United States",
    "sfomuseum:creditline": "Gift of United Airlines Archives",
    "sfomuseum:date": "1984",
    "sfomuseum:date_acquired": "2000-05-11",
    "sfomuseum:daterange_end": "1984-12-31",
    "sfomuseum:daterange_start": "1984-01-01",
    "sfomuseum:description": "Timetable issued by United Airlines, European edition, effective June 1, 1984; white cover with color photographic image of palm trees and rose and text announcing YVUSA fares.",
    "sfomuseum:dimensions": "9 x 4 inches (22.9 x 10.2 cm)",
    "sfomuseum:media_ids": [
      1527818521,
      1527818523
    ],
    "sfomuseum:medium": "paper, ink",
    "sfomuseum:object_id": 49877,
    "sfomuseum:placetype": "object",
    "sfomuseum:primary_media_id": 1527818521,
    "sfomuseum:publication": ": , 1984.",
    "sfomuseum:subcategory": "Timetable",
    "src:geom": "sfomuseum#undetermined",
    "wof:belongsto": [
      1511214223,
      102527513,
      102191575,
      85633793,
      1511213425,
      85922583,
      102087579,
      1511214277,
      1511214207,
      85688637,
      136253057
    ],
    "wof:breaches": [],
    "wof:country": "US",
    "wof:created": 1579906678,
    "wof:depicts": [
      1159288779,
      1159285413
    ],
    "wof:geomhash": "30c8a918561c84bb2daa2b97fc7c5353",
    "wof:hierarchy": [
      {
        "arcade_id": 1511213425,
        "building_id": 1511214277,
        "campus_id": 102527513,
        "concourse_id": 1511214223,
        "continent_id": 102191575,
        "country_id": 85633793,
        "county_id": 102087579,
        "custom_id": 1511909885,
        "locality_id": 85922583,
        "neighbourhood_id": -1,
        "object_id": 1511909885,
        "region_id": 85688637,
        "venue_id": 1511909885,
        "wing_id": 1511214207
      },
      {
        "continent_id": 102191575,
        "country_id": 85633793,
        "custom_id": 1511909885,
        "empire_id": 136253057,
        "object_id": 1511909885,
        "venue_id": 1511909885
      }
    ],
    "wof:id": 1511909885,
    "wof:lastmodified": 1787988176,
    "wof:name": "timetable: United Airlines, European edition",
    "wof:parent_id": 1159162825,
    "wof:placetype": "custom",
    "wof:placetype_alt": [
      "object"
    ],
    "wof:repo": "sfomuseum-data-collection",
    "wof:superseded_by": [],
    "wof:supersedes": [],
    "wof:tags": []
  },
  "bbox": [
    -122.386155,
    37.616357,
    -122.386155,
    37.616357
  ],
  "geometry": {"type":"Point","coordinates":[-122.386155,37.616357]}
}
