{
  "id": 1763248633,
  "type": "Feature",
  "properties": {
    "date:cessation_lower": "1950-03-01",
    "date:cessation_upper": "1950-03-01",
    "date:inception_lower": "1950-03-01",
    "date:inception_upper": "1950-03-01",
    "edtf:cessation": "1950-03-01",
    "edtf:inception": "1950-03-01",
    "geom:area": 2.475047457570636e-7,
    "geom:bbox": "-122.386472,37.616105,-122.385834,37.616611",
    "geom:latitude": 37.61635747477365,
    "geom:longitude": -122.38615540108617,
    "millsfield:airline_id": [
      1159285663
    ],
    "millsfield:category_id": 1511214223,
    "millsfield:collection_id": 1511214207,
    "millsfield:company_id": [
      1159287595
    ],
    "millsfield:images": [
      1763249401
    ],
    "millsfield:images_colors_refs": {
      "crayola": [
        {
          "hex": "#dd9475"
        },
        {
          "hex": "#cd4a4c"
        },
        {
          "hex": "#efcdb8"
        }
      ],
      "css4": [
        {
          "hex": "#b22222"
        },
        {
          "hex": "#e9967a"
        },
        {
          "hex": "#f5deb3"
        }
      ],
      "marekm4": [
        {
          "hex": "#d53c23"
        },
        {
          "hex": "#dc8e72"
        },
        {
          "hex": "#e9d4b2"
        }
      ]
    },
    "millsfield:images_texts": [
      "WESTERN AIR LINES\nEFFECTIVE MARCH 1, 1950\nCoastal Division\nRead Down\nNORTHBOUND\n00\n606\nYuma\nEl Centro\n(MST) Lv\n. (PST) Lv\n316\n11\n30|\n11 10|\n318\n628\n334\n336\n338\nCoach\n740\n8\nOS\n7 45\nSan Diego\nPalm Springs\nOntarioD\nLong Beach\nLos Angeles\n(PST) Ly\nLY\nAr\n8\n10\n12410\n10\n6 40\n8\n45\n9\n51\n08\n4\n35\nAr\nLV\n00\n55\n4\n51\n08\n7\n21\n7\n38\n35\nLos Angeles\nBurbank\nSan Francisco\n*7 30\n9\n30\n12*01\n1\n30\n*5 30\n*6\n15\n8\n00\nAr\n'15\n11\n15\n1\n45\n3\n15\n7\n'15\n8\n00\n45\n10\n30\n11\n12\n05\n55\nSan Francisco\nOakland\nPortland\nSeattle-Tacoma\nLY\nAr\nAr\nAr\n49 35 11*35\n2\n2\n5\n12\n1 10\n2\n05\n3\n10\n05\n21\n05\n10\n47 35\n10\n00\n10\n16\n10\n05\n11\n10\n25\n40\n45\n6 00\nSOUTHBOUND\n303\n301\n615\n317\n321\n319\n625\n627\n329\nCoach\n635\n741\nSeattle-Tacoma\nPortland\nOakland\nSan Francisco\n*8 00\n9.07\nLY\nLY\n. Ar\n8\nO0\n8\n15\n|11 45\nSan Francisco\nBurbank\nLos Angeles\n. Lv\nAr\nAr\n*8 30\n12*05\n12\n*1\n30\n37\n3 00\n*4. 07\n4\n25\n4 40\n6\n45\n4.00\n*5 00\n7 05\n*6\n15|10\n7\n00\n22 11\n15\n10\n00\n2\n20\n35\n8\n30 10\n20\n10 15\n1\n50\n5 45\n6\n45\n8\n50\n10\n15 12\n05\n05\n5\nunin\nLos Angeles\nLong Beach\nOntarioD\nPalm Springs\nSan Diego\nLY\n47\n45\n110\n35\nAr\nAr\n10\n55\nAr\nAr\n35!11\n39\n2\n15\n35\n2 25\n·\n2\n48\n3\n25\n00\n7\n15\n7 35\n3\n19\n4\n50\n8 19\nEl Centro (PST) Ar\n9\nYuma\n.. (MST) Ar\n|11\n35\n15\n45\n50\n30"
    ],
    "millsfield:images_texts_ids": [
      1763249401
    ],
    "millsfield:primary_image": 1763249401,
    "millsfield:subcategory_id": 1511213425,
    "mz:is_approximate": 1,
    "mz:is_current": 1,
    "sfomuseum:accession_number": "2015.167.898",
    "sfomuseum:airline": "Western Air Lines",
    "sfomuseum:airline_id": [
      1005
    ],
    "sfomuseum:category": "Scheduling / Ticketing",
    "sfomuseum:classification_id": 158,
    "sfomuseum:collection": "Aviation Archive",
    "sfomuseum:creditline": "Gift of Thomas G. Dragges",
    "sfomuseum:date": "03/01/1950",
    "sfomuseum:date_acquired": "2016-07-06",
    "sfomuseum:daterange_end": "1950-03-01",
    "sfomuseum:daterange_start": "1950-03-01",
    "sfomuseum:description": "Timetable issued by Western Air Lines, effective March 1, 1950; double-sided bi-fold sheet; orange and white cover with blue text; includes reservation information.",
    "sfomuseum:dimensions": "9 x 4 inches (22.9 x 10.2 cm)",
    "sfomuseum:medium": "paper, ink",
    "sfomuseum:object_id": 175090,
    "sfomuseum:placetype": "object",
    "sfomuseum:publication": ": , 1950.",
    "sfomuseum:subcategory": "Timetable",
    "src:geom": "sfomuseum#undetermined",
    "wof:belongsto": [
      102527513,
      1159162825,
      102191575,
      85633793,
      102087579,
      85922583,
      85688637,
      1159160869
    ],
    "wof:country": "XY",
    "wof:created": 1646987919,
    "wof:depicts": [
      1159287595,
      1159285663
    ],
    "wof:geomhash": "c281b9d9eefc83b5710e64b9d646067d",
    "wof:hierarchy": [
      {
        "building_id": -1,
        "campus_id": 102527513,
        "collection_id": 1159162825,
        "concourse_id": 1159162825,
        "continent_id": 102191575,
        "country_id": 85633793,
        "county_id": 102087579,
        "custom_id": 1763248633,
        "locality_id": 85922583,
        "neighbourhood_id": -1,
        "object_id": 1763248633,
        "region_id": 85688637,
        "wing_id": 1159160869
      }
    ],
    "wof:id": 1763248633,
    "wof:lastmodified": 1787988205,
    "wof:name": "timetable: Western Air Lines, coastal schedule",
    "wof:parent_id": 1159162825,
    "wof:placetype": "custom",
    "wof:placetype_alt": [
      "object"
    ],
    "wof:repo": "sfomuseum-data-collection",
    "wof:superseded_by": [],
    "wof:supersedes": []
  },
  "bbox": [
    -122.38647222518921,
    37.6161053594541,
    -122.38583385944366,
    37.61661101879963
  ],
  "geometry": {"type":"Polygon","coordinates":[[[-122.38647222518921,37.61631782178288],[-122.386434674263,37.61623283692423],[-122.38637566566466,37.61617759671399],[-122.38630056381224,37.6161308549656],[-122.38616108894348,37.6161053594541],[-122.38602161407469,37.6161308549656],[-122.38591432571411,37.61618609521055],[-122.38585531711577,37.61626683087935],[-122.38583385944366,37.61636881265146],[-122.38587141036987,37.61646654505181],[-122.38594114780425,37.61654303118856],[-122.38605380058287,37.61660252035167],[-122.38618254661559,37.61661101879963],[-122.3863059282303,37.61657277577607],[-122.3864185810089,37.61650903735973],[-122.3864668607712,37.61641130501523],[-122.38647222518921,37.61631782178288]]]}
}
