{
  "id": 1762829187,
  "type": "Feature",
  "properties": {
    "date:cessation_lower": "1960-01-01",
    "date:cessation_upper": "1969-12-31",
    "date:inception_lower": "1960-01-01",
    "date:inception_upper": "1969-12-31",
    "edtf:cessation": "196X",
    "edtf:inception": "196X",
    "geom:area": 2.475047457570636e-7,
    "geom:bbox": "-122.386472,37.616105,-122.385834,37.616611",
    "geom:latitude": 37.61635747477365,
    "geom:longitude": -122.38615540108617,
    "millsfield:aircraft_id": [
      1159290465
    ],
    "millsfield:airline_id": [
      1159284939
    ],
    "millsfield:category_id": 1762671311,
    "millsfield:collection_id": 1511214207,
    "millsfield:company_id": [
      1159290443
    ],
    "millsfield:images": [
      1762894325,
      1762894327
    ],
    "millsfield:images_colors_refs": {
      "crayola": [
        {
          "hex": "#414a4c"
        },
        {
          "hex": "#8a795d"
        },
        {
          "hex": "#dbd7d2"
        }
      ],
      "css4": [
        {
          "hex": "#dcdcdc"
        },
        {
          "hex": "#808080"
        },
        {
          "hex": "#2f4f4f"
        }
      ],
      "marekm4": [
        {
          "hex": "#dde0e0"
        },
        {
          "hex": "#4e4141"
        },
        {
          "hex": "#8d6e70"
        },
        {
          "hex": "#514040"
        },
        {
          "hex": "#d8dfde"
        }
      ]
    },
    "millsfield:images_texts": [
      "OVERSEAS NATIONAL AIRWAYS\nDOUGLAS DC-8-60 SERIES\nTake-off and landing\nStart und Landung\nDécollage et\nalessage\nDespegue y aterrizaje\nDecolacem e\naterrissagem\nDecollo e atterraggio\nSAFETY PROCEDURES\nSICHERHEIT AN BOARD\nNOTICE DE SECURITE\nNo smoking\nEmergency exit\nRemove shoes\nNicht rauchen\nNotausgang\nSchuhe ausziehen\nNe pas fumer\nEXIT\nSortie de secours\nEnlever les souliers\nNo fumar\nSalida de urgencia\nDescalzar\nNão fumar\nSaida de emergéncia\nDescalçar os sapatos\nNon fumare\nUscita di emergenza\nTogliere le scarpe\n•Апауорейста!\n\"ELOdOS KIVOúVOU\nByáÀTE та папотаа\njail egia\n2\n3\nOXYGEN\nOxygen\nSauerstoff\nOxygène\nOxigeno\nOxigénio\nOssigeno\nOzuyóvo\nMAIN CABIN DOORS\n3\nEXIT\nA\n2\nPull handle in\nand down.\nJET ESCAPE DOORS\n3\nLet go of handle when\nexit starts to fall out.\nRemove shoes and\nall sharp objects.\nJump and sit\nNO SHOES\n3\nEXIT\nB\n3\nOXYGEN",
      "AUSGÄNGE\nSORTIES\nCEILING/OVERHEAD\nRACK RAFT\n1. Raft compartment\nis opened by pulling\nhandle toward you.\n2. Raft may then\nbe removed from compartment/\ndoor and launched\nout nearest exit.\nLIFE RAFT\nSTOWAGE COMPARTMENT\nEmergency landing\nNotlandung\nAtterrissage forcé\nAterrizaje forzoso\nAterrissagem forçada\nAtterraggio forzato\nпросудшас\nLanding on waiter\nWasserung\nAmerrissage\nAmaraje\nAmaragem\nAmmaraggio\n• job gal\n2\n2\nCEILING\nDOOR\nRemove shoes\nSchuhe ausziehen\nEnlever les souliers\nDescalzar\nDescalçar os sapatos\nTogliere le scarpe\nВуалтє та папойтоа\n3\n3\n8 3.\nба\nNO SMOKING\n2002.127.439"
    ],
    "millsfield:images_texts_ids": [
      1762894325,
      1762894327
    ],
    "millsfield:primary_image": 1762894325,
    "millsfield:subcategory_id": 1511213703,
    "mz:is_current": 1,
    "sfomuseum:accession_number": "2002.127.439",
    "sfomuseum:aircraft": "Douglas DC-8-60",
    "sfomuseum:aircraft_id": [
      508
    ],
    "sfomuseum:airline": "Overseas National Airways",
    "sfomuseum:airline_id": [
      661
    ],
    "sfomuseum:category": "Passenger Amenity, Archive",
    "sfomuseum:classification_id": 581,
    "sfomuseum:collection": "Aviation Archive",
    "sfomuseum:creditline": "Gift of Thomas G. Dragges",
    "sfomuseum:date": "1960s",
    "sfomuseum:date_acquired": "2003-12-22",
    "sfomuseum:daterange_end": "1969-12-31",
    "sfomuseum:daterange_start": "1960-01-01",
    "sfomuseum:description": "Safety information card issued by Overseas National Airways for the Douglas DC-8-60 fleet; white double-sided card with illustrations and text in three languages demonstrating safety instructions and emergency procedures.",
    "sfomuseum:dimensions": "11 x 7 inches (27.9 x 17.8 cm)",
    "sfomuseum:medium": "paper, ink",
    "sfomuseum:object_id": 69118,
    "sfomuseum:placetype": "object",
    "sfomuseum:publication": ": , 1960s.",
    "sfomuseum:subcategory": "Safety Information Card",
    "src:geom": "sfomuseum#undetermined",
    "wof:belongsto": [
      102527513,
      1159162825,
      102191575,
      85633793,
      102087579,
      85922583,
      85688637,
      1159160869
    ],
    "wof:country": "XY",
    "wof:created": 1642729626,
    "wof:depicts": [
      1159290443,
      1159288261,
      1159284939,
      1159290465
    ],
    "wof:geomhash": "c281b9d9eefc83b5710e64b9d646067d",
    "wof:hierarchy": [
      {
        "building_id": -1,
        "campus_id": 102527513,
        "collection_id": 1159162825,
        "concourse_id": 1159162825,
        "continent_id": 102191575,
        "country_id": 85633793,
        "county_id": 102087579,
        "custom_id": 1762829187,
        "locality_id": 85922583,
        "neighbourhood_id": -1,
        "object_id": 1762829187,
        "region_id": 85688637,
        "wing_id": 1159160869
      }
    ],
    "wof:id": 1762829187,
    "wof:lastmodified": 1787988200,
    "wof:name": "safety information card: Overseas National Airways, Douglas DC-8-60",
    "wof:parent_id": 1159162825,
    "wof:placetype": "custom",
    "wof:placetype_alt": [
      "object"
    ],
    "wof:repo": "sfomuseum-data-collection",
    "wof:superseded_by": [],
    "wof:supersedes": []
  },
  "bbox": [
    -122.38647222518921,
    37.6161053594541,
    -122.38583385944366,
    37.61661101879963
  ],
  "geometry": {"type":"Polygon","coordinates":[[[-122.38647222518921,37.61631782178288],[-122.386434674263,37.61623283692423],[-122.38637566566466,37.61617759671399],[-122.38630056381224,37.6161308549656],[-122.38616108894348,37.6161053594541],[-122.38602161407469,37.6161308549656],[-122.38591432571411,37.61618609521055],[-122.38585531711577,37.61626683087935],[-122.38583385944366,37.61636881265146],[-122.38587141036987,37.61646654505181],[-122.38594114780425,37.61654303118856],[-122.38605380058287,37.61660252035167],[-122.38618254661559,37.61661101879963],[-122.3863059282303,37.61657277577607],[-122.3864185810089,37.61650903735973],[-122.3864668607712,37.61641130501523],[-122.38647222518921,37.61631782178288]]]}
}
