{
  "id": 1511951251,
  "type": "Feature",
  "properties": {
    "date:cessation_lower": "1953-01-01",
    "date:cessation_upper": "1953-12-31",
    "date:inception_lower": "1953-01-01",
    "date:inception_upper": "1953-12-31",
    "edtf:cessation": "1953",
    "edtf:date": "1953",
    "edtf:inception": "1953",
    "geom:area": 0,
    "geom:bbox": "-122.386155,37.616357,-122.386155,37.616357",
    "geom:latitude": 37.616357,
    "geom:longitude": -122.386155,
    "iso:country": "XX",
    "millsfield:airline_id": [
      1159284989
    ],
    "millsfield:category_id": 1763416397,
    "millsfield:collection_id": 1511214207,
    "millsfield:company_id": [
      1159286839
    ],
    "millsfield:images": [
      1763388375
    ],
    "millsfield:images_colors_refs": {
      "crayola": [
        {
          "hex": "#cd9575"
        },
        {
          "hex": "#414a4c"
        },
        {
          "hex": "#b4674d"
        },
        {
          "hex": "#efdecd"
        }
      ],
      "css4": [
        {
          "hex": "#2f4f4f"
        },
        {
          "hex": "#bc8f8f"
        },
        {
          "hex": "#faebd7"
        },
        {
          "hex": "#a0522d"
        }
      ],
      "marekm4": [
        {
          "hex": "#eee6d7"
        },
        {
          "hex": "#4a3c39"
        },
        {
          "hex": "#bc936c"
        },
        {
          "hex": "#ac5d4c"
        }
      ]
    },
    "millsfield:images_texts": [
      "CABARIAVE\nFANGIPINVENTS\nWASSETANNNA\nSENATUS\nPat and Burtt Dutcher\nof Darien. Conn..\n1. \"Without change of plane we flew overnight from New York to Nice on\nthe famous Riviera.\n(Pan American is the only transatlantic airline offering\nthis service.) It took us only 20 hours in a luxurious Super-6 Clipper. Pat said\nit was so comtortable she telt as it we were riding on a giant cloud. Both of\nus fell in love at first sight with the tiny seaport of Villefranche, above.\"\nHow you can make the GRAND\nin 21 days for *1,023\n2. \"And then on to Rome, where ancient grandeur and\nthe most modern buildings are often tound side by side.\nHere, in the Roman Forum, history came to life for both\nof us as we made out the name CAESAR, cut in stone\nPat commented on the cleanliness of this great city.\"\n3. \"Outdoor cafés like this are typical\nor te cauv ne ormodemn Kome. mere\nat the Cafe Passetto you can watch\npeople, scooters, bikes and stylish\nItahan sports cars go by.\nTOUR of EUROPE\nYou go one way-return the other\n4. \"This shot of Pat is one of my favorites. Our tour included\nthe seamer to over to aon ane one mornine we walked\ndown to the little pebbly beach at Piccolo Marina. Without\nbeing able to speak a word of English, this old fisherman\nevaned to rat with ms nands, now neuses misners.\nONDON\n* PARIS\nAmerican once dear local\n• other\nAboce prices based on each of te\nThanks to the speed of the Flying Clippers,\nyou spend only 44 hours in the air and have\nnineteen days for sightseeing.\nWhat Pat and Burtt Dutcher did, you can plan to do\nthis summer. By acting now and choosing a 2-week,\n3-week or 1-month Pan Am Holiday, you'll know in\nadvance that your round-trip air transportation, hotel\nreservations and many sight-seeing tours have all been\narranged... Furthermore you'll know the cost of your\ntrip before you leave the United States!\nPan Am Holidays to Europe begin as low as $753 for\n2 weeks. For complete details call your Travel Agent\nor the nearest Pan American office.\n6. \"It was at the Moulin Rouge that Pat said, This Paris\ngrows on you. l am beginning to understand why all\nsongwriters and poets wax lyrical when Paris is men-\ntioned! (I like the place myself!) The French certainly\nknow how to cook a filet and Pan American was right to\nchoose meals by Maxim's for their Clippers. By Clipper,\nyou know, you're only 15¼ hours from New York.\n5. In Paris. Pat was thrilled by the Schiaparelli gown vou see\nbeing modeled above.\nWe couldn't afford to buy it ($2000!) but\nworth the to to\nEurope! That's Napoleon's column in the Place Vendôme you\nsee out the window- the famous Ritz bar is just across the street.\n7. \"This is the way Paris made Pat feel-\neven in the daytime! She thought the Eiffel\nwas really magnificent and its top\nwas so nign it seemed to us to sway when\nclouds crossed behind it on a windy day.\"\n8. \"Last of all, London, with Its great dignity and majesty-its feel-\ning of permanence. here we were allowed to\nwatch a Cororal\ninspecting two of the Horse Guards at Whitehall. Fabulous trip',\nsaid Pat, as we climbed aboard our 'Strato' Clipper to fly back to\nNew york. ve neter nad such a wondert ame\n\"All the way to Europe and back we had something\nwhich is important when youre flying the Atlantic...\nthe priceless knowledge that we were aboard\nthe World's Most Experienced Airline\"\nMore people-by far-fly to Europe on\nPAN AMERICAN"
    ],
    "millsfield:images_texts_ids": [
      1763388375
    ],
    "millsfield:primary_image": 1763388375,
    "millsfield:subcategory_id": 1511213149,
    "mz:hierarchy_label": 1,
    "mz:is_current": 1,
    "sfomuseum:accession_number": "2001.038.164.069 a b",
    "sfomuseum:airline": "Pan American World Airways",
    "sfomuseum:airline_id": [
      684
    ],
    "sfomuseum:category": "Promotional, Archive",
    "sfomuseum:classification_id": 6,
    "sfomuseum:collection": "Aviation Archive",
    "sfomuseum:creditline": "Gift of Barnaby Conrad III",
    "sfomuseum:date": "1953",
    "sfomuseum:date_acquired": "2003-05-16",
    "sfomuseum:daterange_end": "1953-12-31",
    "sfomuseum:daterange_start": "1953-01-01",
    "sfomuseum:description": "Two-page advertisement from March 1953 issue of Holiday promoting Pan American World Airways, titled “How you can make the Grand Tour of Europe in 21 days for $1,023” with multiple color photographic images depicting tourist activities.",
    "sfomuseum:dimensions": "14 x 21 inches (35.6 x 53.3 cm)",
    "sfomuseum:medium": "paper, ink",
    "sfomuseum:object_id": 122780,
    "sfomuseum:placetype": "object",
    "sfomuseum:publication": ": , 1953.",
    "sfomuseum:subcategory": "Advertisement, 2D",
    "sfomuseum:subject": "Pan Am promotional advertisement",
    "src:geom": "sfomuseum#undetermined",
    "wof:belongsto": [
      1511214205,
      102527513,
      102191575,
      85633793,
      1511213149,
      85922583,
      102087579,
      1511214277,
      1511214207,
      85688637
    ],
    "wof:breaches": [],
    "wof:country": "XX",
    "wof:created": 1618962246,
    "wof:depicts": [
      1159284989,
      1159286839
    ],
    "wof:geomhash": "30c8a918561c84bb2daa2b97fc7c5353",
    "wof:hierarchy": [
      {
        "arcade_id": 1511213149,
        "building_id": 1511214277,
        "campus_id": 102527513,
        "concourse_id": 1511214205,
        "continent_id": 102191575,
        "country_id": 85633793,
        "county_id": 102087579,
        "custom_id": 1511951251,
        "locality_id": 85922583,
        "neighbourhood_id": -1,
        "object_id": 1511951251,
        "region_id": 85688637,
        "venue_id": 1511951251,
        "wing_id": 1511214207
      }
    ],
    "wof:id": 1511951251,
    "wof:lastmodified": 1787988188,
    "wof:name": "advertisement: Pan American World Airways, Holiday",
    "wof:parent_id": 1159162825,
    "wof:placetype": "custom",
    "wof:placetype_alt": [
      "object"
    ],
    "wof:repo": "sfomuseum-data-collection",
    "wof:superseded_by": [],
    "wof:supersedes": [],
    "wof:tags": []
  },
  "bbox": [
    -122.386155,
    37.616357,
    -122.386155,
    37.616357
  ],
  "geometry": {"type":"Point","coordinates":[-122.386155,37.616357]}
}
