{
  "id": 1914579683,
  "type": "Feature",
  "properties": {
    "date:cessation_lower": "1981-01-01",
    "date:cessation_upper": "1981-12-31",
    "date:inception_lower": "1981-01-01",
    "date:inception_upper": "1981-12-31",
    "edtf:cessation": "1981",
    "edtf:inception": "1981",
    "geom:area": 2.475047457570636e-7,
    "geom:bbox": "-122.386472,37.616105,-122.385834,37.616611",
    "geom:latitude": 37.61635747477365,
    "geom:longitude": -122.38615540108617,
    "millsfield:aircraft_id": [
      1159289789
    ],
    "millsfield:airline_id": [
      1159285019
    ],
    "millsfield:category_id": 1762671311,
    "millsfield:collection_id": 1511214207,
    "millsfield:company_id": [
      1159293593,
      1159289759
    ],
    "millsfield:images": [
      1914580139,
      1914580141
    ],
    "millsfield:images_colors_refs": {
      "crayola": [
        {
          "hex": "#efdecd"
        },
        {
          "hex": "#000000"
        },
        {
          "hex": "#8a795d"
        }
      ],
      "css4": [
        {
          "hex": "#808080"
        },
        {
          "hex": "#dcdcdc"
        },
        {
          "hex": "#000000"
        }
      ],
      "marekm4": [
        {
          "hex": "#2e1f19"
        },
        {
          "hex": "#251712"
        },
        {
          "hex": "#e6ded5"
        },
        {
          "hex": "#8e716c"
        },
        {
          "hex": "#8b756f"
        },
        {
          "hex": "#ebe4db"
        }
      ]
    },
    "millsfield:images_texts": [
      "727-200\nI PIEDMONT\nIMPORTANT INFORMATION to Our Passengers\nYou are flying aboard a Boeing 727-200. It is unlikely we will encounter\na situation requiring emergency preparations, but it is good practice\nto be acquainted with the safety features we have provided for you on\nthis aircraft.\n•EMERGENCY EXITS\nWINDOW EXITS\nForward\nEntry\nDoor\nService\nDoor\nI. To release\nwindow - grasp\nhandle anc\npull down.\nWindow\nExits\nWindow\nExits\n2. To remove\nwindow -\npull inward\nand lift up\nas shown.\nRear\nService\nDoor\nRear\nService\nDoor\nRear Entry\nFORWARD PASSENGER AND SERVICE DOOR\n1. Turn handle\ndirection of\narrow.\n2. As hinged\nside moves\nin push other\nside out.\n3. Pull handle\nto inflate\nslide.\n4.\nJump and\nsit in slide.\nOPE\nREAR ENTRY DOOR\nThis Door Cannot Be Opened\nIn Flight\nTurn handle to\nopen.\nPull inward\non door.\nStair Controi\nPush Handle\nstair will fall.\n0943-00110 (Original 8-1-81)",
      "- PIEDMONT\nAUTOMATIC\nOXYGEN\nSYSTEM\nThe higher altitudes at which this aircraft operates require prompt\nuse of the automatic oxygen system in case of any sudden change\nin cabin pressure. Should a decompression occur, oxygen masks\nwill drop down automatically. Take nearest mask and promptly place\nover nose and mouth and lean back in your seat.\nBRACE\nPOSITIONS\nIn an emergency\nsituation your\nFlight Attendant\nmay request you\nto assume one of\nthe Bracing\nPositions shown.\nINSTRUCTIONS FOR USE OF SEAT BELTS\nLIFT TO UNFASTEN\nHold buckle and pull top strap for a tight fit. Please keep your seat\nbelt fastened at all times while in your seat.\nFLOTATION\nCUSHIONS\n1. Lift up at rear\nof cushion\n2. Push down on\nfront to unhook\nfor holding\nThe cushion you are seated on will float. In water landing remove\nyour cushion\nas shown in diagram and take it with you in leaving\nthe aircraft.\nPORTABLE ELECTRONIC DEVICES\nFederal Aviation Agency (FAA) regulation prohibits the operation in-\nflight of certain portable electronic devices since they can interfere\nwith the aircraft's navigation system. Please check with the Flight\nAttendant before operating your radio, dictating machine or recorder.\nPlease Do Not Remove This Card From Aircraft\n0943-00110 (Original 8-1-81)\n2002.127.486"
    ],
    "millsfield:images_texts_ids": [
      1914580139,
      1914580141
    ],
    "millsfield:primary_image": 1914580139,
    "millsfield:subcategory_id": 1511213703,
    "mz:is_approximate": 1,
    "mz:is_current": 1,
    "sfomuseum:accession_number": "2002.127.486",
    "sfomuseum:aircraft": "Boeing 727-200",
    "sfomuseum:aircraft_id": [
      194
    ],
    "sfomuseum:airline": "Piedmont Airlines",
    "sfomuseum:airline_id": [
      700
    ],
    "sfomuseum:category": "Passenger Amenity, Archive",
    "sfomuseum:classification_id": 581,
    "sfomuseum:collection": "Aviation Archive",
    "sfomuseum:creditline": "Gift of Thomas G. Dragges",
    "sfomuseum:date": "1981",
    "sfomuseum:date_acquired": "2003-12-22",
    "sfomuseum:daterange_end": "1981-12-31",
    "sfomuseum:daterange_start": "1981-01-01",
    "sfomuseum:description": "Safety information card issued by Piedmont Airlines for the Boeing 727-200 fleet; white double-sided card with illustrations depicting inflight safety and emergency procedures; identification code: 0943-00110; revision date: 8-1-81.",
    "sfomuseum:dimensions": "8 1/2 x 4 1/4 inches (21.6 x 10.8 cm)",
    "sfomuseum:medium": "paper, ink",
    "sfomuseum:object_id": 69256,
    "sfomuseum:placetype": "object",
    "sfomuseum:publication": ": , 1981.",
    "sfomuseum:subcategory": "Safety Information Card",
    "src:geom": "sfomuseum#undetermined",
    "wof:belongsto": [
      102527513,
      1159162825,
      102191575,
      85633793,
      102087579,
      85922583,
      85688637,
      1159160869
    ],
    "wof:country": "XY",
    "wof:created": 1720683208,
    "wof:depicts": [
      1159285019,
      1159289789,
      1159293593,
      1159289759
    ],
    "wof:geomhash": "c281b9d9eefc83b5710e64b9d646067d",
    "wof:hierarchy": [
      {
        "building_id": -1,
        "campus_id": 102527513,
        "collection_id": 1159162825,
        "concourse_id": 1159162825,
        "continent_id": 102191575,
        "country_id": 85633793,
        "county_id": 102087579,
        "custom_id": 1914579683,
        "locality_id": 85922583,
        "neighbourhood_id": -1,
        "object_id": 1914579683,
        "region_id": 85688637,
        "wing_id": 1159160869
      }
    ],
    "wof:id": 1914579683,
    "wof:lastmodified": 1787988221,
    "wof:name": "safety information card: Piedmont Airlines, Boeing 727-200",
    "wof:parent_id": 1159162825,
    "wof:placetype": "custom",
    "wof:placetype_alt": [
      "object"
    ],
    "wof:repo": "sfomuseum-data-collection",
    "wof:superseded_by": [],
    "wof:supersedes": []
  },
  "bbox": [
    -122.38647222518921,
    37.6161053594541,
    -122.38583385944366,
    37.61661101879963
  ],
  "geometry": {"type":"Polygon","coordinates":[[[-122.38647222518921,37.61631782178288],[-122.386434674263,37.61623283692423],[-122.38637566566466,37.61617759671399],[-122.38630056381224,37.6161308549656],[-122.38616108894348,37.6161053594541],[-122.38602161407469,37.6161308549656],[-122.38591432571411,37.61618609521055],[-122.38585531711577,37.61626683087935],[-122.38583385944366,37.61636881265146],[-122.38587141036987,37.61646654505181],[-122.38594114780425,37.61654303118856],[-122.38605380058287,37.61660252035167],[-122.38618254661559,37.61661101879963],[-122.3863059282303,37.61657277577607],[-122.3864185810089,37.61650903735973],[-122.3864668607712,37.61641130501523],[-122.38647222518921,37.61631782178288]]]}
}
