{
  "id": 1913796101,
  "type": "Feature",
  "properties": {
    "date:cessation_lower": "1940-01-28",
    "date:cessation_upper": "1940-01-28",
    "date:inception_lower": "1940-01-28",
    "date:inception_upper": "1940-01-28",
    "edtf:cessation": "1940-01-28",
    "edtf:inception": "1940-01-28",
    "geom:area": 2.475047457570636e-7,
    "geom:bbox": "-122.386472,37.616105,-122.385834,37.616611",
    "geom:latitude": 37.61635747477365,
    "geom:longitude": -122.38615540108617,
    "millsfield:airline_id": [
      1159284991
    ],
    "millsfield:category_id": 1511214251,
    "millsfield:collection_id": 1511214207,
    "millsfield:company_id": [
      1159286839
    ],
    "millsfield:images": [
      1913801863,
      1913801865
    ],
    "millsfield:images_colors_refs": {
      "crayola": [
        {
          "hex": "#e7c697"
        },
        {
          "hex": "#deaa88"
        },
        {
          "hex": "#414a4c"
        },
        {
          "hex": "#000000"
        },
        {
          "hex": "#bab86c"
        }
      ],
      "css4": [
        {
          "hex": "#deb887"
        },
        {
          "hex": "#000000"
        },
        {
          "hex": "#bdb76b"
        },
        {
          "hex": "#2f4f4f"
        }
      ],
      "marekm4": [
        {
          "hex": "#d2b378"
        },
        {
          "hex": "#dfc89c"
        },
        {
          "hex": "#c9ad77"
        },
        {
          "hex": "#2e2717"
        },
        {
          "hex": "#302b1c"
        },
        {
          "hex": "#e5cd9c"
        }
      ]
    },
    "millsfield:images_texts": [
      "Sunday\nJan 28\nBAUR\n• AU LAC\nZURICH\nFearest Dabs.\nTree hue your wandering boy is\nin Zurich. ur eft Garis at 10 oclock\nlast night along with a lot of offices\nand min bound for the haginat line.\nur got a wajon Leg compartment which\nwas quite comfortable recest when the\ntrain stopped - which was often - and\nthen it was too hot.\nIt is surprisingly\nwarm in Furtzerland. the snow is\nmeeting and the little sticams act\nchuck fuce to our flowing. Our train wan\nthere hours lats and us didnt get\nbuck fast untie\n10:30 when we reached\nEach\nthe surn border\nthen we just grated\na eup of coffe and a big bun\nwith some ham in it and Climbe",
      "back on board the train.\nExpect to su inr. Pielchade\nPresid it of Surmain tomorrow and\nif at ale ponse wee then\nlear tomorrow might for Rome\nGerhaps Iu hair to stan our\nOne mar day but sin enxious\nto start homiward. My work in\nFrance o thank was whole\nsucernque t while I do not\nhair anything in the form of\na written agrument to take home\nwith one I am were thel reasonably\nus that in due course the\nNoumia extrusion wile be isaved\nalong the liar Jit wants. also\nthe rights which\nur taught at\nHanoi and Saigo wice be grantra\nbut than will t some delay in\nthe actual issuancs of thon.\nCould it writh abont than\nmatter from Garis brcau ace\nmail is encored, bent pom hur\nit is nat.\nThis will probase, tr my tai\nlth as En this one may\namir afte 9 do\nMonday - Dibs dear\n- rushing to\nBatch train to Rome\nLat. and lots of for\nBix"
    ],
    "millsfield:images_texts_ids": [
      1913801863,
      1913801865
    ],
    "millsfield:primary_image": 1913801863,
    "millsfield:subcategory_id": 1511213489,
    "mz:is_approximate": 1,
    "mz:is_current": 1,
    "sfomuseum:accession_number": "2019.121.0860",
    "sfomuseum:airline": "Pan American Airways",
    "sfomuseum:airline_id": [
      685
    ],
    "sfomuseum:category": "Employee Career History",
    "sfomuseum:classification_id": 195,
    "sfomuseum:collection": "Aviation Archive",
    "sfomuseum:creditline": "Collection of SFO Museum",
    "sfomuseum:date": "01/28/1940",
    "sfomuseum:date_acquired": "2019-11-22",
    "sfomuseum:daterange_end": "1940-01-28",
    "sfomuseum:daterange_start": "1940-01-28",
    "sfomuseum:description": "Handwritten letter from Harold M. Bixby to his wife, Debby Bixby, dated January 28, [1940], on stationery from the Baur au Lac in Zurich; meeting with president of Swissair Mr. Pillchody; includes brief description of negotiations with a person in France over routes to Noumea, Hanoi, and Saigon; mentions J.T.T. [Juan Trippe].",
    "sfomuseum:dimensions": "7 1/2 x 5 1/2 inches (19.1 x 14 cm)",
    "sfomuseum:medium": "paper, ink",
    "sfomuseum:object_id": 211213,
    "sfomuseum:placetype": "object",
    "sfomuseum:publication": ": , 01/28/1940.",
    "sfomuseum:subcategory": "Correspondence, Personal",
    "src:geom": "sfomuseum#undetermined",
    "wof:belongsto": [
      102527513,
      1159162825,
      102191575,
      85633793,
      102087579,
      85922583,
      85688637,
      1159160869
    ],
    "wof:country": "XY",
    "wof:created": 1714548984,
    "wof:depicts": [
      1159284991,
      1159286839
    ],
    "wof:geomhash": "c281b9d9eefc83b5710e64b9d646067d",
    "wof:hierarchy": [
      {
        "building_id": -1,
        "campus_id": 102527513,
        "collection_id": 1159162825,
        "concourse_id": 1159162825,
        "continent_id": 102191575,
        "country_id": 85633793,
        "county_id": 102087579,
        "custom_id": 1913796101,
        "locality_id": 85922583,
        "neighbourhood_id": -1,
        "object_id": 1913796101,
        "region_id": 85688637,
        "wing_id": 1159160869
      }
    ],
    "wof:id": 1913796101,
    "wof:lastmodified": 1787988219,
    "wof:name": "correspondence: Harold M. Bixby to Debby Bixby",
    "wof:parent_id": 1159162825,
    "wof:placetype": "custom",
    "wof:placetype_alt": [
      "object"
    ],
    "wof:repo": "sfomuseum-data-collection",
    "wof:superseded_by": [],
    "wof:supersedes": []
  },
  "bbox": [
    -122.38647222518921,
    37.6161053594541,
    -122.38583385944366,
    37.61661101879963
  ],
  "geometry": {"type":"Polygon","coordinates":[[[-122.38647222518921,37.61631782178288],[-122.386434674263,37.61623283692423],[-122.38637566566466,37.61617759671399],[-122.38630056381224,37.6161308549656],[-122.38616108894348,37.6161053594541],[-122.38602161407469,37.6161308549656],[-122.38591432571411,37.61618609521055],[-122.38585531711577,37.61626683087935],[-122.38583385944366,37.61636881265146],[-122.38587141036987,37.61646654505181],[-122.38594114780425,37.61654303118856],[-122.38605380058287,37.61660252035167],[-122.38618254661559,37.61661101879963],[-122.3863059282303,37.61657277577607],[-122.3864185810089,37.61650903735973],[-122.3864668607712,37.61641130501523],[-122.38647222518921,37.61631782178288]]]}
}
