{
  "id": 1913795247,
  "type": "Feature",
  "properties": {
    "date:cessation_lower": "1937-09-22",
    "date:cessation_upper": "1937-09-22",
    "date:inception_lower": "1937-09-22",
    "date:inception_upper": "1937-09-22",
    "edtf:cessation": "1937-09-22",
    "edtf:inception": "1937-09-22",
    "geom:area": 2.475047457570636e-7,
    "geom:bbox": "-122.386472,37.616105,-122.385834,37.616611",
    "geom:latitude": 37.61635747477365,
    "geom:longitude": -122.38615540108617,
    "millsfield:airline_id": [
      1159284991
    ],
    "millsfield:category_id": 1511214251,
    "millsfield:collection_id": 1511214207,
    "millsfield:company_id": [
      1159286839
    ],
    "millsfield:images": [
      1913799953,
      1913799955,
      1913799957
    ],
    "millsfield:images_colors_refs": {
      "crayola": [
        {
          "hex": "#edd19c"
        },
        {
          "hex": "#bab86c"
        },
        {
          "hex": "#714b23"
        }
      ],
      "css4": [
        {
          "hex": "#bdb76b"
        },
        {
          "hex": "#f0e68c"
        },
        {
          "hex": "#deb887"
        },
        {
          "hex": "#556b2f"
        }
      ],
      "marekm4": [
        {
          "hex": "#e5d499"
        },
        {
          "hex": "#4d4622"
        },
        {
          "hex": "#ceb975"
        },
        {
          "hex": "#c6b473"
        },
        {
          "hex": "#e7d598"
        },
        {
          "hex": "#4d4520"
        },
        {
          "hex": "#d1bc76"
        },
        {
          "hex": "#4e4722"
        },
        {
          "hex": "#e6d59a"
        }
      ]
    },
    "millsfield:images_texts": [
      "PERSONAL\nSeptember 22, 1937\nMr. Harold M. Bixby\nVice President for China\nPan American Airways Co.\nManila, Phillipine Islands\nDear Harold:\nI have read\nwith mich interest your personal let-\nter of September 6th and \"apologia\". You were certainly not alone in\nmisjudging the course of developments in China over the last six weeks.\nCertainly, I was not in a position to make any better forecast from this\ndistance,\nalthough from what I heard from you and Bond and others who\nhave been in Chine and comparing it with the feeling I encountered\nthroughout New York, particularly at the Council on Foreign Relations,\nit looks to me as though the people farthest from the scene saw the most\nclearly. This is probably just another example of the old difficulty of\nnot seeing the woods for the trees. Even so, and without claiming any\nsuperiority of judgment, I am going to stick my neck out in a friendly\nway to criticize your analysis of the situation with which I do not agree,\nalthough frankly willing to admit that your opinion is as good or possibly\nbetter than mine.\nThe question is academic, of course, in any case as we\nare faced with realities rather than theories.\nIn your letter of September 6th you again bring up\nthe old Jack Dempsey simile which you used both three years ago and one\nyear ago, which makes me inclined to believe that your thinking has gotten\ninto somewhat of a groove.\nNow this Dempsey simile, while very graphic,\ndoes not in my opinion meet the facts of the case.\nto somebody of my name coming out from under the desk at the certain risk\nof his life. You overlook the fact that when China came out from under\nthe desk it came out with a brass knuckle on each hand. If, in fact, the\nChinese resistance had been one of final desperation in circumstances simi-\nlar to the Dempsey-Morgan controversey, China would not have come out so\nwell prepared. It must have been in deliberate anticipation of exactly\nwhat has taken place that China expended so much on munitions, including\nthe aircraft of our friend Bill Pawley, during the last two years; that the\naviation school was operated at Hanchow; and that, if reports are true, a\ngoodly number of expert German general staff officers are now available to\nadvise the Chinese high command. It is my humble opinion that beginning\nat least two years ago the Generalissimo was prepared to come to a complete\nshowdown with Japan,\nthe minute Japan made the next serious agressive\nmove, such as the Japanese activities around Peking during the first fort-\nnight in July proved to be.",
      "Mr. Bixby\n• - 2 - ,\nSeptember 22, 1937\nUndoubtedly the Generalissimo hoped for the maximum of time\npast two years he had any expectation of avoiding it by putting up any fake\nshow and final agreement which would involve any material expansion of the\nJapanese sphere of influence in China. In other words I do not think, as\nyou say, that the Chinese patience became exhausted, but rather that the\nJapanese, judging the situation correctly, forced the issue when they did\ninstead of giving the General any more time to prepare.\nwhat the Central Powers did in 1914 when France and Russia were preparing\n22323\nfor a showdown in 1916 or later.\nThere is considerable talk here and in the papers to the\neffect that the Chinese Government was dragged into this war through pres-\nsure of public opinion and inability to restrain the army leaders and the\nmasses of the people any longer. This theory does not fibe with the fact\nof the very complete and ample preparation which was made for this eventu-\nhave been controlled by the Government if that had been their policy. It\nseems more likely that in Japan the\npeople were dragged in by the army lead-\ners and this may have important repercussions later.\nI never could see why it was that there was such wide-spread\nopinion among the \"China hands\" that the next incident would not seriously\ninvolve Shanghai. There were two controlling reasons, to my mind, why the\nJapanese had to attack at Shanghai. One was the necessity of their protect-\ning their great number of nationals there from mob violence, and the second\nwas the important economic consequence to China of paralizing and control-\nling its most important commercial city. It was equally certain that the\nChinese would resist any military activity around Shanghai although every-\nbody, including the Japanese, miscalculated the vigor of the Chinese resist-\nance around that point.\nIn any case, however, it seemed to me, and I re-\nmember so telling Bond here in July, that far from being \u0026 safe haven, I\nthought the International Settlement might become perhaps the most dangerous\nplace to be in China. It must be only a question of time before antipathy\ntowards Japan will turn into antipathy towards all foreigners--if external\naid is not forthcoming.\nI am not going to be foolish enough to try to predict the\nfuture course of events other.\nthan to say that if my theories\nas above set\nforth are correct, it is a certainty that the Chinese resistance will be\nvigorous and long\ndrawn out. Much must depend on the extent of the military\nsupplies which they have been able to accumulate during the last two or three\nyears, and their ability to obtain new supplies in spite of the coastal block-\nade by Japan. Only time will show the answer to these questions and it seems\nto me that gasoline supplies will be a vital factor since, unless I am mistaken,\nthere is no gasoline production in China, and it would be very difficult at\npresent to bring this in except through channels which the Japanese will al-\nmost certainly be successful in blockading. However, experience has shown",
      "Mr. Bixby\n- 3-\nSeptember 22, 1937\nthat nations manage to get small arm ammnition somehow\nor other in spite\nof the most rigorous restrictions, and with this type of supplies alone the\nChinese should be able to keep up a devastating guerilla warfare for a\nvery long period. After all, they have only one chance of winning, or\non a daris theme ree,\nshall we say saving themselves, in this war and that is to bleed Japan eco-\nnomically and financially white by forcing her to keep a very large army\nmobile in the field for a long period. If they do, something is going to\ncrack badly in Japan, I think,\nbefore anything cracks in China. It is for\nthis reason that I cannot believe in any return to peaceful conditions in\nthe future as far ahead as I can see--which means, of course, that in my\nopinion there is not the slightest chance of our resuming operations or\nparticipating in operations in China even if we were disposed to make the\nnecessary further investment.\nI have felt all along that the possibility of our operating\na purely commercial service was illusory, not so much because of the fail-\nure of the Chinese to cooperate honestly\n(since I did think the \"top-side\"\nmen would do that in their own interests) but because I felt sure that the\nin China so long as Japanese military aircraft are active anywhere in the\nterritory, even although a state of comparative peace might materialize and\nour Chinese friends should give new and possibly more satisfactory assur-\nances of their willingness to cooperate.\nPossibly you will disagree with a good deal of the above and\nit would be interesting to have your comment,\nas I make no claims to omni-\nIn any case, correspondence of this sort is interesting and stimu-\nlating, like a game of chess by cable.\nSincerely yours,\nSVM: AH"
    ],
    "millsfield:images_texts_ids": [
      1913799953,
      1913799955,
      1913799957
    ],
    "millsfield:primary_image": 1913799953,
    "millsfield:subcategory_id": 1511213489,
    "mz:is_approximate": 1,
    "mz:is_current": 1,
    "sfomuseum:accession_number": "2019.121.1032 a c",
    "sfomuseum:airline": "Pan American Airways",
    "sfomuseum:airline_id": [
      685
    ],
    "sfomuseum:category": "Employee Career History",
    "sfomuseum:classification_id": 195,
    "sfomuseum:collection": "Aviation Archive",
    "sfomuseum:creditline": "Collection of SFO Museum",
    "sfomuseum:date": "09/22/1937",
    "sfomuseum:date_acquired": "2019-11-22",
    "sfomuseum:daterange_end": "1937-09-22",
    "sfomuseum:daterange_start": "1937-09-22",
    "sfomuseum:description": "Typewritten letter from S. [Stokely] W. Morgan to Harold M. Bixby, dated September 22, 1937, marked “Personal”; reply to Mr. Bixby’s letter dated September 6 (2019.121.1028); includes critique of Bixby’s analysis of China’s response to the Japanese invasion; mentions Bill [William] Pawley, the Generalissimo [Chiang Kai-shek], [William L.] Bond.",
    "sfomuseum:dimensions": "11 x 8 1/2 inches (27.9 x 21.6 cm)",
    "sfomuseum:medium": "paper, ink",
    "sfomuseum:object_id": 211395,
    "sfomuseum:placetype": "object",
    "sfomuseum:publication": ": , 09/22/1937.",
    "sfomuseum:subcategory": "Correspondence, Personal",
    "src:geom": "sfomuseum#undetermined",
    "wof:belongsto": [
      102527513,
      1159162825,
      102191575,
      85633793,
      102087579,
      85922583,
      85688637,
      1159160869
    ],
    "wof:country": "XY",
    "wof:created": 1714548737,
    "wof:depicts": [
      1159286839,
      1159284991
    ],
    "wof:geomhash": "c281b9d9eefc83b5710e64b9d646067d",
    "wof:hierarchy": [
      {
        "building_id": -1,
        "campus_id": 102527513,
        "collection_id": 1159162825,
        "concourse_id": 1159162825,
        "continent_id": 102191575,
        "country_id": 85633793,
        "county_id": 102087579,
        "custom_id": 1913795247,
        "locality_id": 85922583,
        "neighbourhood_id": -1,
        "object_id": 1913795247,
        "region_id": 85688637,
        "wing_id": 1159160869
      }
    ],
    "wof:id": 1913795247,
    "wof:lastmodified": 1787988219,
    "wof:name": "correspondence: S.W. Morgan to Harold M. Bixby",
    "wof:parent_id": 1159162825,
    "wof:placetype": "custom",
    "wof:placetype_alt": [
      "object"
    ],
    "wof:repo": "sfomuseum-data-collection",
    "wof:superseded_by": [],
    "wof:supersedes": []
  },
  "bbox": [
    -122.38647222518921,
    37.6161053594541,
    -122.38583385944366,
    37.61661101879963
  ],
  "geometry": {"type":"Polygon","coordinates":[[[-122.38647222518921,37.61631782178288],[-122.386434674263,37.61623283692423],[-122.38637566566466,37.61617759671399],[-122.38630056381224,37.6161308549656],[-122.38616108894348,37.6161053594541],[-122.38602161407469,37.6161308549656],[-122.38591432571411,37.61618609521055],[-122.38585531711577,37.61626683087935],[-122.38583385944366,37.61636881265146],[-122.38587141036987,37.61646654505181],[-122.38594114780425,37.61654303118856],[-122.38605380058287,37.61660252035167],[-122.38618254661559,37.61661101879963],[-122.3863059282303,37.61657277577607],[-122.3864185810089,37.61650903735973],[-122.3864668607712,37.61641130501523],[-122.38647222518921,37.61631782178288]]]}
}
