{
  "id": 1913890883,
  "type": "Feature",
  "properties": {
    "date:cessation_lower": "1985-01-01",
    "date:cessation_upper": "1985-12-31",
    "date:inception_lower": "1985-01-01",
    "date:inception_upper": "1985-12-31",
    "edtf:cessation": "1985",
    "edtf:inception": "1985",
    "geom:area": 2.475047457570636e-7,
    "geom:bbox": "-122.386472,37.616105,-122.385834,37.616611",
    "geom:latitude": 37.61635747477365,
    "geom:longitude": -122.38615540108617,
    "millsfield:airline_id": [
      1159285271
    ],
    "millsfield:category_id": 1762671311,
    "millsfield:collection_id": 1511214207,
    "millsfield:company_id": [
      1159287519
    ],
    "millsfield:images": [
      1913891025
    ],
    "millsfield:images_colors_refs": {
      "crayola": [
        {
          "hex": "#714b23"
        },
        {
          "hex": "#eceabe"
        },
        {
          "hex": "#bab86c"
        },
        {
          "hex": "#9c2542"
        }
      ],
      "css4": [
        {
          "hex": "#556b2f"
        },
        {
          "hex": "#f5deb3"
        },
        {
          "hex": "#a52a2a"
        },
        {
          "hex": "#bdb76b"
        }
      ],
      "marekm4": [
        {
          "hex": "#af9d6e"
        },
        {
          "hex": "#603f2a"
        },
        {
          "hex": "#9c3227"
        },
        {
          "hex": "#f2e9bd"
        }
      ]
    },
    "millsfield:images_texts": [
      "NAVICATOR *\nCACe\ntop executive *\nSnr. Passageiro\nBem vindo a bordo da Classe Navigator/Top Executive que criamos para si.\nNesta Classe Navigator/Top Executive, oferecenos todo um conjunto de facilidades no serviço\nem terra que começam com a escolha\ndo lugar na altura da reserva do\nde check in separado, tratamento preferencial de bagagem a chegada,\n30 Kgs. de bagagem de po\nrao, oferta de carteira para documentos\ncom etiqueta para bagagem\nde cabine,\nutilização\nNavigator Lounge ou outros Lounges proprios nos restantes Aeroportos (so em\nvôos interconti-\nnentais) e culminam com o seu embarque/ desembarque em separado.\nA bordo, terá oportunidade de constatar o elevado grau de conforto criado para si,\natravés\nda oferta de mais espaço entre cadeiras tambem com cadeiras\na\nque\nse junta a ogerta de novos menus escolhidos por tecnicos da TAP em colaboração com o \"Restau\nrante Tavares\"\n, em Lesboa, e servidos com vinhos especialmente escolhidos para si pelo presi\nlente da Associação Portuguesa de Escançoes, a passagem de curtas metragens (so em L 1011), a\nutilização de jogos para entretenimento a bordo e a oferta de artigos para relembrar a sua\nviagem na Classe Navigator/Top Executive\nDesejamos-lhe Boa Viagem e esperamos continuar a corresponder à confiança depositada, quando\nda escolha dos nossos serviços.\n*\n*\n*\nDear Passenger,\nWelcome aboard the Navigator Class/Top Executive, created especially for you.\nThe Navigator Class/Top Executive obters a whole range of ground facilities, from seat\nselection on reservation of flight to separate check-in, preferential baggage treatment on\narrival, baggage allowance o6 30 kilos,\nthe obter of a wallet for your documents with\nuse of Navigator Lounge or equivalent lounges in other airports lon inter\ncontinental flights only) and separate embarkation/dis embarkation.\nOn board you will discover the high standard of comfort created\nfor you w mor space\n(different seats on the L1011), new menus, chosen by TAP specialists in collaboration with\nTavares Restaurant in Lisbon, including wines especially selected for you by\nPresident of the Portuguese Association of Wine waiters, short film shows lon the L1011\nonly), games for your amusement on board and souvenirs to remind you of your flight in the\nNavigator Class/Top Executive.\nWe wish you a pleasant journey and trust we will continue to merit your confidence in our\nservices.\n*\n*\n*\nAIR\nPORTUGAL"
    ],
    "millsfield:images_texts_ids": [
      1913891025
    ],
    "millsfield:primary_image": 1913891025,
    "millsfield:subcategory_id": 1511213565,
    "mz:is_approximate": 1,
    "mz:is_current": 1,
    "sfomuseum:accession_number": "2015.098.034",
    "sfomuseum:airline": "TAP Air Portugal",
    "sfomuseum:airline_id": [
      815
    ],
    "sfomuseum:category": "Passenger Amenity, Archive",
    "sfomuseum:classification_id": 241,
    "sfomuseum:collection": "Aviation Archive",
    "sfomuseum:creditline": "Gift of Thomas G. Dragges",
    "sfomuseum:date": "1985",
    "sfomuseum:date_acquired": "2015-12-03",
    "sfomuseum:daterange_end": "1985-12-31",
    "sfomuseum:daterange_start": "1985-01-01",
    "sfomuseum:description": "Inflight information cover letter issued by TAP Air Portugal, addressed to passenger; text printed on official stationery with salutation, “Dear passenger / Welcome aboard the Navigator Class / Top Executive, created especially for you.”",
    "sfomuseum:dimensions": "11 1/2 x 8 1/4 inches (29.2 x 21 cm)",
    "sfomuseum:medium": "paper, ink",
    "sfomuseum:object_id": 170018,
    "sfomuseum:placetype": "object",
    "sfomuseum:publication": ": , 1985.",
    "sfomuseum:subcategory": "Inflight Information",
    "src:geom": "sfomuseum#undetermined",
    "wof:belongsto": [
      102527513,
      1159162825,
      102191575,
      85633793,
      102087579,
      85922583,
      85688637,
      1159160869
    ],
    "wof:country": "XY",
    "wof:created": 1715326383,
    "wof:depicts": [
      1159287519,
      1159285271
    ],
    "wof:geomhash": "c281b9d9eefc83b5710e64b9d646067d",
    "wof:hierarchy": [
      {
        "building_id": -1,
        "campus_id": 102527513,
        "collection_id": 1159162825,
        "concourse_id": 1159162825,
        "continent_id": 102191575,
        "country_id": 85633793,
        "county_id": 102087579,
        "custom_id": 1913890883,
        "locality_id": 85922583,
        "neighbourhood_id": -1,
        "object_id": 1913890883,
        "region_id": 85688637,
        "wing_id": 1159160869
      }
    ],
    "wof:id": 1913890883,
    "wof:lastmodified": 1787988220,
    "wof:name": "flight information: TAP Air Portugal",
    "wof:parent_id": 1159162825,
    "wof:placetype": "custom",
    "wof:placetype_alt": [
      "object"
    ],
    "wof:repo": "sfomuseum-data-collection",
    "wof:superseded_by": [],
    "wof:supersedes": []
  },
  "bbox": [
    -122.38647222518921,
    37.6161053594541,
    -122.38583385944366,
    37.61661101879963
  ],
  "geometry": {"type":"Polygon","coordinates":[[[-122.38647222518921,37.61631782178288],[-122.386434674263,37.61623283692423],[-122.38637566566466,37.61617759671399],[-122.38630056381224,37.6161308549656],[-122.38616108894348,37.6161053594541],[-122.38602161407469,37.6161308549656],[-122.38591432571411,37.61618609521055],[-122.38585531711577,37.61626683087935],[-122.38583385944366,37.61636881265146],[-122.38587141036987,37.61646654505181],[-122.38594114780425,37.61654303118856],[-122.38605380058287,37.61660252035167],[-122.38618254661559,37.61661101879963],[-122.3863059282303,37.61657277577607],[-122.3864185810089,37.61650903735973],[-122.3864668607712,37.61641130501523],[-122.38647222518921,37.61631782178288]]]}
}
