{
  "id": 1913795517,
  "type": "Feature",
  "properties": {
    "date:cessation_lower": "1933-12-23",
    "date:cessation_upper": "1933-12-23",
    "date:inception_lower": "1933-12-23",
    "date:inception_upper": "1933-12-23",
    "edtf:cessation": "1933-12-23",
    "edtf:inception": "1933-12-23",
    "geom:area": 2.475047457570636e-7,
    "geom:bbox": "-122.386472,37.616105,-122.385834,37.616611",
    "geom:latitude": 37.61635747477365,
    "geom:longitude": -122.38615540108617,
    "millsfield:airline_id": [
      1159284991,
      1159285931
    ],
    "millsfield:category_id": 1511214251,
    "millsfield:collection_id": 1511214207,
    "millsfield:company_id": [
      1159286721
    ],
    "millsfield:images": [
      1913801605,
      1913801609,
      1913801611,
      1913801613,
      1913801615,
      1913801617,
      1913801619,
      1913801621
    ],
    "millsfield:images_colors_refs": {
      "crayola": [
        {
          "hex": "#414a4c"
        },
        {
          "hex": "#000000"
        },
        {
          "hex": "#eceabe"
        }
      ],
      "css4": [
        {
          "hex": "#f5deb3"
        },
        {
          "hex": "#ffe4c4"
        },
        {
          "hex": "#000000"
        },
        {
          "hex": "#2f4f4f"
        }
      ],
      "marekm4": [
        {
          "hex": "#eee3c1"
        },
        {
          "hex": "#f0e4c3"
        },
        {
          "hex": "#efe3c0"
        },
        {
          "hex": "#eee2be"
        },
        {
          "hex": "#ede0bb"
        },
        {
          "hex": "#232524"
        },
        {
          "hex": "#2f312d"
        },
        {
          "hex": "#2d2d26"
        },
        {
          "hex": "#272b2c"
        },
        {
          "hex": "#22221e"
        },
        {
          "hex": "#25282a"
        },
        {
          "hex": "#efe3c2"
        },
        {
          "hex": "#ede1be"
        },
        {
          "hex": "#eee2c0"
        },
        {
          "hex": "#282822"
        }
      ]
    },
    "millsfield:images_texts": [
      "METROPOLE HOTEL\nSHANGHAI, CHINA.\nSaturday\nDearest Dubs-\n12/23\nI have nit wrett in\nfor two or mayhe\nthere day - forgin me.\nThursday night 9 fair\na big dennir part; (at\ncompany expran) for the\nHowards. I had to\nwork euple, hard to\nget the prople togethin\nfor 9 had originalen\nplanned the dance\nfor srida, night but\nswitched or when",
      "the Howards elecided\nto\ngo to Hanchow\nour the\nwick End\nLearn her Frida\nafternoon. tad 26\nat dinner -\nsure\ndinina at Cathay\nand then us danced\nin the bale room\naftwad gora, to\nthe Like Clute and\nthen to the Dements\nmatie the wore smac\nhours. Ergore said\nthe pact, was a great\nsucers. Friday o\nfeet trike, ace dan\n0816",
      "AIHAY HOTE CSTID\nMETROPOLE HOTEL\nSHANGHAI, CHINA.\ngoun\nto brd rare,\nand\ngot up the.\na.m. fraling ek eyain\nI did nt\ndone Findan\ngut muan\nso had\nto clig in hard todan.\ngot a Chutmas cable\nqueting prom ir trippe\nand one fron tiss\nLane. facoa, cec in tur.\nBales offee.\nAm goung\nto gut one of to you\ntomorowo. The cot i.\nonh, 140° ter ane\ne hair quit had a",
      "bezak which helps a\nlot. N.4. Called thi\nan anikonzin u.\nto asjust au salarie.\nfrom oct. at one hay\nat 4. to l and tke\nstin half in U.S.\ndollars - 0 ur gar.\nall the boy checks\nthes a.m. which\nmade them free\npure; gone. My chick\nshould come to abont\n$ 600° mer which will\nKeep a lot and let\nme retura to goa\nsome of that mone,\n019.12108166",
      "ATHAY HOTELS.UD\nMETROPOLE HOTEL\nSHANGHAI, CHINA.\nwhich I took out of\nmy\nlast pay chick.\n9 am definites\nplannie; now to\nleave on the Hoove\nfar 2. The two\nthung\nI had to\nfinish ey an practic.\nan accomplished\nnour and shored\nbe ace cland the\ncoming wack. Mr Dai\nhas promena to keep\nget them feed o,\ntalkin to h\nThe he of C",
      "on - tke holiday. th\nis leaving tongut\nfor nanking. cu i.\nthe startin, of ite\nhangar and the otter\nis the right for CNAC\nto fl, pou canton to\nhungchow down on the\nIndo. China border.\nThe nof C. has authoug\nthe condemnation of\nland for the hanger\nto take oon the ground\non Tuesday\nand then\nur can go right ahrad.\nThe In of C. has promind\nto sign an agrument\n209.121.0816",
      "HAYHOTELS\nMETROPOLE HOTEL\nSHANGHAI, CHINA.\nfor routs 4. to hungchow\nwitt a provies that\nC.NA.C can sub. Let\nto Imprise Away.\nwhich is what o\nwant becamn thin.\nImperine Ancong\nwice let us into\nHongkong and wale\nelict, Connection to\nEuropr - Indie, Java\nEtc.\nam gam t\ndennis now write max",
      "Polin and then to se\ngod Regis q 1933\ntax fries a\na title\nblue a\nI do haun\nMrs. P. is in the States\nand Chustmas is\njust the 25\" g the\nmonth for us both.\nAll my lour to\n- you via, dearest\npom your veron\nHad.\n2019.12108160"
    ],
    "millsfield:images_texts_ids": [
      1913801605,
      1913801609,
      1913801611,
      1913801613,
      1913801615,
      1913801617,
      1913801619,
      1913801621
    ],
    "millsfield:primary_image": 1913801605,
    "millsfield:subcategory_id": 1511213489,
    "mz:is_approximate": 1,
    "mz:is_current": 1,
    "sfomuseum:accession_number": "2019.121.0816 a d",
    "sfomuseum:airline": "Pan American Airways",
    "sfomuseum:airline_id": [
      685,
      1131
    ],
    "sfomuseum:category": "Employee Career History",
    "sfomuseum:classification_id": 195,
    "sfomuseum:collection": "Aviation Archive",
    "sfomuseum:creditline": "Collection of SFO Museum",
    "sfomuseum:date": "12/23/1933",
    "sfomuseum:date_acquired": "2019-11-22",
    "sfomuseum:daterange_end": "1933-12-23",
    "sfomuseum:daterange_start": "1933-12-23",
    "sfomuseum:description": "Handwritten letter from Harold M. Bixby to his wife, Debby Bixby, dated December 23, [1933], on stationery from the Metropole Hotel in Shanghai; includes description of dinner party for [Major Edward and Mrs.] Howard; includes description of pay raises provided by Pan American Airways; progress on the airport hangar construction at Lungchow [Longzhou] and on negotiations for the Longzhou - Canton [Guangzho] route; mentions Mr. [Juan] Trippe, Miss Labne, Mr. [P.D.C.] Ball, Mr. Dai [Enki], the minister of communications [Chu Chia-hua], Max Polin.",
    "sfomuseum:dimensions": "7 3/4 x 4 3/4 inches (19.7 x 12.1 cm)",
    "sfomuseum:medium": "paper, ink",
    "sfomuseum:object_id": 211165,
    "sfomuseum:placetype": "object",
    "sfomuseum:publication": ": , 12/23/1933.",
    "sfomuseum:subcategory": "Correspondence, Personal",
    "src:geom": "sfomuseum#undetermined",
    "wof:belongsto": [
      102527513,
      1159162825,
      102191575,
      85633793,
      102087579,
      85922583,
      85688637,
      1159160869
    ],
    "wof:country": "XY",
    "wof:created": 1714548816,
    "wof:depicts": [
      1159286721,
      1159284991,
      1159285931
    ],
    "wof:geomhash": "c281b9d9eefc83b5710e64b9d646067d",
    "wof:hierarchy": [
      {
        "building_id": -1,
        "campus_id": 102527513,
        "collection_id": 1159162825,
        "concourse_id": 1159162825,
        "continent_id": 102191575,
        "country_id": 85633793,
        "county_id": 102087579,
        "custom_id": 1913795517,
        "locality_id": 85922583,
        "neighbourhood_id": -1,
        "object_id": 1913795517,
        "region_id": 85688637,
        "wing_id": 1159160869
      }
    ],
    "wof:id": 1913795517,
    "wof:lastmodified": 1787988219,
    "wof:name": "correspondence: Harold M. Bixby to Debby Bixby",
    "wof:parent_id": 1159162825,
    "wof:placetype": "custom",
    "wof:placetype_alt": [
      "object"
    ],
    "wof:repo": "sfomuseum-data-collection",
    "wof:superseded_by": [],
    "wof:supersedes": []
  },
  "bbox": [
    -122.38647222518921,
    37.6161053594541,
    -122.38583385944366,
    37.61661101879963
  ],
  "geometry": {"type":"Polygon","coordinates":[[[-122.38647222518921,37.61631782178288],[-122.386434674263,37.61623283692423],[-122.38637566566466,37.61617759671399],[-122.38630056381224,37.6161308549656],[-122.38616108894348,37.6161053594541],[-122.38602161407469,37.6161308549656],[-122.38591432571411,37.61618609521055],[-122.38585531711577,37.61626683087935],[-122.38583385944366,37.61636881265146],[-122.38587141036987,37.61646654505181],[-122.38594114780425,37.61654303118856],[-122.38605380058287,37.61660252035167],[-122.38618254661559,37.61661101879963],[-122.3863059282303,37.61657277577607],[-122.3864185810089,37.61650903735973],[-122.3864668607712,37.61641130501523],[-122.38647222518921,37.61631782178288]]]}
}
