{
  "id": 1511924017,
  "type": "Feature",
  "properties": {
    "date:cessation_lower": "1990-01-01",
    "date:cessation_upper": "1990-12-31",
    "date:inception_lower": "1990-01-01",
    "date:inception_upper": "1990-12-31",
    "edtf:cessation": "1990",
    "edtf:date": "1990",
    "edtf:inception": "1990",
    "geom:area": 0,
    "geom:bbox": "-122.386155,37.616357,-122.386155,37.616357",
    "geom:latitude": 37.616357,
    "geom:longitude": -122.386155,
    "iso:country": "XX",
    "millsfield:aircraft_id": [
      1159289789
    ],
    "millsfield:airline_id": [
      1159284309
    ],
    "millsfield:category_id": 1762671311,
    "millsfield:collection_id": 1511214207,
    "millsfield:company_id": [
      1159293593,
      1159289759
    ],
    "millsfield:images": [
      1527850113,
      1527850115,
      1527850117
    ],
    "millsfield:images_colors_refs": {
      "crayola": [
        {
          "hex": "#bab86c"
        },
        {
          "hex": "#ffa343"
        },
        {
          "hex": "#2e5894"
        },
        {
          "hex": "#414a4c"
        },
        {
          "hex": "#d68a59"
        },
        {
          "hex": "#efdecd"
        },
        {
          "hex": "#6699cc"
        },
        {
          "hex": "#979aaa"
        },
        {
          "hex": "#a5694f"
        },
        {
          "hex": "#dbd7d2"
        }
      ],
      "css4": [
        {
          "hex": "#778899"
        },
        {
          "hex": "#a0522d"
        },
        {
          "hex": "#2f4f4f"
        },
        {
          "hex": "#4682b4"
        },
        {
          "hex": "#bdb76b"
        },
        {
          "hex": "#daa520"
        },
        {
          "hex": "#dcdcdc"
        }
      ],
      "marekm4": [
        {
          "hex": "#e3dfcf"
        },
        {
          "hex": "#e2ded0"
        },
        {
          "hex": "#5d8db8"
        },
        {
          "hex": "#e8e3d6"
        },
        {
          "hex": "#d6a52c"
        },
        {
          "hex": "#6f8fa4"
        },
        {
          "hex": "#4a93cc"
        },
        {
          "hex": "#3e6da0"
        },
        {
          "hex": "#4a6d93"
        },
        {
          "hex": "#262830"
        },
        {
          "hex": "#32322d"
        },
        {
          "hex": "#a26538"
        },
        {
          "hex": "#252837"
        },
        {
          "hex": "#b7a255"
        },
        {
          "hex": "#c8aa3c"
        }
      ]
    },
    "millsfield:images_texts": [
      "BASTERN-200\nSERIES AIRCRAFT\nB-727-200\nSERIES AIRCRAFT\nCOMPARTIMENTO SUPERIOR\nOVERHEAD COMPARTMENT COMPARTIMENT SUPERIEUR\nEASTERN\nSEAT BELTS CINTURONES DE SEGURIDAD • CEINTURE DE SECURITE\nTAKE-OFF \u0026 DESPEGUE Y ATERRIZAJE\nLANDING\nDECOLLAGE ET ATTERRISSAGE\nPROTECTIVE POSICIONES DE EMERGENCIA\nPOSITIONS\nPOSITIONS POUR VOTRE SÉCURITÉ\nOXYGEN OXIGENO • OXYGENE\nEXIT\nQUICKLY PULL MASK TO YOU TO ACTIVATE OXYGEN FLOW. THE AIR BAG MAY NOT INFLATE BUT OXYGEN WILL BE\nFLOWING. KEEP MASK ON.\nHALE LA MASCARA RAPIDAMENTE HACIA USTED PARA ACTIVAR EL OXÍGENO. ES POSIBLE QUE LA BOLSA PLÁSTICA NO SE INFLE, PERO EL OXÍGENO FLUIRÁ DE\nCUALQUIER MANERA. MANTENGA LA MÁSCARA PUESTA SOBRE SU NARIZ Y BOCA.\nTIREZ VITE SUR LE MASQUE POUR DÉCLENCHER L'ARRIVÉE D'OXYGÈNE. LA POCHE D'AIR NE SE GONFLERA PEUT-ÊTRE PAS MAIS L'OXYGÈNE ARRIVERA AUSSI\nBIEN. GARDEZ LE MASQUE SUR VOTRE NEZ ET BOUCHE.",
      "LIFE VEST\n• CHALECO\nSALVAVIDAS\n• GILET DE\nSAUVETAGE\nINFLATE AFTER EXITING\nINFLESE FUERA DEL AVION • A GONFLER APRES LA SORTIE\nOR\nPLEASE RETURN THIS CARD TO THE SEAT\nBACK POCKET FOR EASTERN'S NEXT CUSTOMER.\nPOR FAVOR PONGA ESTA TARJETA NUEVAMENTE\nAL COMPARTIMENTO DEL ASIENTO PARA EL USO\nDE PROXIMO PASAJERO DE EASTERN.\nPLEASE DO NOT REMOVE ANY SAFETY EQUIPMENT FROM THE AIRCRAFT.\nPOR FAVOR NO REMUEVA EQUIPO DE EMERGENCIA DE EL AVIÓN\n14-CC-1722\nOPR-980\nREV. 9/90\nPRINTED IN THE U.S.A.",
      "EXIT OPERATION OPERACIÓN DE LA PUERTA DE SALIDA • OPERATION DE LA SORTIE\nLAND\nEVACUACION EN TIERRA\nEVACUATION EVACUATION SUR TERRE\nEXIT\nWATER\nAMARAJE\nEVACUATION EVACUATION SUR MER\nFLOOR LIGHTING\nLUCES DEL SUELO\nILLUMINATION DU SOL.\nRED DENOTES AN EXIT AREA\nLAS LUCES ROJAS INDICAN LAS SALIDAS DE EMERGENCIA\nLES LUMIERES ROUGES SONT PRES DES SORTIES.\n00000000000000\nCHABLE EMERGENCY\nTRANSMITTER\nTRANSMISOR OS\nEMERGENCIA PORTATIL\nEMETTEUR PORTATIF\n1200000000000M\nWINDOW OPERATION\nOPERACION DE LA VENTANA DE SALIDA\nL'OPERACION DU FENETRE\nEA\n2 FORWARD RAFTS\n2 BALSAS SALVAVIDAS DELANTERAS\n2 CANOTS DE SAUVETAGE AVANT\n2 OR 3 OVERWING RAFTS\n2/3 BALSAS SALVAVIDAS SOBRE EL ALA\n2/3 CANOTS DE SAUVETAGE SUR L'AILE\nREAR STAIR EXIT ESCALERA DE LA SALIDA TRASERA • L'ESCAIER DERRIERE\nWHAT YOU SHOULD KNOW\nABOUT SITTING IN A\nDESIGNATED EXIT ROW\nThose customers who are seated in the designated\nemergency rows for this airplane have already been\nine tollowing information. rederal regulations re-\nquire that in the event of an emergency\nyour assistance may be needed to open the exit and\n•poole satev\nout oline\natrolane\nThe following\nquestions were asked in an effort to help you decide\nif you will be able to perform the functions necessary.\nIt you cannot answer \"YES\nto all of the tollowing\nquestions, please inform an Eastern crew member\nnow.\nWould you be willing to lend assistance in the\nevent of an emeraencv evacuation?\nDo you read English and speak it in a manner\nnaus unders ancaoe to omers.\nDo you have full use of your arms, hands and\nlegs, and ine necessary strengin to enable you\nto quickly reach an exit, open it and remove it\nfrom the opening as necessary? (instructions\nfor operating the emergency exit are in the air-\ncraft seatback pocket).\nBecause of the exertion required, could you\noperate the exit without aggravating an existina\nphysical condition?\nAre you free of any condition or responsibility\ncould prevent\nyou from\nperforming\nthacions required i the responsibility can\nTora small calle\nAre you age 15 or older?\nCan you see without using a corrective device\nCan you hear without usi\nCother than a hearing using a corrective device\nIf you answered \"NO\" to any of the above questions,\nor do not wish to perform\nupon. please\nadvise\nan Eastern\ncrew\nmember\nimmediately. They will attempt to move you to a seat\nthat is not in a designated emergency exit row.\nLos Reglamentos Federales de Aviación exigen que\nlos basaleros sendos en ilas cerea de as calleas\ndel avión puedan asistir a la tripulación en caso de\nemergencia. Si Ud. está sentado en una de estas\nfilas cerca de una salida, y Ud. no puede entender,\nasistente de vuelo para poder cambiar su asiento.\nLes Passagers assis rans les rationes prisoes\nbassaoers\nassis dans\nrancees\nsonies de lavion solent cabaole c'assister legulbage\ndans un cas d'urgence. Si vous ètes assis dans une\nrangées\nprès\nd'une sortie\net\nvous\npouvez pas compendre. ni parler. ni lire 'analaise\nVAulleT volls melite en contacte avec lin membre de\nl'équipage afin de changer votre siége.\nGuidelines for assisting crewmembers in the exit\noperation\nCustomers seated at a designated exit row should\necome familiar with the exit operation in order to\naccist crewmembers\nThe following guidelines review exit operations and\nprocedures:\nLocate and identify the exit (refer to\npages 2 \u0026 3).\nType of exit (window/door).\nExit operation (including stowage).\nCheck to see that the exit is clear/safe to\nuse with no fire, obstruction, high water\nlevel present.\nFollow the verbal/hand directions of a\ncrewmember\nSECURE\nASEGURAR\nINFLATE\nGONFLER\nINFLAR\nTO CI\nPARA\nPOUR"
    ],
    "millsfield:images_texts_ids": [
      1527850113,
      1527850115,
      1527850117
    ],
    "millsfield:primary_image": 1527850113,
    "millsfield:subcategory_id": 1511213703,
    "mz:hierarchy_label": 1,
    "mz:is_current": 1,
    "sfomuseum:accession_number": "2002.127.285",
    "sfomuseum:aircraft": "Boeing 727-200",
    "sfomuseum:aircraft_id": [
      194
    ],
    "sfomuseum:airline": "Eastern Air Lines",
    "sfomuseum:airline_id": [
      376
    ],
    "sfomuseum:category": "Passenger Amenity, Archive",
    "sfomuseum:classification_id": 581,
    "sfomuseum:collection": "Aviation Archive",
    "sfomuseum:creditline": "Gift of Thomas G. Dragges",
    "sfomuseum:date": "1990",
    "sfomuseum:date_acquired": "2003-12-22",
    "sfomuseum:daterange_end": "1990-12-31",
    "sfomuseum:daterange_start": "1990-01-01",
    "sfomuseum:description": "Safety information card issued by Eastern Air Lines for its Boeing 727-200 fleet; double-sided bi-fold white card with color photographic images and illustrations and text demonstrating safety instructions and emergency procedures; identification code 14-CC-1722 OPR 960, revised 9-90.",
    "sfomuseum:dimensions": "11 x 8 1/2 inches (27.9 x 21.6 cm)",
    "sfomuseum:media_ids": [
      1527850115,
      1527850117,
      1527850113
    ],
    "sfomuseum:medium": "paper, ink",
    "sfomuseum:object_id": 68855,
    "sfomuseum:placetype": "object",
    "sfomuseum:primary_media_id": 1527850113,
    "sfomuseum:publication": ": , 1990.",
    "sfomuseum:subcategory": "Safety Information Card",
    "src:geom": "sfomuseum#undetermined",
    "wof:belongsto": [
      1511214243,
      102527513,
      102191575,
      85633793,
      1511213703,
      85922583,
      102087579,
      1511214277,
      1511214203,
      85688637
    ],
    "wof:breaches": [],
    "wof:country": "XX",
    "wof:created": 1579906683,
    "wof:depicts": [
      1159289789,
      1159293593,
      1159289759,
      1159287349,
      1159284309
    ],
    "wof:geomhash": "30c8a918561c84bb2daa2b97fc7c5353",
    "wof:hierarchy": [
      {
        "arcade_id": 1511213703,
        "building_id": 1511214277,
        "campus_id": 102527513,
        "concourse_id": 1511214243,
        "continent_id": 102191575,
        "country_id": 85633793,
        "county_id": 102087579,
        "custom_id": 1511924017,
        "locality_id": 85922583,
        "neighbourhood_id": -1,
        "object_id": 1511924017,
        "region_id": 85688637,
        "venue_id": 1511924017,
        "wing_id": 1511214203
      }
    ],
    "wof:id": 1511924017,
    "wof:lastmodified": 1787988178,
    "wof:name": "safety information card: Eastern Air Lines, Boeing 727-200",
    "wof:parent_id": 1159162825,
    "wof:placetype": "custom",
    "wof:placetype_alt": [
      "object"
    ],
    "wof:repo": "sfomuseum-data-collection",
    "wof:superseded_by": [],
    "wof:supersedes": [],
    "wof:tags": []
  },
  "bbox": [
    -122.386155,
    37.616357,
    -122.386155,
    37.616357
  ],
  "geometry": {"type":"Point","coordinates":[-122.386155,37.616357]}
}
