{
  "id": 1511907645,
  "type": "Feature",
  "properties": {
    "date:cessation_lower": "1986-01-01",
    "date:cessation_upper": "1986-12-31",
    "date:inception_lower": "1986-01-01",
    "date:inception_upper": "1986-12-31",
    "edtf:cessation": "1986",
    "edtf:date": "1986",
    "edtf:inception": "1986",
    "geom:area": 0,
    "geom:bbox": "-122.386155,37.616357,-122.386155,37.616357",
    "geom:latitude": 37.616357,
    "geom:longitude": -122.386155,
    "iso:country": "US",
    "millsfield:airline_id": [
      1159285551
    ],
    "millsfield:category_id": 1511214223,
    "millsfield:collection_id": 1511214207,
    "millsfield:company_id": [
      1159288471
    ],
    "millsfield:images": [
      1527849655,
      1527851243
    ],
    "millsfield:images_colors_refs": {
      "crayola": [
        {
          "hex": "#9f8170"
        },
        {
          "hex": "#9c2542"
        },
        {
          "hex": "#dbd7d2"
        },
        {
          "hex": "#000000"
        },
        {
          "hex": "#d68a59"
        }
      ],
      "css4": [
        {
          "hex": "#808080"
        },
        {
          "hex": "#d3d3d3"
        },
        {
          "hex": "#000000"
        },
        {
          "hex": "#cd853f"
        },
        {
          "hex": "#a52a2a"
        }
      ],
      "marekm4": [
        {
          "hex": "#ded4c1"
        },
        {
          "hex": "#23201e"
        },
        {
          "hex": "#ab371c"
        },
        {
          "hex": "#bf9e46"
        },
        {
          "hex": "#23201a"
        },
        {
          "hex": "#aa3930"
        },
        {
          "hex": "#8f8978"
        },
        {
          "hex": "#e0d6c0"
        }
      ]
    },
    "millsfield:images_texts": [
      "WORLD\nAIRWAYS\nSYSTEM TIMETABLE EFFECTIVE FEBRUARY 10, 1986\nSERVING: BALTIMORE/WASHINGTON • NEWARK/NEW YORK\nORLANDO • KANSAS CITY • OAKLAND \u0026 SAN FRANCISCO\nLOS ANGELES • HONOLULU • LONDON/GATWICK • FRANKFURT",
      "WORLD AIRWAYS\nNEW SUMMER EUROPEAN SCHEDULES\nEFFECTIVE APRIL 27, 1986:\nFRANKFURT, Germany +7 (GMT +2)\nFor Reservations: 69-29992-131\nFor Flight Information: 69-690-4452\nFrankfurt International Airport\nStops or\nLeave\nArrive\nFlight No.\nConnects\nFreq.\nStops or\nService\nLeave\nArrive\nFlight No.\nConnects\nFreq.\nService\nTo:\nBALTIMORE, MD/\nWASHINGTON, DC + (EDT)\n130a 400p\nAbove Flight Discontinued after May 3-\n12 15p\n3 15p\nN/S\nAbove Flight Discontinued after May 31\n12 15p\n315p\n31\nN/S\nDaily\nTuThSa\nX*\nX*\nAbove Flight Effective June 1\nKANSAS CITY, MO (CDT)\nAlone To Decontined after May 31\nMoWefru X*\n12 15p\nTuThSa\nAbove Flight Discontinued after May 31\n12 15p\n700p\n331\nDaily\nAbove Flight Effective June 1\nLOS ANGELES, CA = (PDT)\n11 30a\n835p\nMoWefiSu X*\nAbove Flight Discontinued after May 31\n12 15p\n835p\n531\n1*\nTuTha X*\nAbove Flight Discontinued after May 31\n12 15p\n835p\n531\n1*\nDaily\nX*\nAbove Flight Effective June 1\nORLANDO, FL. (EDT)\n1130a 840p\n133\n2*\nAbove Flight Discontinued after May 31\n12 15p\n840p\n131\n1*\nAbove Flight Discontinued after May 31\nTuThSa\n1215р 840p\n131\n1*\nDaily\nAbove Flight Effective June 1\nFrom:\nBALTIMORE, MD/\nWASHINGTON, DC # (EDT)\n655p 900a+1 30\nN/S\nAbove Flight Discontinued after May 31\n700p\n10 05a +1 32\n1\nAbove Flight Discontinued after May 31\n655p\n900a +1 30\nN/S\nTuThSaSu X*\nDaily\nXR\nAbove Flight Effective June 1\nKANSAS CITY, MO (CDT)\n245p\n900a +1 330\nMoWerr XR\nAbove Flight Discontinued after May 31\n2 45p\n10 05a +1 332\n2*\nTuThSaSu X*\n245p\n900a +1 330\nDaily\nX*\nAbove Flight Effective June 1\nLOS ANGELES, CA F7 (PDT)\n920a\n900a+1 530\nMoWeFT X*\nAba Fugh a toninued after May 31\n920a 1005a+1 32\nTuThSasu X*\nAbove Flight Discontinued after May 31\n920a\n900a+1 530\nAbove Flight Effective June 1\n1*\nDaily X*\nORLANDO, FL (EDT)\n300p\n900+1 130\n1*\nMoWeFt X*\nAbove Flight Discontinued after May 31\n300p 1005a+1 132\n2*\nTuThSaSu XR\nAbove Flight Discontinued after May 31\n300p\n900a +1 130\nAbove Flight Effective June 1\n1*\nDaily X*\nLeave\nStops or\nArrive\nFlight No.\nConnects\nSAN FRANCISCO/\nOAKLAND, CA = (PDT)\nAIRPORTS: S-SFO Int'l. O-Oakland Int'l.\n11 30a\n8 15pS\n233\n2*\nAbove Flight Discontinued after May 31\n1130a\n1130p0\n633\n3*\nAbove Flight Discontinued after May 31\n1215p\n815pS\n231\n1*\nAbove Flight Discontinued after May 31\n12 15p\n1130p0 31\n2\nAbove Flight Discontinued after May 31\n12 15p\n815pS\n231\n1*\nAbove Flight Effective June 1\n12 15p 1130p0 31\nAbove Flight Effective June 1\nFreq.\nService\nLeave\nArrive\nFlight No.\nStops or\nConnects\nMoWeFiSu X*\nMoWeFiSu X*\nTuThSa\nTuThSa\nX*\nDaily\nDaily\nSAN FRANCISCO/\nOAKLAND, CA+ (PDT)\nAIRPORTS: S-SF0 Int'l. 0-Oakland Int'l.\n700a0 900a+1 30\n2\nAbove Flight Discontinued after May 31\n700a010 05a +1 630\n3*\nAbove Flight Discontinued after May 31\n930aS 30aS10 05a+1 232\n2*\nAbove Flight Discontinued after May 31\n930aS 900a+1 230\n1*\nAbove Flight Discontinued after May 31\n700a0 900a+1 30\n2\nAbove Flight Effective June 1\n930aS 900a+1 230\nAbove Flight Effective June 1\n1*\nLONDON, England =\n(GMT +1)\nFor Reservations: 01434-3252\nFor Flight Information: 0293-502073\nGatwick International Airport\nTo:\nFrom:\nBALTIMORE, MDI\nBALTIMORE, MD/\nWASHINGTON, DC # (EDT\n100p 400p\n33\nN/S\nDaily\nWASHINGTON, DC F7 (EDT)\n700p 640a+1 32\nKANSAS CITY, MO (CDT)\n100p 700p\nDaily\nKAN AS C1, MO (CĐT)\n245p 640a +1 332\nDaily\nLOS ANGELES, CA =T (PDT)\n100p\n835p\nX*\nLOS ANGELES, CA + (PDT)\n920a\n640a +1 32\n1\nDaily\nORLANDO, FL. (EDT)\nORLANDO, FL (EDT)\n100p 840p\n133\n1*\nDaily\n300p 640a+1 132\n1*\nDaily\nSAN FRANCISCO/\nSAN FRANCISCO/\nOAKLAND, CA + (PDT)\nOAKLAND, CA + (PDT)\nAIRPORTS: S-SFO Int'l. O-Oakland Int'l.\nAIRPORTS: S-SFO Int'l. O-Oakland Int'l.\n100p\n8 15pS\n233\n1*\nDaily\n700a0 640a+1 632\n2*\n100p 1130p0\n633\n2*\nDaily\n930aS 640a+1 232\nXR\n1* :\nDaily\nDaily\nFrea\nService\nMoWerr X*\nTuThSaSu X*\nTuThSasu X*\nDaily\nDaily\nXR\nXR\nXR\nXR\nLondon\nOakland\nNewark\nNew York\nSan Francisco\nBaltimore\nWashi\nington\nLos Angeles Kansas City • Orlando\nHonolulu\nFrankfurt\nEffective April 27, 1986"
    ],
    "millsfield:images_texts_ids": [
      1527849655,
      1527851243
    ],
    "millsfield:primary_image": 1527849655,
    "millsfield:subcategory_id": 1511213425,
    "mz:hierarchy_label": 1,
    "mz:is_current": 1,
    "sfomuseum:accession_number": "1997.19.11",
    "sfomuseum:airline": "World Airways",
    "sfomuseum:airline_id": [
      944
    ],
    "sfomuseum:category": "Scheduling / Ticketing",
    "sfomuseum:classification_id": 158,
    "sfomuseum:collection": "Aviation Archive",
    "sfomuseum:continent": "North America",
    "sfomuseum:country": "United States",
    "sfomuseum:creditline": "Gift of Stanford M. Horn",
    "sfomuseum:date": "1986",
    "sfomuseum:daterange_end": "1986-12-31",
    "sfomuseum:daterange_start": "1986-01-01",
    "sfomuseum:description": "System timetable issued by World Airways, effective February 10, 1986; white cover with collage of color photographic images and list of cities served.",
    "sfomuseum:dimensions": "9 x 4 inches (22.9 x 10.2 cm)",
    "sfomuseum:maker": "World Air Center, World Airways Inc.",
    "sfomuseum:media_ids": [
      1527849655,
      1527851243
    ],
    "sfomuseum:medium": "paper, ink",
    "sfomuseum:object_id": 44492,
    "sfomuseum:placetype": "object",
    "sfomuseum:primary_media_id": 1527849655,
    "sfomuseum:publication": ": , 1986.",
    "sfomuseum:subcategory": "Timetable",
    "src:geom": "sfomuseum#undetermined",
    "wof:belongsto": [
      1511214223,
      102527513,
      102191575,
      85633793,
      1511213425,
      85922583,
      102087579,
      1511214277,
      1511214207,
      85688637,
      136253057
    ],
    "wof:breaches": [],
    "wof:country": "US",
    "wof:created": 1579906677,
    "wof:depicts": [
      1159288471,
      1159285551
    ],
    "wof:geomhash": "30c8a918561c84bb2daa2b97fc7c5353",
    "wof:hierarchy": [
      {
        "arcade_id": 1511213425,
        "building_id": 1511214277,
        "campus_id": 102527513,
        "concourse_id": 1511214223,
        "continent_id": 102191575,
        "country_id": 85633793,
        "county_id": 102087579,
        "custom_id": 1511907645,
        "locality_id": 85922583,
        "neighbourhood_id": -1,
        "object_id": 1511907645,
        "region_id": 85688637,
        "venue_id": 1511907645,
        "wing_id": 1511214207
      },
      {
        "continent_id": 102191575,
        "country_id": 85633793,
        "custom_id": 1511907645,
        "empire_id": 136253057,
        "object_id": 1511907645,
        "venue_id": 1511907645
      }
    ],
    "wof:id": 1511907645,
    "wof:lastmodified": 1787988175,
    "wof:name": "timetable: World Airways",
    "wof:parent_id": 1159162825,
    "wof:placetype": "custom",
    "wof:placetype_alt": [
      "object"
    ],
    "wof:repo": "sfomuseum-data-collection",
    "wof:superseded_by": [],
    "wof:supersedes": [],
    "wof:tags": []
  },
  "bbox": [
    -122.386155,
    37.616357,
    -122.386155,
    37.616357
  ],
  "geometry": {"type":"Point","coordinates":[-122.386155,37.616357]}
}
