{
  "id": 1511908217,
  "type": "Feature",
  "properties": {
    "date:cessation_lower": "1952-01-01",
    "date:cessation_upper": "1952-12-31",
    "date:inception_lower": "1952-01-01",
    "date:inception_upper": "1952-12-31",
    "edtf:cessation": "1952",
    "edtf:date": "1952",
    "edtf:inception": "1952",
    "geom:area": 0,
    "geom:bbox": "-122.386155,37.616357,-122.386155,37.616357",
    "geom:latitude": 37.616357,
    "geom:longitude": -122.386155,
    "iso:country": "CA",
    "millsfield:aircraft_id": [
      1159290427
    ],
    "millsfield:airline_id": [
      1159284025
    ],
    "millsfield:category_id": 1511214223,
    "millsfield:collection_id": 1511214207,
    "millsfield:company_id": [],
    "millsfield:images": [
      1527844245,
      1527847795
    ],
    "millsfield:images_colors_refs": {
      "crayola": [
        {
          "hex": "#414a4c"
        },
        {
          "hex": "#2e5894"
        },
        {
          "hex": "#ff2b2b"
        },
        {
          "hex": "#cd9575"
        },
        {
          "hex": "#e7c697"
        },
        {
          "hex": "#1a4876"
        },
        {
          "hex": "#cd4a4c"
        }
      ],
      "css4": [
        {
          "hex": "#bc8f8f"
        },
        {
          "hex": "#d2691e"
        },
        {
          "hex": "#191970"
        },
        {
          "hex": "#d2b48c"
        },
        {
          "hex": "#483d8b"
        },
        {
          "hex": "#2f4f4f"
        },
        {
          "hex": "#b22222"
        }
      ],
      "marekm4": [
        {
          "hex": "#d43213"
        },
        {
          "hex": "#c54b2b"
        },
        {
          "hex": "#364b86"
        },
        {
          "hex": "#dbc8a3"
        },
        {
          "hex": "#cdc09f"
        },
        {
          "hex": "#43558b"
        },
        {
          "hex": "#c29873"
        },
        {
          "hex": "#253361"
        },
        {
          "hex": "#373228"
        }
      ]
    },
    "millsfield:images_texts": [
      "EFFECTIVE AUGUST 1st,\n1952\nAll prei\nus issues cancelled\nBCPA\nDC-6 Sleeper Service\nTRANS-CANADA AIR LINES\nGeneral Agents in Canada\nfor\nBritish Commonwealth Pacific Airlines\nCANADA - USA - HAWAII - FIJI\nAUSTRALIA - NEW ZEALAND\nBritish Commonwealth\nPacific Airlines Ltd.\nAll information contained herein subject to change\nwithout notice\nSCHEDULES\nFARES\nCARGO RATES\nCESS\nRAGGAGE RATES\nINFORMATION",
      "SCHEDULES\n(Subject to change without notice. All times shown are Local Standard Times)\nNote: When Francisco sectoria ferdi Line cents Vare been Sydney anand and fares nude the Vancouver.\nTAcTual Departure dates ex\nVancouver -\nAugust:\n7,\n11, 15,\n18, 21,\n25,\n29\nSept.:\n12,\n18,\n22,\n26,\n29\nOctober:\n1, 2, 6, 10,\n13,\n16,\n20,\n24,\n27, 30\n†Actual\nDeparture\ndates\nSan\nFrancisco\nvancouver.\nAugust:\n10,\n14,\n17,\n20,\n24,\nSeptember:\n14,\n28,\n31\nOctober:\n25,\n9,\n12,\n15,\n19,\n23,\n26,\n29\nAUSTRALIA\nor NEW ZEALAND -FIJI - HONOLULU-U.S.A.-CANADA\nSOUTHBOUND (Read Down)\nNORTHBOUND (Read Up)\nTo AUSTRALIA\nTo NEW ZEALAND\nFrom AUSTRALIA\nFrom NEW ZEALAND\n0900 Ev. Mon. Alt. Thu.\n1235 Ev. Mon. Alt. Thu.\n1400 Ev. Mon.\nThu.\n2135 Ev. Mon.\nThu.\n2359 Ev. Mon.\nThu.\n0620 Ev.\nTue. Fri.\n0710 Ev. Tue. Fri.\n0900 Alt. Fri.\n1235 Alt. Fri.\n1400 Ev. Fri.\n2135 Ev. Fri.\n2359 Ev. Fri.\n0620 Ev. Sat.\n0710 Ev. Sat.\nLv.\nAr.\nAr\nLv.\nAr.\nLv.\n†VANCOUVER\nSAN FRANCISCOt\nSAN FRANCISCO\nHONOLULU\nHONOLULU\nCANTON ISLAND\nCANTON ISLAND\nINTERNATIONAL DATE LINE\nAr.\nLV.\nAr.\nLv.\nAr.\nLv.\nAr.\n1200 Ev. Sun. Alt. Thu.\n0830 Ev. Sun. Alt. Thu.\n0700 Ev. Sun. Thu.\n2000 Ev. Sat. Wed.\n1300 Ev. Sat. Wed.\n0430 Ev. Sat. Wed.\n0340 Ev. Sat. Wed.\n1200 Alt. Wed.\n0830 Alt. Wed.\n0700 Ev. Wed.\n2000 Ev. Tue.\n1300 Ev. Tue.\n0430 Ev. Tue.\n0340 Ev. Tue.\n1110 Ev. Wed.\nSat\n1230 Ev. Wed. Sat.\n1110 Ev. Sun.\n1230 Ev. Sun.\n1755 Ev. Sun.\n2130 Ev. Sat. Wed.\n2015 Ev. Sat. Wed.\n1835 Ev. Wed. Sat.\nLv.\nNANDI (Fiji)\nAr.\nAUCKLAND (N.Z.)\nAr. V SYDNEY (AUST.)\nAr.\nLv.\nLv.\nEv.\nTue.\nEv.\nTue.\n1500 Ev.\nTue.\n1100 Ev. Sat. Wed.\nEXCESS BAGGAGE RATES\n(Subject to change without notice)\nkee column ownware onival\nEach column shows excess baggage rate/lb.; expressed in local currency at point of departure.\nVancouver\nTO\nCanadan\nExcess\n22\n(a)\n(b)\nCOUVER\nSan\nFrancisco\n§ United States\nExcess\nFirst\n(a)\n.21\n22 lbs.\n(b)\nHonolute\n$ United States\nExcess\nFirst\n(a)\n.73\nover\nIbs.\n(b)\nCanton Is.\n$ United States\nExcess\n22 lbs.\n22\n(b)\n€ Fijian\n22 TSE\nExcess\nIbs.\n(a)\n(b)\nSydney\n\u0026 Australiar\nExcess\nFirst\n22 Ibs.\n22165.\nAuckland\nFirst\n22 Ibs\n(a)\n22 Ibs\nNCISCO\n.21\n000ã\nISLAND\nAUCKLAND ..\n132\nA Valuation charge will be made in respect of the whole of a passenger's\nchecked and unchecked baggage and personal property other than baggage\nif declared to exceed $100 U.S. (EA 44/12/0) in value at the rate of 15 cents\nU.s. (1/4 Aust.) for each $100 U.S. (EA44/12/0) or part thereof by which\nthe declared value exceeds $100 U.S. (CA44/12/0).\nExcess Baggage to be calculated as follows:-\ncolumn (a) represent charge applicable from 1 1b.\n(b) represen So. Excess ages:\nexcess of 22 Ibs\n12\nCA17\n[A44 18\nFromVANCOUVER\nSingle\nReturn\nPASSENGER\nFARES\n(Subject to change without notice)\nSAN FRANCISCO\nTo VANCOUVER\nSingle\n$45.00\nReturn\n$81.00\nFrom HONOLULU\nSingle\nTO SAN FRANCISCO\n. HONOLULU.\nCANTON Is.\n\" FIjl (Nandi)\nSYDNEY (Aust.)\n\"AUCKLAND\n$45.00\n$160.00\n$352.00\n$490.00\n$625.00\n$5EO.CO\n$81.00\n$268.00\n$633.60\n$882.00\n$H125.00\n$1044.00\nSAN FRANCISCO\nLOS ANGELES,\nPORTLAND OI\nLE\n(Aust.)\nAUCKLAND\n490.01\nTo VANCOUVER\n, FIJI (Nandi) ..\nSYDNEY (Aust.)\n• AUCKLAND\n(N.Z.) .\n$370.00\n$505.00\n$580.00\n$882.00\n$i 125.00\n$1044.00\n$460.00\nFrom SYDNEY\nSingle\nReturn\nFrom AUCKLAND\nReturn\nFrom Fijl (Nandi)\nSingle\nTo FIJI (Nandi)..\nCANTON Is.\nHONOLULU\n\"SAN FRANCISCO\n\" LOS ANGELES\nPORTLAND\nVANCOUVER\n.*ENGLAND,\nSCOTLAND\nor\nIRELAND via\nCANADA\n60 10 0\n121\n18.0\n225\n279\n90\n279\n10\n279\n10\n10\n10\n108 18 0\n405 16 0\n502\n5 0\n502\n502\n5 0\n502\n50\n502\n5 0\n50\n362 10 0\n652 10 0\nTo FIJI (Nandi)..\n,, HONOLULU\nSAN FRANCSCO TU\n.. LOS ANGELES\nPORTLAND\nSEATTLE\nVANCOUVER\n*ENGLAND\nSCOTLAND or\nKELAND VIA\nU.S.A.\nCANADA\n285\nSingle\n32 10 0\n81 10 0\n164\n6 0\n207\n207\n3 0\n30\n207\n207\n3 0\n30\n58 10 0\n146 14 0\n295 15 0\n18 0\n372 18 0\n372 18 0\n[372 18 0\nTo AUCKLAND\nSYDNEY\nCANTON Is.\nHONOLULU\n,, SAN FRANCISCO\n.. LOS ANGELES\nPORTLAND\nSEATTLE\n\" VANCOUVER\n20\n53 15 0\n54 15 0\n146 11 0\n194\n10\n194\n10\n10\n194\n10\n194\n10\n00\n513 00\nIMPORTANT-Transportation and head tax to be added to above fares where applicable.\n•See back of folder for Special Transit Allowances.\nTrans-World\nfares apply\nto or from London, Glasgow or Shannon (Eire).\nVANCOUVER\n*SAN FRANCISCO\nHONOLULU\nCANTON Is.\nFIJI (Nandi)\nSYDNEY (Aust.)\nAUCKLAND\nUnder\n100\nIbs.\nAIR CARGO RATES\n(Subject to change without notice)\nFrom\nCAN FRANCICCO\nUnder\nOver\nMin\n100 ls. 100 lbe\nCharge\n74\n1.34\n1.72\n2.21\n2.04\nIbS.\n.08\n.56\n1.01\n1.29\n1.66\n1.53\nMin.\nCharge\n1.00\n5.00\n5.00\n5.00\n5.00\n5.00\nHONOLULU\nUnder\nTVANCOUVER..\n1.00\nUnder\nOver\nMin.\nSAN FRANCISCO.\n1CO Ibs\nLOS\n100 Ibs.\nCharge\nORTLAND\nANGELES\nor SEATTLE\nTVANCOUVER..\nFIJI (Nandi)\nSYDNEY (Aust.)\n.74\n1.08\n1.57\nAUCKLAND (N.Z.) 1.40\nTONEY (Aus\n(N.z.) 2:24\n1.29\n1:66\n5.00\nSYDNEY\n100 Ibs\nMin.\nCharge\nRUTHLAND\n10165.\nMarge\nSEAT\nCONVER\nCANTONI\nHONOLULU\nSAN FRANCISC\nLOS ANGELES\nPORTLAND\nSEATTLE\nVANCOUVER:\nOWNW\n/H\nVOLUME\nFry Nandi)\nSYDNEY\nLUCKLAND\nCANTON\nUnder\n00 Ibs.\nANGELES\nIANCOUVER\nVALUATION CHARGE\nSpecial\nWhere the declared value for carriage is $7.48 per Ib. or over,\nthan\n$88.90\nper\nlb.,\na valuation\ncharge\nimposed\nvalue of the\nconsignment.\nSpecial\n\"Value\nvalue\napply\nHonolul\nof the\nFrancisc\n(N.Z.\nwhere\nactual\nor\nthe\nVOLUME\nconsionment has\nmorE\nbetween anv two of the followino noints_ Honolulu. San Francisco\nEXCEEDS\nCHARGE\n600\nSpecial\nCUBIC\nSYDNEY-LONDON\nVancouver).\nYour air cargo agent will supply full particulars.\nAIR MAIL—Mail carried in accordance with Post Office regulations.\nand cut\nReturn\n$208.00\n$666.00\n$909.00\n-828.00\n65 00\n96 15 0\n58 11 0\n263\n16 0\n349\n349\n349\n6 U\n60\n349\n349\nOver\n100 Ibs.\n.56\n.81\n1.18\n1.05\nMin.\nCharge\n5.00\n5.00\n5.00\n5.00\nper\nIb."
    ],
    "millsfield:images_texts_ids": [
      1527844245,
      1527847795
    ],
    "millsfield:primary_image": 1527844245,
    "millsfield:subcategory_id": 1511213425,
    "mz:hierarchy_label": 1,
    "mz:is_current": 1,
    "sfomuseum:accession_number": "1997.69.14",
    "sfomuseum:aircraft": "Douglas DC-6",
    "sfomuseum:aircraft_id": [
      491
    ],
    "sfomuseum:airline": "British Commonwealth Pacific Airlines (BCPA)",
    "sfomuseum:airline_id": [
      248
    ],
    "sfomuseum:category": "Scheduling / Ticketing",
    "sfomuseum:classification_id": 158,
    "sfomuseum:collection": "Aviation Archive",
    "sfomuseum:continent": "Transpacific",
    "sfomuseum:country": "Canada",
    "sfomuseum:creditline": "Gift of Richard Pugh",
    "sfomuseum:date": "1952",
    "sfomuseum:daterange_end": "1952-12-31",
    "sfomuseum:daterange_start": "1952-01-01",
    "sfomuseum:description": "Timetable issued by British Commonwealth Pacific Airlines (BCPA), effective August 1, 1952; tri-fold  format; flight and fare schedule for Hawaii, Fiji, Australia and New Zealand; promotes DC-6 sleeper service.",
    "sfomuseum:dimensions": "9 x 3 3/4 inches (22.9 x 9.5 cm)",
    "sfomuseum:maker": "British Commonwealth Pacific Airlines",
    "sfomuseum:media_ids": [
      1527844245,
      1527847795
    ],
    "sfomuseum:medium": "paper, ink",
    "sfomuseum:object_id": 46836,
    "sfomuseum:placetype": "object",
    "sfomuseum:primary_media_id": 1527844245,
    "sfomuseum:publication": ": , 1952.",
    "sfomuseum:subcategory": "Timetable",
    "src:geom": "sfomuseum#undetermined",
    "wof:belongsto": [
      1511214223,
      102527513,
      102191575,
      85633793,
      1511213425,
      85922583,
      102087579,
      1511214277,
      1511214207,
      85688637,
      85633041
    ],
    "wof:breaches": [],
    "wof:country": "CA",
    "wof:created": 1579906659,
    "wof:depicts": [
      1159284025,
      1159290427,
      1159286739
    ],
    "wof:geomhash": "30c8a918561c84bb2daa2b97fc7c5353",
    "wof:hierarchy": [
      {
        "arcade_id": 1511213425,
        "building_id": 1511214277,
        "campus_id": 102527513,
        "concourse_id": 1511214223,
        "continent_id": 102191575,
        "country_id": 85633793,
        "county_id": 102087579,
        "custom_id": 1511908217,
        "locality_id": 85922583,
        "neighbourhood_id": -1,
        "object_id": 1511908217,
        "region_id": 85688637,
        "venue_id": 1511908217,
        "wing_id": 1511214207
      },
      {
        "continent_id": 102191575,
        "country_id": 85633041,
        "custom_id": 1511908217,
        "object_id": 1511908217,
        "venue_id": 1511908217
      }
    ],
    "wof:id": 1511908217,
    "wof:lastmodified": 1787988175,
    "wof:name": "timetable: British Commonwealth Pacific Airlines (BCPA)",
    "wof:parent_id": 1159162825,
    "wof:placetype": "custom",
    "wof:placetype_alt": [
      "object"
    ],
    "wof:repo": "sfomuseum-data-collection",
    "wof:superseded_by": [],
    "wof:supersedes": [],
    "wof:tags": []
  },
  "bbox": [
    -122.386155,
    37.616357,
    -122.386155,
    37.616357
  ],
  "geometry": {"type":"Point","coordinates":[-122.386155,37.616357]}
}
