{
  "id": 1762694777,
  "type": "Feature",
  "properties": {
    "date:cessation_lower": "1950-01-01",
    "date:cessation_upper": "1950-12-31",
    "date:inception_lower": "1950-01-01",
    "date:inception_upper": "1950-12-31",
    "edtf:cessation": "1950",
    "edtf:inception": "1950",
    "geom:area": 2.475047457570636e-7,
    "geom:bbox": "-122.386472,37.616105,-122.385834,37.616611",
    "geom:latitude": 37.61635747477365,
    "geom:longitude": -122.38615540108617,
    "millsfield:airline_id": [
      1159284073
    ],
    "millsfield:category_id": 1511214223,
    "millsfield:collection_id": 1511214207,
    "millsfield:company_id": [
      1159287923
    ],
    "millsfield:images": [
      1762701259
    ],
    "millsfield:images_colors_refs": {
      "crayola": [
        {
          "hex": "#324ab2"
        },
        {
          "hex": "#414a4c"
        },
        {
          "hex": "#9f8170"
        },
        {
          "hex": "#cdc5c2"
        }
      ],
      "css4": [
        {
          "hex": "#808080"
        },
        {
          "hex": "#191970"
        },
        {
          "hex": "#2f4f4f"
        },
        {
          "hex": "#c0c0c0"
        }
      ],
      "marekm4": [
        {
          "hex": "#d7caaf"
        },
        {
          "hex": "#192f9c"
        },
        {
          "hex": "#978d73"
        },
        {
          "hex": "#433a29"
        }
      ]
    },
    "millsfield:images_texts": [
      "DAILY\nSCHEDULED\nFLIGHTS\nSOUTHBOUND\nOakland\nSan Francisco\nSan Francisco\nBurbank\nBurbank\nSan Diego\nSOUTHI\nFlight\nBOUND\n80\nOa\nSF\n8:00a\nSF\nar\n8:15a\n8:30a\nBu\nBu\nar\n10:27a\nSD\nar\nSOUTH]\nBOUND\nOa\nSF\nar\nBu\nBu\nSD\nar\nFlight\n110\n1: 15a\n11:30a\n11:45a\n1:42p\nar\nFOR\nCALIFORNIANS\nCALIFORNIA CENTRAL AIRLINES\nONE WAY FARES\nBETWEEN\nLos Angeles\nSan\nAND\n(Burbank)\nFrancisco\nSan\nOakland\nDiego\nLos Angeles (Burbank)\n$ 9.99\nSan Francisco\n$ 9.99\n$ 9.99\n$ 5.55\n1.99\n15.54\nOakland\n9.99\n1.99\nSan Diego\n5.55\n15.54\n15.54\n15.54\n(All Fares\nplus 15%\nFederal\nTax\nRound Trip\nTwice One-Way\nFare.\nRead\nDown)\nDATLY\nSCHEDULES\nRead\nDown\nFlight\nFlight\nFlight\nFlight\nNORTHBOUND\nFlight\nFlight\nFlight\n80 ° 0\n20\n30\n70\n81 ° 0\n121\n31\nIv\n8:00a\n2:15p\n8: 15a\n2:30p\n6:45p\nar\n7:00p\n8:300\n2:45p\n3: 15p\n7:15p\nar\n10:27a\n4:42p\n5:12p\n9:12p\n5:00p\nar\n5:50p\nSan Diego\nBurbank\nBurbank\nSan Francisco\nSan Francisco\nOakland\nIv\n°11:00a\nar\n*11:50a\nIv\n8:15a\n3:15p\nar\n10:12a\n12:00n\n1:57p\n5:12p\nIv\n10:25a\n5:30p\nar\n10:40a\n5:45p\nDaily Except Sunday\n\"Saturday and Monday only\n(Read Down)\nFRIDAY\nSCHEDULE\n(Read Down)\nFlight\nFlight\nFlight\nFlight\nFlight\nNORTH - Flight Flight\nFlight Flight\nBOUND\nFlight\n20\n30\n60\n70\n84\n71\n2:15p\n2:30p\n6:45p\nSD\n6:00p\n7:00p\n6:50p\n2:45p\n3: 15p\n6:15p\n7:15p\n8:45p\nBu\nar\n8:15a\n12:00m\n3:15p\n6:15p\n7:15p\n4:42p\n5:00p\n5:12p\n8:12p\nBu\n9:12p\n10:42p\nSF\nar\n10:12a\n1:57p\n5:12p\n8:12p\n9:12p\n9:30p\nSF\n10:25a\n5:50p\n10:20p\n5:30p\n9:30p\nOa.\nar 10:40a\n5:45p\n9:45 p\n(Read\nDown)\nSUNDAY\nSCHEDULE\n(Read Down)\nFlight\nFlight\nFlight\nFlightl\nFlight\nNORTH. Flight\nFlight\nFlight\n30\n70\n72\n84\n92\nBOUND\n121\n31\n61\nFlight\nFlight\n71\n93\n2:45p\n6:45p\n10:15p\nSD Tiv\n8:30p\n3:00p\n7:00p\nBu\nar\n9:20p\n3:15p\n7:15p\n7:30p\n8:45p\nBu\n3:15p\n6:15p\n7:15p\n9:45p\n5:12p\n9:12p\n9:27p\nIv\n12:00m\n10:42p\n12:12a\nSF\nar\n1:57p\n5:12p\n8:12p\n9:12p\n11:42p\n5:30p\n9:30p\nSF\nIv\n2:15p\n5:30p\n9:30p\n12:00m\n6:20p\n10:20p\nOa\nar\n2:30p\n5:45p\n1950\n9:45p\n12:150\nEffective: April,\nSubiect to Change Without Notice\nFlight\n71\n6:00p\n6:50p\n7:15p\n9:12p\n9:30p\n9:45p\nFlight\n85\n8:45p\n10:42p\nFlight\n95\n9:55p\n11:52p\nCALIFORNI"
    ],
    "millsfield:images_texts_ids": [
      1762701259
    ],
    "millsfield:primary_image": 1762701259,
    "millsfield:subcategory_id": 1511213425,
    "mz:is_current": 1,
    "sfomuseum:accession_number": "2015.167.244",
    "sfomuseum:airline": "California Central Airlines",
    "sfomuseum:airline_id": [
      271
    ],
    "sfomuseum:category": "Scheduling / Ticketing",
    "sfomuseum:classification_id": 158,
    "sfomuseum:collection": "Aviation Archive",
    "sfomuseum:creditline": "Gift of Thomas G. Dragges",
    "sfomuseum:date": "1950",
    "sfomuseum:date_acquired": "2016-07-06",
    "sfomuseum:daterange_end": "1950-12-31",
    "sfomuseum:daterange_start": "1950-01-01",
    "sfomuseum:description": "Pocket timetable issued by California Central Airlines, effective April 1950; bi-fold single page; white and blue cover with map of California and announcement of fares.",
    "sfomuseum:dimensions": "3 3/4 x 2 3/4 inches (9.5 x 7 cm)",
    "sfomuseum:medium": "paper, ink",
    "sfomuseum:object_id": 174225,
    "sfomuseum:placetype": "object",
    "sfomuseum:publication": ": , 1950.",
    "sfomuseum:subcategory": "Timetable",
    "src:geom": "sfomuseum#undetermined",
    "wof:belongsto": [
      102527513,
      1159162825,
      102191575,
      85633793,
      102087579,
      85922583,
      85688637,
      1159160869
    ],
    "wof:country": "XY",
    "wof:created": 1641344420,
    "wof:depicts": [
      1159287923,
      1159284073
    ],
    "wof:geomhash": "c281b9d9eefc83b5710e64b9d646067d",
    "wof:hierarchy": [
      {
        "building_id": -1,
        "campus_id": 102527513,
        "collection_id": 1159162825,
        "concourse_id": 1159162825,
        "continent_id": 102191575,
        "country_id": 85633793,
        "county_id": 102087579,
        "custom_id": 1762694777,
        "locality_id": 85922583,
        "neighbourhood_id": -1,
        "object_id": 1762694777,
        "region_id": 85688637,
        "wing_id": 1159160869
      }
    ],
    "wof:id": 1762694777,
    "wof:lastmodified": 1787988198,
    "wof:name": "timetable: California Central Airlines, pocket schedule",
    "wof:parent_id": 1159162825,
    "wof:placetype": "custom",
    "wof:placetype_alt": [
      "object"
    ],
    "wof:repo": "sfomuseum-data-collection",
    "wof:superseded_by": [],
    "wof:supersedes": []
  },
  "bbox": [
    -122.38647222518921,
    37.6161053594541,
    -122.38583385944366,
    37.61661101879963
  ],
  "geometry": {"type":"Polygon","coordinates":[[[-122.38647222518921,37.61631782178288],[-122.386434674263,37.61623283692423],[-122.38637566566466,37.61617759671399],[-122.38630056381224,37.6161308549656],[-122.38616108894348,37.6161053594541],[-122.38602161407469,37.6161308549656],[-122.38591432571411,37.61618609521055],[-122.38585531711577,37.61626683087935],[-122.38583385944366,37.61636881265146],[-122.38587141036987,37.61646654505181],[-122.38594114780425,37.61654303118856],[-122.38605380058287,37.61660252035167],[-122.38618254661559,37.61661101879963],[-122.3863059282303,37.61657277577607],[-122.3864185810089,37.61650903735973],[-122.3864668607712,37.61641130501523],[-122.38647222518921,37.61631782178288]]]}
}
