{
  "id": 1913796397,
  "type": "Feature",
  "properties": {
    "date:cessation_lower": "1933-02-27",
    "date:cessation_upper": "1933-02-27",
    "date:inception_lower": "1933-02-27",
    "date:inception_upper": "1933-02-27",
    "edtf:cessation": "1933-02-27",
    "edtf:inception": "1933-02-27",
    "geom:area": 2.475047457570636e-7,
    "geom:bbox": "-122.386472,37.616105,-122.385834,37.616611",
    "geom:latitude": 37.61635747477365,
    "geom:longitude": -122.38615540108617,
    "millsfield:airline_id": [
      1159284991,
      1159285931
    ],
    "millsfield:category_id": 1511214251,
    "millsfield:collection_id": 1511214207,
    "millsfield:company_id": [
      1159286721
    ],
    "millsfield:images": [
      1913800215
    ],
    "millsfield:images_colors_refs": {
      "crayola": [
        {
          "hex": "#efcdb8"
        },
        {
          "hex": "#414a4c"
        },
        {
          "hex": "#9f8170"
        }
      ],
      "css4": [
        {
          "hex": "#808080"
        },
        {
          "hex": "#556b2f"
        },
        {
          "hex": "#f5deb3"
        }
      ],
      "marekm4": [
        {
          "hex": "#959273"
        },
        {
          "hex": "#484b32"
        },
        {
          "hex": "#d9cfad"
        }
      ]
    },
    "millsfield:images_texts": [
      "CATHAY HOTEL SHANGHAI CHINA\nFEB. 27, 1933\nDear Mr. Ball;\nI promised you several days ago that I would write to you fully re\nmy converaation with darl Nahrmacher. He is a young man of about thirty three\nyears of age. He runs a garage to eat and sells, or tries to sell, air planes\nto get rich. Todate he is not affluent. He represents Boeing as a\nsort of sub-\nagent under Gale and Company of this city, who are the recognized outlet for\nUnited Aviation products in China. He also represents Fleet of Buffalo, and\nclaims to have sold about thirty training planes to the Chinese Government at\nNanking•\nThese are the planes being used by the American Aviation Mission at\nHangchow for the purpose of training Chinese Pilots. Nahmmacher has another\nyoung fellow with him by the name of Lewis who is also a pilot. There is no\nrecognized civil aviation in China, no licenses are iasued for commercial or\nprivate flying. Apparently both Nahmacher and Lewis have done a good deal\nof\nbarnstorming\nwork by air all with a view of selling military,\nrather than\nprivate,\naircraft. He does not think there is any market over here for your\nships and is not really interested in having the agency. Nahmmacher is fairly\nwell regarded by the old timers over here. He is spoken of as a live wire, has\na good line of conversation - plenty of it - has lived over here long enough\nto know his way around, and is reported financially responsible within some-\nwhat restricted bounds.\nMen who have lived over here for forty years frankly admit that they\ndo not know a bit more than when they came here, so you cant expect much from\na man who has been here two weeks.\nThere are a number of things with respect\nto aviation, however,\nwhich I am willing to write about. First, as I said be-\nfore there is no civil aviation. landing fields are a long way apart, and you\nwould not have that picture of two crashes and a question mark hanging on the\nwall\nif the crackups had been over here. Your widow might have the first one.\nAlmost every inch of ground is taken up with rice fields - the Chinese pro-\nnounce\n\"rice\" \"lice\" and well they might when it comes to a forced landing,\nfor the fields are certainly \"lousey\". A big one is about the size of a tennis\ncourt,\nanicle deep in water,\nsurrounded with a ditch well dyked with a wall of\nmud patted down by wet bare feet for a thousand years or so. Then where ever\nthere are no rice fields, you bump into an old Chinese custom. When \u0026 man or\nwoman dies the relatives carry the casket to a field and deposit said box on\ntop of the ground. There it must remain for one year. Then the relatives come\nback and shovel dirt over the casket, thus making a mound. This remains there\nas the nigger said about his sentence, from now on. Well you know there are a\nfew of these yellow fellows around, andthey just naturally keep on passing\nout, with the result that graves are every where.\nThe whole country is wildly enthusiastic about aviation. Newspapers\nheadline the most trivial events, all the leaders fly, Gen. Chiang Kai Shek\nand Marshal Chang Hsueh-liang each have their own tri-motored planes, the lat-\nter's personal pilot being Perry Hutton, an old Lambert Field barnstormer. It\nis an expensive game over here.\nThey charge Frank Robertson prices even when\nyou buy gas in large quantities.\nI personally, not to be quoted on any of\nthis letter,\nthink that the future of aviation over here is more or less tied\nup with the operation of flying boats, and those operated by airlines only.\nAs you know air transportation has the best chance of successful operation\nwhen it follows the\nestablished trends and the habitual routes of trade. Here\nsurface transportation is almost all by boat. Automobile roads are few, quite\ndangerous because of bandits, and where built are never maintained - the Chin-\nese never maintain anything. Their railroads are relatively unimportant.\nthe years to come when Aviation becomes much more reliable, and the necessity\nfor emergency fields less emphatic, it may be that land equipment will be more\npracticable to operate.\nHope that I haven't bored you with thie long letter. I am feeling\nfine, having \u0026 good time and love the work.\nIf Mies Ella or Mies Lane get un-\nruley just remember that I have turned out to be a d--- good typewritter and I\nam used to\nbeing dictated to - just ask Debby.\nMy very best to you alwaye and to Mrs. Ball,\nVery sincerely\nSebs dear thought you might or intreated\nin this leur to mr. Base.\npotad"
    ],
    "millsfield:images_texts_ids": [
      1913800215
    ],
    "millsfield:primary_image": 1913800215,
    "millsfield:subcategory_id": 1511213489,
    "mz:is_approximate": 1,
    "mz:is_current": 1,
    "sfomuseum:accession_number": "2019.121.0599",
    "sfomuseum:airline": "Pan American Airways",
    "sfomuseum:airline_id": [
      685,
      1131
    ],
    "sfomuseum:category": "Employee Career History",
    "sfomuseum:classification_id": 195,
    "sfomuseum:collection": "Aviation Archive",
    "sfomuseum:creditline": "Collection of SFO Museum",
    "sfomuseum:date": "02/27/1933",
    "sfomuseum:date_acquired": "2019-11-22",
    "sfomuseum:daterange_end": "1933-02-27",
    "sfomuseum:daterange_start": "1933-02-27",
    "sfomuseum:description": "Typewritten letter from Harold M. Bixby to Mr. [P.D.C.] Ball, dated February 27, 1933, at the Cathay Hotel in Shanghai; copy sent to Debby Bixby with handwritten note at the end; includes description of a conversation with Carl Nahmmacher [Nammacher], a pilot and airplane salesman for United Air and Transport, as well as the prospects of aviation in China; mentions General Chiang Kai-Shek,  Marshal Chang Hsueh-liang, and pilot Lewis.",
    "sfomuseum:dimensions": "14 x 8 1/2 inches (35.6 x 21.6 cm)",
    "sfomuseum:medium": "paper, ink",
    "sfomuseum:object_id": 210874,
    "sfomuseum:placetype": "object",
    "sfomuseum:publication": ": , 02/27/1933.",
    "sfomuseum:subcategory": "Correspondence, Personal",
    "src:geom": "sfomuseum#undetermined",
    "wof:belongsto": [
      102527513,
      1159162825,
      102191575,
      85633793,
      102087579,
      85922583,
      85688637,
      1159160869
    ],
    "wof:country": "XY",
    "wof:created": 1714549081,
    "wof:depicts": [
      1159285931,
      1159286721,
      1159284991
    ],
    "wof:geomhash": "c281b9d9eefc83b5710e64b9d646067d",
    "wof:hierarchy": [
      {
        "building_id": -1,
        "campus_id": 102527513,
        "collection_id": 1159162825,
        "concourse_id": 1159162825,
        "continent_id": 102191575,
        "country_id": 85633793,
        "county_id": 102087579,
        "custom_id": 1913796397,
        "locality_id": 85922583,
        "neighbourhood_id": -1,
        "object_id": 1913796397,
        "region_id": 85688637,
        "wing_id": 1159160869
      }
    ],
    "wof:id": 1913796397,
    "wof:lastmodified": 1787988220,
    "wof:name": "correspondence: Harold M. Bixby to Mr. [P.D.C.] Ball",
    "wof:parent_id": 1159162825,
    "wof:placetype": "custom",
    "wof:placetype_alt": [
      "object"
    ],
    "wof:repo": "sfomuseum-data-collection",
    "wof:superseded_by": [],
    "wof:supersedes": []
  },
  "bbox": [
    -122.38647222518921,
    37.6161053594541,
    -122.38583385944366,
    37.61661101879963
  ],
  "geometry": {"type":"Polygon","coordinates":[[[-122.38647222518921,37.61631782178288],[-122.386434674263,37.61623283692423],[-122.38637566566466,37.61617759671399],[-122.38630056381224,37.6161308549656],[-122.38616108894348,37.6161053594541],[-122.38602161407469,37.6161308549656],[-122.38591432571411,37.61618609521055],[-122.38585531711577,37.61626683087935],[-122.38583385944366,37.61636881265146],[-122.38587141036987,37.61646654505181],[-122.38594114780425,37.61654303118856],[-122.38605380058287,37.61660252035167],[-122.38618254661559,37.61661101879963],[-122.3863059282303,37.61657277577607],[-122.3864185810089,37.61650903735973],[-122.3864668607712,37.61641130501523],[-122.38647222518921,37.61631782178288]]]}
}
