{
  "id": 1729564951,
  "type": "Feature",
  "properties": {
    "date:cessation_lower": "1950-01-01",
    "date:cessation_upper": "1950-12-31",
    "date:inception_lower": "1950-01-01",
    "date:inception_upper": "1950-12-31",
    "edtf:cessation": "1950~",
    "edtf:date": "1950~",
    "edtf:inception": "1950~",
    "geom:area": 0,
    "geom:bbox": "-122.386155,37.616357,-122.386155,37.616357",
    "geom:latitude": 37.616357,
    "geom:longitude": -122.386155,
    "iso:country": "XX",
    "millsfield:airline_id": [
      1159285825
    ],
    "millsfield:category_id": 1511214241,
    "millsfield:collection_id": 1511214207,
    "millsfield:company_id": [
      1159287479
    ],
    "millsfield:images": [
      1729566609,
      1729566611
    ],
    "millsfield:images_colors_refs": {
      "crayola": [
        {
          "hex": "#000000"
        },
        {
          "hex": "#ff2b2b"
        },
        {
          "hex": "#c46210"
        },
        {
          "hex": "#979aaa"
        },
        {
          "hex": "#bab86c"
        },
        {
          "hex": "#cdc5c2"
        },
        {
          "hex": "#414a4c"
        },
        {
          "hex": "#2b6cc4"
        }
      ],
      "css4": [
        {
          "hex": "#4682b4"
        },
        {
          "hex": "#ff4500"
        },
        {
          "hex": "#2f4f4f"
        },
        {
          "hex": "#c0c0c0"
        },
        {
          "hex": "#000000"
        },
        {
          "hex": "#778899"
        },
        {
          "hex": "#a9a9a9"
        },
        {
          "hex": "#bdb76b"
        },
        {
          "hex": "#b22222"
        }
      ],
      "marekm4": [
        {
          "hex": "#d1ceba"
        },
        {
          "hex": "#d8310d"
        },
        {
          "hex": "#b1310c"
        },
        {
          "hex": "#1b2321"
        },
        {
          "hex": "#a8a577"
        },
        {
          "hex": "#3d84bf"
        },
        {
          "hex": "#bdbc9f"
        },
        {
          "hex": "#2974b6"
        },
        {
          "hex": "#708fa1"
        },
        {
          "hex": "#1e2d2f"
        }
      ]
    },
    "millsfield:images_texts": [
      "QANTAS\nSowenir Rente Map\nSYDNEY - HONG KONG - TOKYO\n*\nmulla\n: *2**\nQANTAS EMPIRE AIRWAYS",
      "N.S.P\nMT 7/51\n\"Siantar(\nMIDAI\nSERASAN E\n/PALUANGDS Sibu\nPemangkat/\nPalonsi\nReinng\nSARAW\nSEA\nBuiongài\nSIAU\n3\nMOROTAI 1.\nBerouw\nTAMBELAN\nSelakau3 Sambas\nSingkawang\nPIVER Bacu Pucih\nSangkulirang\n\u0026 Long Bram,\nPamelata\nBolaang,\nAmurang\n'Kwandang,\nMenado\nTANGULANDANG\nalabula l\nLISSE\naK HALMAHERA (VAILOLO)\n-KARMAS \u0026Sintang Muara Teweh8\nPRuruk Tahu\nggarung\nDulupboTíl\nGorontalo\nOnh in\nDieko(Molobok\n955u\nOMAPIA 1,\nSPatani /\nG.\nOF TOMINO\nelano B\nOR N\u0026E\nUNA UNAG\nSaukorem •\nMOLUCCA\nSCHOUTEN IS\nBANKA 1\npLimbang\nBuntok\nrigi\n•Sukadana\nPasangkaju\nana\nangkal Pinang\nPasin\nBalik Papan\nKetapang\nPosse\nPBANGAAi ARCHI\nSorong\nMoarig\nBosnik\nAPEN 1\nMataboor\nKarossd\n(olonodala\nsA Mangoh)\nOWAKOE I\n•Diamme\nongPandan\nPåmdai\nManggar an aka amud\nSimpaga\nSamanag\nmbuku(Sakita)\nWaren\nboal\nTeiadas\nPegatan arabahan 3\nMamudja Só\nosoni (Sakora) SEA\nWendesid\nSalabangka\nalIMILES\nE R\u0026 M\"\nTifu\nAmanei\noD Saparua\nзагран.\nKaimano\no Geser\neusopokiruru\nNE\ner Merak\nJAKARTA\nJAVA\nBANDERMAS!\nMartep\nGAmboina\nADT I\noKaroela\no Kapia\noTandjong Priok\nT TBa\nA BandäNeira\nDUTCH\nO.\n• Buiter\n1org\nCheribon\nPekalońgan\nzembang\nJRABAYA\nPSA 584\nI\nSumenap\nMACASSAR\n:T gfta\nARAT lis\nBonthair\nSEA\nG\nI\nelingluwan\"\nU\nJ\nCKĂNGEAN IS. FLORES\nSEA\nDAMMERO.\nNulur\n6 LARAT 1.\nBandun\n90\nnarukan\nnyuwangi\nnBadjo\narantuka\nROMA!\nso uT HoTepa,\nBABAR\"\nTENIMBER IS\nFREDERICK\nChila thaged\nİ kisar wEst\nHENRY 1\nJokyakarta\nBuleiengpenan\n→ Dilly\nISLAND\nTO FLOr\nSarwaru\nSau miai oS, UNgA)\n© Adaut:\n(Djokjakarta) p'\nSURA\nPatitan\nмонотись у\nAtapupu\nPORTUGUE\nMomboen\nSaber Aimerà\nSutrand\nSAtambor\n10\nChindana 6\nWaingapu S AVT\nTIMOR\nARAFURA\nSEA\nSUMBA\nSEA\n(SANDAL\nseBayu1\nBao® Kupang\nRTrı , (Koepang\nLER 1.\n/WESSEL\nTIMOR ASHMORE ! S EA\nGUILF\nPORT DARWIN\nDARWIN\nH.E.C.R\n110°\n120°\nCARTIER 1\n130\nEQUATOR\nHÚMBOLDTS\nVanimo\nMATY,\nAitape\nW\nNORTH\nNEW\nGUINEA\nEAST)\nN\nE\njoGolib\nOkaba\nMerauke\nSilerake?\n• PAPUA\nKikori a\nBARU\nTORRES. STR 10\n• THURSDAY\nC Yorko\n10\n140°\nWenlock"
    ],
    "millsfield:images_texts_ids": [
      1729566609,
      1729566611
    ],
    "millsfield:primary_image": 1729566609,
    "millsfield:subcategory_id": 1511213383,
    "mz:hierarchy_label": 1,
    "mz:is_current": 1,
    "sfomuseum:accession_number": "2014.110.525",
    "sfomuseum:airline": "Qantas Empire Airways",
    "sfomuseum:airline_id": [
      1082
    ],
    "sfomuseum:category": "Map / Chart",
    "sfomuseum:classification_id": 138,
    "sfomuseum:collection": "Aviation Archive",
    "sfomuseum:creditline": "Gift of Thomas G. Dragges",
    "sfomuseum:date": "c. 1950",
    "sfomuseum:date_acquired": "2015-01-06",
    "sfomuseum:daterange_end": "1955-12-31",
    "sfomuseum:daterange_start": "1945-01-01",
    "sfomuseum:description": "Route map issued by Qantas Empire Airways, titled “Souvenir Route Map / Sydney - Hong Kong - Tokyo”; tan cover with  images depicting Sydney Harbour Bridge and Kamakura Daibutsu (Buddha); contains maps and overview of featured destinations.",
    "sfomuseum:dimensions": "9 x 4 inches (22.9 x 10.2 cm)",
    "sfomuseum:medium": "paper, ink",
    "sfomuseum:object_id": 159683,
    "sfomuseum:placetype": "object",
    "sfomuseum:publication": ": , c. 1950.",
    "sfomuseum:subcategory": "Route",
    "src:geom": "sfomuseum#undetermined",
    "wof:belongsto": [
      1511214241,
      102527513,
      102191575,
      85633793,
      1511213383,
      85922583,
      102087579,
      1511214277,
      1511214207,
      85688637
    ],
    "wof:breaches": [],
    "wof:country": "XX",
    "wof:created": 1618962260,
    "wof:depicts": [
      1159287479,
      1159285825
    ],
    "wof:geomhash": "30c8a918561c84bb2daa2b97fc7c5353",
    "wof:hierarchy": [
      {
        "arcade_id": 1511213383,
        "building_id": 1511214277,
        "campus_id": 102527513,
        "concourse_id": 1511214241,
        "continent_id": 102191575,
        "country_id": 85633793,
        "county_id": 102087579,
        "custom_id": 1729564951,
        "locality_id": 85922583,
        "neighbourhood_id": -1,
        "object_id": 1729564951,
        "region_id": 85688637,
        "venue_id": 1729564951,
        "wing_id": 1511214207
      }
    ],
    "wof:id": 1729564951,
    "wof:lastmodified": 1787988191,
    "wof:name": "route map: Qantas Empire Airways",
    "wof:parent_id": 1159162825,
    "wof:placetype": "custom",
    "wof:placetype_alt": [
      "object"
    ],
    "wof:repo": "sfomuseum-data-collection",
    "wof:superseded_by": [],
    "wof:supersedes": [],
    "wof:tags": []
  },
  "bbox": [
    -122.386155,
    37.616357,
    -122.386155,
    37.616357
  ],
  "geometry": {"type":"Point","coordinates":[-122.386155,37.616357]}
}
