{
  "id": 1511907961,
  "type": "Feature",
  "properties": {
    "date:cessation_lower": "1928-12-31",
    "date:cessation_upper": "1928-12-31",
    "date:inception_lower": "1928-12-31",
    "date:inception_upper": "1928-12-31",
    "edtf:cessation": "1928-12-31",
    "edtf:date": "1928-12-31",
    "edtf:inception": "1928-12-31",
    "geom:area": 0,
    "geom:bbox": "-122.386155,37.616357,-122.386155,37.616357",
    "geom:latitude": 37.616357,
    "geom:longitude": -122.386155,
    "iso:country": "US",
    "millsfield:aircraft_id": [
      -1
    ],
    "millsfield:category_id": 1511214215,
    "millsfield:collection_id": 1511214207,
    "millsfield:images": [
      1527819861,
      1527854279
    ],
    "millsfield:images_colors_refs": {
      "crayola": [
        {
          "hex": "#cd4a4c"
        },
        {
          "hex": "#757575"
        },
        {
          "hex": "#9f8170"
        },
        {
          "hex": "#414a4c"
        },
        {
          "hex": "#efcdb8"
        }
      ],
      "css4": [
        {
          "hex": "#bc8f8f"
        },
        {
          "hex": "#d2691e"
        },
        {
          "hex": "#2f4f4f"
        },
        {
          "hex": "#f5deb3"
        },
        {
          "hex": "#808080"
        }
      ],
      "marekm4": [
        {
          "hex": "#aa9474"
        },
        {
          "hex": "#9a9271"
        },
        {
          "hex": "#e1d4b5"
        },
        {
          "hex": "#ce492c"
        },
        {
          "hex": "#264c2c"
        },
        {
          "hex": "#dfd1b3"
        },
        {
          "hex": "#738868"
        }
      ]
    },
    "millsfield:images_texts": [
      "1908\n1928\nOn December 31, 1908, exactly twenty years ago today-Wilbur Wright established a new world's record. for distance\nand duration covering 124.7 kilometers in two hours twenty minutes thirty-two and two-tenths seconds, winning the\nMichelin Trophy and other valuable prizes. This epochay.\npat Ayement marked the birth of serrat transportation\nMillville, Indiana postoffice has been discontinued, now\nsupplied by New Castle, Indiana, which is 5 miles from\nDEC 3i\nthe birthplace of Wilbur Wright.\n5\nPM\nGIC\n1928\nIND\nno right 1012\nThis Cover is dedicated\nto Wilbur Wrieht who\ndaringly and honorably\naided\nscience and\nhis-\nIt is sent from\nMiliville, indiana, the\nplace of\nhis\nbirth.\nVIA AIR MAIL\nCAPT. B. B. LIPSNER\nAMERICA'S FIRST AIR MAIL SUP'T.\nCHICAGO",
      "JAN 2\n9\nPM\n1929\nNOTIFY YOUR\nCORRESPONDENTS\nOF\nCHANGE OF ADDRESSF"
    ],
    "millsfield:images_texts_ids": [
      1527819861,
      1527854279
    ],
    "millsfield:primary_image": 1527819861,
    "millsfield:subcategory_id": 1511213159,
    "mz:hierarchy_label": 1,
    "mz:is_current": 1,
    "sfomuseum:accession_number": "1997.15.04",
    "sfomuseum:aircraft": "Wright Brothers",
    "sfomuseum:aircraft_id": [
      1216
    ],
    "sfomuseum:category": "Philately",
    "sfomuseum:classification_id": 10,
    "sfomuseum:collection": "Aviation Archive",
    "sfomuseum:continent": "North America",
    "sfomuseum:country": "United States",
    "sfomuseum:creditline": "Gift of Fred Nott",
    "sfomuseum:date": "12/31/1928",
    "sfomuseum:daterange_end": "1928-12-31",
    "sfomuseum:daterange_start": "1928-12-31",
    "sfomuseum:description": "Airmail flight cover commemorating the twentieth anniversary of Wilbur Wright’s record-setting flight of 124.7 km on December 31, 1908; off-white envelope with preprinted red cachet with image of winged man (Icarus) and green border below with images of transportation modes over time; additional commemorative text about the life of Wilbur Wright; postmarked December 31, 1928 in Newcastle, Indiana with wavy cancellation mark over 5-cent stamp; backstamp: January 2, 1929 in Chicago.",
    "sfomuseum:dimensions": "4 1/8 x 9 1/2 inches (10.5 x 24.1 cm)",
    "sfomuseum:media_ids": [
      1527854279,
      1527819861
    ],
    "sfomuseum:medium": "paper, ink",
    "sfomuseum:object_id": 45751,
    "sfomuseum:placetype": "object",
    "sfomuseum:primary_media_id": 1527819861,
    "sfomuseum:publication": ": , 12/31/1928.",
    "sfomuseum:subcategory": "Airmail Flight Cover",
    "src:geom": "sfomuseum#undetermined",
    "wof:belongsto": [
      1511214215,
      102527513,
      102191575,
      85633793,
      1511213159,
      85922583,
      102087579,
      1511214277,
      1511214207,
      85688637,
      136253057
    ],
    "wof:breaches": [],
    "wof:country": "US",
    "wof:created": 1579906661,
    "wof:geomhash": "30c8a918561c84bb2daa2b97fc7c5353",
    "wof:hierarchy": [
      {
        "arcade_id": 1511213159,
        "building_id": 1511214277,
        "campus_id": 102527513,
        "concourse_id": 1511214215,
        "continent_id": 102191575,
        "country_id": 85633793,
        "county_id": 102087579,
        "custom_id": 1511907961,
        "locality_id": 85922583,
        "neighbourhood_id": -1,
        "object_id": 1511907961,
        "region_id": 85688637,
        "venue_id": 1511907961,
        "wing_id": 1511214207
      },
      {
        "continent_id": 102191575,
        "country_id": 85633793,
        "custom_id": 1511907961,
        "empire_id": 136253057,
        "object_id": 1511907961,
        "venue_id": 1511907961
      }
    ],
    "wof:id": 1511907961,
    "wof:lastmodified": 1787988175,
    "wof:name": "airmail flight cover: Wright Brothers first flight, 20th Anniversary",
    "wof:parent_id": 1159162825,
    "wof:placetype": "custom",
    "wof:placetype_alt": [
      "object"
    ],
    "wof:repo": "sfomuseum-data-collection",
    "wof:superseded_by": [],
    "wof:supersedes": [],
    "wof:tags": []
  },
  "bbox": [
    -122.386155,
    37.616357,
    -122.386155,
    37.616357
  ],
  "geometry": {"type":"Point","coordinates":[-122.386155,37.616357]}
}
