{
  "id": 1511927841,
  "type": "Feature",
  "properties": {
    "date:cessation_lower": "1986-01-01",
    "date:cessation_upper": "1986-12-31",
    "date:inception_lower": "1986-01-01",
    "date:inception_upper": "1986-12-31",
    "edtf:cessation": "1986",
    "edtf:date": "1986",
    "edtf:inception": "1986",
    "geom:area": 0,
    "geom:bbox": "-122.386155,37.616357,-122.386155,37.616357",
    "geom:latitude": 37.616357,
    "geom:longitude": -122.386155,
    "iso:country": "XX",
    "millsfield:airline_id": [
      1159285415
    ],
    "millsfield:category_id": 1762679695,
    "millsfield:collection_id": 1511214203,
    "millsfield:company_id": [
      1159288779
    ],
    "millsfield:images": [
      1527856315
    ],
    "millsfield:images_colors_refs": {
      "crayola": [
        {
          "hex": "#979aaa"
        },
        {
          "hex": "#714b23"
        }
      ],
      "css4": [
        {
          "hex": "#a9a9a9"
        },
        {
          "hex": "#556b2f"
        }
      ],
      "marekm4": [
        {
          "hex": "#aaa9a9"
        },
        {
          "hex": "#4f3329"
        }
      ]
    },
    "millsfield:images_texts": [
      "American Federation of Labor and Congress of Industrial Organizations\nEXECUTIVE COUNCIL\no1b sixteenth Sifeet. Nw\nLANE KIRKLAND PRESIDENT\nTHOMAS R. DONAHUE SECRETARY TRFASURER\nwasnington. D.C. 2000d\n1202) 637.5000\nApril 11, 1986\nMs. Edith Lauterbach\n%Association of Flight Attendants\n162) Massachusetts Avenue, N.W.\nWashington, D.C. 20036\nDear Sister Lauterbach:\nThe word is out that you are hanging up your wings and putting away your rolling\nsuitcase. After 42 years of helping curious, nervous and sometimes obnoxious passengers\nto feel comfortable in the sky, you are going to enjoy life in the beautiful city on the bay.\nAll of your friends in the labor movement join me in wishing you many pleasant\nyears of full-time relaxation and pursuit of purely personal pleasures; you deserve them.\ncareer, you were never content simply to watch the world whiz\nby the cabin windows.\nDuring your lon ou helped make changes, changes for the better for co-workers\nand many others by your leadership in building the organization that is now the\nAssociation of Flight Attendants.\nYou proved that a trade union is an instrument for\nbringing dignity, fairness and gender equality to the work place.\nWe were especially proud and pleased that you took part in the ceremony when\nthe American Federation of Labor and Congress of Industrial Organizations issued its\ncharter of affiliation to the AFA, a milestone in the honored history of the labor\nmovement.\nGood luck and best wishes!\nSincerely and fraternally,\nSame Pille O\nPresident"
    ],
    "millsfield:images_texts_ids": [
      1527856315
    ],
    "millsfield:primary_image": 1527856315,
    "millsfield:subcategory_id": 1511213359,
    "mz:hierarchy_label": 1,
    "mz:is_current": 1,
    "sfomuseum:accession_number": "2006.028.144",
    "sfomuseum:airline": "United Air Lines",
    "sfomuseum:airline_id": [
      884
    ],
    "sfomuseum:category": "Award",
    "sfomuseum:classification_id": 125,
    "sfomuseum:collection": "Aviation Museum",
    "sfomuseum:creditline": "Gift of Edith Lauterbach",
    "sfomuseum:date": "1986",
    "sfomuseum:date_acquired": "2006-04-18",
    "sfomuseum:daterange_end": "1986-12-31",
    "sfomuseum:daterange_start": "1986-01-01",
    "sfomuseum:description": "Letter of recognition mounted on plaque, presented to United Airlines flight attendant Edith Lauterbach by the American Federation of Labor and Congress of Industrial Organizations (AFL-CIO); signed by Lane Kirklan; dated April 11, 1986; letter set beneath clear plastic, mounted on wood.",
    "sfomuseum:dimensions": "13 x 10 1/2 x 1 inches (33 x 26.7 x 2.5 cm)",
    "sfomuseum:media_ids": [
      1527856315
    ],
    "sfomuseum:medium": "paper, ink, plastic, wood, metal",
    "sfomuseum:object_id": 80780,
    "sfomuseum:placetype": "object",
    "sfomuseum:primary_media_id": 1527856315,
    "sfomuseum:publication": ": , 1986.",
    "sfomuseum:subcategory": "Plaque",
    "src:geom": "sfomuseum#undetermined",
    "wof:belongsto": [
      1511214253,
      102527513,
      102191575,
      85633793,
      1511213359,
      85922583,
      102087579,
      1511214277,
      1511214207,
      85688637
    ],
    "wof:breaches": [],
    "wof:country": "XX",
    "wof:created": 1579906668,
    "wof:depicts": [
      1159285415,
      1159288779
    ],
    "wof:geomhash": "30c8a918561c84bb2daa2b97fc7c5353",
    "wof:hierarchy": [
      {
        "arcade_id": 1511213359,
        "building_id": 1511214277,
        "campus_id": 102527513,
        "concourse_id": 1511214253,
        "continent_id": 102191575,
        "country_id": 85633793,
        "county_id": 102087579,
        "custom_id": 1511927841,
        "locality_id": 85922583,
        "neighbourhood_id": -1,
        "object_id": 1511927841,
        "region_id": 85688637,
        "venue_id": 1511927841,
        "wing_id": 1511214207
      }
    ],
    "wof:id": 1511927841,
    "wof:lastmodified": 1787988179,
    "wof:name": "letter of recognition: American Federation of Labor and Congress of Industrial Organizations, Edith Lauterbach",
    "wof:parent_id": 1159162825,
    "wof:placetype": "custom",
    "wof:placetype_alt": [
      "object"
    ],
    "wof:repo": "sfomuseum-data-collection",
    "wof:superseded_by": [],
    "wof:supersedes": [],
    "wof:tags": []
  },
  "bbox": [
    -122.386155,
    37.616357,
    -122.386155,
    37.616357
  ],
  "geometry": {"type":"Point","coordinates":[-122.386155,37.616357]}
}
