{
  "id": 1913795913,
  "type": "Feature",
  "properties": {
    "date:cessation_lower": "1936-01-15",
    "date:cessation_upper": "1936-01-15",
    "date:inception_lower": "1936-01-15",
    "date:inception_upper": "1936-01-15",
    "edtf:cessation": "1936-01-15",
    "edtf:inception": "1936-01-15",
    "geom:area": 2.475047457570636e-7,
    "geom:bbox": "-122.386472,37.616105,-122.385834,37.616611",
    "geom:latitude": 37.61635747477365,
    "geom:longitude": -122.38615540108617,
    "millsfield:airline_id": [
      1159284991
    ],
    "millsfield:category_id": 1511214251,
    "millsfield:collection_id": 1511214207,
    "millsfield:company_id": [
      1159286839
    ],
    "millsfield:images": [
      1913802121,
      1913802123,
      1913802125
    ],
    "millsfield:images_colors_refs": {
      "crayola": [
        {
          "hex": "#deaa88"
        },
        {
          "hex": "#f8d568"
        },
        {
          "hex": "#6dae81"
        },
        {
          "hex": "#edd19c"
        },
        {
          "hex": "#4a646c"
        },
        {
          "hex": "#bab86c"
        },
        {
          "hex": "#757575"
        },
        {
          "hex": "#efdecd"
        }
      ],
      "css4": [
        {
          "hex": "#f0e68c"
        },
        {
          "hex": "#deb887"
        },
        {
          "hex": "#2f4f4f"
        },
        {
          "hex": "#ffebcd"
        },
        {
          "hex": "#708090"
        },
        {
          "hex": "#2e8b57"
        },
        {
          "hex": "#696969"
        }
      ],
      "marekm4": [
        {
          "hex": "#d9c776"
        },
        {
          "hex": "#356b64"
        },
        {
          "hex": "#f2ebcc"
        },
        {
          "hex": "#e6d375"
        },
        {
          "hex": "#5d9076"
        },
        {
          "hex": "#5d9177"
        },
        {
          "hex": "#ebdb97"
        },
        {
          "hex": "#ebdb96"
        },
        {
          "hex": "#d7c575"
        },
        {
          "hex": "#629168"
        },
        {
          "hex": "#2f6c67"
        },
        {
          "hex": "#2e6758"
        }
      ]
    },
    "millsfield:images_texts": [
      "дал 15 130\nDrarest Orb -\nFlying back to Shanghai from Peipig.\nHad a long and very catafactory\ntalk\nwith in fohmen who in eidentally tent.\nhis very but to you and the girls. They\nhair a new baby fue bor on Ore 10t\nHi spoke of having recture our Chitma\ncard. At far me a lette of inatudions\nfor me Piek to foccow-(in in guansono\nname) and I think de vice as a\nresult. us may get some action at\nRanking.\nGriping was nt the same with out\npen. My heart ached an us circled the\nfild to land - no Dess ene to mut\nme and. I pet blue all de time\nwas thus bicans of the Contant remenders\nof the happ day with you, When ur\npaone the morrison Shit\nforgan I almost\nupt. Then too 9 kept brig reminded of\nall the this you worked so hard to\nbuy and the unentarity of their\npresent condition (9 hour just radiord\nmies forbs to ack if the gracking list\narrird - if it dis jee continue on to\nShanghai but if not them Del probably\nest off at nanking as I will har t\nAl this tomorow anyway. 9 learned\nthat Mrs Chian was home and as my\ntime was limited made no attempt tu",
      "to ous oco houn a trs chiens.\nSaw\nin sabsbury who arted t br sementred to\nyon and the ques.\ngor back to the\najor-hit at alont aux from mugoluson\nant cald up Bries gold-torongs to\ninvits mysy and meceng to go aroune\nSor a thin one, Mus E. es va nes - lours\nPriping - boards with her cook: pays no\nattrution the claims, to anything in the\nhour o ba ensite on both\nstagy to diann = adotten that she\nLadnt the remotot idra what urd\nhar to rat. Sai Bricis boy is delightro\nthat she doront integre with \"his\" houtchols\nand all as sernin\nShe admit it wile be\nShe is almost\ngood looking - would br sucept for tio\nfront trith which as for amough a part\nao the could cat watumelon sido wilkont\noping her mouth, She is sender - tace\nbrunett - dreass uree. talles fail url\nand her living room is amacture\nfurnished.\nBrie sems van happy. They\nhed as Saglitman for dinnn - cont\nsemente his name bet he is corespondent\nfo the bail maie. Vin intreti aero\nMat fire from the Entang min Rucoul.\nAproaching Napkiny must stop ao am\njan t.\nhot of lour.",
      "Dibs Miss forks has nt erred me\nlant Dai wire that he could nt\nCome to rankmon tas for In gottent\nOf to me tur Peck end\n_ wile fo dour\nto Shenhai on the nigut train - furin,\nthis liter to the Centng\nTa mail a\nShanghai\n2019.121.0866"
    ],
    "millsfield:images_texts_ids": [
      1913802121,
      1913802123,
      1913802125
    ],
    "millsfield:primary_image": 1913802121,
    "millsfield:subcategory_id": 1511213489,
    "mz:is_approximate": 1,
    "mz:is_current": 1,
    "sfomuseum:accession_number": "2019.121.0866 a b",
    "sfomuseum:airline": "Pan American Airways",
    "sfomuseum:airline_id": [
      685
    ],
    "sfomuseum:category": "Employee Career History",
    "sfomuseum:classification_id": 195,
    "sfomuseum:collection": "Aviation Archive",
    "sfomuseum:creditline": "Collection of SFO Museum",
    "sfomuseum:date": "01/15/1936",
    "sfomuseum:date_acquired": "2019-11-22",
    "sfomuseum:daterange_end": "1936-01-15",
    "sfomuseum:daterange_start": "1936-01-15",
    "sfomuseum:description": "Handwritten letter from Harold M. Bixby to his wife, Debby Bixby, dated January 15, [1936] en route from Shanghai to Peiping [Beijing]; includes personal matters; mentions Mr. Johnson, Miss Forbes, Brier Goldsborough, [James] McClesky, Dai [Enki].",
    "sfomuseum:dimensions": "13 x 8 inches (33 x 20.3 cm)",
    "sfomuseum:medium": "paper, ink",
    "sfomuseum:object_id": 211219,
    "sfomuseum:placetype": "object",
    "sfomuseum:publication": ": , 01/15/1936.",
    "sfomuseum:subcategory": "Correspondence, Personal",
    "src:geom": "sfomuseum#undetermined",
    "wof:belongsto": [
      102527513,
      1159162825,
      102191575,
      85633793,
      102087579,
      85922583,
      85688637,
      1159160869
    ],
    "wof:country": "XY",
    "wof:created": 1714548930,
    "wof:depicts": [
      1159286839,
      1159284991
    ],
    "wof:geomhash": "c281b9d9eefc83b5710e64b9d646067d",
    "wof:hierarchy": [
      {
        "building_id": -1,
        "campus_id": 102527513,
        "collection_id": 1159162825,
        "concourse_id": 1159162825,
        "continent_id": 102191575,
        "country_id": 85633793,
        "county_id": 102087579,
        "custom_id": 1913795913,
        "locality_id": 85922583,
        "neighbourhood_id": -1,
        "object_id": 1913795913,
        "region_id": 85688637,
        "wing_id": 1159160869
      }
    ],
    "wof:id": 1913795913,
    "wof:lastmodified": 1787988219,
    "wof:name": "correspondence: Harold M. Bixby to Debby Bixby",
    "wof:parent_id": 1159162825,
    "wof:placetype": "custom",
    "wof:placetype_alt": [
      "object"
    ],
    "wof:repo": "sfomuseum-data-collection",
    "wof:superseded_by": [],
    "wof:supersedes": []
  },
  "bbox": [
    -122.38647222518921,
    37.6161053594541,
    -122.38583385944366,
    37.61661101879963
  ],
  "geometry": {"type":"Polygon","coordinates":[[[-122.38647222518921,37.61631782178288],[-122.386434674263,37.61623283692423],[-122.38637566566466,37.61617759671399],[-122.38630056381224,37.6161308549656],[-122.38616108894348,37.6161053594541],[-122.38602161407469,37.6161308549656],[-122.38591432571411,37.61618609521055],[-122.38585531711577,37.61626683087935],[-122.38583385944366,37.61636881265146],[-122.38587141036987,37.61646654505181],[-122.38594114780425,37.61654303118856],[-122.38605380058287,37.61660252035167],[-122.38618254661559,37.61661101879963],[-122.3863059282303,37.61657277577607],[-122.3864185810089,37.61650903735973],[-122.3864668607712,37.61641130501523],[-122.38647222518921,37.61631782178288]]]}
}
