{
  "id": 1762679879,
  "type": "Feature",
  "properties": {
    "date:cessation_lower": "1985-01-01",
    "date:cessation_upper": "1985-12-31",
    "date:inception_lower": "1985-01-01",
    "date:inception_upper": "1985-12-31",
    "edtf:cessation": "1985",
    "edtf:inception": "1985",
    "geom:area": 2.475047457570636e-7,
    "geom:bbox": "-122.386472,37.616105,-122.385834,37.616611",
    "geom:latitude": 37.61635747477365,
    "geom:longitude": -122.38615540108617,
    "millsfield:aircraft_id": [
      1159289873
    ],
    "millsfield:airline_id": [
      1159283697
    ],
    "millsfield:category_id": 1511214223,
    "millsfield:collection_id": 1511214207,
    "millsfield:company_id": [
      1159293593
    ],
    "millsfield:images": [
      1762708557,
      1762708559
    ],
    "millsfield:images_colors_refs": {
      "crayola": [
        {
          "hex": "#2e5894"
        },
        {
          "hex": "#cdc5c2"
        },
        {
          "hex": "#bab86c"
        },
        {
          "hex": "#dbd7d2"
        },
        {
          "hex": "#414a4c"
        },
        {
          "hex": "#6699cc"
        }
      ],
      "css4": [
        {
          "hex": "#6495ed"
        },
        {
          "hex": "#cd853f"
        },
        {
          "hex": "#c0c0c0"
        },
        {
          "hex": "#5f9ea0"
        },
        {
          "hex": "#2f4f4f"
        },
        {
          "hex": "#483d8b"
        },
        {
          "hex": "#d3d3d3"
        }
      ],
      "marekm4": [
        {
          "hex": "#1f2927"
        },
        {
          "hex": "#6fafb9"
        },
        {
          "hex": "#5ba5d5"
        },
        {
          "hex": "#bbcbcf"
        },
        {
          "hex": "#393844"
        },
        {
          "hex": "#bba843"
        },
        {
          "hex": "#cbdcd4"
        },
        {
          "hex": "#475096"
        }
      ]
    },
    "millsfield:images_texts": [
      "TRAVEL-HOLIDAY\nNATIONAL TRAVEL POLL\nBEST INTERNATIONAL\n1985\nAIRLINE\nBest International Airline -\nfifth year in a row.\n€ aIr new ZEaLanD\n747 Schedule\nEffective from Oct. 27, 1985\nWorld's Best International Airline for the fifth year in a row.",
      "Additional Services New Zealand to Australia\nTE 141\n767\nMON\nTE 53\n767\nTE 49\n747\nTE 123\n747\nTUE\nTE 131\nTE 151 TE 147\n747\n767\n767\nWEDNESDAY\n1220\nTE 113\n747\nTE 61\n747\nTHURSDAY\nTE 45\n767\nAuckland\nWellington\nChristchurch\nBrisbane\nSydney\nMelbourne\nHobart\nPerth\nLV\nLV\nLV\nAr\nAr\nAr\nAr\nAr\n1100\n1700\n0950\n0800\n1745\n1125\n1235\n1245\n0720\n0750\n1455\n1115\n1345\n1910\n1615\n1310\n1255\n0955\n1910\nAdditional Services Australia to New Zealand\nTE 144 TE 102\n767\n747\nMON\nTE 16\n747\nTUESDAY\nTE 54\n767\nTE 124 TE 66 TE 154 TE 132\n747\n747\n767\n747\nTE 44 TE 146\n767\n767\nWEDNESDAY\nTHURSDAY\nPerth\nHobart\nMelbourne\nSydney\nBrisbane\nChristchurch\nWellington\nAuckland\nLV\nLV\nLV\nLV\nLV\nAr\nAr\nAr\n1425\n1425\n1110\n1235\n1515\n1400\n0900\n1730\n1850\n1945\n1415\n2030\n0920\n1355\n1735\n1635\n2230\n2005\n1950\n1520\nair nEw ZEaLaND\nTE 51\n767\nFRIDAY\nTE 137\n747\n1145\nTE 141\nTE 73\nTE 47\nTE 123\nTE 165\n767\n737\n767\n747\n767\nSATURDAY\nSUNDAY\n1100\n0930\n1410\n0800\n1030\n1805\n1210\n1455\n1055\n1925\n0945\n1255\n1150\nAnnouncing WELLINGTON service to/from Sydney,\nMelbourne, and Brisbane commencing this fall on\nboard our new B767ER aircraft.\nTE 114 TE 52\n747\n767\nFRIDAY\n0810\nTE 138\n747\nTE 46 TE 74\n767\n737\nSATURDAY\nTE 124 TE 142 TE 166\n747\n767\n767\nSUNDAY\n1250\n1100\n1425\n1210\n0800\n1340\n1610\n1620\n1705\n1735\n1300\n2230\n1920\n1940\n1950\nNOTE:\nSchedule effective from Oct. 27, 1985 and subject to change without notice."
    ],
    "millsfield:images_texts_ids": [
      1762708557,
      1762708559
    ],
    "millsfield:primary_image": 1762708557,
    "millsfield:subcategory_id": 1511213425,
    "mz:is_current": 1,
    "sfomuseum:accession_number": "2015.065.001",
    "sfomuseum:aircraft": "Boeing 747",
    "sfomuseum:aircraft_id": [
      231
    ],
    "sfomuseum:airline": "Air New Zealand",
    "sfomuseum:airline_id": [
      101
    ],
    "sfomuseum:category": "Scheduling / Ticketing",
    "sfomuseum:classification_id": 158,
    "sfomuseum:collection": "Aviation Archive",
    "sfomuseum:creditline": "Gift of David Armstrong Abercrombie",
    "sfomuseum:date": "1985",
    "sfomuseum:date_acquired": "2015-07-16",
    "sfomuseum:daterange_end": "1985-12-31",
    "sfomuseum:daterange_start": "1985-01-01",
    "sfomuseum:description": "Timetable issued by Air New Zealand for Boeing 747 service between New Zealand and Australia, effective October 27, 1985; bi-fold format; light blue cover with color photographic images of points of interest.",
    "sfomuseum:dimensions": "4 x 9 inches (10.2 x 22.9 cm)",
    "sfomuseum:medium": "paper, ink",
    "sfomuseum:object_id": 167871,
    "sfomuseum:placetype": "object",
    "sfomuseum:publication": ": , 1985.",
    "sfomuseum:subcategory": "Timetable",
    "src:geom": "sfomuseum#undetermined",
    "wof:belongsto": [
      102527513,
      1159162825,
      102191575,
      85633793,
      102087579,
      85922583,
      85688637,
      1159160869
    ],
    "wof:country": "XY",
    "wof:created": 1641339510,
    "wof:depicts": [
      1159283697,
      1159287125,
      1159289873,
      1159293593
    ],
    "wof:geomhash": "c281b9d9eefc83b5710e64b9d646067d",
    "wof:hierarchy": [
      {
        "building_id": -1,
        "campus_id": 102527513,
        "collection_id": 1159162825,
        "concourse_id": 1159162825,
        "continent_id": 102191575,
        "country_id": 85633793,
        "county_id": 102087579,
        "custom_id": 1762679879,
        "locality_id": 85922583,
        "neighbourhood_id": -1,
        "object_id": 1762679879,
        "region_id": 85688637,
        "wing_id": 1159160869
      }
    ],
    "wof:id": 1762679879,
    "wof:lastmodified": 1787988192,
    "wof:name": "timetable: Air New Zealand, New Zealand - Australia, Boeing 747 schedule",
    "wof:parent_id": 1159162825,
    "wof:placetype": "custom",
    "wof:placetype_alt": [
      "object"
    ],
    "wof:repo": "sfomuseum-data-collection",
    "wof:superseded_by": [],
    "wof:supersedes": []
  },
  "bbox": [
    -122.38647222518921,
    37.6161053594541,
    -122.38583385944366,
    37.61661101879963
  ],
  "geometry": {"type":"Polygon","coordinates":[[[-122.38647222518921,37.61631782178288],[-122.386434674263,37.61623283692423],[-122.38637566566466,37.61617759671399],[-122.38630056381224,37.6161308549656],[-122.38616108894348,37.6161053594541],[-122.38602161407469,37.6161308549656],[-122.38591432571411,37.61618609521055],[-122.38585531711577,37.61626683087935],[-122.38583385944366,37.61636881265146],[-122.38587141036987,37.61646654505181],[-122.38594114780425,37.61654303118856],[-122.38605380058287,37.61660252035167],[-122.38618254661559,37.61661101879963],[-122.3863059282303,37.61657277577607],[-122.3864185810089,37.61650903735973],[-122.3864668607712,37.61641130501523],[-122.38647222518921,37.61631782178288]]]}
}
