{
  "id": 1914579615,
  "type": "Feature",
  "properties": {
    "date:cessation_lower": "1973-01-01",
    "date:cessation_upper": "1973-12-31",
    "date:inception_lower": "1973-01-01",
    "date:inception_upper": "1973-12-31",
    "edtf:cessation": "1973",
    "edtf:inception": "1973",
    "geom:area": 2.475047457570636e-7,
    "geom:bbox": "-122.386472,37.616105,-122.385834,37.616611",
    "geom:latitude": 37.61635747477365,
    "geom:longitude": -122.38615540108617,
    "millsfield:aircraft_id": [
      1159289873
    ],
    "millsfield:airline_id": [
      1159284989
    ],
    "millsfield:category_id": 1762671311,
    "millsfield:collection_id": 1511214207,
    "millsfield:company_id": [
      1159293593
    ],
    "millsfield:images": [
      1914580023,
      1914580025,
      1914580027
    ],
    "millsfield:images_colors_refs": {
      "crayola": [
        {
          "hex": "#1164b4"
        },
        {
          "hex": "#2b6cc4"
        },
        {
          "hex": "#c5d0e6"
        },
        {
          "hex": "#6699cc"
        },
        {
          "hex": "#757575"
        },
        {
          "hex": "#414a4c"
        },
        {
          "hex": "#dbd7d2"
        }
      ],
      "css4": [
        {
          "hex": "#2f4f4f"
        },
        {
          "hex": "#b0c4de"
        },
        {
          "hex": "#4169e1"
        },
        {
          "hex": "#d3d3d3"
        },
        {
          "hex": "#dcdcdc"
        },
        {
          "hex": "#708090"
        },
        {
          "hex": "#4682b4"
        },
        {
          "hex": "#5f9ea0"
        },
        {
          "hex": "#6495ed"
        }
      ],
      "marekm4": [
        {
          "hex": "#d2d2d3"
        },
        {
          "hex": "#22262e"
        },
        {
          "hex": "#b4c7de"
        },
        {
          "hex": "#7596c4"
        },
        {
          "hex": "#dcdadb"
        },
        {
          "hex": "#483939"
        },
        {
          "hex": "#5b7191"
        },
        {
          "hex": "#1157cd"
        },
        {
          "hex": "#6a93d8"
        },
        {
          "hex": "#403d41"
        },
        {
          "hex": "#2a64ba"
        }
      ]
    },
    "millsfield:images_texts": [
      "EMERGENCY\nINSTRUCTIONS\nPANAM®\nBoeing 747\nMESURES DE SÉCURITÉ\nANWEISUNGEN FÜR DEN NOTFALL\nISTRUZIONI DI EMERGENZA\nINSTRUCCIONES DE EMERGENCIA\nINSTRUÇÕES PARA EMERGENCIA",
      "1\n4\n6\n8\n9",
      "Experienced air travelers normally wear their seat belts\nfastened while seated even during periods when not re-\nquired. This is recommended as\nan added convenience\nand precaution.\nPlease do not use any portable radio or TV in flight. These\ndevices interfere with the aircraft electronic system. You\nmay use a hearing aid or portable recorder.\nFor your safety, please do not use cigarette lighters with\nclear plastic fuel reservoirs while aboard your aircraft—\nthey may flare up.\nNormalement, les voyageurs aériens expérimentés main-\ntiennent leur ceinture de sécurité attachée pendant qu'ils\nsont assis. Même durant le temps de vol lorsque ceci\nn'est pas requis. Cette pratique est recommandée pour le\nconfort et comme une précaution supplémentaire.\nPrière de ne pas utiliser ni récepteur de radio, ni télé-\nviseur portatif pendant le vol. Ces appareils produisent\ndes interférences dans le système électronique de l'avion.\nVous pouvez utiliser un appareil auditif ou un magnéto-\nphone portatif.\nPour votre sécurité, prière de ne pas utiliser à bord, de\nbriquets munis de\nréservoir transparent en matière\nplastique; ils pourraient s'enflammer.\nErfahrene Flugreisende sichern im allgemeinen ihren Gurt\nauch, wenn es nicht vorgeschrieben wird. Wir empfehlen\ndies als zusätzliche Bequemlichkeit und Vorsorge.\nBitte, benutzen Sie an Bord keine Kofferradios oder-TV-\nEmpfänger. Diese Geräte stören das Elektronensystem\ndes Flugzeugs. Hörgeräte oder tragbare Plattenspieler\ndürfen benutzt werden.\nZu Ihrer eigenen Sicherheit benutzen Sie, bitte, an Bord\nkeine Feuerzeuge mit durchsichtigem Plastikbehälter, da\ndiese aufflammen können.\nEsperti viaggiatori tengono di solito la cintura allacciata\nquando sono seduti anche nei momenti in cui non é\nrichiesto. Questo è raccomandabile come ulteriore pre-\ncauzione e comodità.\nSi prega di non fare uso di apparecchi radio-televisivi.\nPotrebbero impedire il perfetto funzionamento dell'im-\npianto elettronico de bordo. Sono invece permessi gli\napparecchi per migliorare l'udito e i registratori portatili.\nSi prega di non fare uso di macchinette accendisigari\ncon serbatoio in plastica. Portrebbero incendiarsi.\n9243 - 7508 B 10-73\nLitho in U.S.A.\n2002/27.458"
    ],
    "millsfield:images_texts_ids": [
      1914580023,
      1914580025,
      1914580027
    ],
    "millsfield:primary_image": 1914580023,
    "millsfield:subcategory_id": 1511213703,
    "mz:is_approximate": 1,
    "mz:is_current": 1,
    "sfomuseum:accession_number": "2002.127.458",
    "sfomuseum:aircraft": "Boeing 747",
    "sfomuseum:aircraft_id": [
      231
    ],
    "sfomuseum:airline": "Pan American World Airways",
    "sfomuseum:airline_id": [
      684
    ],
    "sfomuseum:category": "Passenger Amenity, Archive",
    "sfomuseum:classification_id": 581,
    "sfomuseum:collection": "Aviation Archive",
    "sfomuseum:creditline": "Gift of Thomas G. Dragges",
    "sfomuseum:date": "1973",
    "sfomuseum:date_acquired": "2003-12-22",
    "sfomuseum:daterange_end": "1973-12-31",
    "sfomuseum:daterange_start": "1973-01-01",
    "sfomuseum:description": "Safety information card issued by Pan American World Airways for its Boeing 747 fleet; blue and white booklet with illustrations demonstrating inflight safety and emergency procedures; identification code: 9243-7508 B; revision date: 10-73.",
    "sfomuseum:dimensions": "10 x 4 inches (25.4 x 10.2 cm)",
    "sfomuseum:medium": "paper, metal, ink",
    "sfomuseum:object_id": 69169,
    "sfomuseum:placetype": "object",
    "sfomuseum:publication": ": , 1973.",
    "sfomuseum:subcategory": "Safety Information Card",
    "src:geom": "sfomuseum#undetermined",
    "wof:belongsto": [
      102527513,
      1159162825,
      102191575,
      85633793,
      102087579,
      85922583,
      85688637,
      1159160869
    ],
    "wof:country": "XY",
    "wof:created": 1720683188,
    "wof:depicts": [
      1159284989,
      1159289873,
      1159293593
    ],
    "wof:geomhash": "c281b9d9eefc83b5710e64b9d646067d",
    "wof:hierarchy": [
      {
        "building_id": -1,
        "campus_id": 102527513,
        "collection_id": 1159162825,
        "concourse_id": 1159162825,
        "continent_id": 102191575,
        "country_id": 85633793,
        "county_id": 102087579,
        "custom_id": 1914579615,
        "locality_id": 85922583,
        "neighbourhood_id": -1,
        "object_id": 1914579615,
        "region_id": 85688637,
        "wing_id": 1159160869
      }
    ],
    "wof:id": 1914579615,
    "wof:lastmodified": 1787988221,
    "wof:name": "safety information card: Pan American World Airways, Boeing 747",
    "wof:parent_id": 1159162825,
    "wof:placetype": "custom",
    "wof:placetype_alt": [
      "object"
    ],
    "wof:repo": "sfomuseum-data-collection",
    "wof:superseded_by": [],
    "wof:supersedes": []
  },
  "bbox": [
    -122.38647222518921,
    37.6161053594541,
    -122.38583385944366,
    37.61661101879963
  ],
  "geometry": {"type":"Polygon","coordinates":[[[-122.38647222518921,37.61631782178288],[-122.386434674263,37.61623283692423],[-122.38637566566466,37.61617759671399],[-122.38630056381224,37.6161308549656],[-122.38616108894348,37.6161053594541],[-122.38602161407469,37.6161308549656],[-122.38591432571411,37.61618609521055],[-122.38585531711577,37.61626683087935],[-122.38583385944366,37.61636881265146],[-122.38587141036987,37.61646654505181],[-122.38594114780425,37.61654303118856],[-122.38605380058287,37.61660252035167],[-122.38618254661559,37.61661101879963],[-122.3863059282303,37.61657277577607],[-122.3864185810089,37.61650903735973],[-122.3864668607712,37.61641130501523],[-122.38647222518921,37.61631782178288]]]}
}
