{
  "id": 1511941069,
  "type": "Feature",
  "properties": {
    "date:cessation_lower": "1969-01-01",
    "date:cessation_upper": "1969-12-31",
    "date:inception_lower": "1969-01-01",
    "date:inception_upper": "1969-12-31",
    "edtf:cessation": "1969",
    "edtf:date": "1969",
    "edtf:inception": "1969",
    "geom:area": 0,
    "geom:bbox": "-122.386155,37.616357,-122.386155,37.616357",
    "geom:latitude": 37.616357,
    "geom:longitude": -122.386155,
    "iso:country": "XX",
    "millsfield:airline_id": [
      1159285015
    ],
    "millsfield:category_id": 1511214223,
    "millsfield:collection_id": 1511214207,
    "millsfield:company_id": [
      1159287151
    ],
    "millsfield:images": [
      1527835885,
      1527841923
    ],
    "millsfield:images_colors_refs": {
      "crayola": [
        {
          "hex": "#ff2b2b"
        },
        {
          "hex": "#efdecd"
        },
        {
          "hex": "#000000"
        },
        {
          "hex": "#1a4876"
        }
      ],
      "css4": [
        {
          "hex": "#191970"
        },
        {
          "hex": "#b22222"
        },
        {
          "hex": "#dcdcdc"
        },
        {
          "hex": "#ffebcd"
        },
        {
          "hex": "#ff4500"
        },
        {
          "hex": "#000000"
        }
      ],
      "marekm4": [
        {
          "hex": "#26201d"
        },
        {
          "hex": "#ebdfcd"
        },
        {
          "hex": "#f4e5cd"
        },
        {
          "hex": "#3f140d"
        },
        {
          "hex": "#0a2f97"
        },
        {
          "hex": "#ea3216"
        },
        {
          "hex": "#d7240b"
        }
      ]
    },
    "millsfield:images_texts": [
      "PHILIPPINE AIR LINES",
      "PHILIPPINE\nAIR LINES\nINTERNATIONAL\nTIMETABLE\nINTERNATIONAL SYSTEM SUMMER SCHEDULE\nU.S. WEST COAST TO PHILIPPINES AND ORIENT\n(WESTBOUND)\nPR\nPR\nFLIGHT NO.\nPR\nPR\nPR\nPR\nPR\nREAD\nPR\n501\n300\n515\n400\n202\n424\n306\n308\n404\nDOWN\nCLASS\nF-Y\nT-Y\nF-Y\nF-Y\nF-Y\nF-Y\nF-Y\nAIRCRAFT\nDC-8\nDC-8\nBAC-\nDC-8\nBAC-\nBAC-\nDC-8\nDC-8\nDC-8\nBAC-\nDC-8\nLOCAL\nMIES\nDAYS\nMO\nTU\nWE\nMO\nWE\nFR\nTH\nSA\nMO\nTH\nMO\nTH\nMO\nTH\nWE SU\nSU\nSAN FRANCISCO *\nLV\nHONOLULU R\nAR\nLV\nINTERNATIONAL\nDATE LINE\nLV\n2000\n2315\nSA SU\n0030\n....\nSYDNEY\nTokyo Express\n3908\nEFFECTIVE APRIL 1 THROUGH OCTOBER 31, 1969\nORIENT AND PHILIPPINES TO U.S. WEST COAST\n(EASTBOUND)\nFLIGHT NO.\nPR\nPR\nPR\nPR\nPR\nPR\nSPR\n309\n423\nPR\nR-AN\n301\n401\n502\n516\n100\n534\n405\nDOWN\n201\nCLASS\nF-Y\nF-Y\nF-Y\nF-Y\nF-Y\nF-Y\nF-Y\nAIRCRAFT\nDC-8\nDC-8\nBAC-\nBAC-\nHAC\nDC-8\nDC-8\nDC-8\nDC-8\nDC-8\nLOCAL\nTIMES\nTOKYO\nSINGAPORE\nSAIGON\nBALI (DENPASAR) R\nDAYS\nLV\nLV\nLV\nLV\nLV\nLV\nAR\nLV\nAR\nLV\nTH\nSA\n1400\nMO\nWE\n1120\nMO\nFR\nHOWE\nFR\nWE\nMO\nTH\nSU\n1330\n1300\n+ -\nTU\nSU\n1820\nWE\nSU\nWE\nSU\nSydney Express\nWE FR\nSU MC\nHONG KONG\nMANILA\n0600\n1445\nCEBU (MACTAN) R\nMANILA\nCEBU (MACTAN) ®\n0750\n0800\n0945\n1000\n1115\n0900\n0945\n1540\n1530\n1530\n1545\nMANILA\nMANILA\n1800\n1800\nHONG KONG\nLV\nAR\nLV\nAR\nAR\n7475\n1550\n1500\n1600\n1805\n1845\n1950\n1940\n1940\n2005\n2015\n1700\n- 2125\nTH\n1125\n1710\n1710\nSYDNEY\nMO\nAR\n0705\n1310\nINTERNATIONAL\nBALI (DENPASAR)R\n1150\nDATE LINE\nSAIGON\nHONOLULU R\nAR\n0900\n1230\nSINGAPORE\nAR\n1030\nLV\n1100\nTOKYO\nAR\n2040\nSAN FRANCISCO R\nAR\n1800\nR - Tratfic Restrictions: PR100-101: No local traffic HNL - SFO - V. V.: PR533-534: No local traffic CEB - DPS -V. V\nX- Technical stop at Wake.\nT- Technical stop at Surabai:\n* - Add one hour from April 28 to October 26. 1969 (SFO)\n4 - Add one hour from April 20 to October 19, 1969 (HKG)\nU.S.A.: CHICAGO, 18 S. Michigan Avenue, 782-1250; DALLAS, Davis Building. 1309 Main Street. 742-5292; HONOLULU, 2536 Kalakaua Avenue, 923-2066; LOS ANGELES, 515 W. 6th Street, 628-4301; NEW YORK,\n609 5th Ave., 759-3955; SAN FRANCISCO, 200 Stockton Street at Union Square. 391-0470; SEATTLE. 904 White Henry Stuart Building, 623-5745; WASHINGTON, D.C., 1001 Connecticut Avenue N.W., 737-9177.\n2009.122.523\nSTT ( US ) 4/1-10/31/69"
    ],
    "millsfield:images_texts_ids": [
      1527835885,
      1527841923
    ],
    "millsfield:primary_image": 1527841923,
    "millsfield:subcategory_id": 1511213425,
    "mz:hierarchy_label": 1,
    "mz:is_current": 1,
    "sfomuseum:accession_number": "2009.122.523",
    "sfomuseum:airline": "Philippine Airlines",
    "sfomuseum:airline_id": [
      698
    ],
    "sfomuseum:category": "Scheduling / Ticketing",
    "sfomuseum:classification_id": 158,
    "sfomuseum:collection": "Aviation Archive",
    "sfomuseum:creditline": "Gift of the William Hough Collection",
    "sfomuseum:date": "1969",
    "sfomuseum:date_acquired": "2010-06-08",
    "sfomuseum:daterange_end": "1969-12-31",
    "sfomuseum:daterange_start": "1969-01-01",
    "sfomuseum:description": "International timetable issued by Philippine Airlines, effective April 1 through October 31, 1969; single-sided red card.",
    "sfomuseum:dimensions": "8 1/2 x 4 inches (21.6 x 10.2 cm)",
    "sfomuseum:media_ids": [
      1527835885,
      1527841923
    ],
    "sfomuseum:medium": "paper, ink",
    "sfomuseum:object_id": 103526,
    "sfomuseum:placetype": "object",
    "sfomuseum:primary_media_id": 1527841923,
    "sfomuseum:publication": ": , 1969.",
    "sfomuseum:subcategory": "Timetable",
    "src:geom": "sfomuseum#undetermined",
    "wof:belongsto": [
      1511214223,
      102527513,
      102191575,
      85633793,
      1511213425,
      85922583,
      102087579,
      1511214277,
      1511214207,
      85688637
    ],
    "wof:breaches": [],
    "wof:country": "XX",
    "wof:created": 1579906666,
    "wof:depicts": [
      1159287151,
      1159285015
    ],
    "wof:geomhash": "30c8a918561c84bb2daa2b97fc7c5353",
    "wof:hierarchy": [
      {
        "arcade_id": 1511213425,
        "building_id": 1511214277,
        "campus_id": 102527513,
        "concourse_id": 1511214223,
        "continent_id": 102191575,
        "country_id": 85633793,
        "county_id": 102087579,
        "custom_id": 1511941069,
        "locality_id": 85922583,
        "neighbourhood_id": -1,
        "object_id": 1511941069,
        "region_id": 85688637,
        "venue_id": 1511941069,
        "wing_id": 1511214207
      }
    ],
    "wof:id": 1511941069,
    "wof:lastmodified": 1787988185,
    "wof:name": "timetable: Philippine Airlines",
    "wof:parent_id": 1159162825,
    "wof:placetype": "custom",
    "wof:placetype_alt": [
      "object"
    ],
    "wof:repo": "sfomuseum-data-collection",
    "wof:superseded_by": [],
    "wof:supersedes": [],
    "wof:tags": []
  },
  "bbox": [
    -122.386155,
    37.616357,
    -122.386155,
    37.616357
  ],
  "geometry": {"type":"Point","coordinates":[-122.386155,37.616357]}
}
