{
  "id": 1913871985,
  "type": "Feature",
  "properties": {
    "date:cessation_lower": "1975-01-01",
    "date:cessation_upper": "1975-12-31",
    "date:inception_lower": "1975-01-01",
    "date:inception_upper": "1975-12-31",
    "edtf:cessation": "1975~",
    "edtf:inception": "1975~",
    "geom:area": 2.475047457570636e-7,
    "geom:bbox": "-122.386472,37.616105,-122.385834,37.616611",
    "geom:latitude": 37.61635747477365,
    "geom:longitude": -122.38615540108617,
    "millsfield:airline_id": [
      1159283651
    ],
    "millsfield:category_id": 1762671311,
    "millsfield:collection_id": 1511214207,
    "millsfield:company_id": [
      1159286621
    ],
    "millsfield:images": [
      1913872235,
      1913872237
    ],
    "millsfield:images_colors_refs": {
      "crayola": [
        {
          "hex": "#2e5894"
        },
        {
          "hex": "#9c2542"
        },
        {
          "hex": "#bab86c"
        },
        {
          "hex": "#cdc5c2"
        },
        {
          "hex": "#414a4c"
        },
        {
          "hex": "#1a4876"
        }
      ],
      "css4": [
        {
          "hex": "#c0c0c0"
        },
        {
          "hex": "#b22222"
        },
        {
          "hex": "#bdb76b"
        },
        {
          "hex": "#008080"
        },
        {
          "hex": "#2f4f4f"
        }
      ],
      "marekm4": [
        {
          "hex": "#bdc06f"
        },
        {
          "hex": "#b82f1e"
        },
        {
          "hex": "#bcc471"
        },
        {
          "hex": "#d4ccb9"
        },
        {
          "hex": "#1b5d8d"
        },
        {
          "hex": "#2b4c52"
        },
        {
          "hex": "#19556d"
        },
        {
          "hex": "#b92a1d"
        },
        {
          "hex": "#d6cbb9"
        },
        {
          "hex": "#1c648d"
        }
      ]
    },
    "millsfield:images_texts": [
      "CONSIGNES DE SECURITE * SAFETY REGULATIONS\nA\nOUVERTURE D'UNE PORTE\nOPENING OF A DOOR\nOXYGENE\nOXYGEN\nTER\n000000000000000\n000\n00\n0000\n000000000000000000000\nEXIT\nPANNEAU INDIQUANT LA POSITION\nDENCOURS\nEMERGENCY EXITS POSITION.\n00°\n000000\n00\nQ000000\nPLEASE SEE OTHER SIDE\nOUVERTURE D'UNE PORTE\nOPENING OF DOOR\nAIRBUS\nVOIR AU VERSO",
      "POUR TOUS LES SURVOLS MARITIMES, VOUS TROUVEREZ SOUS VOTRE SIEGE\nUN GILET DE SAUVETAGE.\nFOUASE FLICS OVER THE SEA, YOU WILL FIND A LIFE JACKET UNDER\nUNE FOIS SORTI DE SON SAC IL S'UTILISE\nDE LA MANIERE SUIVANTE:\nPASSEZ LA TETE DANS L'ENCOLURE...\nFIXEZ LE A L'AIDE DES SANGLES .\nTIREZ LA PETITE BOULE ROUGE VERS LE BAS\nEN QUELQUES SECONDES VOTRE GILET SERA GONFLE.\nONCE IT HAS BEEN TAKEN OUT OF ITS BAG IT SHOULD\nBE USED IN THE\nFOLLOWING WAY:\nPASS YOUR HEAD THROUGH THE NECK.\nFIX IT BY MEANS OF THE STRAPS\nPULL DOWN ON THE SMALL\nRED BALL\nIN A FEW SECONDS YOUR LIFE JACKET WILL BE INFLATED\nGONFLEZ\nVOTRE\nGILET\nDE SAUVETAGE\nSEULEMENT\nAPRES AVOIR QUITTE L'AVION.\nINFLATE YOUR LIFE JACKET ONLY AS YOU\nLEAVE THE AIRPLANE.\nSORTIE SUR ORDRE\nEXIT ON ORDER\n00000000\n000000000000000\n0000000\n00000000\nSORTIE SUR ORDRE\nEXIT ON ORDER\n0000\nCEINTURE DE SECURITE.\nA SERRER LE PLUS POSSIBLE.\nSAFETY BELTS.\nTO BE FASTENED AS TIGHT\nAS POSSIBLE.\n000000000000000\n0000\n0000\n000000000\nDES TURBULENCES IMPREVUES POUVANT SE PRODUIRE.\nNOUS VOUS CONSEILLONS DE CONSERVER VOTRE CEIN\nTURE\nATTACHEE PENDANT\nTOUT LE TEMPS OU VOUS\nETES ASSIS.\nAS UNFORESEEABLE TURBULANCES MAY OCCUR, WE\nADVISE YOU TO KEEP YOUR SEAT BELTS FASTENED ALL\nTHE TIME YOU ARE SEATED.\nPRIERE DE NE PAS EMPORTER CETTE CARTE\nPLEASE DO NOT TAKE THE CARD FROM THE AIRPLANE.\nPLASTIFICATION TIP (6) 921.54.92\nIR\nINTER\nAIRBUS"
    ],
    "millsfield:images_texts_ids": [
      1913872235,
      1913872237
    ],
    "millsfield:primary_image": 1913872235,
    "millsfield:subcategory_id": 1511213703,
    "mz:is_approximate": 1,
    "mz:is_current": 1,
    "sfomuseum:accession_number": "2002.127.036",
    "sfomuseum:aircraft": "Airbus",
    "sfomuseum:airline": "Air Inter",
    "sfomuseum:airline_id": [
      81
    ],
    "sfomuseum:category": "Passenger Amenity, Archive",
    "sfomuseum:classification_id": 581,
    "sfomuseum:collection": "Aviation Archive",
    "sfomuseum:creditline": "Gift of Thomas G. Dragges",
    "sfomuseum:date": "c. 1975",
    "sfomuseum:date_acquired": "2003-12-22",
    "sfomuseum:daterange_end": "1980-12-31",
    "sfomuseum:daterange_start": "1970-01-01",
    "sfomuseum:description": "Safety information card issued by Air Inter for the Airbus fleet;  white and green double-sided card with illustrations depicting inflight safety and emergency procedures; identification code: DE BE 200b; no revision date.",
    "sfomuseum:dimensions": "12 x 8 1/4 inches (30.5 x 21 cm)",
    "sfomuseum:medium": "plastic, cloth ?",
    "sfomuseum:object_id": 68308,
    "sfomuseum:placetype": "object",
    "sfomuseum:publication": ": , c. 1975.",
    "sfomuseum:subcategory": "Safety Information Card",
    "src:geom": "sfomuseum#undetermined",
    "wof:belongsto": [
      102527513,
      1159162825,
      102191575,
      85633793,
      102087579,
      85922583,
      85688637,
      1159160869
    ],
    "wof:country": "XY",
    "wof:created": 1715153570,
    "wof:depicts": [
      1159283651,
      1159286621
    ],
    "wof:geomhash": "c281b9d9eefc83b5710e64b9d646067d",
    "wof:hierarchy": [
      {
        "building_id": -1,
        "campus_id": 102527513,
        "collection_id": 1159162825,
        "concourse_id": 1159162825,
        "continent_id": 102191575,
        "country_id": 85633793,
        "county_id": 102087579,
        "custom_id": 1913871985,
        "locality_id": 85922583,
        "neighbourhood_id": -1,
        "object_id": 1913871985,
        "region_id": 85688637,
        "wing_id": 1159160869
      }
    ],
    "wof:id": 1913871985,
    "wof:lastmodified": 1787988220,
    "wof:name": "safety information card: Air Inter, Airbus",
    "wof:parent_id": 1159162825,
    "wof:placetype": "custom",
    "wof:placetype_alt": [
      "object"
    ],
    "wof:repo": "sfomuseum-data-collection",
    "wof:superseded_by": [],
    "wof:supersedes": []
  },
  "bbox": [
    -122.38647222518921,
    37.6161053594541,
    -122.38583385944366,
    37.61661101879963
  ],
  "geometry": {"type":"Polygon","coordinates":[[[-122.38647222518921,37.61631782178288],[-122.386434674263,37.61623283692423],[-122.38637566566466,37.61617759671399],[-122.38630056381224,37.6161308549656],[-122.38616108894348,37.6161053594541],[-122.38602161407469,37.6161308549656],[-122.38591432571411,37.61618609521055],[-122.38585531711577,37.61626683087935],[-122.38583385944366,37.61636881265146],[-122.38587141036987,37.61646654505181],[-122.38594114780425,37.61654303118856],[-122.38605380058287,37.61660252035167],[-122.38618254661559,37.61661101879963],[-122.3863059282303,37.61657277577607],[-122.3864185810089,37.61650903735973],[-122.3864668607712,37.61641130501523],[-122.38647222518921,37.61631782178288]]]}
}
