{
  "id": 1913795319,
  "type": "Feature",
  "properties": {
    "date:cessation_lower": "1947-07-25",
    "date:cessation_upper": "1947-07-25",
    "date:inception_lower": "1947-07-25",
    "date:inception_upper": "1947-07-25",
    "edtf:cessation": "1947-07-25",
    "edtf:inception": "1947-07-25",
    "geom:area": 2.475047457570636e-7,
    "geom:bbox": "-122.386472,37.616105,-122.385834,37.616611",
    "geom:latitude": 37.61635747477365,
    "geom:longitude": -122.38615540108617,
    "millsfield:airline_id": [
      1159284991
    ],
    "millsfield:category_id": 1511214251,
    "millsfield:collection_id": 1511214207,
    "millsfield:company_id": [
      1159286839
    ],
    "millsfield:images": [
      1913799365,
      1913799367
    ],
    "millsfield:images_colors_refs": {
      "crayola": [
        {
          "hex": "#95918c"
        },
        {
          "hex": "#eceabe"
        },
        {
          "hex": "#efcdb8"
        },
        {
          "hex": "#9f8170"
        },
        {
          "hex": "#414a4c"
        }
      ],
      "css4": [
        {
          "hex": "#808080"
        },
        {
          "hex": "#f5deb3"
        },
        {
          "hex": "#2f4f4f"
        }
      ],
      "marekm4": [
        {
          "hex": "#3f5b4f"
        },
        {
          "hex": "#ebdeb5"
        },
        {
          "hex": "#e5d5b0"
        },
        {
          "hex": "#969775"
        },
        {
          "hex": "#9b9974"
        },
        {
          "hex": "#3a5246"
        }
      ]
    },
    "millsfield:images_texts": [
      "Telegraphic Address \"Impho Tokyo\"\nFriday.\n7/25\n194\nImperial Hotel\n-Tokyo\nBearat Debs\nThe Army has an\nExpression chee you\nAre on\nrecruiting. sens around her\n\"you aint never\nLad it so\ngood\" wee that's the catk\nwith me. I I ear an ai\nconditioned room with bath-\nWhich costa 504 Our day.\nmeals air good and coat\n254 Each - also drinks.\n9 hair PX privalidge.\nso cigar ters cost 50t pu\ncarton and air mail 5¢.\nI hair a Packard staff\nCar asaigned to many Exclucur",
      "2sr petite\n\"orloT orlami\" zzarbb4 sirigangelaT\nletoH leineqml\noyloT\nall twist\n→ era ng sita ima\nis no nose em ties\ntos ans trog sno doss\n1003 425\nNoosing xT\nuse with a G.l. driva.\nYur worked last night\nbut tonigit plan to take\nin a movie on the roof.\nSo now noon and\ngraze Atchisen is coming\nto pick me up fo\nlunch.\nMrs A. has mot\ntra coul and is staying\nup at time mountain\nresort.\nIts 95 in the\nshade.\nMy White suit\nturned ont to be an\nOld one\nand the pants\nhar a big rip in front\nso han to wrar kear\nsuits and drip\nMust run now- merc\nlatur -"
    ],
    "millsfield:images_texts_ids": [
      1913799365,
      1913799367
    ],
    "millsfield:primary_image": 1913799365,
    "millsfield:subcategory_id": 1511213489,
    "mz:is_approximate": 1,
    "mz:is_current": 1,
    "sfomuseum:accession_number": "2019.121.1109",
    "sfomuseum:airline": "Pan American Airways",
    "sfomuseum:airline_id": [
      685
    ],
    "sfomuseum:category": "Employee Career History",
    "sfomuseum:classification_id": 195,
    "sfomuseum:collection": "Aviation Archive",
    "sfomuseum:creditline": "Collection of SFO Museum",
    "sfomuseum:date": "07/25/1947",
    "sfomuseum:date_acquired": "2019-11-22",
    "sfomuseum:daterange_end": "1947-07-25",
    "sfomuseum:daterange_start": "1947-07-25",
    "sfomuseum:description": "Handwritten letter from Harold M. Bixby to his wife, Debby Bixby, dated July 25, [1947], on stationery from the Imperial Hotel in Tokyo; includes description of his living situation.",
    "sfomuseum:dimensions": "8 x 4 3/4 inches (20.3 x 12.1 cm)",
    "sfomuseum:medium": "paper, ink",
    "sfomuseum:object_id": 211472,
    "sfomuseum:placetype": "object",
    "sfomuseum:publication": ": , 07/25/1947.",
    "sfomuseum:subcategory": "Correspondence, Personal",
    "src:geom": "sfomuseum#undetermined",
    "wof:belongsto": [
      102527513,
      1159162825,
      102191575,
      85633793,
      102087579,
      85922583,
      85688637,
      1159160869
    ],
    "wof:country": "XY",
    "wof:created": 1714548758,
    "wof:depicts": [
      1159284991,
      1159286839
    ],
    "wof:geomhash": "c281b9d9eefc83b5710e64b9d646067d",
    "wof:hierarchy": [
      {
        "building_id": -1,
        "campus_id": 102527513,
        "collection_id": 1159162825,
        "concourse_id": 1159162825,
        "continent_id": 102191575,
        "country_id": 85633793,
        "county_id": 102087579,
        "custom_id": 1913795319,
        "locality_id": 85922583,
        "neighbourhood_id": -1,
        "object_id": 1913795319,
        "region_id": 85688637,
        "wing_id": 1159160869
      }
    ],
    "wof:id": 1913795319,
    "wof:lastmodified": 1787988219,
    "wof:name": "correspondence: Harold M. Bixby to Debby Bixby",
    "wof:parent_id": 1159162825,
    "wof:placetype": "custom",
    "wof:placetype_alt": [
      "object"
    ],
    "wof:repo": "sfomuseum-data-collection",
    "wof:superseded_by": [],
    "wof:supersedes": []
  },
  "bbox": [
    -122.38647222518921,
    37.6161053594541,
    -122.38583385944366,
    37.61661101879963
  ],
  "geometry": {"type":"Polygon","coordinates":[[[-122.38647222518921,37.61631782178288],[-122.386434674263,37.61623283692423],[-122.38637566566466,37.61617759671399],[-122.38630056381224,37.6161308549656],[-122.38616108894348,37.6161053594541],[-122.38602161407469,37.6161308549656],[-122.38591432571411,37.61618609521055],[-122.38585531711577,37.61626683087935],[-122.38583385944366,37.61636881265146],[-122.38587141036987,37.61646654505181],[-122.38594114780425,37.61654303118856],[-122.38605380058287,37.61660252035167],[-122.38618254661559,37.61661101879963],[-122.3863059282303,37.61657277577607],[-122.3864185810089,37.61650903735973],[-122.3864668607712,37.61641130501523],[-122.38647222518921,37.61631782178288]]]}
}
