{
  "id": 1511937939,
  "type": "Feature",
  "properties": {
    "date:cessation_lower": "1954-01-01",
    "date:cessation_upper": "1954-12-31",
    "date:inception_lower": "1954-01-01",
    "date:inception_upper": "1954-12-31",
    "edtf:cessation": "1954",
    "edtf:date": "1954",
    "edtf:inception": "1954",
    "geom:area": 0,
    "geom:bbox": "-122.386155,37.616357,-122.386155,37.616357",
    "geom:latitude": 37.616357,
    "geom:longitude": -122.386155,
    "iso:country": "XX",
    "millsfield:airline_id": [
      1159284613
    ],
    "millsfield:category_id": 1511214223,
    "millsfield:collection_id": 1511214207,
    "millsfield:company_id": [
      1159287541
    ],
    "millsfield:exhibition_ids": [
      1159160343
    ],
    "millsfield:images": [
      1527821113,
      1527848387
    ],
    "millsfield:images_colors_refs": {
      "crayola": [
        {
          "hex": "#414a4c"
        },
        {
          "hex": "#6699cc"
        },
        {
          "hex": "#dbd7d2"
        }
      ],
      "css4": [
        {
          "hex": "#dcdcdc"
        },
        {
          "hex": "#4682b4"
        },
        {
          "hex": "#2f4f4f"
        }
      ],
      "marekm4": [
        {
          "hex": "#2c291f"
        },
        {
          "hex": "#dedbce"
        },
        {
          "hex": "#e4e2d9"
        },
        {
          "hex": "#5b98c9"
        },
        {
          "hex": "#5591c5"
        },
        {
          "hex": "#353435"
        }
      ]
    },
    "millsfield:images_texts": [
      "KLM\nROYAL DUTCH\nAIRLINES\nCONDENSED\nWINTER SERVICES\nEFFECTIVE OCTOBER 31, 1954",
      "KLM\nKOYAL DUTCH\nAIRLINES\nU. S. Dollars\nBetween\nNEW\nYORK\nAnd\nerda mi\nTHROUGH FARES TO EUROPE, ASIA, AFRICA AND AUSTRALIA\nFIRST CLASS\nTOURIST CLASS\nU. S. Dollars\nFIRST CLASS\nTOURIST CLASS\nTHRIFT\nAll\nTHRIFT\nBetween\nOn\nTHRIFT\nSeason\nYear\nNEW\nYORK\nSeason\nRound\nOne\nAnd\nRound\ntrip\nway\nway\ntrip\ntrip\n$676.\n00\n60\n$310\n00\n$558\n00\n$461\n00\n00\n435\n40\n783\n80\n686\n80\n00\n551\n$1\n00\n00\n00\n00\n960\n50\n850\n604\n00\n50\n00\n50\n50\n80\nublin\ndort\nKong\nbruck\no hannesburg\n00\n40\n40\n00\n00\n50\n60\n60\n80\n60\n00\n00\n603\n697\n00\n50\n708\n60\n08\n605\n60\n80\n60\n1915\n143\n20\n995\n20\n1764\n1378\n00\n00\n269\n40\n90\n858\n60\n796\n20\n625.\n80\n. 00\n485\n00\n574\n690\n10\n590\n491\n60\n590\n40\n690\n60\n1545\n60\n607\n20\n823\n70\n00\n1434\n1125\n30\n00\n388\n88\n477\n10\n493\n193\n394\n493\n40\n1448\n60\n20\n510\n70\n1028\n30\n00\nRome\nalzburg\nStu\noim\nney\nTeheran\nTel\nAviv\nTokyo.\nVienna\nZurich\n80\n10\n88\nON\n20\n00\n60\n10\n60\n20\n103\n80\n•= London via Glasgow or Shannon.\n= London via Amsterdam.\n•= Madrid via Paris thence AF.\n491\n352\n328\n638\n493\n•= Madrid via KLM\nStopover plan.\nU. S. Dollars\nBoston, Mass.\nChica\nCI\nd, Ohio\nConn.\nCall\no.W\n0\n800\n89\n25\n164\nđ008\nFARES FROM OTHER U.S. CITIES TO THE ABOVE DESTINATIONS\nAdd to the corresponding New York Fares the following amounts\nFIRST CLASS\nR.T.\n72\n80\n44\n169\n40\n47\n291\n00\nTOURIST CLASS\nR.T.\n800\n69\n50\n80\n294|\n60\noW.\nR.T.\nR.T.\n8088880\n66\n00\n66\n80\n40\n126\n00\n00\n198\n88\n80\n198\n00\nU.S.\nDollars\nMinneapolis,\nMinn..\nPhiladelphia,\nPa.\nPortland,\nSan\nOre.\nFrancisco,\nCalir.\nSeattle,\nSt.\nW\nLouis,\nMo\nWashington,\nD. C\no.W.\n57.50\n154\n.90\n154\n154\n62\nFIRST\nCLASS\nR.T\n106\n213\n291\n291\n27\nR.T.\n109\n13\n80\n10\n292\n292\n50\n50\n292\n102\n50\n27\n30\n40\no.W.\n10\n11\n50\n00\n99\n11\n00\n11\n10\nTOURIST CLASS\nR.T.\n.20\n00\n23\n. 00\n198\n, 00\n236\n. 00\n82\n00\n22\n20\nR.T.\n88\n10\n20\n236\n00\n198\n00\n00\nKLM OFFICES IN THE U.S. A.\nNew York, N. Y.\nBeverly Hills, Calif... C Restview 4-6233...9478 Wilshire Bivd.\nBoston, Mass.....\nLiberty 2-6495\nChicago, Ill.\nThe\nLittle Bldg., 80 Boylaton St.\nFinancial 6-3635....\nCleveland, Ohio.\nMAin\nE.\nMonroe St.\n1-9840\nEuclid Bidg., 1010 Euclid Ave.\nDallas, Texas....\nRAndolph 8197\n...209 Browder St.,\nRoom 203\nDetroit, Mich...\nWOodward 1-4344...\nBook Bidg., 1249 Washington Blvd.\nLos Angeles, Calif.\nMAdison 9-3571.\nPacific Mutual Bidg., 523 W. 6th St.\nMiaml, Fla.....\n642-679.\nColumbus Hotel, 308 N. E. First St.\nNew Orleans, La..\n. CAnal 0472.\n..338 International Trade Mart\nJUdson 2-4000\nK. L. M. Bldg., 572 Fifth Ave.\nCOrtland 7-0605\nJUdson\n2-4000\nEquitable inal, 1st Ave. -37th\nOLympia 6-5700\nIdlewild Intl.\nTed mit A port\nPhiladelphia, Pa.\nPEnnypacker 5-8100.1518\nWalnut St.,\nRoom 605\nSt.\nLouis,\nSalt\nSan\nLake\nMo.\nCity\nMAin\n-7191\nChemical\nBidg.,\n121 Olive St.\nUtah 220579\n12 E.\nS.\nTemple St.\nFrancisco,\nCalif.\nYUkon 6-2611\n427 Post Street\nWash\nMUtual 3688\nWashington,\nD. C.... EXecutive 3-3385....1001\nWhite-Henry-Stuart Bidg. Rm.917\nConnecticut Ave.,\nTHRIFT SEASON MONTHS\n1954\n1955\nNOVEMBER\nSu Mo Tu We Th Fr Sa\n1\n2\n3 4\n5\n6\n7\n8\n9\n10 11\n12\n13\n14\n15\n16\n17 18\n19\n20\n21 22 23 24 25 26 27\n28 29 30\nDECEMBER\nSu Mo Tu We Th Fr Sa\n2 3 4\n5\n6\n7\n8\n10 11\n12 13\n14 15\n16\n17\n18\n19 20 21\n22 23 24 25\n26 27 28 29 30 31\nJANUARY\nSu Mo Tu We Th Fr Sa\n2\n3\n6\n8\n9\n10\n11\n12\n13\n14 15\n16 17\n18\n19 20\n21\n22\n23 24 25\n26 27\n28 29\nFEBRUARY\nSu Mo Tu We Th Fr Sa\n2\n3\n4\n5\n6\n7\n8\n9 10 11\n12\n13\n14 15 16 17 18\n19\n20 21 22 23 24\n25 26\n27\n28\n30 31\nTRAVEL DURING THE THRIFT SEASON MEANS\nRelaxed Uncrowded Comfort PLUS Thrift Season Savings\nMARCH\nSu Mo\nTu We Th Fr Sa\n3\n4\n5\n6\n7\n8\n9 10\n11\n12\n13\n14 15 16 17 18 19\n20 21\n22 23 24\n25 26\n27\n28\n29 30 31"
    ],
    "millsfield:images_texts_ids": [
      1527821113,
      1527848387
    ],
    "millsfield:on_view": 0,
    "millsfield:primary_image": 1527821113,
    "millsfield:subcategory_id": 1511213425,
    "mz:hierarchy_label": 1,
    "mz:is_current": 1,
    "sfomuseum:accession_number": "2005.132.078.001",
    "sfomuseum:airline": "KLM (Royal Dutch Airlines)",
    "sfomuseum:airline_id": [
      515
    ],
    "sfomuseum:category": "Scheduling / Ticketing",
    "sfomuseum:classification_id": 158,
    "sfomuseum:collection": "Aviation Archive",
    "sfomuseum:creditline": "Gift of the William Hough Collection",
    "sfomuseum:date": "1954",
    "sfomuseum:date_acquired": "2006-12-05",
    "sfomuseum:daterange_end": "1954-12-31",
    "sfomuseum:daterange_start": "1954-01-01",
    "sfomuseum:description": "Timetable issued by KLM (Royal Dutch Airlines), effective 1954 for winter service; three page fold-out; blue and white cover with illustration of smiling sun.",
    "sfomuseum:dimensions": "9 x 4 inches (22.9 x 10.2 cm)",
    "sfomuseum:exhibition_ids": [
      1205
    ],
    "sfomuseum:media_ids": [
      1527848387,
      1527821113
    ],
    "sfomuseum:medium": "paper, ink",
    "sfomuseum:object_id": 98508,
    "sfomuseum:placetype": "object",
    "sfomuseum:primary_media_id": 1527821113,
    "sfomuseum:publication": ": , 1954.",
    "sfomuseum:subcategory": "Timetable",
    "src:geom": "sfomuseum#undetermined",
    "wof:belongsto": [
      1511214223,
      102527513,
      102191575,
      85633793,
      1511213425,
      85922583,
      102087579,
      1511214277,
      1511214207,
      85688637
    ],
    "wof:breaches": [],
    "wof:country": "XX",
    "wof:created": 1579906673,
    "wof:depicts": [
      1159284613,
      1159287541
    ],
    "wof:geomhash": "30c8a918561c84bb2daa2b97fc7c5353",
    "wof:hierarchy": [
      {
        "arcade_id": 1511213425,
        "building_id": 1511214277,
        "campus_id": 102527513,
        "concourse_id": 1511214223,
        "continent_id": 102191575,
        "country_id": 85633793,
        "county_id": 102087579,
        "custom_id": 1511937939,
        "locality_id": 85922583,
        "neighbourhood_id": -1,
        "object_id": 1511937939,
        "region_id": 85688637,
        "venue_id": 1511937939,
        "wing_id": 1511214207
      }
    ],
    "wof:id": 1511937939,
    "wof:lastmodified": 1787988183,
    "wof:name": "timetable: KLM (Royal Dutch Airlines), winter schedules",
    "wof:parent_id": 1159162825,
    "wof:placetype": "custom",
    "wof:placetype_alt": [
      "object"
    ],
    "wof:repo": "sfomuseum-data-collection",
    "wof:superseded_by": [],
    "wof:supersedes": [],
    "wof:tags": []
  },
  "bbox": [
    -122.386155,
    37.616357,
    -122.386155,
    37.616357
  ],
  "geometry": {"type":"Point","coordinates":[-122.386155,37.616357]}
}
