{
  "id": 1914555831,
  "type": "Feature",
  "properties": {
    "date:cessation_lower": "1993-01-01",
    "date:cessation_upper": "1993-12-31",
    "date:inception_lower": "1993-01-01",
    "date:inception_upper": "1993-12-31",
    "edtf:cessation": "1993",
    "edtf:inception": "1993",
    "geom:area": 2.475047457570636e-7,
    "geom:bbox": "-122.386472,37.616105,-122.385834,37.616611",
    "geom:latitude": 37.61635747477365,
    "geom:longitude": -122.38615540108617,
    "millsfield:aircraft_id": [
      1159289851
    ],
    "millsfield:airline_id": [
      1159284823
    ],
    "millsfield:category_id": 1762671311,
    "millsfield:collection_id": 1511214207,
    "millsfield:company_id": [
      1159293593,
      1159289819
    ],
    "millsfield:images": [
      1914556241,
      1914556243,
      1914556245
    ],
    "millsfield:images_colors_refs": {
      "crayola": [
        {
          "hex": "#bf4f51"
        },
        {
          "hex": "#9c2542"
        },
        {
          "hex": "#6699cc"
        },
        {
          "hex": "#c8385a"
        },
        {
          "hex": "#414a4c"
        },
        {
          "hex": "#1974d2"
        },
        {
          "hex": "#ffcf48"
        },
        {
          "hex": "#efdecd"
        },
        {
          "hex": "#dbd7d2"
        }
      ],
      "css4": [
        {
          "hex": "#f5f5dc"
        },
        {
          "hex": "#daa520"
        },
        {
          "hex": "#cd5c5c"
        },
        {
          "hex": "#dcdcdc"
        },
        {
          "hex": "#4169e1"
        },
        {
          "hex": "#6495ed"
        },
        {
          "hex": "#a52a2a"
        },
        {
          "hex": "#2f4f4f"
        }
      ],
      "marekm4": [
        {
          "hex": "#b94048"
        },
        {
          "hex": "#363135"
        },
        {
          "hex": "#1f72c9"
        },
        {
          "hex": "#ad3751"
        },
        {
          "hex": "#37323a"
        },
        {
          "hex": "#e3e2d9"
        },
        {
          "hex": "#e1dbd5"
        },
        {
          "hex": "#dcc744"
        },
        {
          "hex": "#669dd2"
        },
        {
          "hex": "#2d2e28"
        },
        {
          "hex": "#b52c37"
        },
        {
          "hex": "#ebe8e0"
        }
      ]
    },
    "millsfield:images_texts": [
      "MORRIS AIR\nBOEING\n737-300\nFOR YOUR SAFETY\nIf you are sitting in an exit row please identify yourself to a crew member to allow for reseating if: You lack the\nability to read, speak, or understand English, or the graphic form, or the ability to understand oral crew commands.\nPARA SU SEGURIDAD\nPor favor identifíquese con un tripulante para ser cambiado de asiento si usted está sentado en una de las hilera\nde la salida, y si tiene problemas para: leer, hablar, y entender ingles, instrucciones graticas o la dificultad para\nentender ordenes verbales de la tripulación.\nEXIT ROW SEATING\nThe Federal Aviation Administration (FAA) regulations (14 CFR, Part 121 and 135) outline specific policies\nand procedures U.S. air carriers must follow concerning exit row seating in aircraft.\nThe following content of the rules is being provided for your information and guidance.\nSELECTION CRITERIA\nNo air carrier may seat a person in an exit row seat if it is likely that the person would be unable to perform\none or more of the applicable functions listed below because:\n1. The person lacks sufficient mobility, strength, or dexterity in both arms and hands, and both legs to:\nA. Reach upward, sideways, and downward to the location of emergency exit and exit slide operating mechanisms;\nB. Grasp and push, pull, turn, or otherwise manipulate those mechanisms;\nC. Push, shove, pull, or otherwise open emergency exits;\nD. Lift out, hold, deposit on nearby seats, or maneuver over the seatbacks to the next row objects the size and weight of\nover-wing window exit doors;\nE. Remove obstructions similar in size and weight to over-wing exit doors;\nF. Reach the emergency exit expeditiously;\nG. Maintain balance while removing obstructions;\nH. Exit expeditiously;\nI. Stabilize an escape slide after deployment, or;\nJ. Assist others in getting off an escape slide:\n2. The person is less than 15 years of age or lacks the capacity to perform one or more of the applicable functions without the\nassistance of an adult companion, parent, or other relative;\n3. The person lacks the ability to read and understand instructions related to emergency evacuation provided by the air carrier in printed,\nhandwritten, or graphic form or the ability to understand oral crew commands in the English language.\n4. The person lacks sufficient visual capacity to perform one or more of the applicable functions shown on this card without the\nassistance of visual aids beyond contact lenses or eyeglasses;\n5. The person lacks sufficient aural capacity to hear and understand instructions shouted by crew members without assistance beyond a\nhearing aid;\n6. The person lacks the ability adequately to impart information orally to other passengers;\n7. The person has: (a) a condition or responsibilities, such as caring for small children, that might prevent the person from one or more of\nthe applicable functions; or (b) a condition that might cause the person harm if he or she performs one or more of the applicable functions.\nFUNCTIONS TO BE PERFORMED\nIn the event of an emergency in which a crew member is not available to assist in an evacuation of the aircraft,\na passenger occupying an exit row seat may be asked to perform the following functions:\n1. Locate the emergency exit;\n2. Recognize the emergency exit opening mechanism;\n3. Comprehend the instructions for operating the emergency exit;\n4. Operate the emergency exit;\n5. Assess whether opening the emergency exit will increase the hazards to which passengers may be exposed;\n6. Follow oral directions and hand signals given by a crew member;\n7. Stow or secure the emergency exit door so that it will not impede use of the exit;\n8. Assess the condition of an escape slide, activate the slide, and stabilize the slide after deployment to assist others in getting off the slide;\n9. Pass expeditiously through the emergency exit; and\n10. Assess, select, and follow a safe path away from the emergency exit.\nAny passenger assigned a seat in an exit row may request reseating if he or she:\n1. Cannot meet the selection criteria above;\n2. Have a nondiscernible condition that will prevent him or her from performing the applicable functions;\n3. May suffer bodily harm as a result of performing one or more of the applicable functions;\n4. Does not wish to perform the functions;\n5. Lacks the ability to read and understand emergency evacuation instructions provided in printed, handwritten, or graphic form,\nor the ability to understand oral crew commands in the English language.\nIf you would like to change your seat for a non-exit seat, please identify yourself to a crew member or agent.\nYour reason for reseating need not be disclosed.\nFederal regulations require all passengers, regardless of where they are sitting or their physical condition,\nto review this important information, for their safety.\nFollow these instructions, placarded signs, and oral directions and hand signals given by crew members.\nWhen finished reviewing this card please return it to the seat pocket for our next customer.",
      "Take-off and Landing\nAl salir y aterrizar\nNo Smoking\nNo fumar\nOxygen\nOxigeno\n2\nBefore opening an exit, quickly look\nthrough a window and check outside\nfor the following:\nSmoke\nEmergency Exits\nSalidas de emergencia\nB\nJA\nIf smoke is so thick you cannot see\nout, direct passengers to other exits.\nFire\nOr\nB\nIf there is fire outside the aircraft,\ndirect passengers to other exits.\nDebris/\nObstructions\nIf there is metal debris or obstructions,\ndirect passengers to other exits.\nExit\nSalida\nExit\nSalida\n3\nCheck that the slide has properly\ninflated and is in good condition.\nIf necessary, use handles to\nstabilize slide.",
      "Flotation cushion\nAsiento flotante\n2\nOr\n1\nCopyright © Aero Safety Graphics Inc., 1993. All Rights Reserved. Olympia, WA. USA (206) 357-9736\nPart No. 024\n2002.127.393"
    ],
    "millsfield:images_texts_ids": [
      1914556241,
      1914556243,
      1914556245
    ],
    "millsfield:primary_image": 1914556241,
    "millsfield:subcategory_id": 1511213703,
    "mz:is_approximate": 1,
    "mz:is_current": 1,
    "sfomuseum:accession_number": "2002.127.393",
    "sfomuseum:aircraft": "Boeing 737-300",
    "sfomuseum:aircraft_id": [
      221
    ],
    "sfomuseum:airline": "Morris Air",
    "sfomuseum:airline_id": [
      610
    ],
    "sfomuseum:category": "Passenger Amenity, Archive",
    "sfomuseum:classification_id": 581,
    "sfomuseum:collection": "Aviation Archive",
    "sfomuseum:creditline": "Gift of Thomas G. Dragges",
    "sfomuseum:date": "1993",
    "sfomuseum:date_acquired": "2003-12-22",
    "sfomuseum:daterange_end": "1993-12-31",
    "sfomuseum:daterange_start": "1993-01-01",
    "sfomuseum:description": "Safety information card issued by Morris Air for the Boeing 737-300 fleet; white double-sided tri-fold card with illustrations depicting inflight safety and emergency procedures; identification code: 024; revision date: 1993.",
    "sfomuseum:dimensions": "9 1/2 x 5 1/2 inches (24.1 x 14 cm)",
    "sfomuseum:maker": "Aero Safety Graphics Inc.",
    "sfomuseum:medium": "paper, ink",
    "sfomuseum:object_id": 69079,
    "sfomuseum:placetype": "object",
    "sfomuseum:publication": ": , 1993.",
    "sfomuseum:subcategory": "Safety Information Card",
    "src:geom": "sfomuseum#undetermined",
    "wof:belongsto": [
      102527513,
      1159162825,
      102191575,
      85633793,
      102087579,
      85922583,
      85688637,
      1159160869
    ],
    "wof:country": "XY",
    "wof:created": 1720459826,
    "wof:depicts": [
      1159293593,
      1159289819,
      1159284823,
      1159289851
    ],
    "wof:geomhash": "c281b9d9eefc83b5710e64b9d646067d",
    "wof:hierarchy": [
      {
        "building_id": -1,
        "campus_id": 102527513,
        "collection_id": 1159162825,
        "concourse_id": 1159162825,
        "continent_id": 102191575,
        "country_id": 85633793,
        "county_id": 102087579,
        "custom_id": 1914555831,
        "locality_id": 85922583,
        "neighbourhood_id": -1,
        "object_id": 1914555831,
        "region_id": 85688637,
        "wing_id": 1159160869
      }
    ],
    "wof:id": 1914555831,
    "wof:lastmodified": 1787988221,
    "wof:name": "safety information card: Morris Air, Boeing 737-300",
    "wof:parent_id": 1159162825,
    "wof:placetype": "custom",
    "wof:placetype_alt": [
      "object"
    ],
    "wof:repo": "sfomuseum-data-collection",
    "wof:superseded_by": [],
    "wof:supersedes": []
  },
  "bbox": [
    -122.38647222518921,
    37.6161053594541,
    -122.38583385944366,
    37.61661101879963
  ],
  "geometry": {"type":"Polygon","coordinates":[[[-122.38647222518921,37.61631782178288],[-122.386434674263,37.61623283692423],[-122.38637566566466,37.61617759671399],[-122.38630056381224,37.6161308549656],[-122.38616108894348,37.6161053594541],[-122.38602161407469,37.6161308549656],[-122.38591432571411,37.61618609521055],[-122.38585531711577,37.61626683087935],[-122.38583385944366,37.61636881265146],[-122.38587141036987,37.61646654505181],[-122.38594114780425,37.61654303118856],[-122.38605380058287,37.61660252035167],[-122.38618254661559,37.61661101879963],[-122.3863059282303,37.61657277577607],[-122.3864185810089,37.61650903735973],[-122.3864668607712,37.61641130501523],[-122.38647222518921,37.61631782178288]]]}
}
