{
  "id": 2015343683,
  "type": "Feature",
  "properties": {
    "date:cessation_lower": "1977-01-01",
    "date:cessation_upper": "1977-12-31",
    "date:inception_lower": "1977-01-01",
    "date:inception_upper": "1977-12-31",
    "edtf:cessation": "1977",
    "edtf:inception": "1977",
    "geom:area": 2.475047457570636e-7,
    "geom:bbox": "-122.386472,37.616105,-122.385834,37.616611",
    "geom:latitude": 37.61635747477365,
    "geom:longitude": -122.38615540108617,
    "millsfield:airline_id": [
      1159286455
    ],
    "millsfield:category_id": 1762671311,
    "millsfield:collection_id": 1511214207,
    "millsfield:company_id": [
      1159286951
    ],
    "millsfield:images": [
      2015344335
    ],
    "millsfield:images_texts": [
      "SEPT /th 77\n727-200\nThis litter bag is for your convenience. You may\ntake it with you if you desire. It can also be used\nfor airsickness should the occasion arise.\nVAME\nVOMBRE\nSTREET.\nSANTE\nBRANIFF\ncoming through with Flying Colors\nBRANIFF INTERNATIONAL\nUNITED STATES MEXICO SOUTH AMERICA"
    ],
    "millsfield:images_texts_ids": [
      2015344335
    ],
    "millsfield:primary_image": 2015344335,
    "millsfield:subcategory_id": 1511213185,
    "mz:is_approximate": 1,
    "mz:is_current": 1,
    "sfomuseum:accession_number": "2022.121.004",
    "sfomuseum:airline": "Braniff International",
    "sfomuseum:airline_id": [
      1378
    ],
    "sfomuseum:category": "Passenger Amenity, Archive",
    "sfomuseum:classification_id": 22,
    "sfomuseum:collection": "Aviation Archive",
    "sfomuseum:creditline": "Gift of Allan Yip",
    "sfomuseum:date": "1977",
    "sfomuseum:date_acquired": "2023-01-27",
    "sfomuseum:daterange_end": "1977-12-31",
    "sfomuseum:daterange_start": "1977-01-01",
    "sfomuseum:description": "Airsickness bag issued by Braniff International; white and pink with gin rummy score card on reverse; pink identification sticker on front; gusset wedge, wire closure.",
    "sfomuseum:dimensions": "9 1/4 x 6 inches (23.5 x 15.2 cm)",
    "sfomuseum:medium": "paper, ink",
    "sfomuseum:object_id": 232818,
    "sfomuseum:placetype": "object",
    "sfomuseum:publication": ": , 1977.",
    "sfomuseum:subcategory": "Airsickness Bag",
    "src:geom": "sfomuseum#undetermined",
    "wof:belongsto": [
      102527513,
      1159162825,
      102191575,
      85633793,
      102087579,
      85922583,
      85688637,
      1159160869
    ],
    "wof:country": "XY",
    "wof:created": 1776843242,
    "wof:depicts": [
      1159286455,
      1159286951
    ],
    "wof:geomhash": "c281b9d9eefc83b5710e64b9d646067d",
    "wof:hierarchy": [
      {
        "building_id": -1,
        "campus_id": 102527513,
        "collection_id": 1159162825,
        "concourse_id": 1159162825,
        "continent_id": 102191575,
        "country_id": 85633793,
        "county_id": 102087579,
        "custom_id": 2015343683,
        "locality_id": 85922583,
        "neighbourhood_id": -1,
        "object_id": 2015343683,
        "region_id": 85688637,
        "wing_id": 1159160869
      }
    ],
    "wof:id": 2015343683,
    "wof:lastmodified": 1776934517,
    "wof:name": "airsickness bag: Braniff International",
    "wof:parent_id": 1159162825,
    "wof:placetype": "custom",
    "wof:placetype_alt": [
      "object"
    ],
    "wof:repo": "sfomuseum-data-collection",
    "wof:superseded_by": [],
    "wof:supersedes": []
  },
  "bbox": [
    -122.38647222518921,
    37.6161053594541,
    -122.38583385944366,
    37.61661101879963
  ],
  "geometry": {"type":"Polygon","coordinates":[[[-122.38647222518921,37.61631782178288],[-122.386434674263,37.61623283692423],[-122.38637566566466,37.61617759671399],[-122.38630056381224,37.6161308549656],[-122.38616108894348,37.6161053594541],[-122.38602161407469,37.6161308549656],[-122.38591432571411,37.61618609521055],[-122.38585531711577,37.61626683087935],[-122.38583385944366,37.61636881265146],[-122.38587141036987,37.61646654505181],[-122.38594114780425,37.61654303118856],[-122.38605380058287,37.61660252035167],[-122.38618254661559,37.61661101879963],[-122.3863059282303,37.61657277577607],[-122.3864185810089,37.61650903735973],[-122.3864668607712,37.61641130501523],[-122.38647222518921,37.61631782178288]]]}
}
