{
  "id": 1511936653,
  "type": "Feature",
  "properties": {
    "date:cessation_lower": "1950-01-01",
    "date:cessation_upper": "1950-12-31",
    "date:inception_lower": "1950-01-01",
    "date:inception_upper": "1950-12-31",
    "edtf:cessation": "1950",
    "edtf:date": "1950",
    "edtf:inception": "1950",
    "geom:area": 0,
    "geom:bbox": "-122.386155,37.616357,-122.386155,37.616357",
    "geom:latitude": 37.616357,
    "geom:longitude": -122.386155,
    "iso:country": "XX",
    "millsfield:airline_id": [
      1159284893
    ],
    "millsfield:category_id": 1511214223,
    "millsfield:collection_id": 1511214207,
    "millsfield:company_id": [
      1159288917
    ],
    "millsfield:images": [
      1527846787,
      1527850609
    ],
    "millsfield:images_colors_refs": {
      "crayola": [
        {
          "hex": "#8a795d"
        },
        {
          "hex": "#efcdb8"
        },
        {
          "hex": "#9f8170"
        },
        {
          "hex": "#714b23"
        },
        {
          "hex": "#cdc5c2"
        },
        {
          "hex": "#9c2542"
        }
      ],
      "css4": [
        {
          "hex": "#808080"
        },
        {
          "hex": "#f5deb3"
        },
        {
          "hex": "#b22222"
        },
        {
          "hex": "#800000"
        },
        {
          "hex": "#c0c0c0"
        },
        {
          "hex": "#696969"
        }
      ],
      "marekm4": [
        {
          "hex": "#9a8b77"
        },
        {
          "hex": "#b81012"
        },
        {
          "hex": "#49140e"
        },
        {
          "hex": "#8c6d5e"
        },
        {
          "hex": "#e4d3b7"
        },
        {
          "hex": "#cfd5b4"
        }
      ]
    },
    "millsfield:images_texts": [
      "SUMMER SCHEDULE\nEFFECTIVE JUNE 16, 1950\nNORTHEAST\nAIRLINES\nCOMPLETE SYSTEM TIMETABLE\nBOSTON • NEW ENGLAND\nNEW YORK • MONTREAL\nThe Yankee Fleet serves New York,\nMontreal and 34 key New England cities\nAUBURN\nAUGUSTA\nBANGOR\nBAR HARBOR\nBARRE\nBOSTON\nBRUNSWICK\nBURLINGTON\nCONCORD\nFALL RIVER\nHARTFORD\nHOULTON\nHYANNIS\nKEENE\nLACONIA\nLAWRENCE\nLEWISTON\nMARTHA'S\nVINEYARD\nMONTPELIER\nMONTREAL\nNANTUCKET\nNEW BEDFORD\nNEW LONDON\nNEW YORK\nPORTLAND\nPORTSMOUTH\nPRESQUE ISLE\nPROVIDENCE\nROCKLAND\nSPRINGFIELD\nWATERVILLE\nWHITE RIVER\nJUNCTION\nWORCESTER\nMILLINOCKET\nNORTHEAST\n/ AIRLINES\nThe Yankee Fleet",
      "ALL FARES SUBJECT\nTO 15% U.S. TAX\n2 0 2.202.\n1027.\nPASSENGER FARES\nROUTINGS ONLY\nROUND TRIP FARES\nSAVE 5 PER CENT\n(ABOVE DIAGONAL LINE\nBURLINGTON\nCONCORC\n- 1013:\nHYANNIS\nLACONIA\nLAWRENCI\nNEW BEDFORD.FALL RIVE\nROVIDENC\nOCKLAN!\nn, Mass.\ncord, N. H.\nall River. Mass\nFalmouth, Mass.\nMass.\nSpringfield,\nMe., ve.\n10.030-01\n05 7.4527.05\n29.00\n3.40 3.00 3.40 6.402\nIT.6513.55 18.2518.251\n13.021.013.20\n23.00 61.80 50090\n- 3039. 20 27:20\n8.5020.85 8 25\n3.20.28.00\nONE\nWAY FARES\nBELOW DIAGONAL LINE\nINFORMATION- RESERVATIONS TICKET OFFICES - GROUND SERVICE\nAIRPORT\nwick Airport\nNew Bedford Municipal\ntyannis Municip\nineyaro\nAirport\nRESERVATIONS\nLewiston 2-2601\nEAt Boston 7-4100\nor 3610\nr New Bedford 5.741\nHanover 950\nEasingled 0-3173\nWest Lebanon 1040\nnevard Haven 104\nWALnut 1112\nkory 6-3000\nот 3630\nion 1-3300\nCITY TICKET ORPICE\nUnion Square Travel Bureau\nCONVRYANCR\nPICK UP TIME\nOD TIME\nPADE\nMITT PE\nousine Service\nLirport Ticket Office\nRandall's Taxi\nLirport Limousin\nmith's Taxi Service\nOwen's Taxi Service\nTale Cab Co.\n30 Min\n40 Min.\nHyannis Airport Ticket Office\nrfield Service Co.\nDen Mor Cab Co.\n35 Min.\nNONE ENCORANNONES\nnnex, 42nd St\nalter J. P. Day Travel Bureau\nforth Andover Taxi Co.\nCrease Timousine Service\nIsland Transport, Toc.\nChild Tari\nAirline Limousines Ltd.\nPease Taxi\nTelow Cat CoCo.\n• Taxi In\now Cab Co\nDen Mor cab co.\ncob's Taxi Service\n30 Min.\nar Min\n35 Min.\nNEW YORK • BOSTON • NEW ENGLAND\nMONTREAL\nPRESQUE ISLE O\nWEST MONTREAL\nEUROPE\nHOULTON\nBURLINGTON\nMILLINOCKET\nBANGOR / HARB\nL WATERVIL\nBARRE\nLEBANON\nMONTPELIER\nWHITE RIVER\nLACONIA\nBRUNSWICK\nPORTSMOUTH\nEUROPE\nWORCESTE\nHARTFORD\nSPRINGFIELD\nIRENCE\nOSTON\nNEW GEOFORD Y\nNANTUCKET\nNEW LONDON\nMARTHA'S VINEYARD\nWEST\nNEW YORK\nSOUTH\nPRINTED IN U.S. A\nNORTHEAST AIRLINES, INC\n2005.132.034.001\nNORTHEAST\nAIRLINES\nCOMPLETE SYSTEM TIMETABLE\nBOSTON • NEW ENGLAND\nNEW YORK • MONTREAL\nThe Yankee Fleet serves New York,\nMontreal and 34 key New England cities\nAUBURN\nAUGUSTA\nBANGOR\nBAR HARBOR\nROSTON\nBRUNSWICK\nBURLINGTON\nCONCORD\nFALL RIVER\nHARTSORD\nHOULTON\nHYANNIS\nKEENE\nLACONIA\nLAWRENCE\nLEWISTON\nMARTHA'S\nVINEYARD\nMONTPELIER\nMONTREAL\nNANTUCKET\nNEW REDFORD\nNEW LONDON\nNEW YORK\nPORTLAND\nPORTSMOUTH\nPRESQUE ISLE\nPROVIDENCE\nDOCKI AND\nSPRINGFIELD\nWATERVILLE\nWHITE RIVER\nJUNCTION\nWORCESTED\nMILLINOCKET\nNORTHEAST\nL AIRLINES→\nThe Yankee Fleet"
    ],
    "millsfield:images_texts_ids": [
      1527846787,
      1527850609
    ],
    "millsfield:primary_image": 1527846787,
    "millsfield:subcategory_id": 1511213425,
    "mz:hierarchy_label": 1,
    "mz:is_current": 1,
    "sfomuseum:accession_number": "2005.132.034.001",
    "sfomuseum:airline": "Northeast Airlines",
    "sfomuseum:airline_id": [
      641
    ],
    "sfomuseum:category": "Scheduling / Ticketing",
    "sfomuseum:classification_id": 158,
    "sfomuseum:collection": "Aviation Archive",
    "sfomuseum:creditline": "Gift of the William Hough Collection",
    "sfomuseum:date": "1950",
    "sfomuseum:date_acquired": "2006-12-05",
    "sfomuseum:daterange_end": "1950-12-31",
    "sfomuseum:daterange_start": "1950-01-01",
    "sfomuseum:description": "System timetable issued by Northeast Airlines, effective June 16, 1950; four pages; red and white cover with illustration of twin engine aircraft and list of cities served.",
    "sfomuseum:dimensions": "9 x 4 inches (22.9 x 10.2 cm)",
    "sfomuseum:media_ids": [
      1527846787,
      1527850609
    ],
    "sfomuseum:medium": "paper, ink",
    "sfomuseum:object_id": 97921,
    "sfomuseum:placetype": "object",
    "sfomuseum:primary_media_id": 1527846787,
    "sfomuseum:publication": ": , 1950.",
    "sfomuseum:subcategory": "Timetable",
    "src:geom": "sfomuseum#undetermined",
    "wof:belongsto": [
      1511214223,
      102527513,
      102191575,
      85633793,
      1511213425,
      85922583,
      102087579,
      1511214277,
      1511214207,
      85688637
    ],
    "wof:breaches": [],
    "wof:country": "XX",
    "wof:created": 1579906667,
    "wof:depicts": [
      1159284893,
      1159288917
    ],
    "wof:geomhash": "30c8a918561c84bb2daa2b97fc7c5353",
    "wof:hierarchy": [
      {
        "arcade_id": 1511213425,
        "building_id": 1511214277,
        "campus_id": 102527513,
        "concourse_id": 1511214223,
        "continent_id": 102191575,
        "country_id": 85633793,
        "county_id": 102087579,
        "custom_id": 1511936653,
        "locality_id": 85922583,
        "neighbourhood_id": -1,
        "object_id": 1511936653,
        "region_id": 85688637,
        "venue_id": 1511936653,
        "wing_id": 1511214207
      }
    ],
    "wof:id": 1511936653,
    "wof:lastmodified": 1787988183,
    "wof:name": "timetable: Northeast Airlines",
    "wof:parent_id": 1159162825,
    "wof:placetype": "custom",
    "wof:placetype_alt": [
      "object"
    ],
    "wof:repo": "sfomuseum-data-collection",
    "wof:superseded_by": [],
    "wof:supersedes": [],
    "wof:tags": []
  },
  "bbox": [
    -122.386155,
    37.616357,
    -122.386155,
    37.616357
  ],
  "geometry": {"type":"Point","coordinates":[-122.386155,37.616357]}
}
