{
  "id": 1913796361,
  "type": "Feature",
  "properties": {
    "date:cessation_lower": "1947-07-01",
    "date:cessation_upper": "1947-07-31",
    "date:inception_lower": "1947-07-01",
    "date:inception_upper": "1947-07-31",
    "edtf:cessation": "1947-~07",
    "edtf:inception": "1947-~07",
    "geom:area": 2.475047457570636e-7,
    "geom:bbox": "-122.386472,37.616105,-122.385834,37.616611",
    "geom:latitude": 37.61635747477365,
    "geom:longitude": -122.38615540108617,
    "millsfield:airline_id": [
      1159284991
    ],
    "millsfield:category_id": 1511214251,
    "millsfield:collection_id": 1511214207,
    "millsfield:company_id": [
      1159286839
    ],
    "millsfield:images": [
      1913799403,
      1913799405,
      1913799407
    ],
    "millsfield:images_colors_refs": {
      "crayola": [
        {
          "hex": "#efcdb8"
        },
        {
          "hex": "#eceabe"
        },
        {
          "hex": "#1a4876"
        },
        {
          "hex": "#2e5894"
        }
      ],
      "css4": [
        {
          "hex": "#f5deb3"
        },
        {
          "hex": "#191970"
        },
        {
          "hex": "#483d8b"
        }
      ],
      "marekm4": [
        {
          "hex": "#e7dcba"
        },
        {
          "hex": "#2d5991"
        },
        {
          "hex": "#eadfbd"
        },
        {
          "hex": "#e6d7b0"
        },
        {
          "hex": "#375f8e"
        },
        {
          "hex": "#2f5b92"
        },
        {
          "hex": "#1b3a69"
        }
      ]
    },
    "millsfield:images_texts": [
      "Cancieced Ent an invitation and\nTELEGRAPHIC ADDRESS \"IMPHO TOKYO\"\nof course that eat a long way\nSure 1947? Joined us.\nas comp-\nEntation toward\nImperial Fatel attending the party\nTat looks fine.\nShe is abnt to start for\nTokyo.\nhome via Emog.\nbut the fat boat the car\nget on dors mt\nsail untie late in Ayust\nSo stele miss\nKicks if at mid-might - trough Tat left\nEarly - abrat i0: 30 to for fers. I stept\nunte 11:30 this G.M. Coppe in ted - then\nbath And leisney lunch Call meats ars\n25¢ Ench) falcore to, a ride around tour\nin an Airy staft car go: saluted at\nThey\nnot at all resentfue - at bort on the\nsurface.\nTokyo\nis really flat. hac Atten\nhad somed orden that this hote -\nWhich he intended to not - and a\nmade, office loulding - shined not tr\nbonka and the filets er most skufue\nin avoiding look.\nBut Everything ces is\nreace, flat. Acres of buildings burnt to",
      "the\nround. But the gaps are hand at work\nbad one they\nan and when the,\ncant the plant Imperial Latel crops - lot of\ngren corr, tomator, it ite. right where\nbuilding used to stand in the cente of\nTokyo. At 5 Pm a want own to the\nNaka hatre to\nkan a drink with Tat\nand Puir. The latth is in mie. -te\nreminds me al lot of Reid - boit in\nappraand and looks.\nHi's bite-looky\nthan Red - an\nExcytin all, fine looking\nboy - Who terms to br\nto be wree born and is\nHs 24 and looks\nit.\nI wored it 1r a bit surprod if\nTat\nnear married him - the, do mot\nserm to ta real, in lour - leut ratte\nEach\nEnjoys being week the ork and its\nme to han a ford looking companion in\nTokyo:\nthis gong\nback to Kyato tomorrow\nmong.\nİ'le see mar of Tat during\nthe wirk and try to find ont more",
      "get a chance bout in the maar-\nImperial Fatel\ntime\nPleade paas\nat tok pat\nsuch part of the forgoig as\nyou\ndeen projir.\nHar an appointment wick ger.\nMac Authen tomorrow night at 7Pm.\nare thin know Just coher tor stand.\nHown, the Brtish han just prit in a\ndemano that no American flag airlies\nmay recrur any prefera or Bitin\nlines and mac G. may ory wall tgget\na post joniment.\nMust go to bad. The mos 9\nthink amt my part ep the mors ?\nappreciate all that jin han done\nto\nour famil\nthe girls in\nparticular -\nworde fue. Jokip Stake\nsard the corker day \"Ano Bie, has eetaine,\ntold you firk on on!\" That true and"
    ],
    "millsfield:images_texts_ids": [
      1913799403,
      1913799405,
      1913799407
    ],
    "millsfield:primary_image": 1913799403,
    "millsfield:subcategory_id": 1511213489,
    "mz:is_approximate": 1,
    "mz:is_current": 1,
    "sfomuseum:accession_number": "2019.121.1113 a c",
    "sfomuseum:airline": "Pan American Airways",
    "sfomuseum:airline_id": [
      685
    ],
    "sfomuseum:category": "Employee Career History",
    "sfomuseum:classification_id": 195,
    "sfomuseum:collection": "Aviation Archive",
    "sfomuseum:creditline": "Collection of SFO Museum",
    "sfomuseum:date": "c. 07/1947",
    "sfomuseum:date_acquired": "2019-11-22",
    "sfomuseum:daterange_end": "1947-07-31",
    "sfomuseum:daterange_start": "1947-07-01",
    "sfomuseum:description": "Handwritten letter from Harold M. Bixby to his wife, Debby Bixby, undated [likely July 1947], on stationery from the Imperial Hotel in Tokyo; original document missing first page(s); includes brief description of postwar Tokyo; mentions General Douglas A. MacArthur.",
    "sfomuseum:dimensions": "11 x 8 1/2 inches (27.9 x 21.6 cm)",
    "sfomuseum:medium": "paper, ink",
    "sfomuseum:object_id": 211476,
    "sfomuseum:placetype": "object",
    "sfomuseum:publication": ": , c. 07/1947.",
    "sfomuseum:subcategory": "Correspondence, Personal",
    "src:geom": "sfomuseum#undetermined",
    "wof:belongsto": [
      102527513,
      1159162825,
      102191575,
      85633793,
      102087579,
      85922583,
      85688637,
      1159160869
    ],
    "wof:country": "XY",
    "wof:created": 1714549071,
    "wof:depicts": [
      1159284991,
      1159286839
    ],
    "wof:geomhash": "c281b9d9eefc83b5710e64b9d646067d",
    "wof:hierarchy": [
      {
        "building_id": -1,
        "campus_id": 102527513,
        "collection_id": 1159162825,
        "concourse_id": 1159162825,
        "continent_id": 102191575,
        "country_id": 85633793,
        "county_id": 102087579,
        "custom_id": 1913796361,
        "locality_id": 85922583,
        "neighbourhood_id": -1,
        "object_id": 1913796361,
        "region_id": 85688637,
        "wing_id": 1159160869
      }
    ],
    "wof:id": 1913796361,
    "wof:lastmodified": 1787988220,
    "wof:name": "correspondence: Harold M. Bixby to Debby Bixby",
    "wof:parent_id": 1159162825,
    "wof:placetype": "custom",
    "wof:placetype_alt": [
      "object"
    ],
    "wof:repo": "sfomuseum-data-collection",
    "wof:superseded_by": [],
    "wof:supersedes": []
  },
  "bbox": [
    -122.38647222518921,
    37.6161053594541,
    -122.38583385944366,
    37.61661101879963
  ],
  "geometry": {"type":"Polygon","coordinates":[[[-122.38647222518921,37.61631782178288],[-122.386434674263,37.61623283692423],[-122.38637566566466,37.61617759671399],[-122.38630056381224,37.6161308549656],[-122.38616108894348,37.6161053594541],[-122.38602161407469,37.6161308549656],[-122.38591432571411,37.61618609521055],[-122.38585531711577,37.61626683087935],[-122.38583385944366,37.61636881265146],[-122.38587141036987,37.61646654505181],[-122.38594114780425,37.61654303118856],[-122.38605380058287,37.61660252035167],[-122.38618254661559,37.61661101879963],[-122.3863059282303,37.61657277577607],[-122.3864185810089,37.61650903735973],[-122.3864668607712,37.61641130501523],[-122.38647222518921,37.61631782178288]]]}
}
