{
  "id": 1763195431,
  "type": "Feature",
  "properties": {
    "date:cessation_lower": "1936-01-01",
    "date:cessation_upper": "1936-12-31",
    "date:inception_lower": "1936-01-01",
    "date:inception_upper": "1936-12-31",
    "edtf:cessation": "1936",
    "edtf:inception": "1936",
    "geom:area": 2.475047457570636e-7,
    "geom:bbox": "-122.386472,37.616105,-122.385834,37.616611",
    "geom:latitude": 37.61635747477365,
    "geom:longitude": -122.38615540108617,
    "millsfield:aircraft_id": [
      1159289611
    ],
    "millsfield:airline_id": [
      1159284849
    ],
    "millsfield:category_id": 1511214223,
    "millsfield:collection_id": 1511214207,
    "millsfield:company_id": [
      1159293593
    ],
    "millsfield:images": [
      1763196123,
      1763196189,
      1763196191
    ],
    "millsfield:images_colors_refs": {
      "crayola": [
        {
          "hex": "#58427c"
        },
        {
          "hex": "#4a646c"
        },
        {
          "hex": "#dbd7d2"
        },
        {
          "hex": "#757575"
        },
        {
          "hex": "#cdc5c2"
        },
        {
          "hex": "#319177"
        },
        {
          "hex": "#000000"
        },
        {
          "hex": "#1a4876"
        }
      ],
      "css4": [
        {
          "hex": "#708090"
        },
        {
          "hex": "#dcdcdc"
        },
        {
          "hex": "#2e8b57"
        },
        {
          "hex": "#d3d3d3"
        },
        {
          "hex": "#191970"
        }
      ],
      "marekm4": [
        {
          "hex": "#080d52"
        },
        {
          "hex": "#48963e"
        },
        {
          "hex": "#252a6d"
        },
        {
          "hex": "#e4dacd"
        },
        {
          "hex": "#646e8a"
        },
        {
          "hex": "#c9cdca"
        },
        {
          "hex": "#5a6191"
        },
        {
          "hex": "#579959"
        },
        {
          "hex": "#42934a"
        },
        {
          "hex": "#e3dbca"
        },
        {
          "hex": "#5c648d"
        },
        {
          "hex": "#0e1c3e"
        }
      ]
    },
    "millsfield:images_texts": [
      "AIR TRANSPORTATION\nNational Parks\nAirways, Inc.\nNC\n3349\nMATONIL PERIS V\nN/3349\nAnnouncing.\nDirect Air Service\nto\nYellowstone Park\nNATIONAL PARKS AIRWAYS FLIES 10-PASSENGER\nTWIN-MOTORED BOEING TRANSPORTS.\nEffective June 10, 1936\nPASSENGERS - MAIL-EXPRESS",
      "TO ALASKA\nORIENT\nVANCOUVER\nCANADA\nNATIONAL PARKS AIRWAYS, INc.\nWENATCHEE\n/he\nYellowstone Park\nAirline\nTO THE\nSEATTLE\nTACOMA\n•\nHainter\n(SPOKANE\nGlacier -...\nPORTLAND\n\"ENDLETO:\nGREAT FALLS\nHELENA\nOGRIND FORKS\nBUTTE\nCrater Lako\nYELLOWSTE\nDO PALS\nATELLO\nMINN APOLI\nGrand\nEVELAND\nSALT LAKE\nDude\n: Ranches\nCHEYENNE\nOMAHA\nTO HAWAI\nTHE ORIENT\nSAN\nFRANCISCO\n/Yosemite\nGen. Grant\n•Sequola\nZion\nBryce\nBoulder Dam\nGrand\nCanyon\nRocky • ODENVER\nmountain\nCOLORADO SPRINGS I\nST. SERI\nKANSAS CITY\nHARLESTON\nST. LOUIS,\nTO HAWAII\nTHE OKIENT\nLOS ANGELES\nSAN DIEGO\nMEXI\n• To Mexico City'\nTo Mexico City, Central and South Americ\nGENERAL INFORMATION\nReservations-May be made at all ticket offices herein listed and at all\nWestern\nUnion and Postal Telegraph offices.\nReservations over connecting\nlines will be made if sufficient time is allowedi\nCancellations-Company reserves the right to cancel any ticket,\nor reserva-\ntion, before passage,\nenroute,\nany time such action is advisable.\nThe\ncompany accepts no legal responsibility for such action.\nBaggage-Thirty-five\nCharge\nof one-half\n• Done per be of face free ones male on tice.\non excess\nup to 50 pounds.\nBaggage weighing over 50 pounds carried only by special\narrangement.\nTen one mi to it lite l preday e ties ale conditiong.\nStopover PrivilegeStopovers are permitted on both one way and round trip\ntickets. Reservations for continuation of flight must be made by passenger.\nSend your ship-\n• TO EUROPE\nNEW YORK\nHILADELPHIA\nHINGTON\n-CIRCLE TRIPS\nAIR LINES\nWESTERN AIR\nEXPRESS,\nNORTHWEST AIRLINES, WYO.\nMING AIR SERVICE and HANFORD AIRLINES.\n-GROUND TRANSPORTATION\nTo Airport\nTime Taxi Fare\nTo Airport\nSalt Lake City\n10 min.\nOgden\n50c\nIdaho Falls\n15 min. 75c\nPocatello\n15 min.\nButte\n75c\nHelena\nWest Yellowstone\n3 min. no chge. Great Falls\nTime Taxi Fare\n10 min.\n50c\n15 min.\n10 min.\n75c\n50c\n50c\nNATIONAL PARKS AIRWAYS\nConnecting Air Lines\nRail Lines .... Highways.\n•National Parks\nTo Cuba, Central and South America\nFLY-WITH THE MAIL\nAIR MAIL Only Six Cents Per Ounce.\nSPEED-\n-Your Correspondence.\nAIR MAIL commands first attention.\nAIR MAIL Carried on all NPA FLIGHTS.\n-YELLOWSTONE'S ATTRACTIONS-\nYellowstone's Bear Show: Every night from 40 to 50 huge bears may be\nseen\nas they gather at feeding grounds located short distances from Old Faithful\nInn and Grand Canyon Hotel.\nNative Brown Bears provide a spectacular show\nnear Old Faithful and giant Grizzlies gather at the Grand Canyon feeding\ngrounds.\nWhile the bears feed, well informed Park Rangers describe the habits\nof and tell exciting stories about this most interesting animal.\nYellowstone Park Fishing: The Yellowstone Park Transportation Company\nprovides several fishing trips in the Park. The air passenger will be especial-\nly interested in these trips since it is not necessary that he have his own tackle\nNo fishing license is required.\nfishing trip in the\nPark\nfeatures a bus-speedboat trip\nEr The manst anyon Hotel to Steve ion sland Ate the island i re torn shed\nwith a rowboat and fishing tackle and after making your catch (your catch is\nassured vou may have vour own hsh deliciousy cooked and served tol\nan Outdoor luncheon The all nor tre European Plane trip er sat\nall inclusive cost of this side trip is sato too he\nAmeritan lan Guest 1 55.00 for the Curopean Band test.\nTICKET OFFICES\nSalt Lake City\nWest Yellowstone \u0026 Yellowstone Park\nCity\nTicket Office, Lobby\nTransportat on Agent at all\nof Hotel Utah.....\nPhone Was. 1910\nHotels and Lodges.\nMunicipal Airport... Phone Was. 3631\nAfter business hours..Phone Was. 4664\nButte\nMunicipal Airport..\nOgden\nFinlen Hotel.....\nPhone 6555\nPhone 5461\nBen Lomond Hotel.\nPhone 4100\nUtah Pacific Airways. Phone\n72\nHolena\nPocatello\nPlacer Hotel.\nMunicipal\nAirport........\nRannock Hotel\nPhone 2206\nPhone 1700\nMunicipal Airport.\nPhone 1330\nPhone 688\nGreat Falls\nIdaho Falls\nMunicingl\nAirport\nHotel Bonneville.\nPhone 1040\nRainhow Hotel\nPhone 4271\n.Phone 4311\nOperating Headquarters: Municipal Airport, Butte, Montana\nExecutive Offices, Traffic Headquarters: Municipal Airport, Salt Lake City\nAIR TRANSPORTATION\nNational Parks\nAirways, Inc.\nNC/3349\nAnnouncing..•\nDirect Air Service\nto\nYellowstone Park\nNATIONAL PARKS AIRWAYS FLIES 10-PASSENGER\nTWIN-MOTORED BOEING TRANSPORTS.\nEffective June 10, 1936\nPASSENGERS - MAIL-EXPRESS",
      "Bama rede\nNATIONAL PARKS AIRWAY'S\nYellowstone Park Service\nDaily Flight Schedule\nAIR PASSENGERS - AIR MAIL - AIR EXPRESS\nEffective July 17, 1936\nNORTHBOUND\nREAD DOWN\nTr. 6\nTr. 4%\nTr. 2\nNPA CITIES\nPM\nPM\nAM\n12:45\n6:45\n6:55\nLy.\nSALT LAKE CITY...\nAr.\nOGDEN\n7:45\n8:10\n7:10\n8:00\nLv.\nLv.\nPOCATELLO\nLy.\nIDAHO FALLS\nLy.\n2:45\n3:008\n3:458\n8:25\n9:10\nLv.\nAr.\nW.\nLv.\n9:15\nLy.\nYELLOWSTONE.\nW. YELLOWSTONE.\nLv.\n9:35\n9:55\nAr.\n10:15\nLv.\nBUTTE\nLy.\n10:35\nAr.\nHELENA\nLv.\n10:40\nLv.\nHELENA\n11:05\nAr.\nAr.\nGREAT FALLS\nLy.\nSOUTHBOUND\nREAD UP\nTr. 1\nTr. 3\nPM\nAM\n9:05\n10:35\n10:25t\n8:05\n7:40\n9:35\n9:10\n6:55\n8:25\n6:50\n8:20\n6:05\n5:30\n7:35\n7:00\n5:25\n5:00\nTr. 5%\nPM\n5:00\n3:00\n*Daily except Sundays and holidays.\n†Service\nsuspended\npending airport\nimprovements.\n$On\nand Holidavs\nTrip 6 will fly from West Yellowstone to\nButte, terminating at that point.\nNPA FARES\nONE WAY FARES-Blue\nROUND-TRIP FARES-Green\n10% REDUCTION ON ALL ROUND-TRIP FARES\nSalt\nLake\nOgden\nPocatello\nI daho\nButte\nHelena\n4.00\n8.35\n11.00\n16.00\n19.45\nSalt Lake\n7.20|\n15.00\n19.80\n28.50\n35.00\n21.95\n39.50\n25.85\n46.50\n4.00\n6.901\n950|\n14.50\n18.10\n20.60\n24.50\nOgden\n7.20\n12.40\n17.10)\n26.10\n32.60\n44.10\n8.35\n6.90\n3.50\n8.00\n13.05\n37.10\n15.80|\n23.50\n28.45\n18.25\nPocatello\n15.00\n12.40\n6.30\n14.40\n32.85\n11.00\n9.50\n3.50\n6.00\n10.40\n13.15|\n15.85\nIdaho Falls\n19.80l\n17.10\n6.30\n10.80\n18.70\n23.70\n28.50\n16.00\n14.50\n8.00\n6.00\n7501\n9501\n13.00\nWest Yellowstone\n28.50|\n26.10\n14.40|\n10.80|\n13.50\n17.10\n23.40\n13 05\n4 00\nButte\n19.45\n18.10\n35.00| 32.60\n23,50\n10.40\n7.50l\n18,70| 13,50\n7.20l\n7.00\n12.60\n21.95\n20.60\n15.80l\n13.15\nHelena\n39.50 37.10\n9.50\n4.00l\n5.10\n28.45 23.70 17.10\n7.20\n25.85| 24.501\n18.25\n15.85 13.001\n700|\n5.10\n9.20\nGreat Falls\n46.50| 44.10| 32.85] 28.50| 23.40| 12.60| 9.20|\nPURCHASE SCRIP AND SAVE 15%\nUNIVERSAL SCRIP PLAN:--National Parks Airways will honor Scrip\nCards issued by\nCOURSAL SCRIP PLAN to tra ported on ver its route.\nparticipating in UNI-\nScrip Coupons\nfrom the general office of NPA\non contract arrangements made in accordance\nPLAN, in which NPA participates along with seventeen other airlines.\nOPTIONAL ROUTING VIA HELENA OR BUTTE:-\n-Except trips origi-\nnating or terminating at Butte and Helena, interline tickets involving trans-\nportation over\nParks\nAirways\nNorthwest\nAirlines\nportaised ate the minau fare, heater the outing is iding te\nScenic Air Tour Over Yellowstone\nand Grand Teton Parks\n(Effective June 10, 1936)\nNational Parks Airways operates an attractive SCENIC AIR TOUR OVER\nYELLOWSTONE and GRAND TETON PARKS. This tour will be conducted\nin a large multi-motored Boeing Transport and provides a ONE AND ONE-\nHALF HOUR FLIGHT over a region of diversified and spectacular scenic\nattractions.\nCONNECTS WITH NPA SERVICE The Scenic Air Tour operates from West\nYellowstone airport where the Tour Plane connects with regular NPA schedules.\nATTRACTIVE FARE: The Scenic Air Tour fare is $7.50 per passenger.\nWhen the tour is purchased in conjunction with a Salt Lake to West\nYellowstone round-trip ticket an all-inclusive fare of $35.00 applies.\nTHE COURSE: NPA'S Scenic Air Tour begins at West Yellowstone airport\nfrom which point the plane flies over the Cascades of the Firehole and south\nover the Lower and Upper Geyser Basins where Old Faithful and other\nfamous geysers may be seen 1-\nThe course then\nMAP OF SCENIC AIR TOUR COURSE\nleads\nover Shoshone\nLake\nand south to Jackson Lake,\nbeautifully situated at\nthe\nbase of the towering Grand\nTeton Mountains,\nmajor at-\ntraction of Grand Teton Park.\nGRAND\nHeading northward the plane\ncrosses the Continental Divide\nand flies over the magnificent\nYellowstone Lake which covers\nan area of 138 square miles.\nMAMMOTH\nHOT SPRINGS •\nGolden Gate.\nYIELLOWSTONE NATIONAL PARK\nOBSIDIAN CLIFF\nRoaring Mta\nDO NORRI\n0 GEYSER BA\nNest iporwstone MudGeyse\nLOWER\nGEYSER BASIN\nUPPER\n•GEYSER BA:\nwstone rall\nPassing over famous Fishing\nBridge\nthe plane\nproceeds\nnorthward over Grand Canyon\nShosti\nwhere the Yellowstone River\nflows through a channel cut\n750 feet deep through brilli-\nantly colored rock, into which\nchannel the river plunges over\na sheer drop more than twice\nas high as Niagara.\nFlying west of Mt. Washburn,\nthe plane soars over Norris\nGeyser Basin.\nThence flight\nleads\nto West Yellowstone\nLeigh\nGrand Teton.\nGRAND TETON\nNATIONAL PARK\nairport to complete an air tour\nof Yellowstone Park, as spec-\nScole of Miles\ntacular as Yellowstone itself.\nYELLOWSTONE PARK SERVICE FACTS\nSERVICE IS DIRECT: National Parks Airways service to Yellowstone Park is\ndirect:\nWest Yellowstone airport is only 3 minutes from the Government en-\ntrance to the Park by automobile.\nBUS TOURS THROUCH YELLOWSTONE PARK: The\nTransportation\nYellowstone\nPark\nCompany operates a fleet of buses through the Park.\nCom-\npetent and well informed drivers operate these buses.\nTwo bus tours originate at West Yellowstone daily and National Parks Air-\nways planes connect with these schedules.\nPassengers are transported free of\ncharge from West\nYellowstone airport to the Yellowstone Transportation Com-\npany station by NPA automobiles.\nALL EXPENSE BUS TOURS: (Effective June 20, 1936)\nAn All Expense bus\ntour of Yellowstone Park including transportation from\nWest Yellowstone to\nOld Faithful. Thumb.\nFalls,\nYellowstone Lake.\nMammoth and back to\nWest Yellowstone,\nGrand Canyon, Dunraven Patis, Taved\nTotal nepommodations\nmeals costs $41.50.\nThis tour takes 3 days to complete. (The same All Ex-\npense tour may be purchased for $39.50 with Lodge accommodations.)\nNPA Connections\nTo CHEYENNE-DENVER-CHICAGO-NEW YORK CITY\nAM-\n-Light Type\nPM-Bold Type\nN PA\nN PA\nTr. 3 Tr. 5*\nAM\nPM\n0:35\n5:00\nTr. 1\nPM\n9:05\nTr. 2 Tr. 6\nTr. 4*\nAM\n6:55\nPM\n12:45\nPM\n6:45\nTr. 3\n10:35\n12:45\n2:00\n3:55\n5:00\nAr. SALT LAKE CITY.... Lv.\n6:24\n8:39\n11:52\n(VIA UNITED AIR LINES)\nLv. SALT LAKE CITY.... Ar\n2:07\n5:29\n12:24\n3:50\nCheyenne\nLv.\n2•47\nDENVER\n9:29\n12:34\n6:02\nAr.\nOmaha\nLv.\n12:45\nLV\n12:25\n8:30\n6:52\n3:14\n8:57\n6:18\nLV\n9:00\n3:30\n9:30\n12:03\nCHICAGO\n1:15\n10:45\n2:35\n8•45\n2:30\nAr.\nArl\nAr.\nCleveland\nLV\n7:32\n2:02\nPittsburgh\n6:15\n12:50\nWASHINGTON\nNEW YORK CITY\nLV\n4:45\n11:20\n4:30\n11:00\nTo LAS VEGAS + LOS ANGELES + SAN\nDIEGO\nN PA\nN PA\nTr. 5*\n5:00\nTr. 1\n9:05\nTr. 2\n6:55\nTr. 6\n9:35\n10:50\n12:45\n6:30\nAr. SALT LAKE CITY.... Lv.\n(VIA WESTERN AIR EXPRESS)\nL.v. SALT LAKE CITY.\nAr.\nAr.\nLas Vegas\nAr.\nLOS\nLV\nANGELES\nAr.\nSAN\nDIEGO\nTo SAN FRANCISCO 1 PORTLAND-\n12:45\nN P A\n4:10\n12:55\n11:00\n9:50\nN PA\nTr. 6\n12:45\nTr. 4%\n6:45\n6:05\n2:55\n1:00\n:30\nTr. 3\n0•35\nTr. 1\n5:00\n9:05\nAr. SALT LAKE CITY... Lv.\nTr. 4*\n6:45\n(VIA UNITED AIR LINES)\n12:39\n2:39\n4:11\n12:50\n2:54\n4:45\n9:34\n11:54\nLv.\nSALT LAKE CITY\nAr.\nReno\nAr\n4.09\n6:50\nSAN FRANCISCO\nLV\n12•42\n1:26\nAr.\nLV\n11:00\nLV.\n8:54\nAr.\nSALT LAKE CITY.\nAr\nBoise\n4:00\nLV\n2:11\n10:45\nAr.\nPORTLAND\nLv.\n10:20\n6:09\n2:42\n1:00\n5:55\n4:06\n12:15\nLOS ANGELES + SAN FRANCISCO + SALT LAKE CITY-\nHELENA or BUTTE, ST. PAUL\n1:00 PM\n1:00 PM\n6:45 PM*\n7:45 PM*\n8:10 PM*\n9:20 PM*\n9:55 PM*\n11:00 PM\n11:00 PM\n6:55 AM\n7:10 AM\n8:00 AM\n8:25 AM\n9:15 AM\n10:00 AM\n10:35 AM\nLv.\nLOS ANGELES\nLv.\nSAN FRANCISCO\nLv.\nLv.\nSALT LAKE CITY.\nOgden\nLv.\nPocatello\nLv.\nIdaho Falls.\nLv.\nWest Yellowstone\nAr.\nBUTTE\nAr.\nHelena\n(VIA\nNORTHWEST AIRLINES\n1:20 AM\n1:55 PM\nAr.\nBillings\n5:25 AM\n5:40 PM\nAr. Bismarck\n6:35 AM\n6:50 PM\nAr.\nFargo\n8:05 AM\n8:20 PM\nAr. MINNEAPOLIS\nAr\nAr\nAr\nLv.\nLv\nLV\nAr\nLV\nLV\nLV\nLv.\n12•45 AM\n1:26 AM\n9:05 PM\n8:05 PM\n7:40 PM\n6:55 PM\n6:05 PM\n5:30 PM\n3•45 PM\n1:40 PM\n12:15 AM\n10:35 AM\n8•20 AM\n8•35 PM\nAr. ST PAUL\n10:15 AM\nGREAT FALLS + TWIN CITIES + CHICAGO\n5:00 PM\nLVI\nGREAT FALLS ...\nAr\n5:25 PM\nAr\nHELENA\nLV.\n(VIA NORTHWEST AIRLINES)\n2:05 AM\nLv.\nHELENA\nAr\nTWIN CITIES\nAr.\n8:05 AM\nLy.\n10:20 AM\nAr.\nCHICAGO\n*Daily except Sundays and holidays.\n*Service suspended pending airport\nimprovements.\n3:55 PM\n4:11 PM\n10:35 AM\n10:25\nAM-\n9.35 AM\n9:10 AM\n8:25 AM\n7:35 AM\n7:00 AM\n4•30 AM\n2:20 AM\n2:55 AM\n11:15 PM\n10:55 PM\n11:05 AM\n10•40 AM\n5:50 AM\n11:15 PM\n8:45 PM"
    ],
    "millsfield:images_texts_ids": [
      1763196123,
      1763196189,
      1763196191
    ],
    "millsfield:primary_image": 1763196123,
    "millsfield:subcategory_id": 1511213425,
    "millsfield:tailnumbers": [
      "NC13349"
    ],
    "mz:is_current": 1,
    "sfomuseum:accession_number": "2000.055.005",
    "sfomuseum:aircraft": "Boeing 247",
    "sfomuseum:aircraft_id": [
      115
    ],
    "sfomuseum:airline": "National Parks Airways",
    "sfomuseum:airline_id": [
      621
    ],
    "sfomuseum:category": "Scheduling / Ticketing",
    "sfomuseum:classification_id": 158,
    "sfomuseum:collection": "Aviation Archive",
    "sfomuseum:creditline": "Collection of SFO Museum",
    "sfomuseum:date": "1936",
    "sfomuseum:date_acquired": "2000-03-09",
    "sfomuseum:daterange_end": "1936-12-31",
    "sfomuseum:daterange_start": "1936-01-01",
    "sfomuseum:description": "Timetable brochure issued by National Parks Airways, effective June 10, 1936; green and blue cover with illustration of airplane and text, “Announcing ... Direct air service to Yellowstone Park”; aircraft registration number NC13349.",
    "sfomuseum:dimensions": "9 x 4 inches (22.9 x 10.2 cm)",
    "sfomuseum:medium": "paper, ink",
    "sfomuseum:object_id": 50908,
    "sfomuseum:placetype": "object",
    "sfomuseum:publication": ": , 1936.",
    "sfomuseum:registration_number": "NC13349",
    "sfomuseum:subcategory": "Timetable",
    "src:geom": "sfomuseum#undetermined",
    "wof:belongsto": [
      102527513,
      1159162825,
      102191575,
      85633793,
      102087579,
      85922583,
      85688637,
      1159160869
    ],
    "wof:country": "XY",
    "wof:created": 1646383369,
    "wof:depicts": [
      1159287783,
      1159289611,
      1159293593,
      1159284849
    ],
    "wof:geomhash": "c281b9d9eefc83b5710e64b9d646067d",
    "wof:hierarchy": [
      {
        "building_id": -1,
        "campus_id": 102527513,
        "collection_id": 1159162825,
        "concourse_id": 1159162825,
        "continent_id": 102191575,
        "country_id": 85633793,
        "county_id": 102087579,
        "custom_id": 1763195431,
        "locality_id": 85922583,
        "neighbourhood_id": -1,
        "object_id": 1763195431,
        "region_id": 85688637,
        "wing_id": 1159160869
      }
    ],
    "wof:id": 1763195431,
    "wof:lastmodified": 1787988205,
    "wof:name": "timetable: National Parks Airways",
    "wof:parent_id": 1159162825,
    "wof:placetype": "custom",
    "wof:placetype_alt": [
      "object"
    ],
    "wof:repo": "sfomuseum-data-collection",
    "wof:superseded_by": [],
    "wof:supersedes": []
  },
  "bbox": [
    -122.38647222518921,
    37.6161053594541,
    -122.38583385944366,
    37.61661101879963
  ],
  "geometry": {"type":"Polygon","coordinates":[[[-122.38647222518921,37.61631782178288],[-122.386434674263,37.61623283692423],[-122.38637566566466,37.61617759671399],[-122.38630056381224,37.6161308549656],[-122.38616108894348,37.6161053594541],[-122.38602161407469,37.6161308549656],[-122.38591432571411,37.61618609521055],[-122.38585531711577,37.61626683087935],[-122.38583385944366,37.61636881265146],[-122.38587141036987,37.61646654505181],[-122.38594114780425,37.61654303118856],[-122.38605380058287,37.61660252035167],[-122.38618254661559,37.61661101879963],[-122.3863059282303,37.61657277577607],[-122.3864185810089,37.61650903735973],[-122.3864668607712,37.61641130501523],[-122.38647222518921,37.61631782178288]]]}
}
