{
  "id": 1913795845,
  "type": "Feature",
  "properties": {
    "date:cessation_lower": "1933-03-19",
    "date:cessation_upper": "1933-03-19",
    "date:inception_lower": "1933-03-19",
    "date:inception_upper": "1933-03-19",
    "edtf:cessation": "1933-03-19",
    "edtf:inception": "1933-03-19",
    "geom:area": 2.475047457570636e-7,
    "geom:bbox": "-122.386472,37.616105,-122.385834,37.616611",
    "geom:latitude": 37.61635747477365,
    "geom:longitude": -122.38615540108617,
    "millsfield:airline_id": [
      1159284991,
      1159285931
    ],
    "millsfield:category_id": 1511214251,
    "millsfield:collection_id": 1511214207,
    "millsfield:company_id": [
      1159286721
    ],
    "millsfield:images": [
      1913800299,
      1913800301,
      1913800303,
      1913800305
    ],
    "millsfield:images_colors_refs": {
      "crayola": [
        {
          "hex": "#efcdb8"
        },
        {
          "hex": "#000000"
        },
        {
          "hex": "#cdc5c2"
        },
        {
          "hex": "#414a4c"
        }
      ],
      "css4": [
        {
          "hex": "#f5deb3"
        },
        {
          "hex": "#2f4f4f"
        },
        {
          "hex": "#c0c0c0"
        },
        {
          "hex": "#000000"
        }
      ],
      "marekm4": [
        {
          "hex": "#2e2719"
        },
        {
          "hex": "#d9ccac"
        },
        {
          "hex": "#daceae"
        },
        {
          "hex": "#282318"
        },
        {
          "hex": "#312b1b"
        },
        {
          "hex": "#d9cdaf"
        },
        {
          "hex": "#2d281a"
        },
        {
          "hex": "#d7ccad"
        }
      ]
    },
    "millsfield:images_texts": [
      "Sunday Am\n33\nDearest Debs\nmuch i9th\nI hair had a nice day - worked all\nmorning and then Mr Polin came by to take mr\nout to lunch or tiffin. a made hini stay\nherr and hair it with me in the hatre and\nthen he took me for a drir - us wint out\nto the aurport\nnd saut the Stinson come\nis from Peiping. quit a large crowd o\nthe air port. Then,\ndrove by to sir Chrisk, matkrson fo who\nis in trible shape. almost try bone in\nhis body broken. He certaine, has lots\nof courage - both arms were so smashed\nat te had figur went are bishen\nhair glovo glued to his\nto an on el\nwas shrung up\nwas badly mashed and they may stee\nhair to amputate -\nthe other leg was brokra\nbut is all right now Mrs in. his mother.\nstay with him\nal the time. She is very\norry nie.\nThen ur want by to pur maj.\nHoward who has barn Arous ele wit\nthe the. he is biter but stee confined\nmax Polin is a prach\nur gut along\nabout",
      "fit but a grand consoatir unce\nmannard man. Its is a Attire his wif\npees chang in frish. She too las\nburn ill, and\nconed nt go out today at\nall.\nNeglects to trel You that is Bolin\nlook me out reday\no ser an Electricl\nmanufacturing plant which le started\nto grass ago..\n• Thenz is no patint\nprotiction in\nCo. Can make anything at all In their\nradio sits they vor the brat units in\nall otta sits\ni and theo hair a pufet\nradic which they sle for ½ the coat\nOf an Amercan equivalent and stee\nmakr 100% profit.\nThe same is true\nregarding\nmotors. They are rora making\nthat light value gadget that thr appson\nwas so Proud of when us was sace\nskating, and this movie outft for talking\npictures, costo\n1/4 what an Amerecan .\n- one\ncost.\nThe have\nan American as\nPresident + Guanae manager. a Bestch auditor\ntwo English\ndie of tool makers - ae the other\nEnginess y workmen art Chiner. The arrags",
      "old pu doy. What\nskilled workman, gits 20t gold our day. What\nchaner has any\nhere and pay a duty of 25%. The Chinese\nAnd othus all going to graduall, cloa\nthis market for any forge. goods.\nothe than\nraw maturat\n• or certain kerads.\nThis aftirnoon ur droir by the\nColumbia Countr, Chub which is an American\ncub arranged erry much like our St. L.\nC. C..\nTher hair a brantze swemmer,\nFool, frai tennis courts, badmington court.\nhand bace, squash, bowling allega see. n,\nmer propale and a brautful breding\nwick lots of frounds le\nut no golf\ncourse.\nIt was a perfect hearne,\nday and meer to br\nbut side. the fuit\ntrico are beginn; to bud and gun,\n• just around the corner.\nIle And - to revut to the Asia\nElectric - that\n• they hair just competed\na new factor?\nof 28,000 ag. fil which\nis the\nduplicate of a building put up\nin Calfornia in 1932 the Amencan\nbuilding\nCost 80. 000\nand the one hirr\neve cost 25. 000-\nIt is ale stare,\nconcrati and\nstre sash. thoroughl, modern",
      "in torry way.\nAm going out at o oclock to\nthe\nEmpress of Asia just to set the\nship again and say hello to my fiend.\namong the offices - abo to maie thi\nlettu.\n• had hopra to finish some\nreport but that can not tr done.\nso i work on the pages some nose\nand finest up in time if pontes to\nCatch the next boat on the zist.\nLots and lots of lor te you\ndear st surt heart -\nI missed you\ntribe, today Sunday is the worst\nday to get through with out you and\nthe kids\nand Im always glad when\net over..\nO hair a very busy day\nahead .\nin fact a ving buoy wicke\nbut think it wile be one of accomplinh.\nment.\nYoga so anyway -\nYour own.\nBui\nTele And and caddy that Cheatsfuess\ncost\n90¢ a carton our here. No U.S. stamps\nand\ntaxis in China are leas chan U.S.\n201912106116"
    ],
    "millsfield:images_texts_ids": [
      1913800299,
      1913800301,
      1913800303,
      1913800305
    ],
    "millsfield:primary_image": 1913800299,
    "millsfield:subcategory_id": 1511213489,
    "mz:is_approximate": 1,
    "mz:is_current": 1,
    "sfomuseum:accession_number": "2019.121.0611 a b",
    "sfomuseum:airline": "Pan American Airways",
    "sfomuseum:airline_id": [
      685,
      1131
    ],
    "sfomuseum:category": "Employee Career History",
    "sfomuseum:classification_id": 195,
    "sfomuseum:collection": "Aviation Archive",
    "sfomuseum:creditline": "Collection of SFO Museum",
    "sfomuseum:date": "03/19/1933",
    "sfomuseum:date_acquired": "2019-11-22",
    "sfomuseum:daterange_end": "1933-03-19",
    "sfomuseum:daterange_start": "1933-03-19",
    "sfomuseum:description": "Handwritten letter from Harold M. Bixby to his wife, Debby Bixby, dated Sunday, March 19, [1933]; includes description of the Stinson airplane coming in from Peiping [Peking, now Beijing] and the condition of Christy Matheson [Mathewson], Jr.; description of Max Polin.",
    "sfomuseum:dimensions": "9 3/4 x 8 1/4 inches (24.8 x 21 cm)",
    "sfomuseum:medium": "paper, ink",
    "sfomuseum:object_id": 210886,
    "sfomuseum:placetype": "object",
    "sfomuseum:publication": ": , 03/19/1933.",
    "sfomuseum:subcategory": "Correspondence, Personal",
    "src:geom": "sfomuseum#undetermined",
    "wof:belongsto": [
      102527513,
      1159162825,
      102191575,
      85633793,
      102087579,
      85922583,
      85688637,
      1159160869
    ],
    "wof:country": "XY",
    "wof:created": 1714548911,
    "wof:depicts": [
      1159285931,
      1159286721,
      1159284991
    ],
    "wof:geomhash": "c281b9d9eefc83b5710e64b9d646067d",
    "wof:hierarchy": [
      {
        "building_id": -1,
        "campus_id": 102527513,
        "collection_id": 1159162825,
        "concourse_id": 1159162825,
        "continent_id": 102191575,
        "country_id": 85633793,
        "county_id": 102087579,
        "custom_id": 1913795845,
        "locality_id": 85922583,
        "neighbourhood_id": -1,
        "object_id": 1913795845,
        "region_id": 85688637,
        "wing_id": 1159160869
      }
    ],
    "wof:id": 1913795845,
    "wof:lastmodified": 1787988219,
    "wof:name": "correspondence: Harold M. Bixby to Debby Bixby",
    "wof:parent_id": 1159162825,
    "wof:placetype": "custom",
    "wof:placetype_alt": [
      "object"
    ],
    "wof:repo": "sfomuseum-data-collection",
    "wof:superseded_by": [],
    "wof:supersedes": []
  },
  "bbox": [
    -122.38647222518921,
    37.6161053594541,
    -122.38583385944366,
    37.61661101879963
  ],
  "geometry": {"type":"Polygon","coordinates":[[[-122.38647222518921,37.61631782178288],[-122.386434674263,37.61623283692423],[-122.38637566566466,37.61617759671399],[-122.38630056381224,37.6161308549656],[-122.38616108894348,37.6161053594541],[-122.38602161407469,37.6161308549656],[-122.38591432571411,37.61618609521055],[-122.38585531711577,37.61626683087935],[-122.38583385944366,37.61636881265146],[-122.38587141036987,37.61646654505181],[-122.38594114780425,37.61654303118856],[-122.38605380058287,37.61660252035167],[-122.38618254661559,37.61661101879963],[-122.3863059282303,37.61657277577607],[-122.3864185810089,37.61650903735973],[-122.3864668607712,37.61641130501523],[-122.38647222518921,37.61631782178288]]]}
}
