{
  "id": 1511951153,
  "type": "Feature",
  "properties": {
    "date:cessation_lower": "1929-01-01",
    "date:cessation_upper": "1929-12-31",
    "date:inception_lower": "1929-01-01",
    "date:inception_upper": "1929-12-31",
    "edtf:cessation": "1929",
    "edtf:date": "1929",
    "edtf:inception": "1929",
    "geom:area": 0,
    "geom:bbox": "-122.386155,37.616357,-122.386155,37.616357",
    "geom:latitude": 37.616357,
    "geom:longitude": -122.386155,
    "iso:country": "XX",
    "millsfield:airline_id": [
      1159284991
    ],
    "millsfield:category_id": 1763416397,
    "millsfield:collection_id": 1511214207,
    "millsfield:company_id": [
      1159286839
    ],
    "millsfield:images": [
      1527829199
    ],
    "millsfield:images_colors_refs": {
      "crayola": [
        {
          "hex": "#414a4c"
        },
        {
          "hex": "#fddde6"
        }
      ],
      "css4": [
        {
          "hex": "#2f4f4f"
        },
        {
          "hex": "#dcdcdc"
        }
      ],
      "marekm4": [
        {
          "hex": "#262930"
        },
        {
          "hex": "#e5e5e6"
        }
      ]
    },
    "millsfield:images_texts": [
      "1929\nNASSAU\nPAA\nPan American Achievement\nTER fifteen months of successful passenger-ma\nservice from Florida to Havana, Pan America!\nAirways, Inc., has inaugurated through rail-air\nservice from the East and Middle West to the Indies.\nIt now takes another important step in developing in-\nternational air transport by retaining Colonel Charles\nA. Lindbergh as technical adviser to Pan American\nAirways, Inc., and its affiliated operating companies,\nand also as consultant to Aviation Corporation of the\nAmericas, the holding company.\nolonel Lindbergh Will pass on all matters pertainin.\n› routes, airports, equipment, and all technical mal\nters relating to Pan Ámerican service.\nNor has passenger comfort been forgotten, as is shown\nby our operating agreement with seven great railroad\nsystems. Through rail-air service to the Bahamas and\nall parts of the Indies has been inaugurated. The en-\ntire Atlantic seaboard and the great cities of the mid-\ndle West are now offered for the first time a fast,\nunbroken-luxury journey to Havana and all parts of\nthe West Indies.\nCombined Rail-Air Service\nSix of the nation's finest trains daily carry passengers\nto Miami. Private motor cars convey arrivals to Pan\nAmerican Airport, the\nfirst Rail-Air Terminal in\nAmerica. Gigantic tri-motored Airliners wait to speed\nSpeed With Safety\nthem on their way. Within one hour after arriving\nin Miami they are moving with speed and comfort\nThis action follows the Pan American policy of mak-\ntoward the tropical islands.\ning safety of operation its first consideration. It has\nPan American Airliners present a revelation in travel\nprocured the most able technical advice; just as it\ncomfort. Restful easy-chairs, flanking a wide central\nas equipped its giant tri-motored Airliners with di\naisle, offer a view through full-vision windows. Mail\nrectional radio giving constant communication with\nind baggage have their separate compartment. Mod\ntwo airports, furnished them with every safety device\nrn toilet facilities provide for passenger comfort. Ir\nknown to modern aviation, manned each with two\nshort, the Airliners continue\nthe luxurious service\nveteran pilots and a capable\nsteward.\nTo qualify,\nfound on these excellent connecting trains.\nsenior pilots must have 2000 hours of flying time;\nFrom New York-39 hours to Havana and Nassau\njunior pilots, 1000 hours.\n(making direct connections from Boston).\nWhile placing safety foremost, Pan American Air-\nways, Inc., has had due regard for the modern re-\navana Special Lo. 3:20 P. A\nPalmetto\nimited Lo. 7:10 P. A\njuirement of speed. From the northern terminal at\nFlorida Special\nMiami, Airliners daily make the voyage to Havana in\nLo. 8:35 P.M.\n2 hours and 15 minutes, saving an entire business\nFrom\nChicago and principal cities in Ohio and\nday. Thrice weekly service from Havana to Port au\nMichigan.\nFlamingo\nPrince, Santo Domingo City, and San Juan clips 33½\nhours from the former travel time.\nThrice weekly\nFrom Chicago and St. Louis—44 hours to Havana\nservice from Miami to Nassau covers in 2 hours the\nand Nassau.\nDixie Limited\ndistance requiring sixteen hours by steamer.\nFloridan\nInformation, rates and reservations are available at 800 principal\nrailway offices or at any office of Pan American Airways, Inc.\nPAN AMERICAN AIRWAYS, INC.\n122 E. 42nd Street, New York City\nPAAL\n2001. 029.\nIZU OD3"
    ],
    "millsfield:images_texts_ids": [
      1527829199
    ],
    "millsfield:primary_image": 1527829199,
    "millsfield:subcategory_id": 1511213149,
    "mz:hierarchy_label": 1,
    "mz:is_current": 1,
    "sfomuseum:accession_number": "2001.038.164.003",
    "sfomuseum:airline": "Pan American Airways",
    "sfomuseum:airline_id": [
      685
    ],
    "sfomuseum:category": "Promotional, Archive",
    "sfomuseum:classification_id": 6,
    "sfomuseum:collection": "Aviation Archive",
    "sfomuseum:creditline": "Gift of Barnaby Conrad III",
    "sfomuseum:date": "1929",
    "sfomuseum:date_acquired": "2003-05-16",
    "sfomuseum:daterange_end": "1929-12-31",
    "sfomuseum:daterange_start": "1929-01-01",
    "sfomuseum:description": "Advertisement from March 1929 issue of The Living Age promoting Pan American Airways, Inc., titled “Pan American Achievement”; black and white advertisement with image of Ford Tri-Motor model superimposed over route map of Cuba.",
    "sfomuseum:dimensions": "12 x 9 inches (30.5 x 22.9 cm)",
    "sfomuseum:media_ids": [
      1527829199
    ],
    "sfomuseum:medium": "paper, ink",
    "sfomuseum:object_id": 122705,
    "sfomuseum:placetype": "object",
    "sfomuseum:primary_media_id": 1527829199,
    "sfomuseum:publication": ": , 1929.",
    "sfomuseum:subcategory": "Advertisement, 2D",
    "sfomuseum:subject": "Pan Am promotional advertisement",
    "src:geom": "sfomuseum#undetermined",
    "wof:belongsto": [
      1511214205,
      102527513,
      102191575,
      85633793,
      1511213149,
      85922583,
      102087579,
      1511214277,
      1511214207,
      85688637
    ],
    "wof:breaches": [],
    "wof:country": "XX",
    "wof:created": 1579906675,
    "wof:depicts": [
      1159286839,
      1159292297,
      1159284991
    ],
    "wof:geomhash": "30c8a918561c84bb2daa2b97fc7c5353",
    "wof:hierarchy": [
      {
        "arcade_id": 1511213149,
        "building_id": 1511214277,
        "campus_id": 102527513,
        "concourse_id": 1511214205,
        "continent_id": 102191575,
        "country_id": 85633793,
        "county_id": 102087579,
        "custom_id": 1511951153,
        "locality_id": 85922583,
        "neighbourhood_id": -1,
        "object_id": 1511951153,
        "region_id": 85688637,
        "venue_id": 1511951153,
        "wing_id": 1511214207
      }
    ],
    "wof:id": 1511951153,
    "wof:lastmodified": 1787988188,
    "wof:name": "advertisement: Pan American Airways, The Living Age",
    "wof:parent_id": 1159162825,
    "wof:placetype": "custom",
    "wof:placetype_alt": [
      "object"
    ],
    "wof:repo": "sfomuseum-data-collection",
    "wof:superseded_by": [],
    "wof:supersedes": [],
    "wof:tags": []
  },
  "bbox": [
    -122.386155,
    37.616357,
    -122.386155,
    37.616357
  ],
  "geometry": {"type":"Point","coordinates":[-122.386155,37.616357]}
}
