{
  "id": 1762828037,
  "type": "Feature",
  "properties": {
    "date:cessation_lower": "1928-01-01",
    "date:cessation_upper": "1928-12-31",
    "date:inception_lower": "1928-01-01",
    "date:inception_upper": "1928-12-31",
    "edtf:cessation": "1928",
    "edtf:inception": "1928",
    "geom:area": 0,
    "geom:bbox": "-122.391953,37.624731,-122.391953,37.624731",
    "geom:latitude": 37.624731,
    "geom:longitude": -122.391953,
    "iso:country": "US",
    "millsfield:airport_id": [
      1360695653
    ],
    "millsfield:category_id": 1511214239,
    "millsfield:collection_id": 1511214207,
    "millsfield:images": [
      1762897057,
      1762897061
    ],
    "millsfield:images_colors_refs": {
      "crayola": [
        {
          "hex": "#6e5160"
        },
        {
          "hex": "#efcdb8"
        },
        {
          "hex": "#9f8170"
        }
      ],
      "css4": [
        {
          "hex": "#556b2f"
        },
        {
          "hex": "#f5deb3"
        },
        {
          "hex": "#808080"
        },
        {
          "hex": "#696969"
        }
      ],
      "marekm4": [
        {
          "hex": "#65634c"
        },
        {
          "hex": "#e2d7b0"
        },
        {
          "hex": "#626049"
        },
        {
          "hex": "#938e72"
        },
        {
          "hex": "#e1d9b8"
        }
      ]
    },
    "millsfield:images_texts": [
      "aul\"\nSupervisor55/8-42\nMunteipal Airport\nMilibree Deiry Co.\n531/5\nBLl18_ for Cutting Greas.\nFebruary 9, 1928)\nSORG\nSAN\nFRANCIS!\nThe Honorable\nThe Board of Pubiie Worice,\nCity and County of Sen Pranelseo.\nGentlemen:\nI return herewith Petition No. 59,342 of the Airport\nCommittee of the Board of Supervisors relative to the bill of\nthe Hillbree Dairy Company, in the sun of $1531, for grass\ncutting, eto. at the Mills Pield Munleipal Airport of San\nIn answer thereto, please be advised that the grass\nwes out at different times by the Millbree Deiry Company - Mr.\nLongwell,\nSuperintendent - during various periods from April\nto Auguat 1927. The reasons for cutting were many, the initial\ncutting being in connection with the conference of\nthe California\nAeronautieal Assoolation, at which time the field was eleared\nfor \u0026 large sree by the Millbrae Dairy Company.\nIt was out\nagain in connection with the preparation of the field just\nprevious to the Dole flight.\nat the suggestion of the City's inspectors who, according to\nThe doy\nIt was also cut at various times\nstatenents since received - copies of which are attached hereto-\nassuned that the hay was being out for its use, and further\nassumed that there was no expense to the city.\nThis Impresaion\nseemed to be general with all connected with the Airport aotivi-\nties, namely, that the Millbrue Dairy Company were outting the\ngrass, the City receiving a clear fleld, and she Millbree Dairy\nthe use of the hay.\nNo reguisitions weze issued for thia work.\nPresenta-\ntion of the bills in November was the tirst intimation this\noffice had that the Millbree Dairy Company expected pay for the\nwork.\nA conference was then held between this office, Mr.\nTorisgino and Ir. Longwell, at which time they stated\nthat at\nno time could the Millbree Dairy Company make use of the grass\nout, and they had assomed that any request on the part of the\ninspectors in the fleld for the cutting of grass would be paid\nIrrespective of the misunderstanding, it does appear\nshet the city has value received for the labora of the Millbrae\nDairy Company, and for that reason I would recommend agein that\nthis item be\ntaken into account in the preparation of the budget\nfor the yeaz 1928-8.",
      "Board of Public Works\n-2-\n2/9/28\nProper maintenance of the field will call for con-\ntinual grass cutting, and the sum of $5000 was requested for\nthis and other maintenance purposes in the suggested budget\nfor the Airport for the fiscal year 1927-8.\nRespectfully,\nM. M. O\"SHAUGHNESSY\nCity Engineer\nBy C. E. Healy.\nWHO/K\nENCS •\n(Copies letters \u0026\nbills, same subject).\nFebruary 15, 1928. Board of supervisors. Gentlemen:\nabove is in\nresponse to your letter of January 16, 1928.\nReference is made to resolution No. 100,266, second\nseries,\npassed December 23, 1927.\nAttached is certain correspondence\nrelative to the above matter.\nBoard of Public works, s.\n+ о ров пото\nJ.\nYester, Secretary. DRS"
    ],
    "millsfield:images_texts_ids": [
      1762897057,
      1762897061
    ],
    "millsfield:primary_image": 1762897057,
    "millsfield:subcategory_id": 1511213483,
    "mz:is_approximate": 1,
    "mz:is_current": 1,
    "sfomuseum:accession_number": "2000.018.021.006 a b",
    "sfomuseum:airport": "Mills Field Municipal Airport of San Francisco",
    "sfomuseum:airport_id": [
      162
    ],
    "sfomuseum:category": "Company Record / Document",
    "sfomuseum:classification_id": 190,
    "sfomuseum:collection": "Aviation Archive",
    "sfomuseum:creditline": "Collection of SFO Museum",
    "sfomuseum:date": "1928",
    "sfomuseum:date_acquired": "1999-06-30",
    "sfomuseum:daterange_end": "1928-12-31",
    "sfomuseum:daterange_start": "1928-01-01",
    "sfomuseum:description": "Correspondence from M. M. O’Shaughnessy, City Engineer, San Francisco Department of Public Works, to Board of Public Works, dated February 9, 1928, concerning removal of grass and hay by Millbrae Dairy Company at Mills Field Municipal Airport and subsequent unauthorized charges to City and County of San Francisco in amount of $1,531.00; from File 531.9; two ; typewritten pages with handwritten notations.",
    "sfomuseum:dimensions": "11 x 8 1/2 inches (27.9 x 21.6 cm)",
    "sfomuseum:medium": "paper, ink",
    "sfomuseum:object_id": 165143,
    "sfomuseum:placetype": "object",
    "sfomuseum:publication": ": , 1928.",
    "sfomuseum:subcategory": "Correspondence, Company",
    "src:geom": "sfomuseum#derived",
    "src:geom_derived_from": [
      1360695653
    ],
    "wof:belongsto": [
      102527513,
      1159162825,
      102191575,
      85633793,
      102087579,
      85922583,
      85688637,
      1159160869,
      1360695653,
      554784711,
      102085387
    ],
    "wof:country": "US",
    "wof:created": 1642729289,
    "wof:depicts": [
      1360695653
    ],
    "wof:geomhash": "3abf1c04b00c12d6593e9cd3c35f0056",
    "wof:hierarchy": [
      {
        "building_id": -1,
        "campus_id": 102527513,
        "collection_id": 1159162825,
        "concourse_id": 1159162825,
        "continent_id": 102191575,
        "country_id": 85633793,
        "county_id": 102087579,
        "custom_id": 1762828037,
        "locality_id": 85922583,
        "neighbourhood_id": -1,
        "object_id": 1762828037,
        "region_id": 85688637,
        "wing_id": 1159160869
      },
      {
        "campus_id": 1360695653,
        "continent_id": 102191575,
        "country_id": 85633793,
        "county_id": 102087579,
        "custom_id": 1762828037,
        "locality_id": 85922583,
        "object_id": 1762828037,
        "postalcode_id": 554784711,
        "region_id": 85688637
      },
      {
        "campus_id": 1360695653,
        "continent_id": 102191575,
        "country_id": 85633793,
        "county_id": 102085387,
        "custom_id": 1762828037,
        "object_id": 1762828037,
        "region_id": 85688637
      }
    ],
    "wof:id": 1762828037,
    "wof:lastmodified": 1787988200,
    "wof:name": "correspondence: City and County of San Francisco, Millbrae Dairy Company",
    "wof:parent_id": 1159162825,
    "wof:placetype": "custom",
    "wof:placetype_alt": [
      "object"
    ],
    "wof:repo": "sfomuseum-data-collection",
    "wof:superseded_by": [],
    "wof:supersedes": []
  },
  "bbox": [
    -122.391953,
    37.624731,
    -122.391953,
    37.624731
  ],
  "geometry": {"type":"MultiPoint","coordinates":[[-122.391953,37.624731]]}
}
