{
  "id": 1762687623,
  "type": "Feature",
  "properties": {
    "date:cessation_lower": "1971-01-01",
    "date:cessation_upper": "1971-12-31",
    "date:inception_lower": "1971-01-01",
    "date:inception_upper": "1971-12-31",
    "edtf:cessation": "1971",
    "edtf:inception": "1971",
    "geom:area": 2.475047457570636e-7,
    "geom:bbox": "-122.386472,37.616105,-122.385834,37.616611",
    "geom:latitude": 37.61635747477365,
    "geom:longitude": -122.38615540108617,
    "millsfield:airline_id": [
      1159284711
    ],
    "millsfield:category_id": 1511214223,
    "millsfield:collection_id": 1511214207,
    "millsfield:company_id": [
      1159288215
    ],
    "millsfield:images": [
      1763381281,
      1763381283
    ],
    "millsfield:images_colors_refs": {
      "crayola": [
        {
          "hex": "#9f8170"
        },
        {
          "hex": "#efdecd"
        },
        {
          "hex": "#bab86c"
        },
        {
          "hex": "#414a4c"
        },
        {
          "hex": "#a5694f"
        }
      ],
      "css4": [
        {
          "hex": "#a0522d"
        },
        {
          "hex": "#556b2f"
        },
        {
          "hex": "#bdb76b"
        },
        {
          "hex": "#dcdcdc"
        }
      ],
      "marekm4": [
        {
          "hex": "#e7e0cc"
        },
        {
          "hex": "#a65340"
        },
        {
          "hex": "#4b4634"
        },
        {
          "hex": "#e8e1ce"
        },
        {
          "hex": "#9c5b48"
        },
        {
          "hex": "#af9d54"
        },
        {
          "hex": "#4f4b3a"
        },
        {
          "hex": "#af9756"
        }
      ]
    },
    "millsfield:images_texts": [
      "MANUFACTURED BY BLUE BELL PUBLICATIONS\n2\nVODROFESVEJI. COPENMAGEN Y. DENMARK\nLufthansa\nFlugverbindungen\nDeutschland\ngültig ab 1. April 1971\nDie Flugpläne Berlin, Saarbrücken,\nFlensburg/Kiel sowie die Flugpreise\nstehen im Innenteil des Schiebers.\nUnsere internationalen\nFlugverbindungen und\nFrachtdienste finden Sie in\nunserem Taschenflugplan.\nZeichenerklärung\n* täglich\n* ex täglich außer\n1 Montag\n2 Dienstag\n3 Mittwoch\n4\nDonnerstag\nFreitag\nSamstag\nSonntag\na)\nb)\n1.-30. 4. + 1.-31. 10. 71\nab 15. 5. 71\nC)\n1. 4.-29. 5. 71\nd)\nab 3. 6. 71\ne) 21. 4.-30. 4. 71\nverkehrt nicht 21. 4.-30. 4. 71\ng)\n1. 4.-31. 5. + 1. 9.-31. 10. 71\nrot\nDirektverbindungen\nschwarz\n=\nD\nUmsteigeverbindungen\nF\n=\nvia Düsseldorf\n=\nvia Frankfurt\n=\nvia Hannover\n= via Köln/Bonn\nS\n=\nvia Stuttgart\nÄnderungen vorbehalten\nErmäßigte\nWochenendflüge\nAbflug\nBre-\nmen\n06.45\n16.35\n18.30\n06.45\n07.40\n08.30\n10.55\n14.30\n16.35\n18.55\n06.45\n07.40\n10.55\n14.30\n16.35\n18.55\n07.40\n10.55\n14.30\n18.30\n18.55\nHannover\nKöln/Bonn\nMünchen\nNürnberg\nShrt art\nAnkunft\n07.10\n17.00\n18.55\nAnzahl\nder Fluge\nObisG\nObisC\n08.\n.40\n10.40\n11.05\n13.25\n16.55\n18.35\n22.15\nMIT WURZTABAKEN\nTRATIN IN RAUCH\nbisc\n* F\n* F\n*F\n*F\nALL RIGHTS RESERVED PRINTED IN DENMARK\n2\n17\nNATURMILD\n20 AUSLESE CIGA\n08.35\n10.40\n14.05\n17.20\n18.50\n22.00\n10.15\n14.00\n16.50\n(20.20\n21.45\nAus Geschmack\nam Leichten. Mit Würztabaken,\nnaturmild, nikotinarm im Rauch.\n20 Atika DM 2,-\n* F\n* F\n* F\nObisCH\n*F\n***",
      "1\n1\nLufthansa\nFlugverbindungen\nDeutschland\ngültig ab 1. April 1971\nDie Flugpläne Berlin, Saarbrücken,\nFlensburg/Kiel sowie die Flugpreise\nstehen im Innenteil des Schiebers.\nUnsere internationalen\nFlugverbindungen und\nFrachtdienste finden Sie in\nunserem Taschenflugplan.\nZeichenerklärung\n* täglich\n* ex täglich außer\n• Montag 2 Dienstag 3 Mittwoch\n, Donnerstag 5 Freitag\nSamstag\n• Sonntag\na) 1.-—30. 4. + 1.-31. 10. 71\nb)\nab 15. 5. 71\nc)\nd)\n1. 4.-29. 5.71\nab 3. 6.71\ne) 21. 4.-30. 4. 71\nf)\nverkehrt nicht 21. 4.-30. 4. 71\ng) 1. 4.-31. 5. + 1. 9.-31. 10.71\nrot\nDirektverbindungen\nschwarz = Umsteigeverbindungen\nD\nvia Düsseldorf\n= via Frankfurt\n=\nvia Hannover\nK\n= via Köln/Bonn\nS\n= via Stuttgart\nÄnderungen vorbehalten\nErmäßigte\nWochenendflüge\nAbflug\nBre-\nmen\nAnkunft\nAnzahl\nder Flüge\nBremen\nDüsseldorf\n08.30\n17.50\n09.30\n18.50\nObist\nObisS\nFrankfurt\n14.30\n18.\n08\n11\n****\nALL RICHTS RESERVEN\n1\n1\nHamburg\n12.30\n17.15\nIhr IATA-Flugreisebüro\nAVIKI\nNATURMILD\n20 AUSLESÉ\nKA.2\nAus Geschmack\nam Leichten. Mit Würztabaken,\nnaturmild, nikotinarm im Rauch.\n20 Atika DM 2,-\n200\n180\nObisc\n**x"
    ],
    "millsfield:images_texts_ids": [
      1763381281,
      1763381283
    ],
    "millsfield:primary_image": 1763381281,
    "millsfield:subcategory_id": 1511213425,
    "mz:is_current": 1,
    "sfomuseum:accession_number": "2005.133.180",
    "sfomuseum:airline": "Lufthansa",
    "sfomuseum:airline_id": [
      560
    ],
    "sfomuseum:category": "Scheduling / Ticketing",
    "sfomuseum:classification_id": 158,
    "sfomuseum:collection": "Aviation Archive",
    "sfomuseum:continent": "Europe",
    "sfomuseum:country": "Germany",
    "sfomuseum:creditline": "Gift of the William Hough Collection",
    "sfomuseum:date": "1971",
    "sfomuseum:date_acquired": "2005-08-09",
    "sfomuseum:daterange_end": "1971-12-31",
    "sfomuseum:daterange_start": "1971-01-01",
    "sfomuseum:description": "Timetable issued by Lufthansa for German service routes, effective April 1, 1971; white cover with blue logo.",
    "sfomuseum:dimensions": "4 1/4 x 8 inches (10.8 x 20.3 cm)",
    "sfomuseum:medium": "paper, ink",
    "sfomuseum:object_id": 78790,
    "sfomuseum:placetype": "object",
    "sfomuseum:publication": ": , 1971.",
    "sfomuseum:subcategory": "Timetable",
    "src:geom": "sfomuseum#undetermined",
    "wof:belongsto": [
      102527513,
      1159162825,
      102191575,
      85633793,
      102087579,
      85922583,
      85688637,
      1159160869
    ],
    "wof:country": "XY",
    "wof:created": 1641342034,
    "wof:depicts": [
      1159288215,
      1159284711
    ],
    "wof:geomhash": "c281b9d9eefc83b5710e64b9d646067d",
    "wof:hierarchy": [
      {
        "building_id": -1,
        "campus_id": 102527513,
        "collection_id": 1159162825,
        "concourse_id": 1159162825,
        "continent_id": 102191575,
        "country_id": 85633793,
        "county_id": 102087579,
        "custom_id": 1762687623,
        "locality_id": 85922583,
        "neighbourhood_id": -1,
        "object_id": 1762687623,
        "region_id": 85688637,
        "wing_id": 1159160869
      }
    ],
    "wof:id": 1762687623,
    "wof:lastmodified": 1787988195,
    "wof:name": "timetable: Lufthansa",
    "wof:parent_id": 1159162825,
    "wof:placetype": "custom",
    "wof:placetype_alt": [
      "object"
    ],
    "wof:repo": "sfomuseum-data-collection",
    "wof:superseded_by": [],
    "wof:supersedes": []
  },
  "bbox": [
    -122.38647222518921,
    37.6161053594541,
    -122.38583385944366,
    37.61661101879963
  ],
  "geometry": {"type":"Polygon","coordinates":[[[-122.38647222518921,37.61631782178288],[-122.386434674263,37.61623283692423],[-122.38637566566466,37.61617759671399],[-122.38630056381224,37.6161308549656],[-122.38616108894348,37.6161053594541],[-122.38602161407469,37.6161308549656],[-122.38591432571411,37.61618609521055],[-122.38585531711577,37.61626683087935],[-122.38583385944366,37.61636881265146],[-122.38587141036987,37.61646654505181],[-122.38594114780425,37.61654303118856],[-122.38605380058287,37.61660252035167],[-122.38618254661559,37.61661101879963],[-122.3863059282303,37.61657277577607],[-122.3864185810089,37.61650903735973],[-122.3864668607712,37.61641130501523],[-122.38647222518921,37.61631782178288]]]}
}
