{
  "id": 1511934623,
  "type": "Feature",
  "properties": {
    "date:cessation_lower": "1977-01-01",
    "date:cessation_upper": "1977-12-31",
    "date:inception_lower": "1977-01-01",
    "date:inception_upper": "1977-12-31",
    "edtf:cessation": "1977",
    "edtf:date": "1977",
    "edtf:inception": "1977",
    "geom:area": 0,
    "geom:bbox": "-122.386155,37.616357,-122.386155,37.616357",
    "geom:latitude": 37.616357,
    "geom:longitude": -122.386155,
    "iso:country": "XX",
    "millsfield:airline_id": [
      1159285413
    ],
    "millsfield:category_id": 1511214223,
    "millsfield:collection_id": 1511214207,
    "millsfield:company_id": [
      1159288779
    ],
    "millsfield:images": [
      1527838727,
      1527851199
    ],
    "millsfield:images_colors_refs": {
      "crayola": [
        {
          "hex": "#9c2542"
        },
        {
          "hex": "#6699cc"
        },
        {
          "hex": "#dbd7d2"
        },
        {
          "hex": "#2e5894"
        },
        {
          "hex": "#324ab2"
        },
        {
          "hex": "#000000"
        },
        {
          "hex": "#efcdb8"
        },
        {
          "hex": "#9f8170"
        }
      ],
      "css4": [
        {
          "hex": "#000000"
        },
        {
          "hex": "#bc8f8f"
        },
        {
          "hex": "#483d8b"
        },
        {
          "hex": "#d3d3d3"
        },
        {
          "hex": "#4682b4"
        },
        {
          "hex": "#dcdcdc"
        },
        {
          "hex": "#5f9ea0"
        },
        {
          "hex": "#a52a2a"
        }
      ],
      "marekm4": [
        {
          "hex": "#e0d2c0"
        },
        {
          "hex": "#a93d21"
        },
        {
          "hex": "#a49076"
        },
        {
          "hex": "#648da3"
        },
        {
          "hex": "#201f15"
        },
        {
          "hex": "#1d359a"
        },
        {
          "hex": "#426f9c"
        },
        {
          "hex": "#e0dcd5"
        }
      ]
    },
    "millsfield:images_texts": [
      "UnITED\nOur Friendly Times\nOctober 30, 1977\nCountry Club Plaza, Kansas City, Mo.",
      "HONOLULU TIME\nSAN FRANCISCO-\nOAKLAND\nSAN JOSE\nWETTEREY\nHONOLULU\ny\nPACIFIC TIME\nVANCOUVER, B.C\nSEATTLE TACOMA\nSPOKANE\nPORTLAND\nPENDEN\nBOISE\nMEDFORD.\nRENO/TAHOE\nSTOCKTON\nMODESTO\nMERCED\nFRESNO\nBAKERSFIELD\nSANTA BARBARA\nLOS ANGELES.\nONTARIO\nCAN BESEE\nMOUNTAIN TIME\n• SALT LAKE GITY.\nDENVER\n• GRAND JUNCTION\nI LAS VEGAS\nHILO\n• Location served by United Airlines and Western International Hotels\n• Location served by United Airlines\nL\nCENTRAL TIME\nEASTERN TIME\nLINCOLN\nROCKEN\nTORONTO\nMINNEAPOLIS-ST. PAUI\nSASS\nSPRINCLIFID\nBUFFALO\nPROVISERA\nMILWAUKEE\nALLENTOWN\nHISRES\nTOLEDO\nCLEVELAND\nYOUNGSTOWN\nCEDAR RAPIDS\nSOUTH BEND\nFORT WAYNE\nPITISBURGH\nCOLUMBUS\nDES MOINES\nDAVENPORT\nDAYTON\nCANTON\n•\nBALTIMORE WASHINGTON\nRICHMONT\nNORFOLK.PORTSMOUTH\nKANSAS CHY\nGREENSBORO\nRALEIGH\n• DUPHAM\nASHEVILLE\n• CHARLOTTE\nNEW VODK\nNEWARK\nPHILADE PHIA\nNEWPORT\nNEWS\nHAMPTON\nWILLIAMSBURG\nHUNTSVILLE\nBIRMINGHAM I\nNEW ORLEANS\nBACKCONVIRSS\nTAMPA\nST. PETERSBURG\nCLEARWATER\nWEST PALM BEACH\nMIAMI-\nFORT LAUDERDALE\nStandard route lines have been replaced by\nindications of general traffic flows on United\nAirlines. All cities served by United are\nportrayed.\nRev. 10/75"
    ],
    "millsfield:images_texts_ids": [
      1527838727,
      1527851199
    ],
    "millsfield:primary_image": 1527838727,
    "millsfield:subcategory_id": 1511213425,
    "mz:hierarchy_label": 1,
    "mz:is_current": 1,
    "sfomuseum:accession_number": "2008.108.818",
    "sfomuseum:airline": "United Airlines",
    "sfomuseum:airline_id": [
      883
    ],
    "sfomuseum:category": "Scheduling / Ticketing",
    "sfomuseum:classification_id": 158,
    "sfomuseum:collection": "Aviation Archive",
    "sfomuseum:creditline": "Gift of the William Hough Collection",
    "sfomuseum:date": "1977",
    "sfomuseum:date_acquired": "2008-11-10",
    "sfomuseum:daterange_end": "1977-12-31",
    "sfomuseum:daterange_start": "1977-01-01",
    "sfomuseum:description": "Timetable issued by United Airlines, effective October 30, 1977; white cover with color photographic image of Country Club Plaza in Kansas City, Missouri.",
    "sfomuseum:dimensions": "9 x 4 inches (22.9 x 10.2 cm)",
    "sfomuseum:media_ids": [
      1527838727,
      1527851199
    ],
    "sfomuseum:medium": "paper, ink",
    "sfomuseum:object_id": 94229,
    "sfomuseum:placetype": "object",
    "sfomuseum:primary_media_id": 1527838727,
    "sfomuseum:publication": ": , 1977.",
    "sfomuseum:subcategory": "Timetable",
    "sfomuseum:subject": "Airlines -- Commercial -- United",
    "src:geom": "sfomuseum#undetermined",
    "wof:belongsto": [
      1511214223,
      102527513,
      102191575,
      85633793,
      1511213425,
      85922583,
      102087579,
      1511214277,
      1511214207,
      85688637
    ],
    "wof:breaches": [],
    "wof:country": "XX",
    "wof:created": 1579906676,
    "wof:depicts": [
      1159285413,
      1159288779
    ],
    "wof:geomhash": "30c8a918561c84bb2daa2b97fc7c5353",
    "wof:hierarchy": [
      {
        "arcade_id": 1511213425,
        "building_id": 1511214277,
        "campus_id": 102527513,
        "concourse_id": 1511214223,
        "continent_id": 102191575,
        "country_id": 85633793,
        "county_id": 102087579,
        "custom_id": 1511934623,
        "locality_id": 85922583,
        "neighbourhood_id": -1,
        "object_id": 1511934623,
        "region_id": 85688637,
        "venue_id": 1511934623,
        "wing_id": 1511214207
      }
    ],
    "wof:id": 1511934623,
    "wof:lastmodified": 1787988182,
    "wof:name": "timetable: United Airlines",
    "wof:parent_id": 1159162825,
    "wof:placetype": "custom",
    "wof:placetype_alt": [
      "object"
    ],
    "wof:repo": "sfomuseum-data-collection",
    "wof:superseded_by": [],
    "wof:supersedes": [],
    "wof:tags": []
  },
  "bbox": [
    -122.386155,
    37.616357,
    -122.386155,
    37.616357
  ],
  "geometry": {"type":"Point","coordinates":[-122.386155,37.616357]}
}
