{
  "id": 1913795173,
  "type": "Feature",
  "properties": {
    "date:cessation_lower": "1933-10-04",
    "date:cessation_upper": "1933-10-04",
    "date:inception_lower": "1933-10-04",
    "date:inception_upper": "1933-10-04",
    "edtf:cessation": "1933-10-04",
    "edtf:inception": "1933-10-04",
    "geom:area": 2.475047457570636e-7,
    "geom:bbox": "-122.386472,37.616105,-122.385834,37.616611",
    "geom:latitude": 37.61635747477365,
    "geom:longitude": -122.38615540108617,
    "millsfield:airline_id": [
      1159284991,
      1159285931
    ],
    "millsfield:category_id": 1511214251,
    "millsfield:collection_id": 1511214207,
    "millsfield:company_id": [
      1159286721
    ],
    "millsfield:images": [
      1913801115,
      1913801117
    ],
    "millsfield:images_colors_refs": {
      "crayola": [
        {
          "hex": "#414a4c"
        },
        {
          "hex": "#efcdb8"
        }
      ],
      "css4": [
        {
          "hex": "#f5deb3"
        },
        {
          "hex": "#2f4f4f"
        }
      ],
      "marekm4": [
        {
          "hex": "#41505a"
        },
        {
          "hex": "#e4d9b6"
        },
        {
          "hex": "#425260"
        },
        {
          "hex": "#e4d8b5"
        }
      ]
    },
    "millsfield:images_texts": [
      "urd. Oct. 4\n33\nDearest Debs\nale goro uree\nDue one contract\ntoday for preliminary grination and sot\nRanking for signature of the Mope.\nof it comes back.\napproved then us\ndefinitel\nstart operations on Oct. 107.\nDebo dear\nI dont dare count on\nanything\nSun tho\nmano countr, but it\ndors look es\nthough ur anorea,\ngoing ahead aftsale\nthis long\nmonths\nwaiting:\nThis lette showed racks yo\nor abont nor 2. I wish I had the\ntime or the abel, to express. to you\nwhat our lour has meant to me.\nHave you sa\nthat movie with Ramon\nRavaro\n-Cairo Nights? Wee it io mot a\ngood preters but act through it\ntheri truns a\nbrant fue melod, - \"hor\nSory of the Rile!\"\nt ador that frees.\nsout of like that music -\nand I'm like that movie - nothin\nWry much abont me al but dee though\nhas yai at sleet!\nof may see - yor\nalways beautiful and\nharmonions -\n• companionship. broad",
      "sympathetic intreat - logali sieg\nsacrifier . loor\nthat fir\nmeir beca\n- way.\nNever can\nhogn to return. anyt\nhappiness to\nyou\nwhich wai in\nany\nthat which you\nharo brought\nto maso\nA do hopr\nthat\nTess shall n\nbri table to be topsthu\nagario soon\nand than lee br able\nto-\n- tree you »\nhow wordifie young\nand -\nnara neva\nlet on get so\nfar away that I cant\ntimes-\na dang.\nIn sanding you\na very very\nnot going to tied jo What it is.\nand.\nsent out of\nbecaus this small\nremembrances\n• vice arrive before you\ncamorite to find out what it is-\nat in though that you leared bay „\nNoureNade be susible o tree me ste ste.\nI dont darthink about that thaugh -\njust must nit yet, lo good mignt deant\nhar always lod you\nand\nalway see. you must kang that.\nyour - Bis 2019/21.0728"
    ],
    "millsfield:images_texts_ids": [
      1913801115,
      1913801117
    ],
    "millsfield:primary_image": 1913801115,
    "millsfield:subcategory_id": 1511213489,
    "mz:is_approximate": 1,
    "mz:is_current": 1,
    "sfomuseum:accession_number": "2019.121.0738",
    "sfomuseum:airline": "Pan American Airways",
    "sfomuseum:airline_id": [
      685,
      1131
    ],
    "sfomuseum:category": "Employee Career History",
    "sfomuseum:classification_id": 195,
    "sfomuseum:collection": "Aviation Archive",
    "sfomuseum:creditline": "Collection of SFO Museum",
    "sfomuseum:date": "10/04/1933",
    "sfomuseum:date_acquired": "2019-11-22",
    "sfomuseum:daterange_end": "1933-10-04",
    "sfomuseum:daterange_start": "1933-10-04",
    "sfomuseum:description": "Handwritten letter from Harold M. Bixby to his wife, Debby Bixby, dated Wednesday, October 4, [1933]; includes personal and family matters, minor mention of contract timeline.",
    "sfomuseum:dimensions": "11 x 8 1/4 inches (27.9 x 21 cm)",
    "sfomuseum:medium": "paper, ink",
    "sfomuseum:object_id": 211086,
    "sfomuseum:placetype": "object",
    "sfomuseum:publication": ": , 10/04/1933.",
    "sfomuseum:subcategory": "Correspondence, Personal",
    "src:geom": "sfomuseum#undetermined",
    "wof:belongsto": [
      102527513,
      1159162825,
      102191575,
      85633793,
      102087579,
      85922583,
      85688637,
      1159160869
    ],
    "wof:country": "XY",
    "wof:created": 1714548714,
    "wof:depicts": [
      1159286721,
      1159284991,
      1159285931
    ],
    "wof:geomhash": "c281b9d9eefc83b5710e64b9d646067d",
    "wof:hierarchy": [
      {
        "building_id": -1,
        "campus_id": 102527513,
        "collection_id": 1159162825,
        "concourse_id": 1159162825,
        "continent_id": 102191575,
        "country_id": 85633793,
        "county_id": 102087579,
        "custom_id": 1913795173,
        "locality_id": 85922583,
        "neighbourhood_id": -1,
        "object_id": 1913795173,
        "region_id": 85688637,
        "wing_id": 1159160869
      }
    ],
    "wof:id": 1913795173,
    "wof:lastmodified": 1787988219,
    "wof:name": "correspondence: Harold M. Bixby to Debby Bixby",
    "wof:parent_id": 1159162825,
    "wof:placetype": "custom",
    "wof:placetype_alt": [
      "object"
    ],
    "wof:repo": "sfomuseum-data-collection",
    "wof:superseded_by": [],
    "wof:supersedes": []
  },
  "bbox": [
    -122.38647222518921,
    37.6161053594541,
    -122.38583385944366,
    37.61661101879963
  ],
  "geometry": {"type":"Polygon","coordinates":[[[-122.38647222518921,37.61631782178288],[-122.386434674263,37.61623283692423],[-122.38637566566466,37.61617759671399],[-122.38630056381224,37.6161308549656],[-122.38616108894348,37.6161053594541],[-122.38602161407469,37.6161308549656],[-122.38591432571411,37.61618609521055],[-122.38585531711577,37.61626683087935],[-122.38583385944366,37.61636881265146],[-122.38587141036987,37.61646654505181],[-122.38594114780425,37.61654303118856],[-122.38605380058287,37.61660252035167],[-122.38618254661559,37.61661101879963],[-122.3863059282303,37.61657277577607],[-122.3864185810089,37.61650903735973],[-122.3864668607712,37.61641130501523],[-122.38647222518921,37.61631782178288]]]}
}
