{
  "id": 1913795131,
  "type": "Feature",
  "properties": {
    "date:cessation_lower": "1936-11-07",
    "date:cessation_upper": "1936-11-07",
    "date:inception_lower": "1936-11-07",
    "date:inception_upper": "1936-11-07",
    "edtf:cessation": "1936-11-07",
    "edtf:inception": "1936-11-07",
    "geom:area": 2.475047457570636e-7,
    "geom:bbox": "-122.386472,37.616105,-122.385834,37.616611",
    "geom:latitude": 37.61635747477365,
    "geom:longitude": -122.38615540108617,
    "millsfield:airline_id": [
      1159284991
    ],
    "millsfield:category_id": 1511214251,
    "millsfield:collection_id": 1511214207,
    "millsfield:company_id": [
      1159286839
    ],
    "millsfield:images": [
      1913802437,
      1913802439,
      1913802441,
      1913802443
    ],
    "millsfield:images_colors_refs": {
      "crayola": [
        {
          "hex": "#6dae81"
        },
        {
          "hex": "#414a4c"
        },
        {
          "hex": "#bab86c"
        },
        {
          "hex": "#eceabe"
        },
        {
          "hex": "#edd19c"
        },
        {
          "hex": "#e7c697"
        },
        {
          "hex": "#714b23"
        }
      ],
      "css4": [
        {
          "hex": "#f5deb3"
        },
        {
          "hex": "#808080"
        },
        {
          "hex": "#eee8aa"
        },
        {
          "hex": "#bdb76b"
        },
        {
          "hex": "#2f4f4f"
        },
        {
          "hex": "#f0e68c"
        },
        {
          "hex": "#556b2f"
        },
        {
          "hex": "#deb887"
        }
      ],
      "marekm4": [
        {
          "hex": "#c3b375"
        },
        {
          "hex": "#3b3117"
        },
        {
          "hex": "#e9dca3"
        },
        {
          "hex": "#ebe2bd"
        },
        {
          "hex": "#453a16"
        },
        {
          "hex": "#d5c476"
        },
        {
          "hex": "#decf92"
        },
        {
          "hex": "#4d4118"
        },
        {
          "hex": "#d2c073"
        },
        {
          "hex": "#e1d295"
        },
        {
          "hex": "#c8b877"
        },
        {
          "hex": "#6a9c78"
        },
        {
          "hex": "#453918"
        }
      ]
    },
    "millsfield:images_texts": [
      "Saturday\nnov. 7\nth\n193g\nDear\nDebs\nam sailing for manila on the\nHis go\naboard tonight and\nsail. at lo Q.m. Expect to sleef\nuntie I get caught up if it takes\nthe whole\n48 hours to manila.\nThe\nshow heer wint off quits\nwel\nThe gonna\nwas waiting\nat\nKai Tak when us landed prom ple\n- 2:45.\n0. made a ver\nfluent and\nWhich the brie sprack. Dai had\nprepaid a long long sprack which\nworld hair bored any news rel\naudienci to trars so 2 urote\na short sappy one for him on\nthe way down her. It studied\nit like a kid working on an\nExamination and as it was\nonly\nOne\nparagraph\nI thought\nhe\nhad\nit down pat. When\nhe faced the microphone and\ncanna he just naturall,\nwant bestrk -\nhus mouth\nopened and shut for seconds.\nit sumed mmuts - but no\nsound came\ntrrible.\nout\nthe stammun\nabont half that one",
      "paragial wick many \"ahs and\nLast night he gave a\nlage. Chines dinau parg and\ninuted us ale\nto go\naround\nto the thratre afterwards. The\nfiem prople has cut most of\nthe protractio\nN'ahs\" and\n3o second long \"ths\" but in\ndoing so the pictur of Dai\nis screamg -\n~ stark terror\n-on his face cobile he flea.\nhops abont due to his moving\naround during the picture and\nsome of the moments wer\nof course cut out. At one\npoint he held out his han\nand some Arcond lath raised\nit to hs throat - the inbeturn\n\"ent\" so the final\npicture shows him apparite\ngrabbing himsef les.\no the throat -\nwoned ale\nhair\ntran\nglad to hair some\none pripo.\nMrs\nmoso is tomithing of\na \"lens hound\" and manage\nto swish here into ace of\nthe petuas with ant ane\narticular treason to tug\nmay so the Be in sergei\nthere to That was.\ntoo. You\n2019121109449",
      "thought ke\ntr cause\nDai, made so much\nface that he evile no doubt\nbuy to hair the prem shown in\nShanghai, Dont\nmiss it!\nmore latu -\nSat. aftirnoon - made lots of\ninquiries re. hours wettent much\nluck. No vacancie in at Repuer\nBan\nand meal yone said that\nthe was lots of\nmalaria thee.\nLast night I started out to a\ncock taie part at the home of\nmu Patron 41 jardine Mathesen man.\nThought Id\nthat contact\n8\nan so left her at 6: 45\nto go to the Prak + just misses\nfarry\n• boat - also a tram\nte the prak look a sedan\nget it and when I got neare,\nMp to the hout looked at my\nwatch.\nit was nearly 8 P.m\nand I had an appointment to\nmet levo Imprise Qi way men\nat 8\nand go to dinner with Dai\nso I turned around and wint\nback -\nto tram 504 tram 304\nChai tot\nand same returning\non #2.60 for the",
      "round trip.\nThis afteraoon saw\nMe Noor arkad abont housrs anel\nhe sand they wn leaveng for\nSingapore on Nod.)t and wones\nloir te hair us taks than houss -\nsaid they\n'I much rathe hair\nit acupied during thei abnaer\nEtc.\n• I replained abont your\nbrep\nto Prepim and said\nyou\nmugut, mot h able tu gut docin\nhur until store day aftu\nthe 1th and he said that\nwonld hr an.\nI think it\nwored ir vin very nees at the\nHtoooas\nIis wored only pag for\nsavants - trink thres ars fou-\nlignt and telephone. -m.\nir mus uk his car, stc. .\ncrird you emmediate,\nand if\nthe ansur comes afor 9 sac\nwie phone mu Hoour.\nmust run now to krap\nan\napporatment\narct. Dai\nands\nto maie from the olhi\noi heis is\nClorid.\nAll my lor t\nand t ue.\nyon- deme\nba counting the day\nuntie:\nJit back te yos aqai\nYour vin, ocon\n2019121.09446 Bix"
    ],
    "millsfield:images_texts_ids": [
      1913802437,
      1913802439,
      1913802441,
      1913802443
    ],
    "millsfield:primary_image": 1913802437,
    "millsfield:subcategory_id": 1511213489,
    "mz:is_approximate": 1,
    "mz:is_current": 1,
    "sfomuseum:accession_number": "2019.121.0944 a b",
    "sfomuseum:airline": "Pan American Airways",
    "sfomuseum:airline_id": [
      685
    ],
    "sfomuseum:category": "Employee Career History",
    "sfomuseum:classification_id": 195,
    "sfomuseum:collection": "Aviation Archive",
    "sfomuseum:creditline": "Collection of SFO Museum",
    "sfomuseum:date": "11/07/1936",
    "sfomuseum:date_acquired": "2019-11-22",
    "sfomuseum:daterange_end": "1936-11-07",
    "sfomuseum:daterange_start": "1936-11-07",
    "sfomuseum:description": "Handwritten letter from Harold M. Bixby to his wife, Debby Bixby, dated November 7, [1936]; in Hong Kong, sailing to Manila; includes description of announcement given by Dai [Enki] for a news crew, plans to bring Debby to Hong Kong.",
    "sfomuseum:dimensions": "13 x 8 inches (33 x 20.3 cm)",
    "sfomuseum:medium": "paper, ink",
    "sfomuseum:object_id": 211307,
    "sfomuseum:placetype": "object",
    "sfomuseum:publication": ": , 11/07/1936.",
    "sfomuseum:subcategory": "Correspondence, Personal",
    "src:geom": "sfomuseum#undetermined",
    "wof:belongsto": [
      102527513,
      1159162825,
      102191575,
      85633793,
      102087579,
      85922583,
      85688637,
      1159160869
    ],
    "wof:country": "XY",
    "wof:created": 1714548702,
    "wof:depicts": [
      1159284991,
      1159286839
    ],
    "wof:geomhash": "c281b9d9eefc83b5710e64b9d646067d",
    "wof:hierarchy": [
      {
        "building_id": -1,
        "campus_id": 102527513,
        "collection_id": 1159162825,
        "concourse_id": 1159162825,
        "continent_id": 102191575,
        "country_id": 85633793,
        "county_id": 102087579,
        "custom_id": 1913795131,
        "locality_id": 85922583,
        "neighbourhood_id": -1,
        "object_id": 1913795131,
        "region_id": 85688637,
        "wing_id": 1159160869
      }
    ],
    "wof:id": 1913795131,
    "wof:lastmodified": 1787988219,
    "wof:name": "correspondence: Harold M. Bixby to Debby Bixby",
    "wof:parent_id": 1159162825,
    "wof:placetype": "custom",
    "wof:placetype_alt": [
      "object"
    ],
    "wof:repo": "sfomuseum-data-collection",
    "wof:superseded_by": [],
    "wof:supersedes": []
  },
  "bbox": [
    -122.38647222518921,
    37.6161053594541,
    -122.38583385944366,
    37.61661101879963
  ],
  "geometry": {"type":"Polygon","coordinates":[[[-122.38647222518921,37.61631782178288],[-122.386434674263,37.61623283692423],[-122.38637566566466,37.61617759671399],[-122.38630056381224,37.6161308549656],[-122.38616108894348,37.6161053594541],[-122.38602161407469,37.6161308549656],[-122.38591432571411,37.61618609521055],[-122.38585531711577,37.61626683087935],[-122.38583385944366,37.61636881265146],[-122.38587141036987,37.61646654505181],[-122.38594114780425,37.61654303118856],[-122.38605380058287,37.61660252035167],[-122.38618254661559,37.61661101879963],[-122.3863059282303,37.61657277577607],[-122.3864185810089,37.61650903735973],[-122.3864668607712,37.61641130501523],[-122.38647222518921,37.61631782178288]]]}
}
