{
  "id": 1913795179,
  "type": "Feature",
  "properties": {
    "date:cessation_lower": "1938-01-26",
    "date:cessation_upper": "1938-01-26",
    "date:inception_lower": "1938-01-26",
    "date:inception_upper": "1938-01-26",
    "edtf:cessation": "1938-01-26",
    "edtf:inception": "1938-01-26",
    "geom:area": 2.475047457570636e-7,
    "geom:bbox": "-122.386472,37.616105,-122.385834,37.616611",
    "geom:latitude": 37.61635747477365,
    "geom:longitude": -122.38615540108617,
    "millsfield:airline_id": [
      1159284991
    ],
    "millsfield:category_id": 1511214251,
    "millsfield:collection_id": 1511214207,
    "millsfield:company_id": [
      1159286839
    ],
    "millsfield:images": [
      1913798459,
      1913798597,
      1913798689
    ],
    "millsfield:images_colors_refs": {
      "crayola": [
        {
          "hex": "#efcdb8"
        },
        {
          "hex": "#414a4c"
        },
        {
          "hex": "#9f8170"
        }
      ],
      "css4": [
        {
          "hex": "#2f4f4f"
        },
        {
          "hex": "#808080"
        },
        {
          "hex": "#f5deb3"
        }
      ],
      "marekm4": [
        {
          "hex": "#e5d6ba"
        },
        {
          "hex": "#9e9270"
        },
        {
          "hex": "#9d9170"
        },
        {
          "hex": "#413a23"
        },
        {
          "hex": "#e4d5b8"
        },
        {
          "hex": "#e2d5ba"
        },
        {
          "hex": "#9e9170"
        },
        {
          "hex": "#403a24"
        },
        {
          "hex": "#3c3623"
        }
      ]
    },
    "millsfield:images_texts": [
      "Baguio Jan. 26, 1938\nDear A. 0.\nAs you probably know my work in the Orient had largely to do\nwith the establishment of the trans-Pacific service of Pan American.\nThat job was completed last tay with the inaugural flight of the China\nClipper from Tanila to Hongkong, I remained in Shanghai only to permit\none of my associates to return to the Uns. for his furlough before he\nassumed the duties. which I had been performing in connection with the\noperations in China. While my \"number one\" was on home leave the war\nbroke out and\nit was deemed necessary to withdraw all American flight\nand ground personnel\noving to the stupid policies of the Chinese iinis-\nter of Communications who refused to recognize the commercial status of\nthe company and took no action to protect our American pilots - even\ncondoned the act of a young officer in compelling one of our pilots to\ntransport bombs at the point of a gun. It was not long before the\nChinese learned the folly of their ways and we then went to Nanking in\nlate October and early November, negotiated a new deal by going over the\nhead of the ilinister direct to ladam Chiang Kai-shek and Dr. H. H. Kung.\nThe result was the granting of all our requirements, the elimination of\nthe ilinister who had given us so many head aches and also the resignation\nof the llanaging Director who was replaced by our nominee, The company is\nnow operating under the most favorable corporate organization which has\never existed during my five years in China.\nThe war naturally presents\nmany problems most\nof which can be solved\nthrough radio communications.\nAirplanes are in constant touch with terminals and are warned\nof\nan air-\nraid in plenty of time to proceed to another field or loaf around until\nthe \"all clear\" signal is given - then fly\non to destination.\nPlanes are\nbasud at one end\nof\nthe line at Chungking - far inland city which has not\nbeen attacked, and\nat Hongkong which of course is Inglish territory.\nThe\nCNAC has been using a marvelous radio device which permits safe flight to\nan exact\npoint even if the pilot must fly completely \"blind\" for many\nhours and the pilots who used to yearn for good weather are now happy if\nthere is a low solid overcast for once in the clouds no one can attack\nthem - even if\nthey wanted to do so. Ly \"number one\" is now back on the\njob and the Bixby family vill soon be heading homes All concessions in\nManila, Hongkong and Incao are in good shape and my work has been fairly",
      "well done - at least the Executives in New York have been kind enough to say\nFrances and Bo are leaving for home on the plane which will carry\nthis letter but they will get off at Honolulu remaining\nvisit before proceeding to California.\nto spend'a little time\nwith my sister at Colorado Springs before going on to St. Louis.\nThis letter\nout with the purpose of advising you that I have told\ndubious favor - with you.\nmuch help but will feel comfortable knowing that\nthe pictures of the bombing of the Panay with one of my\nfriends who was on board - George Atchison - Second Secretary of Legation\nwho was my host at Nanking in November.\nOf course I knew many of the victims\nto often go on board the Panay at different points on\nespecially when she was stationed at Ichang where our planes refueled\ntime to take a cup of good American coffee with the hospitable\nofficers.\nAfter drinking the English brand the American was especially vel-\nThe net result of the Panay incident was the gaining of much \"face\nfor Americans in the Far Easte\nI believe the Japs are now convinced that\nthey were wrong when they thought there was an open season on Americans.\nam the very last one in the world who wants war with anyone but I believe\nthat American citizens who are engaged in the legitimate expansion of Amer-\nican trade are entitled to protection and respect wherever their business\ntakes them and so long as they live up to the standards of good\ncitizenship\nin the land of their temporary residences I can not agree with certain of\nour Congressmen who think that any American who turns his back on the Statue\nof Liberty is a d - fool who can be kicked around by any foreign power re-\ngardless of treaties of International agreements.\nPersonally I have seen\nenough of modern war - truck loads of dismembered bodies staining the street\nwith blood - mothers carrying their dead children - little children torn and\nmangled by ruthless bombing of unprotected noncombatants.\nIt\nseems that if\nyou do not want to raise your boy to be a soldier you had better\nsee that no\none else does either.\nThe Chinese do not seem to\nbe licked and as long as\ntheir morale holds out there is always a chance for something to happen to\nhelp\ntheir chances for a favorable peace. I do not believe that the Japan-\nese will go broke - nations simply do not go broke during wars - afterwards\nthat\nis another matter.\nThere\nis a chance that the civil population may in\ntime revolt against the military if the Chinese can hold out\nlong enough.\nThe present plan of the Chinese high command seems to be to encourage the\ntype of warfare with which\nthe Chinese are most familiar and\nat which they\nare most potent - i.e. guerilla tactics.\nThe Chinese\nnever organize any-\nthing and an army takes lots of organization.\nSmall groups of\nfifty or a\nhundred men do not require much organization and the leaders are often men of\ngreat\nability who never fight unless the chances are highly favorable and it\nis next to impossible to catch them if they decide to fight another day.\nbe these chaps will\nkeep\nTay-\nthe Japs busy holding on to the\noccupied territory\nthus prevent or long\nthe conquest of\nmore of China.\nOur plans are as usual indefinite.\nWe shall probably remain\nhere in Baguio for a whihe and then unless something unexpected develops start\nHope to know within a week or\nOne of the few publications which all of us read out here is the\nmagazine TIE, through which - though a bit late - we keep posted on what is\nYou no doubt read about Valter Weisenburger in a recent\nissue and possibly noticed the reference to our mutual friend Clarence Francis\nwho used to be with Ralston and is now president of General Foods.\nknow whether or not his firm is doing any business with you but am sure he\nwould be glad to give his old friends in the State Bank a break if entirely\nconsistent.\nPlease give my very best to all of my friends in the IL V. T.\nespecially Sid Maestre, Lew Rumsey and Will Pettus.\nPardon this long letter\nand please keep it like others you have seen more or less confidential as I\ncertainly do not wish to be placed in the position of \"experting\"\na situation\nconcerning which men of more ability and better sources of information are rem\nluctant to writes\nDear 4. 0.\nI am sending this in duplicate\nin case you may wish to\nforward\noriginal to Clarence Francis whose address is c/o Gent!. Foods, 250 Park Ave.,",
      "Regulations Pertaining to Residents Desiring to Return to Their\nHomes in liongkew\nForeigners\nwho went to employ Foreign and/or Chinese house boys and\nrequested to submit\nConsulate General an application describing the employees nationality, address, name,\nas well as the employees nationality and permanent domicile, name\nclassification of occupation with two copies of employees photographs attached\nControl of light shall be strictly observed.\nFor this purpose all\nresidents\nare requested to have necessary devices which will have to undergo inspection by the\nS.ii.C. Japanese Police.\nwho want to employ Chinese servants are requested to previously submit to\nthe Japanese Consulate General an application together with two copies of photographs\nof each servant and make such employees assemble at the Garden Bridge by 10 a•m.\nthe appointed day.\nThese employees will be sent to the Isolation Hospital where\nwill be detained\novernight for the purpose of undergoing medical examination excreta,\npreventive injection against cholera and vaccination.\nEmployees on the following morning are requested to call at the Japanese\nConsulate in order to receive a note of authentication and\nthen go to the Garrison\nHeadquarters at the Japanese Club in order to receive a pass. Curfew 10 p.m. to\nThe market will be opened to all residents between the hours of 5 a.m.and 9 a.m.\nForeigners returning to districts Worth of the Creek are specially requested to\nrespect the sentry on point duty at the Garden Bridge and at street corners by\ngiving a gentle bow and wishing him \"GOOD MORNIIG\".\nForeigners must realize that the\nJapanese soldier doing such duty represents the HIPEROR OF JAPAN.\nSpecial passes will be given to those having Japanese friends and it is hoped\nthat everyone wishing to live in longkew will make friends with the Japanese.\nJapanese ladies, 150 from Tokyo High School, well versed in English are now in\nShanghai for the sole purpose of being better acquainted with foreigners.\nFurther detail regarding interviews, etc. with those ladies vill be furnished\nat the Japanese Club in the office of the Secretary to the Commander of the ilaval\nFleet in Shanghai.\nFoodstuffs will be sold at 23 1/2% discount.\nSake will be free of charge\nthose who drink to the health of the Emperor and a quantity not\nexceeding 2 litres\ncan be taken away each day•\nIn the event of foreigners wishing to employ Japanese maid servants they are\nrequested to make application to the Garrison Commander\nat the Japanese Club as soon\nas possible as there are a limited number of Nei\nAll single men will be supplied with mates as soon as\nBachelors need not apply.\nfacts are known.\nfor Nei Sans will have to obtain the consent of their wives.\nMarried men\nForeigners who employ Nei Sans will be entitled to one bath a week in any of\nthe undermentioned Bath Houses in ilongkew, free of charge.\nTor Tapanese male lasseurs.\nBath Houses\nForeign ladies can apply\nare situated at:\n1. 275 Range Road\n2. 393 Boone Road\n3. 120A Woosung Road.\nBy order of the Garrison Commander of the Japanese\nExpeditionary Force in China.\nA. 0.\nThis is a copy of notice actually issued.\nof humor!\nthe Japs\ncertainly lack any trace"
    ],
    "millsfield:images_texts_ids": [
      1913798459,
      1913798597,
      1913798689
    ],
    "millsfield:primary_image": 1913798459,
    "millsfield:subcategory_id": 1511213489,
    "mz:is_approximate": 1,
    "mz:is_current": 1,
    "sfomuseum:accession_number": "2019.121.1051 a c",
    "sfomuseum:airline": "Pan American Airways",
    "sfomuseum:airline_id": [
      685
    ],
    "sfomuseum:category": "Employee Career History",
    "sfomuseum:classification_id": 195,
    "sfomuseum:collection": "Aviation Archive",
    "sfomuseum:creditline": "Collection of SFO Museum",
    "sfomuseum:date": "01/26/1938",
    "sfomuseum:date_acquired": "2019-11-22",
    "sfomuseum:daterange_end": "1938-01-26",
    "sfomuseum:daterange_start": "1938-01-26",
    "sfomuseum:description": "Typewritten letter from Harold M. Bixby to “A.O.” [Wilson] dated January 26, 1938 in Baguio; includes brief description of his actions at CNAC and perspectives on the war; U.S.S. Panay incident; third page includes new regulations for “foreign” residents of Shanghai; mentions Mrs. Chiang Kai-shek, Dr. H.H. Kung.",
    "sfomuseum:dimensions": "14 x 8 1/2 inches (35.6 x 21.6 cm)",
    "sfomuseum:medium": "paper, ink",
    "sfomuseum:object_id": 211414,
    "sfomuseum:placetype": "object",
    "sfomuseum:publication": ": , 01/26/1938.",
    "sfomuseum:subcategory": "Correspondence, Personal",
    "src:geom": "sfomuseum#undetermined",
    "wof:belongsto": [
      102527513,
      1159162825,
      102191575,
      85633793,
      102087579,
      85922583,
      85688637,
      1159160869
    ],
    "wof:country": "XY",
    "wof:created": 1714548717,
    "wof:depicts": [
      1159284991,
      1159286839
    ],
    "wof:geomhash": "c281b9d9eefc83b5710e64b9d646067d",
    "wof:hierarchy": [
      {
        "building_id": -1,
        "campus_id": 102527513,
        "collection_id": 1159162825,
        "concourse_id": 1159162825,
        "continent_id": 102191575,
        "country_id": 85633793,
        "county_id": 102087579,
        "custom_id": 1913795179,
        "locality_id": 85922583,
        "neighbourhood_id": -1,
        "object_id": 1913795179,
        "region_id": 85688637,
        "wing_id": 1159160869
      }
    ],
    "wof:id": 1913795179,
    "wof:lastmodified": 1787988219,
    "wof:name": "correspondence: Harold M. Bixby to A.O. [Wilson]",
    "wof:parent_id": 1159162825,
    "wof:placetype": "custom",
    "wof:placetype_alt": [
      "object"
    ],
    "wof:repo": "sfomuseum-data-collection",
    "wof:superseded_by": [],
    "wof:supersedes": []
  },
  "bbox": [
    -122.38647222518921,
    37.6161053594541,
    -122.38583385944366,
    37.61661101879963
  ],
  "geometry": {"type":"Polygon","coordinates":[[[-122.38647222518921,37.61631782178288],[-122.386434674263,37.61623283692423],[-122.38637566566466,37.61617759671399],[-122.38630056381224,37.6161308549656],[-122.38616108894348,37.6161053594541],[-122.38602161407469,37.6161308549656],[-122.38591432571411,37.61618609521055],[-122.38585531711577,37.61626683087935],[-122.38583385944366,37.61636881265146],[-122.38587141036987,37.61646654505181],[-122.38594114780425,37.61654303118856],[-122.38605380058287,37.61660252035167],[-122.38618254661559,37.61661101879963],[-122.3863059282303,37.61657277577607],[-122.3864185810089,37.61650903735973],[-122.3864668607712,37.61641130501523],[-122.38647222518921,37.61631782178288]]]}
}
