{
  "id": 1914590261,
  "type": "Feature",
  "properties": {
    "date:cessation_lower": "1989-01-01",
    "date:cessation_upper": "1989-12-31",
    "date:inception_lower": "1989-01-01",
    "date:inception_upper": "1989-12-31",
    "edtf:cessation": "1989",
    "edtf:inception": "1989",
    "geom:area": 2.475047457570636e-7,
    "geom:bbox": "-122.386472,37.616105,-122.385834,37.616611",
    "geom:latitude": 37.61635747477365,
    "geom:longitude": -122.38615540108617,
    "millsfield:aircraft_id": [
      1159289819
    ],
    "millsfield:airline_id": [
      1159285591
    ],
    "millsfield:category_id": 1762671311,
    "millsfield:collection_id": 1511214207,
    "millsfield:company_id": [
      1159293593
    ],
    "millsfield:images": [
      1914590351,
      1914590353,
      1914590355,
      1914590357
    ],
    "millsfield:images_colors_refs": {
      "crayola": [
        {
          "hex": "#eceabe"
        },
        {
          "hex": "#6699cc"
        },
        {
          "hex": "#d68a59"
        },
        {
          "hex": "#efdecd"
        },
        {
          "hex": "#414a4c"
        },
        {
          "hex": "#c46210"
        },
        {
          "hex": "#cd4a4c"
        }
      ],
      "css4": [
        {
          "hex": "#b22222"
        },
        {
          "hex": "#d2691e"
        },
        {
          "hex": "#66cdaa"
        },
        {
          "hex": "#bdb76b"
        },
        {
          "hex": "#2f4f4f"
        },
        {
          "hex": "#6495ed"
        },
        {
          "hex": "#cd853f"
        },
        {
          "hex": "#daa520"
        },
        {
          "hex": "#f5deb3"
        },
        {
          "hex": "#faebd7"
        }
      ],
      "marekm4": [
        {
          "hex": "#4e3a33"
        },
        {
          "hex": "#eee3cd"
        },
        {
          "hex": "#c13d20"
        },
        {
          "hex": "#d2a851"
        },
        {
          "hex": "#ce421b"
        },
        {
          "hex": "#76b3c7"
        },
        {
          "hex": "#c8362a"
        },
        {
          "hex": "#68add1"
        },
        {
          "hex": "#3f2c1f"
        },
        {
          "hex": "#69accc"
        },
        {
          "hex": "#d0ab37"
        },
        {
          "hex": "#cea54c"
        },
        {
          "hex": "#2c241f"
        },
        {
          "hex": "#cc3612"
        },
        {
          "hex": "#e9ddc1"
        },
        {
          "hex": "#35241b"
        },
        {
          "hex": "#61a7d5"
        },
        {
          "hex": "#ebe2d1"
        },
        {
          "hex": "#ce9252"
        },
        {
          "hex": "#ebddba"
        }
      ]
    },
    "millsfield:images_texts": [
      "BOEING 737\nSOUTHWEST\nSAFETY\nINFORMATION\nSMOKING IS NOT PERMITTED\nON ANY SCHEDULED FLIGHT.\nEXIT SEATING\nAll seats in the overwing window row have been designated as exit seats.\nFederal Aviation Regulations require that all persons seated in a designated exit seat be willing and able to\nperform the functions shown on this card in the event of an emergency if a crewmember is not available.\nNo certificate holder may seat a person in a designated exit seat if the certificate holder determines that it is\nlikely that the person would be unable to perform one or more of the applicable functions because:\nThe person lacks sufficient mobility, strength, or dexterity in both arms and hands, and both legs:\n1. To reach upward, sideways, and downward to the location of emergency exit and exit-slide operating\nmechanisms;\n2. To grasp and push, pull, turn, or otherwise manipulate those mechanisms;\n3. To push, shove, pull, or otherwise open emergency exits;\n4. To lift out, hold, deposit on nearby seats, or maneuver over the seatbacks to the next row objects the\nsize and weight of overwing window exit doors;\n5. To remove obstructions similar in size and weight to overwing exit doors;\n6. To reach the emergency exit expeditiously;\nTo maintain balance while removing obstructions;\n8. To exit expeditiously;\n9. To stabilize an escape slide after deployment; or\n10. To assist others in getting off an escape slide;\nThe person must be at least 15 years of age or lacks the capacity to perform one or more of the functions\nwithout the assistance of an adult companion, parent, or other relative;\nThe person must have the ability to read and understand instructions related to emergency evacuation\nprovided by the certificate holder in printed, handwritten, or graphic form or the ability to understand oral crew\ncommands in the English language;\nThe person lacks sufficient visual capacity to perform one or more of the applicable functions without the\nassistance of visual aids beyond contact lenses or eyeglasses;\nThe person lacks sufficient aural capacity to hear and understand instructions shouted by crewmembers,\nwithout assistance beyond a hearing aid;\nThe person lacks the ability adequately to impart information orally to other passengers; or\n1. A condition or responsibilities, such as caring for small children, that might prevent the person from\nperforming one or more of the applicable functions; or\n2. A condition that might cause the person harm if he or she performs one or more of the applicable\nIn the event of an emergency, follow the directions and hand signals of your crew. If a crewmember is not\navailable to assist you, follow the instructions on this card and posted signs.\nAnother seat assignment is required of persons who 1) do not meet the selection criteria; 2) have a condition\nthat will prevent them from performing the functions; 3) may suffer bodily harm as a result of the functions; or 4)\ndo not wish to perform the functions.\nNotify your Flight Attendant if you have any questions or require reseating.",
      "FLOTATION\nREMOVE SEAT CUSHION.\nSEPARATE LOOPS.\nEMBRACE CUSHION.\nGRASP LOOPS WITH HANDS.\nSOUTHWEST\nPrinted by HPI, Dallas, TX\nCOPYRIGHT © SOUTHWEST AIRLINES CO., 1989.\nALL RIGHTS RESERVED\nREVISED 8/93\nDesign and Illustrations, Rebecca Richardson",
      "ICY LANDING\nDO NOT OPEN EXITS\nIF YOU SEE:\n'LOCATE YOUR EMERGENCY EXIT\"\nIMPORTANT\nFIRE\nFORWARD\nDOOR\nEXITS\nOVERWING\nWINDOW\nEXITS\nREAR\nDOOR\nEXITS\nNO LUGGAGE\nSMOKE\nNO HIGH HEEL SHOES\nWATER\nNO SMOKING\nEXIT\nJUMP ON TO SLIDE\nLAVATORIES\nFederal Law prohibits\ntampering with, disabling\nor destroying any smoke\ndetector in any aircraft\nlavatory.\nPORTABLE ELECTRONIC\nDEVICES\nPortable Devices That May\nBe Operated At All Times Are:\n• Hearing Aids\n• Pacemakers\n• Electronic Watches\nPortable Devices That May\nBe Operated Inflight, But\nTurned Off And Properly\nStowed For Taxi, Take Off\nAnd Landing Are:\n• Portable computers with or\nwithout umbilical or mouse\n• Electronic calculators\n• Audio recorders or players\nHand-held electronic games\nTV receivers\nPagers\nElectronic cameras\n• AM/FM radio receivers\nDevices That Cannot Be\nOperated While Inside The\nAircraft Are:\n• Portable telephones\n• Remote controlled toys\n• Radio transmitters (ham CB,\netc.)\n• Any other devices not\npreviously addressed in this\nsection\nNOTE: Cellular telephones\nmust be turned off while\non the aircraft.",
      "IN CASE OF EMERGENCY LANDING\nOXYGEN 02\n00:01\n...\nBRACING POSITIONS\n00:03\nWINDOW EXITS\n00:05\nEXIT\n00:07\nDOOR EXITS\n00:107"
    ],
    "millsfield:images_texts_ids": [
      1914590351,
      1914590353,
      1914590355,
      1914590357
    ],
    "millsfield:primary_image": 1914590351,
    "millsfield:subcategory_id": 1511213703,
    "mz:is_approximate": 1,
    "mz:is_current": 1,
    "sfomuseum:accession_number": "2002.127.540",
    "sfomuseum:aircraft": "Boeing 737",
    "sfomuseum:aircraft_id": [
      207
    ],
    "sfomuseum:airline": "Southwest Airlines",
    "sfomuseum:airline_id": [
      964
    ],
    "sfomuseum:artist": "Rebecca Richardson",
    "sfomuseum:category": "Passenger Amenity, Archive",
    "sfomuseum:classification_id": 581,
    "sfomuseum:collection": "Aviation Archive",
    "sfomuseum:creditline": "Gift of Thomas G. Dragges",
    "sfomuseum:date": "1989",
    "sfomuseum:date_acquired": "2003-12-22",
    "sfomuseum:daterange_end": "1989-12-31",
    "sfomuseum:daterange_start": "1989-01-01",
    "sfomuseum:description": "Safety information card issued by Southwest Airlines for the Boeing 737 fleet; white and yellow double-sided tri-fold card with illustrations depicting inflight safety and emergency procedures; no identification code; revision date: 8/93.",
    "sfomuseum:dimensions": "11 1/4 x 6 1/2 inches (28.6 x 16.5 cm)",
    "sfomuseum:medium": "paper, ink",
    "sfomuseum:object_id": 69581,
    "sfomuseum:placetype": "object",
    "sfomuseum:publication": ": , 1989.",
    "sfomuseum:subcategory": "Safety Information Card",
    "src:geom": "sfomuseum#undetermined",
    "wof:belongsto": [
      102527513,
      1159162825,
      102191575,
      85633793,
      102087579,
      85922583,
      85688637,
      1159160869
    ],
    "wof:country": "XY",
    "wof:created": 1720769585,
    "wof:depicts": [
      1159285591,
      1159289819,
      1159293593
    ],
    "wof:geomhash": "c281b9d9eefc83b5710e64b9d646067d",
    "wof:hierarchy": [
      {
        "building_id": -1,
        "campus_id": 102527513,
        "collection_id": 1159162825,
        "concourse_id": 1159162825,
        "continent_id": 102191575,
        "country_id": 85633793,
        "county_id": 102087579,
        "custom_id": 1914590261,
        "locality_id": 85922583,
        "neighbourhood_id": -1,
        "object_id": 1914590261,
        "region_id": 85688637,
        "wing_id": 1159160869
      }
    ],
    "wof:id": 1914590261,
    "wof:lastmodified": 1787988221,
    "wof:name": "safety information card: Southwest Airlines, Boeing 737",
    "wof:parent_id": 1159162825,
    "wof:placetype": "custom",
    "wof:placetype_alt": [
      "object"
    ],
    "wof:repo": "sfomuseum-data-collection",
    "wof:superseded_by": [],
    "wof:supersedes": []
  },
  "bbox": [
    -122.38647222518921,
    37.6161053594541,
    -122.38583385944366,
    37.61661101879963
  ],
  "geometry": {"type":"Polygon","coordinates":[[[-122.38647222518921,37.61631782178288],[-122.386434674263,37.61623283692423],[-122.38637566566466,37.61617759671399],[-122.38630056381224,37.6161308549656],[-122.38616108894348,37.6161053594541],[-122.38602161407469,37.6161308549656],[-122.38591432571411,37.61618609521055],[-122.38585531711577,37.61626683087935],[-122.38583385944366,37.61636881265146],[-122.38587141036987,37.61646654505181],[-122.38594114780425,37.61654303118856],[-122.38605380058287,37.61660252035167],[-122.38618254661559,37.61661101879963],[-122.3863059282303,37.61657277577607],[-122.3864185810089,37.61650903735973],[-122.3864668607712,37.61641130501523],[-122.38647222518921,37.61631782178288]]]}
}
