{
  "id": 1779696763,
  "type": "Feature",
  "properties": {
    "date:cessation_lower": "1985-01-01",
    "date:cessation_upper": "1985-12-31",
    "date:inception_lower": "1985-01-01",
    "date:inception_upper": "1985-12-31",
    "edtf:cessation": "1985~",
    "edtf:inception": "1985~",
    "geom:area": 2.475047457570636e-7,
    "geom:bbox": "-122.386472,37.616105,-122.385834,37.616611",
    "geom:latitude": 37.61635747477365,
    "geom:longitude": -122.38615540108617,
    "millsfield:airline_id": [
      1159284989
    ],
    "millsfield:category_id": 1762671311,
    "millsfield:collection_id": 1511214207,
    "millsfield:company_id": [
      1159286839
    ],
    "millsfield:images": [
      1863469787,
      1863469789,
      1863469793,
      1863469795
    ],
    "millsfield:images_colors_refs": {
      "crayola": [
        {
          "hex": "#414a4c"
        },
        {
          "hex": "#dbd7d2"
        },
        {
          "hex": "#efdecd"
        },
        {
          "hex": "#6dae81"
        },
        {
          "hex": "#bab86c"
        },
        {
          "hex": "#9c7c38"
        },
        {
          "hex": "#000000"
        }
      ],
      "css4": [
        {
          "hex": "#ffebcd"
        },
        {
          "hex": "#d3d3d3"
        },
        {
          "hex": "#bdb76b"
        },
        {
          "hex": "#556b2f"
        },
        {
          "hex": "#000000"
        },
        {
          "hex": "#808000"
        },
        {
          "hex": "#2f4f4f"
        },
        {
          "hex": "#ffe4c4"
        },
        {
          "hex": "#778899"
        }
      ],
      "marekm4": [
        {
          "hex": "#6d9892"
        },
        {
          "hex": "#383d2d"
        },
        {
          "hex": "#454128"
        },
        {
          "hex": "#8c701e"
        },
        {
          "hex": "#1e1c15"
        },
        {
          "hex": "#b5a961"
        },
        {
          "hex": "#1e1b14"
        },
        {
          "hex": "#dadcbd"
        },
        {
          "hex": "#f0e5c6"
        },
        {
          "hex": "#efe6c7"
        },
        {
          "hex": "#f3e7c9"
        }
      ]
    },
    "millsfield:images_texts": [
      "Entered according to and of Congress in the your 1856 by N. Cursin. in the Clands Offer of the District Court of Nam ont\nON STONE RY C PARSONS\nCLIPPER SHIP «ADELAIDE\"\nOFF SANDY HOOK, \"HOVE TO FOR A PILOT\"\nPUB. BY CURRIER \u0026 IVES. 152 NASSAU ST., N.Y.",
      "→→ »\nKK-1\nPAN AM MANAGEMENT CLUB\nGALA DINNER\nHonoring San Francisco Management\nEmployees\nRetiring September 1, 1980\nAirport Sheraton Hotel\n7 p.m.\nAugust 26, 1980\nCLASS OF 1980\nNAME\nSam Acuff\nPeggy Brown\nKen Chan\nHarry Chew\nRay Choklat\nWyatt Fisher\nGene Garrison\nJohn Glass\nJane Gottschall\nLarry Hines\nSpike Horiye\nCal Howell\nMary Isiac\nGeorge Jean\nBob Johnson\nHerb Johnson\nPhil Jones\nYEARS OF\nSERVICE\n32\n14\n37\n37\n29\n37\n31\n29\n39\n37\n33\n37\nNAME\nAl Jordan\nCal Kennard\nSam Kinoshita\nEarl Koepsell\nTiger Lillie\nShorty Lovell\nDave Maloney\nHoward Marcks\nBill Marsh\nTex Marshall\nJoe Maschewski\nLou Mazzucchelli\nDon McMorran\nRin Navarro\nHerb Nelson\nCec Newton\nJoe Newton\nYEARS OF\nSERVICE\n35\n35\n29\n37\n36\n33\n39\n36\n33\n33\n33\n39\nNAME\nMilt Nordstrom\nJohn Oakes\nHarlan Pick\nCliff Pierce\nFrank Quigley\nNelson Raymond\nJim Robinson\nBill Rook\nFrank Scott\nEddie Shiosaka\nTerry Shores\nVern Smith\nFreeman Tong\nJohn Wendt\nGene Whitlock\nDennis Woodrich\nChet Zinkel\nYEARS OF\nSERVICE\n39\n40\n29\n33\n39\n34\n35\n38\n38\n34",
      "»›»»\n»›»•»\nMENU\nTossed Green Garden Salad\nChef's Dressing\nRoast Prime Rib of Beef au jus-Royal Cut\nRoasted New Potatoes with Butter and Paprika\nStringbeans with Almonds\nRolls\nButter\nDessert\nCoffee\nTea\nAlmaden Cabernet Sauvignon\nAlmaden Pinot Chardonnay",
      "CLIPPER SHIP \"ADELAIDE\"\nThe front cover of this menu is a reproduction of an authentic Currier \u0026 Ives clipper ship print.\nCurrier \u0026 Ives, known as the \"Printmakers of America\", graphically preserved the glorious clipper\nship era in a magnificent series of clipper ship prints. This print, one of a series, is being reproduced\nthrough the courtesy of The Mariners Museum, Newport News, Virginia.\nThe full development of the fast-moving clipper ships coincided remarkably with the glittering\ndiscovery of gold in America and faraway Australia. Clipper ships sailed forward in a dizzy attempt\nto combine record breaking speeds with cargo carrying capacity. Never before, nor since, has the\nworld seen anything like the sensational years that followed the Gold Rush. The clipper ship\n\"Adelaide\" was built in response to the demand for speed and to accommodate the relentless surge\nof gold-seekers. Built by A. C. Bell in 1854 in New York, she had a knife-sharp bow, long narrow\nhull and magnificent display of canvas. Her speed and maneuverability, as she tore around the\nHorn, was prodigious. Right up to the beginning of the Civil War, which disrupted the trade routes\nof the \"Adelaide,\" she brought unprecedented prosperity to her East coast owners. Though her glory\nwas brief, the adventures of the \"Adelaide\" still capture the imagination of those who love the sea.\nLike Pan Am's modern Clippers* of the air, the early clipper ships traveled the lanes of com-\nmerce to all the far places of the world... to Japan... to Australia... and, in the days of the\ngreat gold rush, from America's east coast, around Cape Horn, South America, to California.\nOur current equipment... the Clipper fleet of the Twentieth Century... consists of the finest\ncommercial aircraft ever developedaircraft that have helped us establish an unparalleled record\nfor safety, speed and service.\n\"CLIPPER TRADE MARK-REG. US. PAT OFFICE_ COPYRIGHT 1966 PAN AMERICAN WORLD AIRWAYS INC\nLITHO IN USA-8739-0393\n2000.058.05G5"
    ],
    "millsfield:images_texts_ids": [
      1863469787,
      1863469789,
      1863469793,
      1863469795
    ],
    "millsfield:primary_image": 1863469787,
    "millsfield:subcategory_id": 1511213567,
    "mz:is_approximate": 1,
    "mz:is_current": 1,
    "sfomuseum:accession_number": "2000.058.0565",
    "sfomuseum:airline": "Pan American World Airways",
    "sfomuseum:airline_id": [
      684
    ],
    "sfomuseum:category": "Passenger Amenity, Archive",
    "sfomuseum:classification_id": 242,
    "sfomuseum:collection": "Aviation Archive",
    "sfomuseum:creditline": "Gift of the Pan Am Association",
    "sfomuseum:date": "c. 1985",
    "sfomuseum:date_acquired": "2000-12-14",
    "sfomuseum:daterange_end": "1990-12-31",
    "sfomuseum:daterange_start": "1980-01-01",
    "sfomuseum:description": "Menu issued by Pan American World Airways for Pan Am Management Club Gala Dinner, dated August 26, 1980; color reproduction of print titled “Clipper Ship ‘Adelaide’” on cover; includes list of employees in management retiring in September 1980.",
    "sfomuseum:dimensions": "10 x 12 1/2 inches (25.4 x 31.8 cm)",
    "sfomuseum:medium": "paper, ink",
    "sfomuseum:object_id": 51683,
    "sfomuseum:placetype": "object",
    "sfomuseum:publication": ": , c. 1985.",
    "sfomuseum:series": "Currier \u0026 Ives Clipper Ships",
    "sfomuseum:subcategory": "Menu",
    "src:geom": "sfomuseum#undetermined",
    "wof:belongsto": [
      102527513,
      1159162825,
      102191575,
      85633793,
      102087579,
      85922583,
      85688637,
      1159160869
    ],
    "wof:country": "XY",
    "wof:created": 1655539377,
    "wof:depicts": [
      1159284989,
      1159286839
    ],
    "wof:geomhash": "c281b9d9eefc83b5710e64b9d646067d",
    "wof:hierarchy": [
      {
        "building_id": -1,
        "campus_id": 102527513,
        "collection_id": 1159162825,
        "concourse_id": 1159162825,
        "continent_id": 102191575,
        "country_id": 85633793,
        "county_id": 102087579,
        "custom_id": 1779696763,
        "locality_id": 85922583,
        "neighbourhood_id": -1,
        "object_id": 1779696763,
        "region_id": 85688637,
        "wing_id": 1159160869
      }
    ],
    "wof:id": 1779696763,
    "wof:lastmodified": 1787988209,
    "wof:name": "menu: Pan American World Airways",
    "wof:parent_id": 1159162825,
    "wof:placetype": "custom",
    "wof:placetype_alt": [
      "object"
    ],
    "wof:repo": "sfomuseum-data-collection",
    "wof:superseded_by": [],
    "wof:supersedes": []
  },
  "bbox": [
    -122.38647222518921,
    37.6161053594541,
    -122.38583385944366,
    37.61661101879963
  ],
  "geometry": {"type":"Polygon","coordinates":[[[-122.38647222518921,37.61631782178288],[-122.386434674263,37.61623283692423],[-122.38637566566466,37.61617759671399],[-122.38630056381224,37.6161308549656],[-122.38616108894348,37.6161053594541],[-122.38602161407469,37.6161308549656],[-122.38591432571411,37.61618609521055],[-122.38585531711577,37.61626683087935],[-122.38583385944366,37.61636881265146],[-122.38587141036987,37.61646654505181],[-122.38594114780425,37.61654303118856],[-122.38605380058287,37.61660252035167],[-122.38618254661559,37.61661101879963],[-122.3863059282303,37.61657277577607],[-122.3864185810089,37.61650903735973],[-122.3864668607712,37.61641130501523],[-122.38647222518921,37.61631782178288]]]}
}
