{
  "id": 1511956501,
  "type": "Feature",
  "properties": {
    "date:cessation_lower": "1980-01-01",
    "date:cessation_upper": "1980-12-31",
    "date:inception_lower": "1980-01-01",
    "date:inception_upper": "1980-12-31",
    "edtf:cessation": "1980",
    "edtf:date": "1980",
    "edtf:inception": "1980",
    "geom:area": 0,
    "geom:bbox": "-122.386155,37.616357,-122.386155,37.616357",
    "geom:latitude": 37.616357,
    "geom:longitude": -122.386155,
    "iso:country": "XX",
    "millsfield:airline_id": [
      1159284989
    ],
    "millsfield:category_id": 1762671311,
    "millsfield:collection_id": 1511214207,
    "millsfield:company_id": [
      1159286839
    ],
    "millsfield:images": [
      1527853189,
      1746281539,
      1863469947,
      1863469949,
      1863469951
    ],
    "millsfield:images_colors_refs": {
      "crayola": [
        {
          "hex": "#efdecd"
        },
        {
          "hex": "#414a4c"
        },
        {
          "hex": "#000000"
        },
        {
          "hex": "#9c7c38"
        },
        {
          "hex": "#6dae81"
        },
        {
          "hex": "#bab86c"
        },
        {
          "hex": "#dbd7d2"
        }
      ],
      "css4": [
        {
          "hex": "#556b2f"
        },
        {
          "hex": "#5f9ea0"
        },
        {
          "hex": "#dcdcdc"
        },
        {
          "hex": "#2f4f4f"
        },
        {
          "hex": "#808000"
        },
        {
          "hex": "#bdb76b"
        },
        {
          "hex": "#000000"
        },
        {
          "hex": "#ffebcd"
        }
      ],
      "marekm4": [
        {
          "hex": "#f6eccd"
        },
        {
          "hex": "#927216"
        },
        {
          "hex": "#6f9e9e"
        },
        {
          "hex": "#334a4c"
        },
        {
          "hex": "#1e1b14"
        },
        {
          "hex": "#f4ebcd"
        },
        {
          "hex": "#f4eacc"
        },
        {
          "hex": "#544e34"
        },
        {
          "hex": "#b1a659"
        },
        {
          "hex": "#dfe1ca"
        },
        {
          "hex": "#191712"
        }
      ]
    },
    "millsfield:images_texts": [
      "CLIPPER SHIP NIGHTINGALE?\nGating\nder weigh c the\nBallery",
      "C. PARSONS DEL\nTENGTH OF YEEI\nBREADTH OF BEAM\nDIMENSIONS\nSalored according to and of Congross in the your 1851 by A Curios. in the Clash Of of the Sided Court of Name Your\nCLIPPER SHIP «NIGHTINGALE,\nGetting under weigh off the Battery. New York\nNEW YORK. PUBLISHED BY N. CURRIER, 152 NASSAU STREET\nDEOTH OF HOIN\nTONNAGE PER REGISTER\nLITH AY N CURBIES\n20 FEET",
      "CLIPPER SHIP \"NIGHTINGALE\"\nThe front cover of this menu is a reproduction of an authentic Currier \u0026 Ives clipper ship print.\nCurrier \u0026 Ives, known as the \"Printmakers of America\", graphically preserved the glorious clipper\nship era in a magnificent series of clipper ship prints. This print, one of a series, is being reproduced\nthrough the courtesy of The Mariners Museum, Newport News, Virginia.\nThe clipper ship \"Nightingale\" was named in honor of Jenny Lind, the \"Swedish Nightingale,\"\nwhose golden voice had recently enchanted America. The \"Nightingale\" was considered one of the\nmost beautiful of all the \"American\" clippers. She was built to be exhibited at the World's Fair\nto be held in London, in 1851, as an example of the magnificent skill and craftsmanship of the\n\"Yankee\" shipbuilders. No expense was spared in her design and construction and she proudly\ncarried a life size carving of the \"Swedish Nightingale\" as her ship's figurehead. She started service\ncarrying passengers to and from the World's Fair in London and later was used on the Australian\nrun where she established such sailing records as going from Melbourne to New York in 75 days!\nLike Pan Am's modern Clippers* of the air, the early clipper ships traveled the lanes of com-\nmerce to all the far places of the world ... to Japan ... to Australia... and, in the days of the\ngreat gold rush, from America's east coast, around Cape Horn, South America, to California.\nOur current equipment... the Clipper fleet of the Twentieth Century... consists of the finest\ncommercial aircraft ever developed —aircraft that have helped us establish an unparalleled record\nfor safety, speed and service.\n*CUPPER TRADE MARK-REG US PAT OFFICE - COPYRIGHT 1966 PAN AMERICAN WORLD AIRWAYS INC\nLITHO IN USA - 8739-0393\nW13.096.030",
      "KR-KK\nPAN AM MANAGEMENT CLUB\nGALA DINNER\nHonoring San Francisco Management\nEmployees\nRetiring September 1, 1980\nAirport Sheraton Hotel\n7 p.m.\nAugust 26, 1980\nNAME\nSam Acuff\nPeggy Brown\nKen Chan\nHarry Chew\nRay Choklat\nWyatt Fisher\nGene Garrison\nJohn Glass\nJane Gottschall\nLarry Hines\nSpike Horiye\nCal Howell\nMary Isiac\nGeorge Jean\nBob Johnson\nHerb Johnson\nPhil Jones\nYEARS OF\nSERVICE\n32\n14\n37\n37\n29\n37\nCLASS OF 1980\nYEARS OF\nSERVICE\n35\n35\n34\n29\n33\n34\n39\n34\n39\n37\nNAME\nCal Kennard\nSam Kinoshita\nEarl Koepsell\nTiger Lillie\nShorty Lovell\nDave Maloney\nHoward Marcks\nBill Marsh\nTex Marshall\nJoe Maschewski\nLou Mazzucchelli\nDon McMorran\nRin Navarro\nHerb Nelson\nCec Newton\nJoe Newton\n33\n33\n33\n39\nNAME\nMilt Nordstrom\nJohn Oakes\nHarlan Pick\nCliff Pierce\nFrank Quigley\nNelson Raymond\nJim Robinson\nBill Rook\nFrank Scott\nEddie Shiosaka\nTerry Shores\nVern Smith\nFreeman Tong\nJohn Wendt\nGene Whitlock\nDennis Woodrich\nChet Zinkel\nYEARS OF\nSERVICE\n39\n40\n29\n33\n39\n34\n44\n31\n34\n33\n35\n38\n28\n37\n38\n34\n→»»»»»",
      "*»\u003e\n→›»»\n- 166.666.16\nMENU\nTossed Green Garden Salad\nChef's Dressing\nRoast Prime Rib of Beef au jus-Royal Cut\nRoasted New Potatoes with Butter and Paprika\nStringbeans with Almonds\nRolls\nButter\nDessert\nCoffee\nTea\nAlmaden Cabernet Sauvignon\nAlmaden Pinot Chardonnay\n186.186-1"
    ],
    "millsfield:images_texts_ids": [
      1527853189,
      1746281539,
      1863469947,
      1863469949,
      1863469951
    ],
    "millsfield:primary_image": 1746281539,
    "millsfield:subcategory_id": 1511213567,
    "mz:hierarchy_label": 1,
    "mz:is_current": 1,
    "sfomuseum:accession_number": "2013.095.030",
    "sfomuseum:airline": "Pan American World Airways",
    "sfomuseum:airline_id": [
      684
    ],
    "sfomuseum:category": "Passenger Amenity, Archive",
    "sfomuseum:classification_id": 242,
    "sfomuseum:collection": "Aviation Archive",
    "sfomuseum:creditline": "Gift of the Estate of Jane Gottschall",
    "sfomuseum:date": "1980",
    "sfomuseum:date_acquired": "2014-05-21",
    "sfomuseum:daterange_end": "1980-12-31",
    "sfomuseum:daterange_start": "1980-01-01",
    "sfomuseum:description": "Menu issued by Pan American World Airways for Pan Am Management Club Gala Dinner, dated August 26, 1980; color reproduction of print titled “Nightingale” on cover; includes list of employees in management retiring in September 1980.",
    "sfomuseum:dimensions": "10 x 12 1/2 inches (25.4 x 31.8 cm)",
    "sfomuseum:media_ids": [
      1527853189
    ],
    "sfomuseum:medium": "paper, ink",
    "sfomuseum:object_id": 149879,
    "sfomuseum:placetype": "object",
    "sfomuseum:primary_media_id": 1527853189,
    "sfomuseum:publication": ": , 1980.",
    "sfomuseum:subcategory": "Menu",
    "src:geom": "sfomuseum#undetermined",
    "wof:belongsto": [
      1159162825,
      102527513,
      102191575,
      85633793,
      85922583,
      102087579,
      1159160869,
      85688637
    ],
    "wof:breaches": [],
    "wof:country": "XX",
    "wof:created": 1579906658,
    "wof:depicts": [
      1159284989,
      1159286839
    ],
    "wof:geomhash": "30c8a918561c84bb2daa2b97fc7c5353",
    "wof:hierarchy": [
      {
        "building_id": -1,
        "campus_id": 102527513,
        "concourse_id": 1159162825,
        "continent_id": 102191575,
        "country_id": 85633793,
        "county_id": 102087579,
        "custom_id": 1511956501,
        "locality_id": 85922583,
        "neighbourhood_id": -1,
        "object_id": 1511956501,
        "region_id": 85688637,
        "venue_id": 1511956501,
        "wing_id": 1159160869
      }
    ],
    "wof:id": 1511956501,
    "wof:lastmodified": 1787988190,
    "wof:name": "menu: Pan American World Airways",
    "wof:parent_id": 1159162825,
    "wof:placetype": "custom",
    "wof:placetype_alt": [
      "object"
    ],
    "wof:repo": "sfomuseum-data-collection",
    "wof:superseded_by": [],
    "wof:supersedes": [],
    "wof:tags": []
  },
  "bbox": [
    -122.386155,
    37.616357,
    -122.386155,
    37.616357
  ],
  "geometry": {"type":"Point","coordinates":[-122.386155,37.616357]}
}
