{
  "id": 1746835729,
  "type": "Feature",
  "properties": {
    "date:cessation_lower": "1980-01-01",
    "date:cessation_upper": "1980-12-31",
    "date:inception_lower": "1980-01-01",
    "date:inception_upper": "1980-12-31",
    "edtf:cessation": "1980~",
    "edtf:inception": "1980~",
    "geom:area": 2.475047457570636e-7,
    "geom:bbox": "-122.386472,37.616105,-122.385834,37.616611",
    "geom:latitude": 37.61635747477365,
    "geom:longitude": -122.38615540108617,
    "millsfield:airline_id": [
      1159284711
    ],
    "millsfield:category_id": 1763416373,
    "millsfield:collection_id": 1511214203,
    "millsfield:company_id": [
      1159288215
    ],
    "millsfield:images": [
      1746837077,
      1746837079
    ],
    "millsfield:images_colors_refs": {
      "crayola": [
        {
          "hex": "#757575"
        },
        {
          "hex": "#979aaa"
        },
        {
          "hex": "#95918c"
        },
        {
          "hex": "#b0b7c6"
        },
        {
          "hex": "#414a4c"
        },
        {
          "hex": "#2e5894"
        },
        {
          "hex": "#4a646c"
        },
        {
          "hex": "#6699cc"
        }
      ],
      "css4": [
        {
          "hex": "#708090"
        },
        {
          "hex": "#696969"
        },
        {
          "hex": "#5f9ea0"
        },
        {
          "hex": "#4682b4"
        },
        {
          "hex": "#c0c0c0"
        },
        {
          "hex": "#778899"
        },
        {
          "hex": "#2f4f4f"
        }
      ],
      "marekm4": [
        {
          "hex": "#28474d"
        },
        {
          "hex": "#597993"
        },
        {
          "hex": "#8b9ba4"
        },
        {
          "hex": "#56676b"
        },
        {
          "hex": "#758d9a"
        },
        {
          "hex": "#5b91a9"
        },
        {
          "hex": "#bbc1c4"
        },
        {
          "hex": "#2b7590"
        }
      ]
    },
    "millsfield:images_texts": [
      "Lufthansa",
      "Ski\nThe Difference\nThe Difference\nYour choice of fabulous\nof Skiing the Alps\nAlpine Winter Resorts\nEach winter, skiers from ail over the world\nSki The Difference Holidays feature ski areas\ncome to the Alps to Ski The Difference\" - a\nthat epitomize the best of the Alps, with a\ndifference you can appreciate no matter what\nvariety of fine accommodations to satisfy\nyour age or degree of skill on skis.\nevery taste and budget.\nYou see the difference in wide, unobstructed\nInnsbruck\nslopes that stretch way above the timberline\nIn runs that are measured in miles instead of\nCome to Innsbruck and see why it was\nBet. Ano in ine wind or powder must sier»\nchosen as the site of the 1964 and 1976\nwait seasons to enjoy.\nrom the gentles!\nWinter Olympics. Direct access to an\nbeginner's slope to the most challenging\nextraordinary range of slopes is provided by a\n4000-foot vertical drop, there's more in the\nvast network of ski bus systems. And the\nAlps to satisfy every skier.\nInnsbruck Snow Pledge unconditionally\nguarantees you snow for the duration of your\nWhen you see the dozens of richly diversified\nstay. Il snow conditions are unsatisfactory for\nski resorts, with their superb ski facilities and\nskiing in the Innsbruck area, free transportation\ntheir renowned ski schools, you'll understand\nwill be provided to a neighboring ski area.\nwhy skiing here is more than just a weekend\nhobby, It's a way of life. And you'll want to\nGerlos\nmake it your way of lite, too.\nin Gerios, an entre larmiy can enjoy Alpine\nWhether you dream of becoming a champion,\nskiing in a warm, hospitable atmosphere, Set\nor just want to \"ski the dilference\" for the pure\nin a snow-filled valley high in the Zillertal, it is\npleasure of it, you'll find the Alps a skier's\nrenowned not only for greal sking and winter\ndream come true.\nsports, but aiso for cultivated gastronomy and\nlively nightiife\nThe Difference\nKitzbuehel\nof Experiencing the Alps\nKitzbuehel's extensive skling complex ranges\nThere's more that's different about skiing in\nfrom the perfect beginner's run to the\nthe Alps than the skiing itself. Thare's the\nchallenging 3,950-foot vertical drop. Whether\nunique experience of being a part of the\nyou're a beginner or an expert, it's an ideal\nEuropean life-style The sophistication of\nase for your ski holiday.\nword-famous international playgrounds. And\nKitzbuehel combines the modern sport of\nan atmosphere of warm, relaxed friendliness\nskiing with 13th century charm and congenial\nyou simply won't lind anywhere else.\ncosmopolitan atmosphere, And as for\nThe Ains are a deliant io the senses and a lint\nnightlite, you can swing from dusk until dawn\nto the spirits. By day, they're a visual feast of\nwith the nonstop disco that pervades this\ncolorful ski fashions sal against a\nfashionable let set resort\nbreathtaking scenic backdrop. And by night.\nthey host the liveliest apres-ski scene ever to\nGarmisch\ncome down the slope.\nGermany's most renowned winler resort is\nTo top it all off, you ll discover the pleasures of\nlocated just 60 miles south of Munich.\nvacationing in an area where fine food.\nSituated at the foot of the towering\ncomfortable accommodations and genuine\n\"Zugspitze\", Germany's highest mountain.\nhospitality are traditional.\nGarmisch was host to the 4th Winter Olympic\nGames, and to the World Championship\nAlpine Ski Competition in 1978. This delightful\nExciting 1 \u0026 2 Week Ski\nresort blends Bavarian tradition with modemn\ntacilities and a lively apres ski scene\nHolidays\nOur Ski The Difterence Holidays are\navallable fer one or two weeks and inature.\nsuch popular Alpine resorts as Innsbruck,\nnizouener, benus, carusen and si Oswald.\nThe basic land packages include\naccommodations, continental breakfasts of\nbreakfasts and dinners (depending on hate!\ncategory selected), hotel service charges and\ntaxes, transfers lo-and from Munich. the\nservices of a local representative, and more.\nDepartures for sia holidays are scheduled\nevery Saturday from early January through\nthe end of March (pius special departures for\nthe Christmas and New Years Holidays), from\nNew York, Allarita, Boston, Chicago,\nDallas Ft. Worth, Los Angeles, Miami,\nhiladelphia, San Francisco and San Juan..\nAir transportation is based on Lufthansa's\nHoliday Fare and/or Winter Group Fare, For\napplicable details and conditions, consult your\nSt. Oswald\nSt Oswald is a unique vacation retreat, where\nthe quaintness and hospitality of an oid\nTyrolean farm village join the amenities of a\nmodem winter resort it puts a family ski\nvacation within reach of every budget.\nThere are five different skiing areas near Sl\nOswaid, 30 ski lifts, and downhill slopes for\nevery lever of skill. There's an excellent ski\nschool, and a ski kindergarten for the younger\nset. For cross country skiers, a network of\nbeautiful trails begins pracucelly at your\ndoorstep. And there's lots to do off the slopes\ntoo, including ice skating, horseback nding\nand horse-drawn sleigh riding.\nWhat makas the Ski Village\" really special\nare the accommodations centuries-old farm\nhouses converted into spacious private\napartments. They are lastelully appointed\nwith rustic style antique furniture and fully\nFor reservations or information on Lufthansa's Ski The Difference tours, consult your\ntravel agent or any Lufthansa office. You'll find our toll-free WATS number listed in your\ntelephone directory.\nLufthansa"
    ],
    "millsfield:images_texts_ids": [
      1746837077,
      1746837079
    ],
    "millsfield:primary_image": 1746837077,
    "millsfield:subcategory_id": 1511213365,
    "mz:is_current": 1,
    "sfomuseum:accession_number": "2006.010.443",
    "sfomuseum:airline": "Lufthansa",
    "sfomuseum:airline_id": [
      560
    ],
    "sfomuseum:category": "Promotional, Museum",
    "sfomuseum:classification_id": 128,
    "sfomuseum:collection": "Aviation Museum",
    "sfomuseum:creditline": "Gift of the William Hough Collection",
    "sfomuseum:date": "c. 1980",
    "sfomuseum:date_acquired": "2010-07-30",
    "sfomuseum:daterange_end": "1985-12-31",
    "sfomuseum:daterange_start": "1975-01-01",
    "sfomuseum:description": "Poster issued by Lufthansa; full color photographic image of Neuschwanstein castle in Bavaria, Germany; snow-covered mountains in the background; airline logotype at bottom. ",
    "sfomuseum:dimensions": "24 x 18 inches (61 x 45.7 cm)",
    "sfomuseum:medium": "paper, ink",
    "sfomuseum:object_id": 82257,
    "sfomuseum:placetype": "object",
    "sfomuseum:publication": ": , c. 1980.",
    "sfomuseum:subcategory": "Poster, Airline",
    "src:geom": "sfomuseum#undetermined",
    "wof:belongsto": [
      102527513,
      1159162825,
      102191575,
      85633793,
      102087579,
      85922583,
      85688637,
      1159160869
    ],
    "wof:country": "XY",
    "wof:created": 1639525008,
    "wof:depicts": [
      1159288215,
      1159284711
    ],
    "wof:geomhash": "c281b9d9eefc83b5710e64b9d646067d",
    "wof:hierarchy": [
      {
        "building_id": -1,
        "campus_id": 102527513,
        "collection_id": 1159162825,
        "concourse_id": 1159162825,
        "continent_id": 102191575,
        "country_id": 85633793,
        "county_id": 102087579,
        "custom_id": 1746835729,
        "locality_id": 85922583,
        "neighbourhood_id": -1,
        "object_id": 1746835729,
        "region_id": 85688637,
        "wing_id": 1159160869
      }
    ],
    "wof:id": 1746835729,
    "wof:lastmodified": 1787988191,
    "wof:name": "poster: Lufthansa",
    "wof:parent_id": 1159162825,
    "wof:placetype": "custom",
    "wof:placetype_alt": [
      "object"
    ],
    "wof:repo": "sfomuseum-data-collection",
    "wof:superseded_by": [],
    "wof:supersedes": []
  },
  "bbox": [
    -122.38647222518921,
    37.6161053594541,
    -122.38583385944366,
    37.61661101879963
  ],
  "geometry": {"type":"Polygon","coordinates":[[[-122.38647222518921,37.61631782178288],[-122.386434674263,37.61623283692423],[-122.38637566566466,37.61617759671399],[-122.38630056381224,37.6161308549656],[-122.38616108894348,37.6161053594541],[-122.38602161407469,37.6161308549656],[-122.38591432571411,37.61618609521055],[-122.38585531711577,37.61626683087935],[-122.38583385944366,37.61636881265146],[-122.38587141036987,37.61646654505181],[-122.38594114780425,37.61654303118856],[-122.38605380058287,37.61660252035167],[-122.38618254661559,37.61661101879963],[-122.3863059282303,37.61657277577607],[-122.3864185810089,37.61650903735973],[-122.3864668607712,37.61641130501523],[-122.38647222518921,37.61631782178288]]]}
}
