{
  "id": 1511958377,
  "type": "Feature",
  "properties": {
    "date:cessation_lower": "1984-11-22",
    "date:cessation_upper": "1984-11-22",
    "date:inception_lower": "1984-11-22",
    "date:inception_upper": "1984-11-22",
    "edtf:cessation": "1984-11-22",
    "edtf:date": "1984-11-22",
    "edtf:inception": "1984-11-22",
    "geom:area": 0,
    "geom:bbox": "-122.386155,37.616357,-122.386155,37.616357",
    "geom:latitude": 37.616357,
    "geom:longitude": -122.386155,
    "iso:country": "XX",
    "millsfield:aircraft_id": [
      1159291191
    ],
    "millsfield:category_id": 1511214215,
    "millsfield:collection_id": 1511214207,
    "millsfield:company_id": [],
    "millsfield:images": [
      1763444009,
      1763444011
    ],
    "millsfield:images_colors_refs": {
      "crayola": [
        {
          "hex": "#414a4c"
        },
        {
          "hex": "#fddde6"
        },
        {
          "hex": "#d68a59"
        },
        {
          "hex": "#c46210"
        }
      ],
      "css4": [
        {
          "hex": "#dcdcdc"
        },
        {
          "hex": "#cd853f"
        },
        {
          "hex": "#2f4f4f"
        },
        {
          "hex": "#d2691e"
        },
        {
          "hex": "#e6e6fa"
        }
      ],
      "marekm4": [
        {
          "hex": "#bd5623"
        },
        {
          "hex": "#323137"
        },
        {
          "hex": "#3a3a2d"
        },
        {
          "hex": "#e8e9e4"
        },
        {
          "hex": "#ebecec"
        },
        {
          "hex": "#d09d48"
        }
      ]
    },
    "millsfield:images_texts": [
      "First Airmail Across the Pacific\nNovember 22, 1935 • Alameda, California, USA\nCHINA CLIPPER\nZAIRE LA CONQUETE DE L'AIR\n8K\nMACCHI - CASTOLD M.C. 72 1934\nSIKORSKI S-42 B (CLIPPER) 1934 - 1937\n22\n1983\n94501\nUSA\n20c",
      "International Tributes to the History of Flight\nFirst Airmail Across the Pacific\nThe historic journey of the \"China Clipper\" began as\nThe full-color cachet shows the \"China Clipper\"\nthe amplified voice of Pan American Airways Presi-\nhigh above the San Francisco-Oakland Bay Bridge on\ndent, Juan T. Trippe, reverberated above the Alameda\nits return flight.\nairbase, \"\n...the transpacific airway is ready to inau-\ngurate airmail service of the United States Post Ottice\nMint stamp: The mint stamp on this Cover was issued\nfrom the mainland, across the Pacific to the\nby Zaire in 1978. The aircraft in the foreground is the\nPhilippines...\"\nSikorsky S-42 which was the first long range \"Clip-\nOn November 22, 1935, the Martin M-130 flying\nper\" ship. It was used by Pan Am to survey the route\nultimately used by the \"China Clipper.\"\nboat, known as the \"China Clipper,\" began its jour-\nney. For the first time in history, the people on the\nPostmark: This Cover was postmarked in Alameda,\neast and west sides of the Pacific would be linked.\nCalifornia, the origination site of the \"China Clipper\"\nThis flight was a significant advance for Pan Am in its\nflight, on November 22,1983, the anniversary of the\neffort to build a commercial airline network.\nfirst airmail flight across the Pacific.\n© Postal Commemorative Society\nPrinted in U.S.A.\nW1G.0560.034"
    ],
    "millsfield:images_texts_ids": [
      1763444009,
      1763444011
    ],
    "millsfield:primary_image": 1763444009,
    "millsfield:subcategory_id": 1511213159,
    "mz:hierarchy_label": 1,
    "mz:is_current": 1,
    "sfomuseum:accession_number": "2015.056.034",
    "sfomuseum:aircraft": "Martin M-130",
    "sfomuseum:aircraft_id": [
      834
    ],
    "sfomuseum:category": "Philately",
    "sfomuseum:classification_id": 10,
    "sfomuseum:collection": "Aviation Archive",
    "sfomuseum:creditline": "Gift of Robert Harris",
    "sfomuseum:date": "11/22/1984",
    "sfomuseum:date_acquired": "2015-05-12",
    "sfomuseum:daterange_end": "1984-11-22",
    "sfomuseum:daterange_start": "1984-11-22",
    "sfomuseum:description": "Airmail flight cover, part of International Tributes to the History of Flight series by the Postal Commemorative Society; white envelope with full color illustration cachet and inset stamp commemorating first airmail across the Pacific on November 22, 1935, in Alameda, California, U.S.A., by Pan American Airways with Martin M-130 “China Clipper” flying boat; cancellation stamp dated November 22, 1983 in Alameda; includes information on reverse.",
    "sfomuseum:dimensions": "5 x 7 1/2 inches (12.7 x 19.1 cm)",
    "sfomuseum:medium": "paper, ink",
    "sfomuseum:object_id": 167072,
    "sfomuseum:placetype": "object",
    "sfomuseum:publication": ": , 11/22/1984.",
    "sfomuseum:subcategory": "Airmail Flight Cover",
    "src:geom": "sfomuseum#undetermined",
    "wof:belongsto": [
      1511214215,
      102527513,
      102191575,
      85633793,
      1511213159,
      85922583,
      102087579,
      1511214277,
      1511214207,
      85688637
    ],
    "wof:breaches": [],
    "wof:country": "XX",
    "wof:created": 1618962263,
    "wof:depicts": [
      1159291191
    ],
    "wof:geomhash": "30c8a918561c84bb2daa2b97fc7c5353",
    "wof:hierarchy": [
      {
        "arcade_id": 1511213159,
        "building_id": 1511214277,
        "campus_id": 102527513,
        "concourse_id": 1511214215,
        "continent_id": 102191575,
        "country_id": 85633793,
        "county_id": 102087579,
        "custom_id": 1511958377,
        "locality_id": 85922583,
        "neighbourhood_id": -1,
        "object_id": 1511958377,
        "region_id": 85688637,
        "venue_id": 1511958377,
        "wing_id": 1511214207
      }
    ],
    "wof:id": 1511958377,
    "wof:lastmodified": 1787988190,
    "wof:name": "airmail flight cover: First airmail across the Pacific commemorative",
    "wof:parent_id": 1159162825,
    "wof:placetype": "custom",
    "wof:placetype_alt": [
      "object"
    ],
    "wof:repo": "sfomuseum-data-collection",
    "wof:superseded_by": [],
    "wof:supersedes": [],
    "wof:tags": []
  },
  "bbox": [
    -122.386155,
    37.616357,
    -122.386155,
    37.616357
  ],
  "geometry": {"type":"Point","coordinates":[-122.386155,37.616357]}
}
