{
  "id": 1511956495,
  "type": "Feature",
  "properties": {
    "date:cessation_lower": "1980-01-01",
    "date:cessation_upper": "1980-12-31",
    "date:inception_lower": "1980-01-01",
    "date:inception_upper": "1980-12-31",
    "edtf:cessation": "1980",
    "edtf:date": "1980",
    "edtf:inception": "1980",
    "geom:area": 0,
    "geom:bbox": "-122.386155,37.616357,-122.386155,37.616357",
    "geom:latitude": 37.616357,
    "geom:longitude": -122.386155,
    "iso:country": "XX",
    "millsfield:airline_id": [
      1159284989
    ],
    "millsfield:category_id": 1762671311,
    "millsfield:collection_id": 1511214207,
    "millsfield:company_id": [
      1159286839
    ],
    "millsfield:images": [
      1527853181,
      1746281537,
      1863469941,
      1863469943,
      1863469945
    ],
    "millsfield:images_colors_refs": {
      "crayola": [
        {
          "hex": "#efdecd"
        },
        {
          "hex": "#000000"
        },
        {
          "hex": "#6dae81"
        },
        {
          "hex": "#414a4c"
        },
        {
          "hex": "#bab86c"
        },
        {
          "hex": "#9c7c38"
        }
      ],
      "css4": [
        {
          "hex": "#a0522d"
        },
        {
          "hex": "#dcdcdc"
        },
        {
          "hex": "#5f9ea0"
        },
        {
          "hex": "#556b2f"
        },
        {
          "hex": "#000000"
        },
        {
          "hex": "#2f4f4f"
        },
        {
          "hex": "#bdb76b"
        },
        {
          "hex": "#faebd7"
        }
      ],
      "marekm4": [
        {
          "hex": "#4f503a"
        },
        {
          "hex": "#414c34"
        },
        {
          "hex": "#aba461"
        },
        {
          "hex": "#ede5cb"
        },
        {
          "hex": "#8d7426"
        },
        {
          "hex": "#221f17"
        },
        {
          "hex": "#e6e3cb"
        },
        {
          "hex": "#639f9a"
        },
        {
          "hex": "#f3e8cf"
        },
        {
          "hex": "#f4ead0"
        },
        {
          "hex": "#1f1b15"
        }
      ]
    },
    "millsfield:images_texts": [
      "To Demald Mo Key arg breller of the Magnifecand\nCLIPPER SHIP \"SOVEREIGN OF THE SEAS\"\nprint is soups alfally dediated by the Pallache.",
      "BROWN Ir. DEL.\nDIMENSIONS\nLENGTH ON DECK.\nLENGTH OVERALL\nknight heads to tattrail)\nintered wording to and of Congres in the your 1852 6y N. Curris in the lach Offer of the District Court of Name Yout\nTo Donald MoKay osg, builder of the Magnificent\nCLIPPER SHIP \"SOVEREIGN OF THE SEAS\".\nThis print is respectfully dodicated by the Publisher.\nLITH RY N CURRIER",
      "»»»»\n1. 1.1...\n- 14.1«\nPAN AM MANAGEMENT CLUB\nGALA DINNER\nHonoring San Francisco Management\nEmployees\nRetiring September 1, 1980\nAirport Sheraton Hotel\n7 p.m.\nAugust 26, 1980\nCLASS OF 1980\nNAME\nSam Acuff\nPeggy Brown\nKen Chan\nHarry Chew\nRay Choklat\nWyatt Fisher\nGene Garrison\nJohn Glass\nJane Gottschall\nLarry Hines\nSpike Horiye\nCal Howell\nMary Isiac\nGeorge Jean\nBob Johnson\nHerb Johnson\nPhil Jones\nYEARS OF\nSERVICE\n32\n14\n37\n37\n31\n29\nNAME\nAl Jordan\nCal Kennard\nSam Kinoshita\nEarl Koepsell\nTiger Lillie\nShorty Lovell\nDave Maloney\nHoward Marcks\nBill Marsh\nTex Marshall\nJoe Maschewski\nLou Mazzucchelli\nDon McMorran\nRin Navarro\nHerb Nelson\nCec Newton\nJoe Newton\nYEARS OF\nSERVICE\n35\n35\n34\n34\n39\nNAME\nMilt Nordstrom\nJohn Oakes\nHarlan Pick\nCliff Pierce\nFrank Quigley\nNelson Raymond\nJim Robinson\nBill Rook\nFrank Scott\nEddie Shiosaka\nTerry Shores\nVern Smith\nFreeman Tong\nJohn Wendt\nGene Whitlock\nDennis Woodrich\nChet Zinkel\nYEARS OF\nSERVICE\n39\n40\n29\n33\n39\n33\n35\n38\n28\n37\n34\n38\n34\n→•→• 66•16•11.1.1.1.1.1.\n166-188.1-",
      "MENU\nTossed Green Garden Salad\nChef's Dressing\nRoast Prime Rib of Beef au jus-Royal Cut\nRoasted New Potatoes with Butter and Paprika\nStringbeans with Almonds\nRolls\nButter\nDessert\nCoffee\nTea\nAlmaden Cabernet Sauvignon\nAlmaden Pinot Chardonnay",
      "CLIPPER SHIP \"SOVEREIGN OF THE SEAS\"\nThe front cover of this menu is a reproduction of an authentic Currier \u0026 Ives clipper ship print.\nCurrier \u0026 Ives, known as the \"Printmakers of America\", graphically preserved the glorious clipper\nship era in a magnificent series of clipper ship prints. This print, one of a series, is being reproduced\nthrough the courtesy of The Museum of the City of New York.\nThe clipper ship \"Sovereign of the Seas,\" launched in 1852, influenced the design of all future\nclippers. She was built with almost a flat bottomed hull to allow for greater cargo carrying capacity,\nwhile maintaining speed. Many of the world's ship builders claimed that this was impossible to\nachieve. On her maiden run to San Francisco, with a mainmast that reached over 200 feet into the\nsky, and able to carry more than 12,000 yards of canvas, she made San Francisco in 103 days. To\nreport such record speeds was considered fantastic and incredible. It convinced the most skeptical\nof the value of flat bottoms for speed. On her maiden voyage, one of the passengers wrote in his\ndiary, \"It was fearful to see the topmasts bend as she beat around the Horn. We hardly dared look\naloft lest we should see the canvas blown away.\" To cap it off she then broke the record from\nNew York to Liverpool, making the run in 13 days, 13½ hours. \"Sovereign of the Seas\" reported\nthe highest rate of speed ever achieved by a sailing ship-22 knots. The fastest of today's ocean\nliners steam along at about 31.5 knots.\nLike Pan Am's modern Clippers* of the air, the early clipper ships traveled the lanes of com-\nmerce to all the far places of the world... to Japan... to Australia... and, in the days of the great\ngold rush, from America's east coast, around Cape Horn, South America, to California. Our current\nequipment.. the Clipper fleet of the Twentieth Century ... consists of the finest commercial\naircraft ever developed —aircraft that have helped us establish an unparalleled record for safety,\nspeed ame service.\n*CLIPPER TRADE MARK-REG US PAT OFFICE - COPYRIGHT 1966 PAN AMERICAN WORLD AIRWAYS INC\nLITHO IN USA -8739-0393\n2013.095.027"
    ],
    "millsfield:images_texts_ids": [
      1527853181,
      1746281537,
      1863469941,
      1863469943,
      1863469945
    ],
    "millsfield:primary_image": 1746281537,
    "millsfield:subcategory_id": 1511213567,
    "mz:hierarchy_label": 1,
    "mz:is_current": 1,
    "sfomuseum:accession_number": "2013.095.027",
    "sfomuseum:airline": "Pan American World Airways",
    "sfomuseum:airline_id": [
      684
    ],
    "sfomuseum:category": "Passenger Amenity, Archive",
    "sfomuseum:classification_id": 242,
    "sfomuseum:collection": "Aviation Archive",
    "sfomuseum:creditline": "Gift of the Estate of Jane Gottschall",
    "sfomuseum:date": "1980",
    "sfomuseum:date_acquired": "2014-05-21",
    "sfomuseum:daterange_end": "1980-12-31",
    "sfomuseum:daterange_start": "1980-01-01",
    "sfomuseum:description": "Menu issued by Pan American World Airways for Pan Am Management Club Gala Dinner, dated August 26, 1980; color reproduction of print titled “Sovereign of the Seas”; includes list of employees in management retiring in September 1980.",
    "sfomuseum:dimensions": "10 x 12 1/2 inches (25.4 x 31.8 cm)",
    "sfomuseum:media_ids": [
      1527853181
    ],
    "sfomuseum:medium": "paper, ink",
    "sfomuseum:object_id": 149876,
    "sfomuseum:placetype": "object",
    "sfomuseum:primary_media_id": 1527853181,
    "sfomuseum:publication": ": , 1980.",
    "sfomuseum:subcategory": "Menu",
    "src:geom": "sfomuseum#undetermined",
    "wof:belongsto": [
      1159162825,
      102527513,
      102191575,
      85633793,
      85922583,
      102087579,
      1159160869,
      85688637
    ],
    "wof:breaches": [],
    "wof:country": "XX",
    "wof:created": 1579906658,
    "wof:depicts": [
      1159284989,
      1159286839
    ],
    "wof:geomhash": "30c8a918561c84bb2daa2b97fc7c5353",
    "wof:hierarchy": [
      {
        "building_id": -1,
        "campus_id": 102527513,
        "concourse_id": 1159162825,
        "continent_id": 102191575,
        "country_id": 85633793,
        "county_id": 102087579,
        "custom_id": 1511956495,
        "locality_id": 85922583,
        "neighbourhood_id": -1,
        "object_id": 1511956495,
        "region_id": 85688637,
        "venue_id": 1511956495,
        "wing_id": 1159160869
      }
    ],
    "wof:id": 1511956495,
    "wof:lastmodified": 1787988190,
    "wof:name": "menu: Pan American World Airways",
    "wof:parent_id": 1159162825,
    "wof:placetype": "custom",
    "wof:placetype_alt": [
      "object"
    ],
    "wof:repo": "sfomuseum-data-collection",
    "wof:superseded_by": [],
    "wof:supersedes": [],
    "wof:tags": []
  },
  "bbox": [
    -122.386155,
    37.616357,
    -122.386155,
    37.616357
  ],
  "geometry": {"type":"Point","coordinates":[-122.386155,37.616357]}
}
