{
  "id": 1913796077,
  "type": "Feature",
  "properties": {
    "date:cessation_lower": "1947-07-22",
    "date:cessation_upper": "1947-07-22",
    "date:inception_lower": "1947-07-22",
    "date:inception_upper": "1947-07-22",
    "edtf:cessation": "1947-07-22",
    "edtf:inception": "1947-07-22",
    "geom:area": 2.475047457570636e-7,
    "geom:bbox": "-122.386472,37.616105,-122.385834,37.616611",
    "geom:latitude": 37.61635747477365,
    "geom:longitude": -122.38615540108617,
    "millsfield:airline_id": [
      1159284991
    ],
    "millsfield:category_id": 1511214251,
    "millsfield:collection_id": 1511214207,
    "millsfield:company_id": [
      1159286839
    ],
    "millsfield:images": [
      1913799349,
      1913799351,
      1913799353
    ],
    "millsfield:images_colors_refs": {
      "crayola": [
        {
          "hex": "#1a4876"
        },
        {
          "hex": "#2e5894"
        },
        {
          "hex": "#eceabe"
        }
      ],
      "css4": [
        {
          "hex": "#483d8b"
        },
        {
          "hex": "#191970"
        },
        {
          "hex": "#f5deb3"
        }
      ],
      "marekm4": [
        {
          "hex": "#103168"
        },
        {
          "hex": "#325c90"
        },
        {
          "hex": "#123066"
        },
        {
          "hex": "#ebe0c0"
        },
        {
          "hex": "#ebe0bf"
        },
        {
          "hex": "#365d90"
        },
        {
          "hex": "#ebe1c2"
        },
        {
          "hex": "#325d90"
        }
      ]
    },
    "millsfield:images_texts": [
      "TELEGRAPHIC ADDRESS \"IMPHO TOKYO \"\nImperial Fatel\nTroday Jut, 22\n1947-Bc8\nStarrot Orbs.\nOkad a half hour cutt\ngenese mac Cakes.\nNe asked to br\nremember to\nCould mt har\nrun mar Cordial. Hourer,\nhe looks much cler thin then tuz knew\nPum. He ga his complete bugget to te\nTrapsal 9 made and chota a mote for\nme to take to Lt. gun White head.\nLird. Am- making dow progun wist a\nCol. Johneon assete to work with to ty gum.\nLühta head. Am to har lunch with the\nmac Asthmo today.\nand call gur. your present\nto\npan a the Brugs to young tac Chekin\nCompus back The Rigar to Fry\" to the go\nIt\nlisto au the mistakia ur made after lined\nWar I and the means of avoiding ithe sam\nEros nors.\nvar worked with Cal Johnson",
      "last might 12 cans\nTELEGRAPHIC ADPRESS \"IMPHO TOKYO'\nthis morning he has to do\nsome flying in order to calect his fliget paz\nToniget ur Imperial fatel and Raring Mis.\nBianca - wip of Bie Baa Ran reastation\nand Tat for dane - also a\n\"miss\" Alevander\nWho is really tumpin\" She is an oldes blonde\nwho word to be a liac and acto as seritag\nof the Visiters Burzan. It was the augh her\nthat Bie Branch got to mito the tapirial\nHere where on the moit in poitant of\nVips are bivord. At feat the and otine\nin the visitors Bazan eins tomewhat alot\nAnd wondered whathe or not us keally rate\nbout when the Mac Aires invited me to lunch\nthey mearly knocked themsters ont and and\nto be don right pay.\nTat trees me that \"miss Alexander is\ngrandmather.\nShe is amarated by a Captain\nCarver pom Lanisil euko is a typen\nArde.\nTokyo is plung hat - eki Shangmai\n+ thro time of the yar.\nJear. But the hatee\nan conditioned and that hips. no plans",
      "bout\nit dor look as though ur\nELE GRAPHIC ADDRESS \"IMPHO TOKYO\nshoned i2 able to\nClean up own deal and\nget ont of here Imperial Satella QuIet, So\nfar thing Lan.\ngone\nTokyo true than any of\nus dared hope for bit eis must not get\nom confidint an\nproblems akraa any one of when may\nrais its ugly head to wreck us complite.\nI do hope to make that plane ont of\nMania on Unguit 11t\nHair a line on some muck, mato\ngrace. bit thague hard to get and ma,\nme g thim.\nto sile thim recyt to the OX and the\nlath hat them a \"Critical\" itrms. Bought\ntwo small pesen of geogets silk - no\nreal, good staft available such a brocades\nEtc.\nmust stop now and work on\ndirectin when dr hage to get dignad.\nLots and lots of lor"
    ],
    "millsfield:images_texts_ids": [
      1913799349,
      1913799351,
      1913799353
    ],
    "millsfield:primary_image": 1913799349,
    "millsfield:subcategory_id": 1511213489,
    "mz:is_approximate": 1,
    "mz:is_current": 1,
    "sfomuseum:accession_number": "2019.121.1107 a c",
    "sfomuseum:airline": "Pan American Airways",
    "sfomuseum:airline_id": [
      685
    ],
    "sfomuseum:category": "Employee Career History",
    "sfomuseum:classification_id": 195,
    "sfomuseum:collection": "Aviation Archive",
    "sfomuseum:creditline": "Collection of SFO Museum",
    "sfomuseum:date": "07/22/1947",
    "sfomuseum:date_acquired": "2019-11-22",
    "sfomuseum:daterange_end": "1947-07-22",
    "sfomuseum:daterange_start": "1947-07-22",
    "sfomuseum:description": "Handwritten letter from Harold M. Bixby to his wife, Debby Bixby, dated July 22, [1947], on stationery from the Imperial Hotel in Tokyo; includes brief description of meeting with General Douglas A. MacArthur as well as impressions of Tokyo; mentions Bill Branch, Lieutenant General Whitehead, and Colonel Johnson.",
    "sfomuseum:dimensions": "11 x 9 inches (27.9 x 22.9 cm)",
    "sfomuseum:medium": "paper, ink",
    "sfomuseum:object_id": 211470,
    "sfomuseum:placetype": "object",
    "sfomuseum:publication": ": , 07/22/1947.",
    "sfomuseum:subcategory": "Correspondence, Personal",
    "src:geom": "sfomuseum#undetermined",
    "wof:belongsto": [
      102527513,
      1159162825,
      102191575,
      85633793,
      102087579,
      85922583,
      85688637,
      1159160869
    ],
    "wof:country": "XY",
    "wof:created": 1714548977,
    "wof:depicts": [
      1159284991,
      1159286839
    ],
    "wof:geomhash": "c281b9d9eefc83b5710e64b9d646067d",
    "wof:hierarchy": [
      {
        "building_id": -1,
        "campus_id": 102527513,
        "collection_id": 1159162825,
        "concourse_id": 1159162825,
        "continent_id": 102191575,
        "country_id": 85633793,
        "county_id": 102087579,
        "custom_id": 1913796077,
        "locality_id": 85922583,
        "neighbourhood_id": -1,
        "object_id": 1913796077,
        "region_id": 85688637,
        "wing_id": 1159160869
      }
    ],
    "wof:id": 1913796077,
    "wof:lastmodified": 1787988219,
    "wof:name": "correspondence: Harold M. Bixby to Debby Bixby",
    "wof:parent_id": 1159162825,
    "wof:placetype": "custom",
    "wof:placetype_alt": [
      "object"
    ],
    "wof:repo": "sfomuseum-data-collection",
    "wof:superseded_by": [],
    "wof:supersedes": []
  },
  "bbox": [
    -122.38647222518921,
    37.6161053594541,
    -122.38583385944366,
    37.61661101879963
  ],
  "geometry": {"type":"Polygon","coordinates":[[[-122.38647222518921,37.61631782178288],[-122.386434674263,37.61623283692423],[-122.38637566566466,37.61617759671399],[-122.38630056381224,37.6161308549656],[-122.38616108894348,37.6161053594541],[-122.38602161407469,37.6161308549656],[-122.38591432571411,37.61618609521055],[-122.38585531711577,37.61626683087935],[-122.38583385944366,37.61636881265146],[-122.38587141036987,37.61646654505181],[-122.38594114780425,37.61654303118856],[-122.38605380058287,37.61660252035167],[-122.38618254661559,37.61661101879963],[-122.3863059282303,37.61657277577607],[-122.3864185810089,37.61650903735973],[-122.3864668607712,37.61641130501523],[-122.38647222518921,37.61631782178288]]]}
}
