{
  "id": 1511928831,
  "type": "Feature",
  "properties": {
    "date:cessation_lower": "1970-01-01",
    "date:cessation_upper": "1970-12-31",
    "date:inception_lower": "1970-01-01",
    "date:inception_upper": "1970-12-31",
    "edtf:cessation": "1970~",
    "edtf:date": "1970~",
    "edtf:inception": "1970~",
    "geom:area": 0,
    "geom:bbox": "-122.386155,37.616357,-122.386155,37.616357",
    "geom:latitude": 37.616357,
    "geom:longitude": -122.386155,
    "iso:country": "XX",
    "millsfield:aircraft_id": [
      1159289873
    ],
    "millsfield:airline_id": [
      1159284989
    ],
    "millsfield:category_id": 1762671311,
    "millsfield:collection_id": 1511214207,
    "millsfield:company_id": [
      1159293593
    ],
    "millsfield:exhibition_ids": [
      1495157219
    ],
    "millsfield:images": [
      1527844867,
      1527844873,
      1527844875
    ],
    "millsfield:images_colors_refs": {
      "crayola": [
        {
          "hex": "#dbd7d2"
        },
        {
          "hex": "#ffffff"
        },
        {
          "hex": "#95918c"
        },
        {
          "hex": "#c46210"
        },
        {
          "hex": "#714b23"
        },
        {
          "hex": "#414a4c"
        }
      ],
      "css4": [
        {
          "hex": "#778899"
        },
        {
          "hex": "#dcdcdc"
        },
        {
          "hex": "#f5f5f5"
        },
        {
          "hex": "#b22222"
        },
        {
          "hex": "#2f4f4f"
        },
        {
          "hex": "#800000"
        },
        {
          "hex": "#b8860b"
        }
      ],
      "marekm4": [
        {
          "hex": "#d9dddb"
        },
        {
          "hex": "#580300"
        },
        {
          "hex": "#778d98"
        },
        {
          "hex": "#f7f7f3"
        },
        {
          "hex": "#d78a02"
        },
        {
          "hex": "#ad3100"
        },
        {
          "hex": "#30261c"
        },
        {
          "hex": "#2b3836"
        }
      ]
    },
    "millsfield:images_texts": [
      "PAN AM.\nPAN\n10739\n147",
      "SAN FRANCISCO • NEW YORK\nDEJEUNER\nBRUNCH\nJus d'Orange Glacé\nCHILLED FRESH ORANGE JUICE\nLes Fruits de Saison\nSELECTED FRUITS IN SEASON\nFilet Mignon Grillée\nGRILLED FILLET MIGNON\nOeufs Pochés Benedict\nPOACHED EGGS BENEDICT\nSuprême de Volaille Wellington\nBREAST OF CHICKEN WELLINGTON\nPommes de Terre Rissolées\nROASTED NEW POLAIUES\nFilet de Saumon, Sauce Champagne\nFILLET OF SALMON IN CHAMPAGNE SAUCE\nLégumes au Beurre\nBUTTERED VEGETABLES\nRiz Pilaf\nRICE PILAFF\nCafé Américain\nAMERICAN COFFEE\nSalade Mimosa\nMIXED GREEN SALAD\nDessert\nDESSERT\nThé\nCafé Décaféiné\nSANKA\nE",
      "TOKYO • SAN FRANCISCO\nDINER\nDINNER\nDélices Culinaires de la Voiture\nCHINARY DELICACIES FROM THE FAST\nRôti de Boeuf\nROASTED PRIME BEER\nTempura Japonaise\nMIAPANESE TEMPURA\nSuprême de Volaille à l'Orientale\nBREAST OF CHICKEN FLAVORED WITH ASIAN VEGETABLES AND SPICES\nMedallions de Veau à l'Estragon\nVFAI MEDAHLIONS IN CREAMED TARRAGON SAUCE\nPommes de Terre Rissolées\nROASTED NEW POTATOES\nRiz Pilaf\nRICE PILAFF\nLégumes au Beurre\nBUTTERED VEGETABLES\nSalade Mimosa\nMIXED GREEN SALAD\nUne Sélection de Fromages et Fruits\nA SELECTION OF CHEESES AND FRUITS\nDessert\nDESSERT\nCafé Américain\nAMERICAN COFFEE\nThé\nTEA\nCafé Décaféiné\nSANKA\nPETIT DEJEUNER\nRRFAKFAST\nSuprême de Fruits Frais\nFRESH FRUITS\nOmelette au Fromage\nOMELET WITH CHEESE\nOeufs Pochés Benedict\nDRACHEN EGGS BENEDICT\nFilet Mignon Grillé\nADIL CO CILICT MIGNON\nBacon Canadien\nCANADIAN BACON\nTomate Grillée\nCOIL CO TOMATO\nPetits Pains Assortis\nASSORTED BREAKFAST BREADS\nConfitures\nPRESERVES\nBeurre\nCOECH RITTER\nCafé\nCOCCEE\nThé\nTE A\nCafé Décaféiné"
    ],
    "millsfield:images_texts_ids": [
      1527844867,
      1527844873,
      1527844875
    ],
    "millsfield:on_view": 0,
    "millsfield:primary_image": 1527844867,
    "millsfield:subcategory_id": 1511213567,
    "mz:hierarchy_label": 1,
    "mz:is_current": 1,
    "sfomuseum:accession_number": "2007.002.019",
    "sfomuseum:aircraft": "Boeing 747",
    "sfomuseum:aircraft_id": [
      231
    ],
    "sfomuseum:airline": "Pan American World Airways",
    "sfomuseum:airline_id": [
      684
    ],
    "sfomuseum:category": "Passenger Amenity, Archive",
    "sfomuseum:classification_id": 242,
    "sfomuseum:collection": "Aviation Archive",
    "sfomuseum:creditline": "Gift of John J. Larish",
    "sfomuseum:date": "c. 1970",
    "sfomuseum:date_acquired": "2006-12-26",
    "sfomuseum:daterange_end": "1975-12-31",
    "sfomuseum:daterange_start": "1965-01-01",
    "sfomuseum:description": "Menu issued by Pan American World Airways, eastbound round-the-world route; color photographic image on cover depicting tail section of Boeing 747 against low sun; menu items included for multiple meals; menu number: FLIGHT 002; class: first; undated.",
    "sfomuseum:dimensions": "12 x 9 inches (30.5 x 22.9 cm)",
    "sfomuseum:exhibition_ids": [
      1488
    ],
    "sfomuseum:media_ids": [
      1527844867,
      1527844873,
      1527844875
    ],
    "sfomuseum:medium": "paper, ink",
    "sfomuseum:object_id": 82437,
    "sfomuseum:placetype": "object",
    "sfomuseum:primary_media_id": 1527844867,
    "sfomuseum:publication": ": , c. 1970.",
    "sfomuseum:subcategory": "Menu",
    "src:geom": "sfomuseum#undetermined",
    "wof:belongsto": [
      1159162825,
      102527513,
      102191575,
      85633793,
      85922583,
      102087579,
      1159160869,
      85688637
    ],
    "wof:breaches": [],
    "wof:country": "XX",
    "wof:created": 1579906661,
    "wof:depicts": [
      1159293593,
      1159286839,
      1159284989,
      1159289873
    ],
    "wof:geomhash": "30c8a918561c84bb2daa2b97fc7c5353",
    "wof:hierarchy": [
      {
        "building_id": -1,
        "campus_id": 102527513,
        "concourse_id": 1159162825,
        "continent_id": 102191575,
        "country_id": 85633793,
        "county_id": 102087579,
        "custom_id": 1511928831,
        "locality_id": 85922583,
        "neighbourhood_id": -1,
        "object_id": 1511928831,
        "region_id": 85688637,
        "venue_id": 1511928831,
        "wing_id": 1159160869
      }
    ],
    "wof:id": 1511928831,
    "wof:lastmodified": 1787988180,
    "wof:name": "menu: Pan American World Airways, first class",
    "wof:parent_id": 1159162825,
    "wof:placetype": "custom",
    "wof:placetype_alt": [
      "object"
    ],
    "wof:repo": "sfomuseum-data-collection",
    "wof:superseded_by": [],
    "wof:supersedes": [],
    "wof:tags": []
  },
  "bbox": [
    -122.386155,
    37.616357,
    -122.386155,
    37.616357
  ],
  "geometry": {"type":"Point","coordinates":[-122.386155,37.616357]}
}
