{
  "id": 1913796529,
  "type": "Feature",
  "properties": {
    "date:cessation_lower": "1949-06-25",
    "date:cessation_upper": "1949-06-25",
    "date:inception_lower": "1949-06-25",
    "date:inception_upper": "1949-06-25",
    "edtf:cessation": "1949-06-25",
    "edtf:inception": "1949-06-25",
    "geom:area": 2.475047457570636e-7,
    "geom:bbox": "-122.386472,37.616105,-122.385834,37.616611",
    "geom:latitude": 37.61635747477365,
    "geom:longitude": -122.38615540108617,
    "millsfield:airline_id": [
      1159284991
    ],
    "millsfield:category_id": 1511214251,
    "millsfield:collection_id": 1511214207,
    "millsfield:company_id": [
      1159286839
    ],
    "millsfield:images": [
      1913799515,
      1913799517,
      1913799521
    ],
    "millsfield:images_colors_refs": {
      "crayola": [
        {
          "hex": "#414a4c"
        },
        {
          "hex": "#efdecd"
        }
      ],
      "css4": [
        {
          "hex": "#faebd7"
        },
        {
          "hex": "#2f4f4f"
        }
      ],
      "marekm4": [
        {
          "hex": "#4f5353"
        },
        {
          "hex": "#f0ebd5"
        },
        {
          "hex": "#efe9d2"
        },
        {
          "hex": "#efead4"
        },
        {
          "hex": "#4e514f"
        },
        {
          "hex": "#4f5250"
        }
      ]
    },
    "millsfield:images_texts": [
      "Charles Hollmann\nGENERAL\nMANAGER\nOVERLOOKING\nSaturday\nSume 2541949\nMANILA HOTEL\nARISTOCRAT OF THE ORIENT\" - CABLE \"MANHOCO\"\nManila, Philippines\nDranent Dibs.\nJ.T. T. called this morning and coned it\nLair\ntha als t. 9.. seductur\nvora.\nIt was greatly shacked at the report\nof attentor Rich ardo\nwhich he had not under-\nstood - the H- he didn't - and wanted\nme to go to Tokyo. I agrico to do so\nbecan - as you know with are hi panet\nI real like the guy. Then too Dim\nthinking of next winter. Curtont a place\nto lin in N.Y. wa bar to go abroad!\nThis\ni Do time to hair a break with\nд. т.т.\nIt has employed a Joung emiger\nname Pride who supponel, has the\nWhate ston and wale be in Tokyo - so\ng. TiT sap on Thursday. Accordingh o\nam leaves th\nhunc\nMonday and batongkong on\nvidnday a for Tokyo where us el 1r due\nthat might.\nToday o rechard your nia littr of\nJune 18 written after our phone connsation.",
      "Poor Bie Lyon.\nout some\nCharles Hollmann\nGENERAL MANAGER\nI do hope he can work\ndeal wet magsta. The\nlatter - thund the\nMANILA HOTEL\nOVERLOOKING THE MANILA BAY — \" THE ARISTOCRAT OF THE ORIENT\"~ CABLE \"MANHOCO\"\nWhiskus of \"mayota\" is Canta Philogines\npinese rich\ngui who\nsis an opportunits to proptin.\neir - of cours- are not responsible an\nglad that fate has made om\nplam\nfor us - just as us unc forer\nont of #2 Normandy.\nI fries belier it\nwie all turn out for the bat and you\nhardes it gust right.\nElma - and you too. must kan got\nHe certame was on some\nmission otka than food at the Loins!\nI'm sure it was hand for Ee to\nAre you girls all to satafactor are\nhappy and\ncompare thin with he\nour. Un dur fuck\ncucumstances thas must\ntr a lot of seg analysis an a wondering\non hu part as to whatta or not she\nRad brought them up t in the car of\nadopted childen thee is always that\nlunken 9 dozilisi.eios\ndonst about their back ground",
      "and\nink ited tendencies.\nIt must ir\nvery hand\nfor her.\nCharles Hollmann\nGENERAL MANAGER\nMANILA HOTEL\nOVERLOOKING THE MANILA BAY\nтне\nARISTOCRAT OF THE ORIENT\"~ CABLE \"MANHOCO\"\nManila, Philippines\nIm anpue,\nglad that\nHer to looking\nafth the\neitle\nquit tress and riding\nend on the ros\nthe rose lugs. Thank her for me.\nschs dule\nHop on s\nguts ont of our hour on\nout he wile certains be campin\nThat Pyoo rent for\nthe house in\nthe village ought to help\nbecaus that gor to him.\nHair gust\nre read al you cetus -\nlour thim\nso -\nwet to be the stone\nput lent may met find any. The G. Is plu\ntour vato hair. absolute Cleaned ont tonything.\nand this little moving in from China.\nOur representatur hue - a un for\nman- will get the clam shells and\nsand then ber boat frright to Captiva.\nIte is getting then in the provinces to\nsarr mone.\nmust stop now to get this in\nthe mail. Lots and lots of for to\nthe must wonder the gue that tor wap -\nya -\nyou 1tad\n• OEIISAPIOS"
    ],
    "millsfield:images_texts_ids": [
      1913799515,
      1913799517,
      1913799521
    ],
    "millsfield:subcategory_id": 1511213489,
    "mz:is_approximate": 1,
    "mz:is_current": 1,
    "sfomuseum:accession_number": "2019.121.1130 a c",
    "sfomuseum:airline": "Pan American Airways",
    "sfomuseum:airline_id": [
      685
    ],
    "sfomuseum:category": "Employee Career History",
    "sfomuseum:classification_id": 195,
    "sfomuseum:collection": "Aviation Archive",
    "sfomuseum:creditline": "Collection of SFO Museum",
    "sfomuseum:date": "06/25/1949",
    "sfomuseum:date_acquired": "2019-11-22",
    "sfomuseum:daterange_end": "1949-06-25",
    "sfomuseum:daterange_start": "1949-06-25",
    "sfomuseum:description": "Handwritten letter from Harold M. Bixby to his wife, Debby Bixby, dated June 25, [1949], on stationery from the Manila Hotel; includes description of phone call with J.T.T. [Juan Trippe], next set of travel plans.",
    "sfomuseum:dimensions": "11 x 8 1/2 inches (27.9 x 21.6 cm)",
    "sfomuseum:medium": "paper, ink",
    "sfomuseum:object_id": 211493,
    "sfomuseum:placetype": "object",
    "sfomuseum:publication": ": , 06/25/1949.",
    "sfomuseum:subcategory": "Correspondence, Personal",
    "src:geom": "sfomuseum#undetermined",
    "wof:belongsto": [
      102527513,
      1159162825,
      102191575,
      85633793,
      102087579,
      85922583,
      85688637,
      1159160869
    ],
    "wof:country": "XY",
    "wof:created": 1714549120,
    "wof:depicts": [
      1159284991,
      1159286839
    ],
    "wof:geomhash": "c281b9d9eefc83b5710e64b9d646067d",
    "wof:hierarchy": [
      {
        "building_id": -1,
        "campus_id": 102527513,
        "collection_id": 1159162825,
        "concourse_id": 1159162825,
        "continent_id": 102191575,
        "country_id": 85633793,
        "county_id": 102087579,
        "custom_id": 1913796529,
        "locality_id": 85922583,
        "neighbourhood_id": -1,
        "object_id": 1913796529,
        "region_id": 85688637,
        "wing_id": 1159160869
      }
    ],
    "wof:id": 1913796529,
    "wof:lastmodified": 1787988220,
    "wof:name": "correspondence: Harold M. Bixby to Debby Bixby",
    "wof:parent_id": 1159162825,
    "wof:placetype": "custom",
    "wof:placetype_alt": [
      "object"
    ],
    "wof:repo": "sfomuseum-data-collection",
    "wof:superseded_by": [],
    "wof:supersedes": []
  },
  "bbox": [
    -122.38647222518921,
    37.6161053594541,
    -122.38583385944366,
    37.61661101879963
  ],
  "geometry": {"type":"Polygon","coordinates":[[[-122.38647222518921,37.61631782178288],[-122.386434674263,37.61623283692423],[-122.38637566566466,37.61617759671399],[-122.38630056381224,37.6161308549656],[-122.38616108894348,37.6161053594541],[-122.38602161407469,37.6161308549656],[-122.38591432571411,37.61618609521055],[-122.38585531711577,37.61626683087935],[-122.38583385944366,37.61636881265146],[-122.38587141036987,37.61646654505181],[-122.38594114780425,37.61654303118856],[-122.38605380058287,37.61660252035167],[-122.38618254661559,37.61661101879963],[-122.3863059282303,37.61657277577607],[-122.3864185810089,37.61650903735973],[-122.3864668607712,37.61641130501523],[-122.38647222518921,37.61631782178288]]]}
}
