{
  "id": 1511939497,
  "type": "Feature",
  "properties": {
    "date:cessation_lower": "1984-01-01",
    "date:cessation_upper": "1984-12-31",
    "date:inception_lower": "1984-01-01",
    "date:inception_upper": "1984-12-31",
    "edtf:cessation": "1984",
    "edtf:date": "1984",
    "edtf:inception": "1984",
    "geom:area": 0,
    "geom:bbox": "-122.386155,37.616357,-122.386155,37.616357",
    "geom:latitude": 37.616357,
    "geom:longitude": -122.386155,
    "iso:country": "XX",
    "millsfield:airline_id": [
      1159284973
    ],
    "millsfield:category_id": 1511214223,
    "millsfield:collection_id": 1511214207,
    "millsfield:company_id": [
      1159286629
    ],
    "millsfield:images": [
      1527835735
    ],
    "millsfield:images_colors_refs": {
      "crayola": [
        {
          "hex": "#414a4c"
        },
        {
          "hex": "#efdecd"
        },
        {
          "hex": "#cd4a4c"
        }
      ],
      "css4": [
        {
          "hex": "#faebd7"
        },
        {
          "hex": "#dc143c"
        },
        {
          "hex": "#2f4f4f"
        }
      ],
      "marekm4": [
        {
          "hex": "#413d31"
        },
        {
          "hex": "#ece5cf"
        },
        {
          "hex": "#d12e32"
        }
      ]
    },
    "millsfield:images_texts": [
      "SAN FRANCISCO\nICH\nPSA®\n=\nEFFECTIVE OCTOBER 31, 1984\nRESERVATIONS (415) 956-8636\nLeaves\nArrives\nFlight\nFreq.\nTo LOS ANGELES\n7:00a\n8:08a\n8:00a\n9:00a\n9:07a\n10:07a\n10:00a\n11:06a\n11:00a\n12:06p\n12:00n\n1:00p\n1:06p\n2:06p\n2:00p\n3:00p\n3:03p\n4:00p\n4:03p\n5:07p\n5:00p\n6:06p\n6:00p\n7:00p\n7:08p\n8:05p\n8:00p\n9:00p\n9:06p\n10:06p\n10:00p\n11:02p\n11:00p\n12:02a\n12:35a\n1:34a\n920\n226\nExSa\n320\nEx Sa\n930\n228\nEx Sa\n326\n420\n522\nEx Sa\n524\n928\nEx Sa\n528\n624\nEx Sa\n820\n728\nEx Sa\n828\nSu\n708\nExSu\n\"THE MIDNIGHT FLYER\"\nTo ALBUQUERQUE\n7:00a 11:30a\n922\n12:00n\n4:39p\n930\nTo BURBANK\n6:30a\n7:50a\n7:29a\n8:48a\n9:25a\n10:23a\n11:40a\n12:37p\n1:35p\n2:34p\n2:55p\n4:40p\n3:54p\n5:35p\n5:39p\n6:35p\n7:50p\n8:55p\n8:47p\n9:53p\n172\n274\n278\n372\n374\n670\n470\n478\n678\n774\nEx Sa Su\nEx Sa\nExSa\nExSa\nEx Sa\nTo FRESNO\n9:35a\n10:21a\n6:34p\n7:19p\n9:35p\n10:18p\nTo LAS VEGAS\n7:50a\n10:35a\n9:25a\n11:40a\n11:00a\n1:23p\n12:42p\n2:55p\n1:53p\n5:48p\n5:00p\n8:05p\n6:30p\n7:00p\n9:07p\n9:20p\n9:00p\n11:25p\n116\n518\n716\n274/204\n278\n320\n704\n670/506\n524/416\n434\n528\n820\nExSa\nEx Sa\nEx Sa\nEx Sa\nEx Sa\nSa\nEx Sa\nTo LONG BEACH\n8:40a\n9:49a\n12:40p\n4:40p\n1:49p\n5:49p\n8:47p\n9:52p\n138\n338\n438\n736\nEx Su\nEx Sa\nS-Snack\nVia/Stops\nBUR\n1\nBUR\nLAX\nLeaves Arrives\nFlight\nFreq.\nVia/Stops\nFrom LOS ANGELES\n7:00a\n8:06a\n8:00a\n9:00a\n9:06a\n287\nExSu\n10:06a\n125\n121\n10:00a\n11:05a\n11:00a\n12:04p\n221\n229\nEx Su\nExSa\n12:00n\n1:04p\n1:00p\n2:04p\n329\n321\n2:00p\n3:00p\n3:04p\n927\n4:00p\n4:04p\n429\n5:00p\n5:03p\n6:00p\n6:04p\n923\nEx Sa\n7:04p\nExSa\n7:00p\n8:00p\n8:04p\n9:06p\nEx Sa\n9:00p\n10:04p\n10:00p\n11:03p\n11:00p\n11:55p\n12:03a\n12:58a\n621\n929\n721\n725\n825\n823\nEx Sa\nFr Su\n709\nEx Sa\n\"THE MIDNIGHT FLYER\"\n(213) 935-5005\nFrom ALBUQUERQUE\n12:10p\n3:04p\n927\n5:15p\n8:04p\n929\n(505) 247-2900\nFrom BURBANK\n7:00a\n8:00a\n8:05a\n9:20a\n9:11a\n10:26a\n11:20a\n1:20p\n12:26p\n2:26p\n3:05p\n4:25p\n4:11p\n5:31p\n6:10p\n7:30p\n7:16p\n8:39p\n9:15p\n10:19p\n773\n179\n271\n273\n279\n371\n673\n677\n671\n873\n(818) 841-3800\nEx Su\nExSa\nEx Sa\nExSa\nEx Sa\nFrom FRESNO\n6:50a\n7:27a\n10:45a\n11:27a\n7:44p\n8:23p\n(209) 252-2821\n0\n119\n117\n519\nEx Su\nEx Sa\nFrom LAS VEGAS\n6:45a\n10:06a\n245/121 Ex Su\n10:31a\n1:04p\n11:40a\n2:23p\n2:20p\n329\n3:38p\n435\n711\n4:44p\n4:45p\n7:04p\n621\n6:15p\n7:45p\n763/731\n9:05p\n8:39p\n671\n12:03a\n703/823\nEx Sa\nSa\nEx Sa\nFr Su\n(702) 382-1905\nLAX\nSAN\nLAX\nFrom LONG BEACH\n6:52a\n8:04a\n10:18a\n11:30a\n537\n137\n2:19p\n3:30p\n6:19p\n7:30p\n237\n737\n(213) 637-6767\nEx Su\nEx Sa"
    ],
    "millsfield:images_texts_ids": [
      1527835735
    ],
    "millsfield:primary_image": 1527835735,
    "millsfield:subcategory_id": 1511213425,
    "mz:hierarchy_label": 1,
    "mz:is_current": 1,
    "sfomuseum:accession_number": "2003.105.088.007",
    "sfomuseum:airline": "Pacific Southwest Airlines (PSA)",
    "sfomuseum:airline_id": [
      677
    ],
    "sfomuseum:category": "Scheduling / Ticketing",
    "sfomuseum:classification_id": 158,
    "sfomuseum:collection": "Aviation Archive",
    "sfomuseum:creditline": "Gift of Craig Lynes",
    "sfomuseum:date": "1984",
    "sfomuseum:date_acquired": "2003-12-29",
    "sfomuseum:daterange_end": "1984-12-31",
    "sfomuseum:daterange_start": "1984-01-01",
    "sfomuseum:description": "Quick reference timetable issued by Pacific Southwest Airlines (PSA) for service to and from San Francisco, effective October 31, 1984; white double-sided page.",
    "sfomuseum:dimensions": "9 x 4 inches (22.9 x 10.2 cm)",
    "sfomuseum:media_ids": [
      1527835735
    ],
    "sfomuseum:medium": "paper, ink",
    "sfomuseum:object_id": 100292,
    "sfomuseum:placetype": "object",
    "sfomuseum:primary_media_id": 1527835735,
    "sfomuseum:publication": ": , 1984.",
    "sfomuseum:subcategory": "Timetable",
    "src:geom": "sfomuseum#undetermined",
    "wof:belongsto": [
      1511214223,
      102527513,
      102191575,
      85633793,
      1511213425,
      85922583,
      102087579,
      1511214277,
      1511214207,
      85688637
    ],
    "wof:breaches": [],
    "wof:country": "XX",
    "wof:created": 1579906666,
    "wof:depicts": [
      1159286629,
      1159284973
    ],
    "wof:geomhash": "30c8a918561c84bb2daa2b97fc7c5353",
    "wof:hierarchy": [
      {
        "arcade_id": 1511213425,
        "building_id": 1511214277,
        "campus_id": 102527513,
        "concourse_id": 1511214223,
        "continent_id": 102191575,
        "country_id": 85633793,
        "county_id": 102087579,
        "custom_id": 1511939497,
        "locality_id": 85922583,
        "neighbourhood_id": -1,
        "object_id": 1511939497,
        "region_id": 85688637,
        "venue_id": 1511939497,
        "wing_id": 1511214207
      }
    ],
    "wof:id": 1511939497,
    "wof:lastmodified": 1787988184,
    "wof:name": "timetable: Pacific Southwest Airlines (PSA), quick reference San Francisco",
    "wof:parent_id": 1159162825,
    "wof:placetype": "custom",
    "wof:placetype_alt": [
      "object"
    ],
    "wof:repo": "sfomuseum-data-collection",
    "wof:superseded_by": [],
    "wof:supersedes": [],
    "wof:tags": []
  },
  "bbox": [
    -122.386155,
    37.616357,
    -122.386155,
    37.616357
  ],
  "geometry": {"type":"Point","coordinates":[-122.386155,37.616357]}
}
