{
  "id": 1511940097,
  "type": "Feature",
  "properties": {
    "date:cessation_lower": "1993-01-01",
    "date:cessation_upper": "1993-12-31",
    "date:inception_lower": "1993-01-01",
    "date:inception_upper": "1993-12-31",
    "edtf:cessation": "1993",
    "edtf:date": "1993",
    "edtf:inception": "1993",
    "geom:area": 0,
    "geom:bbox": "-122.386155,37.616357,-122.386155,37.616357",
    "geom:latitude": 37.616357,
    "geom:longitude": -122.386155,
    "iso:country": "XX",
    "millsfield:airline_id": [
      1159285585
    ],
    "millsfield:category_id": 1511214223,
    "millsfield:collection_id": 1511214207,
    "millsfield:company_id": [
      1159286827
    ],
    "millsfield:images": [
      1527832317,
      1527844217
    ],
    "millsfield:images_colors_refs": {
      "crayola": [
        {
          "hex": "#414a4c"
        },
        {
          "hex": "#ff2b2b"
        },
        {
          "hex": "#fddde6"
        },
        {
          "hex": "#dbd7d2"
        }
      ],
      "css4": [
        {
          "hex": "#dcdcdc"
        },
        {
          "hex": "#2f4f4f"
        },
        {
          "hex": "#f5f5f5"
        },
        {
          "hex": "#dc143c"
        }
      ],
      "marekm4": [
        {
          "hex": "#edeef0"
        },
        {
          "hex": "#dcd9d3"
        },
        {
          "hex": "#de352a"
        },
        {
          "hex": "#3f3e40"
        },
        {
          "hex": "#e22111"
        },
        {
          "hex": "#272226"
        }
      ]
    },
    "millsfield:images_texts": [
      "YAirBC\nAIR CANADA CONNECTOR\nDIRECT FLIGHT\nEFFECTIVE NOVEMBER 2, 1993\nAeroplan\nTIMETABLE",
      "Leave Arrive Flight # Stops\nFreq.\nEDMONTON (Municipal) To:\n(Cont.,\nPRINCE GEORGE, B.C.\n07:00\n08:55\n07:40\n09:35\n13:00\n14:55\n17:10\n19:05\n1821\n1821\n1823\n1829\n2\n6\nX67\nX6\nREGINA, Sask.\n07:05\n09:50\n16:10\n18:55\n1974\n1978\nX67\n0\nX6\nVANCOUVER, B.C.\n07:20\n07:55\n08:25\n09:00\n10:25\n11:00\n14:50\n15:25\n16:50\n17:25\n19:20\n19:55\n1832\n1832\n1836\n1838\n1840\n1842\nX67\n6\nDaily\nDaily\nX6\n0\n57\nVICTORIA, B.C.\n10:20\n12:05\n1850\nDaily\n12:25\n16:20\n1613\n3\nX6\nFT. McMURRAY, Alta. To:\n[YMM]\na 1-800-222-6596\nCargo 790-1373\nCALGARY, Alta.\n09:30\n11:50\n1671\n1\n14:25\n16:40\n1938\n19:30\n21:45\n1940\nEDMONTON, Alta. (Municipal)\n09:30\n10:35\n1671\n14:25\n15:30\n1938\n19:30\n20:35\n1940\nVANCOUVER, B.C.\n09:30\n14:20\n1671\n4\nX67\nX6\nX6\nX67\nX6\nX6\nX67\nGRANDE PRAIRIE, Alta. To: [YQU]\nT 1-800-222-6596 Cargo 539-1700\nCALGARY, Alta.\n07:00\n09:20\n13:00\n15:30\n16:25\n18:40\n1822\n1824\n1828\nDAWSON CREEK, B.C.\n08:20\n08:50\n1821\n09:00\n09:30\n1821\n14:20\n14:50\n1823\n18:30\n19:00\n1829\nEDMONTON, Alta. (Municipal)\n1822\n0\n0\n1824\n1828\n1826\n1830\nPRINCE GEORGE, B.C.\n19:05\n1821\n1821\n1823\n1829\nX67\nX7\nX6\n6\nX67\nX6\nX67\nX7\nX6\n5\n6\nX67\n6\nX6\n16:35\n1821\n1823\n2\n3\n1823\nKAMLOOPS, B.C. To:\n28868-1118 Cargo 376-7222\nCALGARY, Alta.\n08:10\n11:05\n13:10\n15:25\n1696\n1663\nCRANBROOK, B.C.\n08:10\n10:10\n1696\nEDMONTON, Alta. (Municipal)\n08:10\n12:35\n1696\n[YKA]\n0\n2\nDaily\nDaily\nDaily\nDaily\nLeave\nArrive Flight # Stops\nFreq\nKAMLOOPS To:\n(Cont.)\nVANCOUVER, B.C.\n07:00\n07:55\n1659\nX7\n12:40\n13:35\n1679\n16:15\n17:10\n1693\nDaily\nX6\n17:25\n18:20\n1697\n20:55\n21:50\n1695\n0\nDaily\nX6\nKELOWNA, B.C. To:\n[YLW]\n2861-8441 Cargo 765-8777\nCALGARY, Alta.\n09:05\n11:15\n11:10\n13:25\n12:10\n15:10\n13:10\n15:20\n14:35\n17:30\n17:15\n19:25\n18:45\n21:40\n1646\n1610\n1661\n1650\n1654\n1658\n1660\n0\n1\nDaily\nX6\n6\nX6\nX6\nDaily\nX6\nCRANBROOK, B.C.\n12:10\n14:10\n1661\n14:35\n16:30\n1654\n18:45\n20:40\n1660\nEDMONTON, Alta. (Municipal)\n11:10\n14:40\n1610\n0\n0\n1\n17:15\n21:05\n1658\nSASKATOON, Sask.\n09:05\n14:10\n14:35\n20:30\nVANCOUVER, B.C.\n07:00\n08:00\n09:40\n10:40\n10:00\n11:00\n12:00\n13:00\n14:10\n15:10\n16:30\n17:30\n20:45\n21:45\n1646\n1654\n1647\n1649\n1649\n1653\n1613\n1655\n1691\n2\n0\n0\n0\n0\n0\nX6\nX6\nX6\n6\nDaily\nX6\nX67\n6\nX67\nDaily\nX6\nDaily\nX6\nVICTORIA, B.C.\n07:00\n08:50\n1647\n10:00\n11:55\n1649\n12:00\n13:50\n1653\n14:10\n16:20\n1613\n16:30\n18:25\n1655\n20:45\n22:55\n1691\nLETHBRIDGE, Alta. To:\nX67\nX67\nDaily\nX6\nDaily\nX6\n[YQL]\n21-800-332-1080 Cargo 320-1322\nCALGARY, Alta.\n06:45\n07:25\n1900\n10:15\n10:55\n1902\n12:30\n13:10\n1904\n0\n0\n0\n14:50\n15:30\n1906\n17:00\n17:40\n1908\n19:10\n19:50\n1910\nLLOYDMINSTER, Alta. To:\nX67\nDaily\nX6\nDaily\nX6\nX6\n[YLL\n21-800-661-3936 Cargo 875-8028\nCALGARY, Alta.\n08:25\n09:30\n1930\n17:40\n18:45\n1934\n18:40\n19:45\n1934\nMEDICINE HAT, Alta. To:\nX67\nX67\n7\n[YXH]\nта 1-800-332-1080\nCargo 527-7787\nCALGARY, Alta.\n06:40\n07:30\n10:00\n10:50\n14:35\n15:25\n17:00\n17:45\n19:10\n19:55\n1916\n1918\n1920\n1922\n1924\n0\nX67\nDaily\nDaily\nX6\nX6\n6\nFrequency:\nAll times are local times\n1 - Mon.\n2 - Tues.\n3- Wed.\nRed denotes BAe 146 Jet flight.\n4 - Thurs.\n5 - Fri.\n6 - Sat.\n7 - Sun.\nX - Except\nAirBC Your Ski Lift\nto a Great Vacation!\nFresh powder skiing,\nplus fast,easy flights\nand comfortable\naccommodations.\nDiscover AirBC Ski\nEscapes, our value-\npacked fly \u0026 ski\npackages. Fly with us,\nand we'll have you\nflying down the\nslopes in no time!\nWhistler/Blackcomb\n*PRICED FROM\nConsidered the finest ski resort destination in North\nCALGARY\n$463\nAmerica! These two spectacular mountains each offer\nvertical drops of over 5,000 feet! And Whistler Village\nEDMONTON\n$485\nis packed with delightful restaurants, pubs and night\nPRINCE\nclubs within easy walking distance of each other.\nGEORGE\n$456\nThe Okanagan\n*PRICED FROM\nChoose Big White near Kelowna, or Silver Star just\nCALGARY\noutside Vernon and enjoy acres of beautifully\n$398\ngroomed runs, plus high-speed quad chairs to whisk\nyou to your favourite runs.\nEDMONTON\n$431\nVANCOUVER\n$359\nB.C. Rockies\n* PRICED FROM\nIn Kimberley, B.C., immerse yourself in the bustling\nVANCOUVER\n$ 421\natmosphere of an authentic Bavarian-style town,\nfeaturing the world's largest cuckoo clock. Nearby,\nKimberley Ski Village awaits with triple \u0026 double\nVICTORIA\n$449\nchairs and a T-bar to take you to an elevation of 6,500\nfeet for both Alpine \u0026 Nordic skiing.\nCanadian Rockies\n*PRICED FROM\nA choice of five superb ski areas including\nVANCOUVER $ 399\nlegendary Banff, Lake Louise and Kananaskis,\nAlberta. All are within an hour's drive of each other,\nVICTORIA\n$428\nso it's easy to sample the variety of them all!\n*Prices quoted are per person based on double occupancy. Rates subject to change according to season.\nSee your travel agent or call toll free for your free Ski Escapes brochure.\n1-800-561-4199\nIn Greater Vancouver\n244-8809\nAirBC\nVACATIONS\n7"
    ],
    "millsfield:images_texts_ids": [
      1527832317,
      1527844217
    ],
    "millsfield:primary_image": 1527832317,
    "millsfield:subcategory_id": 1511213425,
    "mz:hierarchy_label": 1,
    "mz:is_current": 1,
    "sfomuseum:accession_number": "2009.122.028",
    "sfomuseum:airline": "Air BC",
    "sfomuseum:airline_id": [
      961
    ],
    "sfomuseum:category": "Scheduling / Ticketing",
    "sfomuseum:classification_id": 158,
    "sfomuseum:collection": "Aviation Archive",
    "sfomuseum:creditline": "Gift of the William Hough Collection",
    "sfomuseum:date": "1993",
    "sfomuseum:date_acquired": "2010-06-08",
    "sfomuseum:daterange_end": "1993-12-31",
    "sfomuseum:daterange_start": "1993-01-01",
    "sfomuseum:description": "Timetable issued by Air BC, effective November 2, 1993; 19-page schedule; white cover with black and white photographic images of aircraft and employees; promotes the airline’s role as Air Canada connector.",
    "sfomuseum:dimensions": "9 x 4 inches (22.9 x 10.2 cm)",
    "sfomuseum:media_ids": [
      1527832317,
      1527844217
    ],
    "sfomuseum:medium": "paper, ink",
    "sfomuseum:object_id": 103032,
    "sfomuseum:placetype": "object",
    "sfomuseum:primary_media_id": 1527832317,
    "sfomuseum:publication": ": , 1993.",
    "sfomuseum:subcategory": "Timetable",
    "src:geom": "sfomuseum#undetermined",
    "wof:belongsto": [
      1511214223,
      102527513,
      102191575,
      85633793,
      1511213425,
      85922583,
      102087579,
      1511214277,
      1511214207,
      85688637
    ],
    "wof:breaches": [],
    "wof:country": "XX",
    "wof:created": 1579906657,
    "wof:depicts": [
      1159285585,
      1159286827,
      1159283597
    ],
    "wof:geomhash": "30c8a918561c84bb2daa2b97fc7c5353",
    "wof:hierarchy": [
      {
        "arcade_id": 1511213425,
        "building_id": 1511214277,
        "campus_id": 102527513,
        "concourse_id": 1511214223,
        "continent_id": 102191575,
        "country_id": 85633793,
        "county_id": 102087579,
        "custom_id": 1511940097,
        "locality_id": 85922583,
        "neighbourhood_id": -1,
        "object_id": 1511940097,
        "region_id": 85688637,
        "venue_id": 1511940097,
        "wing_id": 1511214207
      }
    ],
    "wof:id": 1511940097,
    "wof:lastmodified": 1787988184,
    "wof:name": "timetable: Air BC",
    "wof:parent_id": 1159162825,
    "wof:placetype": "custom",
    "wof:placetype_alt": [
      "object"
    ],
    "wof:repo": "sfomuseum-data-collection",
    "wof:superseded_by": [],
    "wof:supersedes": [],
    "wof:tags": []
  },
  "bbox": [
    -122.386155,
    37.616357,
    -122.386155,
    37.616357
  ],
  "geometry": {"type":"Point","coordinates":[-122.386155,37.616357]}
}
