{
  "id": 1511925901,
  "type": "Feature",
  "properties": {
    "date:cessation_lower": "1971-01-01",
    "date:cessation_upper": "1971-12-31",
    "date:inception_lower": "1971-01-01",
    "date:inception_upper": "1971-12-31",
    "edtf:cessation": "1971",
    "edtf:date": "1971",
    "edtf:inception": "1971",
    "geom:area": 0,
    "geom:bbox": "-122.386155,37.616357,-122.386155,37.616357",
    "geom:latitude": 37.616357,
    "geom:longitude": -122.386155,
    "iso:country": "XX",
    "millsfield:airline_id": [
      1159284507
    ],
    "millsfield:category_id": 1511214223,
    "millsfield:collection_id": 1511214207,
    "millsfield:company_id": [
      1159288859
    ],
    "millsfield:images": [
      1527845673
    ],
    "millsfield:images_colors_refs": {
      "crayola": [
        {
          "hex": "#efdecd"
        },
        {
          "hex": "#714b23"
        },
        {
          "hex": "#f8d568"
        }
      ],
      "css4": [
        {
          "hex": "#deb887"
        },
        {
          "hex": "#f5f5dc"
        },
        {
          "hex": "#556b2f"
        }
      ],
      "marekm4": [
        {
          "hex": "#f0f0dd"
        },
        {
          "hex": "#ded165"
        },
        {
          "hex": "#423c13"
        }
      ]
    },
    "millsfield:images_texts": [
      "SNA\n***********\nEMPLOYEE\nTRANSMITTAL\nSCHEDULE\nNO\n2\nNO\n71-2\n1st PAGE\nSALES DATE - 0800 GMT-\nEFECTIVE\nISSUED\nJULYO1, 1971\nJULY 08 1971\nJULY 09 1971\nHUGHES\nAIR WEST\n0700\n0730\nDisc Disc\nATIC\nFLIGHT\nEquipment\nrequency\nClass of Service\nLv PHOENIX\nLv SAN DIEGO\nSANTA ARA\n(Aug\n0930 0930\n1015|\nFron\n09251 0925\n09000910\n1055\n0715\n0815\n1003 1013 1009 1009 1017 1021\n0800 0920\n1040\n1045h100\n0823 0853\n50\nFrom\nAPV Class\nILAS\nIRNO\nOnly\n1151\nEV LOS BANELES\nONTARIO.\nCA/\nApple Valley\nr LAS VEGAS\nLY LAS VEGAS\nAr RENO\nPrescott/**\nnoman **\nGRAND CANYUN\nGRAND CANYON\n1112\n0917\n727.\n521 923 52\nF27 |\n09S F2\n: 331 623\n09S\nSu Only\n1295 134 230 127 127\nSaSu SaSu\nFrequency\nClass of Service\n0945\n0940\n1100\n1423\nFREE DE FARREE\nFALLS\nValley/*\nrio, OR.\n0700\n00750\n1530\n340\nPul1man/Moscow\nSPOKANE\nSPOKANE\nFrom\nSFO\nFrom\nSFO\n0689\n0700\n0710\n1100\nwalld\nPASCUT KAAK\nKILMLANU\nEphrata/Moses\nHenatches\n1610\n1115\n1200\n1230\n1215\n1304\nPUKI LAIL\nAS CONO\nseas de\nAberdeen/\nHoquiam i\n01 ympia\n0804\n0832 0915 1130 1150\n1302\n1623\n1638\nBADLE UF CONTENIS • CX\n• ...Pages 1, 2\nBakersfie d-Las Vesas/Oxnard-Los Angeles-Yuma-Phoenix-Tucson-La Paz-GuadalaJara ... Pages 3,4\nABBREVIATIONS\nMOT ...\nAdvanced Mountain POT ...\n• Astandad irte\n398 F2 322 08 085 081 095 098 7ảt 003 05 01\n706\n395 095 121 395 095\nOnly Sasu\n89 3 39. 34\nDisc\n1500\nIS/K\nOrig\nLAS\n1 350\n1610\n1730 1745 Disc Disc\nAft\nAft\nJuly\nJuly\n- 35\nFrom\nPHX\n1910\n1115\nh 300\n1140\n17401750\n1445 Disc\n1740\n1900\n2265\n1340\n1700 From\nTUS\n1820\n1159\n1232134814231440\n1200\n1220\n1700\n1701 1743\nAr.\n1944\n2036 2335\n2020 2100\n2122\nSLO\nOnly\n1253\nPHX\nOnly\n1413\n1947\n2002\n2300\n324\nSASU\nSaSu Only\n423\n1530\n2015\n2330\n0CB8028088885808680626\n1842\n1900\nonl 1855\n1720\n170g\n0985\n1823\n1659\n173818|5\n2018\n2155\n21\n88\n2008\n2045\n2155\n50\n21162249\n2249\n21252305\n2057 2202\n2115\n2125\n2148 2158\n2333 2333\nAST\nHIGHLIGHTS\nOF\nPAGE\nREVISION"
    ],
    "millsfield:images_texts_ids": [
      1527845673
    ],
    "millsfield:primary_image": 1527845673,
    "millsfield:subcategory_id": 1511213425,
    "mz:hierarchy_label": 1,
    "mz:is_current": 1,
    "sfomuseum:accession_number": "2005.127.003",
    "sfomuseum:airline": "Hughes Airwest",
    "sfomuseum:airline_id": [
      466
    ],
    "sfomuseum:category": "Scheduling / Ticketing",
    "sfomuseum:classification_id": 158,
    "sfomuseum:collection": "Aviation Archive",
    "sfomuseum:creditline": "Gift of the William Hough Collection",
    "sfomuseum:date": "1971",
    "sfomuseum:date_acquired": "2006-12-14",
    "sfomuseum:daterange_end": "1971-12-31",
    "sfomuseum:daterange_start": "1971-01-01",
    "sfomuseum:description": "Employee timetable issued by Hughes Airwest, effective July 8, 1971; yellow double-sided sheet.",
    "sfomuseum:dimensions": "11 x 16 inches (27.9 x 40.6 cm)",
    "sfomuseum:media_ids": [
      1527845673
    ],
    "sfomuseum:medium": "paper, ink",
    "sfomuseum:object_id": 77431,
    "sfomuseum:placetype": "object",
    "sfomuseum:primary_media_id": 1527845673,
    "sfomuseum:publication": ": , 1971.",
    "sfomuseum:subcategory": "Timetable",
    "src:geom": "sfomuseum#undetermined",
    "wof:belongsto": [
      1511214223,
      102527513,
      102191575,
      85633793,
      1511213425,
      85922583,
      102087579,
      1511214277,
      1511214207,
      85688637
    ],
    "wof:breaches": [],
    "wof:country": "XX",
    "wof:created": 1579906664,
    "wof:depicts": [
      1159284507,
      1159288859
    ],
    "wof:geomhash": "30c8a918561c84bb2daa2b97fc7c5353",
    "wof:hierarchy": [
      {
        "arcade_id": 1511213425,
        "building_id": 1511214277,
        "campus_id": 102527513,
        "concourse_id": 1511214223,
        "continent_id": 102191575,
        "country_id": 85633793,
        "county_id": 102087579,
        "custom_id": 1511925901,
        "locality_id": 85922583,
        "neighbourhood_id": -1,
        "object_id": 1511925901,
        "region_id": 85688637,
        "venue_id": 1511925901,
        "wing_id": 1511214207
      }
    ],
    "wof:id": 1511925901,
    "wof:lastmodified": 1787988178,
    "wof:name": "employee timetable: Hughes Air West",
    "wof:parent_id": 1159162825,
    "wof:placetype": "custom",
    "wof:placetype_alt": [
      "object"
    ],
    "wof:repo": "sfomuseum-data-collection",
    "wof:superseded_by": [],
    "wof:supersedes": [],
    "wof:tags": []
  },
  "bbox": [
    -122.386155,
    37.616357,
    -122.386155,
    37.616357
  ],
  "geometry": {"type":"Point","coordinates":[-122.386155,37.616357]}
}
