{
  "id": 1797194771,
  "type": "Feature",
  "properties": {
    "date:cessation_lower": "1980-01-01",
    "date:cessation_upper": "1989-12-31",
    "date:inception_lower": "1980-01-01",
    "date:inception_upper": "1989-12-31",
    "edtf:cessation": "198X",
    "edtf:inception": "198X",
    "geom:area": 0,
    "geom:bbox": "-122.370943,37.617990,-122.370943,37.617990",
    "geom:latitude": 37.61799,
    "geom:longitude": -122.370943,
    "iso:country": "US",
    "millsfield:aircraft_id": [
      1159289819
    ],
    "millsfield:airline_id": [
      1159285413
    ],
    "millsfield:airport_id": [
      102527513
    ],
    "millsfield:category_id": 1511214251,
    "millsfield:collection_id": 1511214207,
    "millsfield:company_id": [
      1159293593
    ],
    "millsfield:images": [
      1797195081
    ],
    "millsfield:images_colors_refs": {
      "crayola": [
        {
          "hex": "#dbd7d2"
        },
        {
          "hex": "#414a4c"
        }
      ],
      "css4": [
        {
          "hex": "#2f4f4f"
        },
        {
          "hex": "#d3d3d3"
        }
      ],
      "marekm4": [
        {
          "hex": "#3b3e32"
        },
        {
          "hex": "#d7d7c0"
        }
      ]
    },
    "millsfield:images_texts": [
      "37\n38\n39\n40\n41\n42\n43\n44\n45\n46\n47\n48\n49\n50\n51\n52\n53\n54\n55\n58\nUA1105 09MAY SFO SEAT PLAN\nDSTN\nNAME\n01A LAX PECKOS\n01B LAX BROOKS\nJ\nM\n01C LAX BANCROFT\n01D LAX STANISCH\nOZA LAX NEUMILLER\n02B LAX NEUMILLER\nV\nJ\n02C LAX GALLO\n02D LAX GALLO\nA\n737 FIRST CLASS LOAD-\nCOMMENT\n#MILEAGE PLUS*\n*MILEAGE PLUS*\n*MILEAGE PLUS*\n*MILEAGE PLUS*\nUIA1105 09MAY SFO SEAT PLAN\nDSTN NAME\n03A LAX GOLDEN\n03D LAX KRISS\n04B LAX NIVENS\n04E LAX GARBER\n05E\nLAX NIVENS\n06E\nLAX NIVENS\n09C\nLAX SMITH\n10E LAX NIVENS\n10F LAX TENNIS\n11A LAX MASLEN\n11B LAX NIVENS\n12E LAX CURTIS\n13B LAX DOUMOULIN\n14E LAX DOUMOULIN\n14F LAX JENSEN\n16E LAX DOUMOULIN\n17C LAX PAUL\n18B LAX DOUMOULIN\n18D LAX RUSSO\n18E LAX RUSSO\n18F LAX RUSSO\n19B LAX DOUMOULIN\n19E LAX DOUMOULIN\nSFO NS 1 2CD 3-16\nMILES\n737 COACH\nCOMMENT\nB\n**PREMIER 3P**\nW\n**PREMIER 1P**\nR SA BPS 9DEC85\nS\n**PREMIER 3P**\nJ SA BPS 9DEC85\nJ SA BPS 9DEC85\nF\n#*PREMIER 3P**\nS\n• SA BPS 9DEC85\nSA BP8 4FEB78\nSA BPB 18APR66\nJ\nSA BP8 9DEC85\nSA\nBPS 10APR85\nSA\nSA\nM SA\nSA\nSA\nSA\nSA\nSA\nSA\nSA\nSA\n750\nLOAD-\n7JAN 0 BP8 23JUL56\nD\nGEG-F00D-3/93\n**********\n****•\n****\n***********\nД APRIL/MAY INFLIGHT\n**\n*\n********\nANNOUNCEMENT\n*** MARKETING ANNOUNCEMENT ***\n# TO BE READ AFTER TAKEOFF ON ALL FLIGHTS R\nMEALS-\n5-9887\nMEALS-\n33\n34\n35\nJARCO Business Forms\nPRINTED IN U.S."
    ],
    "millsfield:images_texts_ids": [
      1797195081
    ],
    "millsfield:primary_image": 1797195081,
    "millsfield:subcategory_id": 1511213501,
    "mz:is_approximate": 1,
    "mz:is_current": 1,
    "sfomuseum:accession_number": "2019.132.079",
    "sfomuseum:aircraft": "Boeing 737",
    "sfomuseum:aircraft_id": [
      207
    ],
    "sfomuseum:airline": "United Airlines",
    "sfomuseum:airline_id": [
      883
    ],
    "sfomuseum:airport": "San Francisco International Airport",
    "sfomuseum:airport_id": [
      121
    ],
    "sfomuseum:category": "Employee Career History",
    "sfomuseum:classification_id": 201,
    "sfomuseum:collection": "Aviation Archive",
    "sfomuseum:creditline": "Gift of Sandra Herrmann",
    "sfomuseum:date": "1980s",
    "sfomuseum:date_acquired": "2020-06-03",
    "sfomuseum:daterange_end": "1989-12-31",
    "sfomuseum:daterange_start": "1980-01-01",
    "sfomuseum:description": "Scrapbook document from career of United Airlines flight attendant Sandra L. Herrmann; page from flight manifest, UA1105 San Francisco (SFO), Boeing 737, May 9 (no year).",
    "sfomuseum:dimensions": "8 x 8 1/2 inches (20.3 x 21.6 cm)",
    "sfomuseum:medium": "paper, ink",
    "sfomuseum:object_id": 213926,
    "sfomuseum:placetype": "object",
    "sfomuseum:publication": ": , 1980s.",
    "sfomuseum:subcategory": "Scrapbook, Career",
    "src:geom": "sfomuseum#derived",
    "src:geom_derived_from": [
      102527513
    ],
    "wof:belongsto": [
      102527513,
      1159162825,
      102191575,
      85633793,
      102087579,
      85922583,
      85688637,
      1159160869,
      554784711,
      102085387
    ],
    "wof:country": "US",
    "wof:created": 1675501650,
    "wof:depicts": [
      1159289819,
      1159293593,
      1159288779,
      1159285413,
      102527513
    ],
    "wof:geomhash": "bf40c3bc435019ba74db5659992d9e04",
    "wof:hierarchy": [
      {
        "building_id": -1,
        "campus_id": 102527513,
        "collection_id": 1159162825,
        "concourse_id": 1159162825,
        "continent_id": 102191575,
        "country_id": 85633793,
        "county_id": 102087579,
        "custom_id": 1797194771,
        "locality_id": 85922583,
        "neighbourhood_id": -1,
        "object_id": 1797194771,
        "region_id": 85688637,
        "wing_id": 1159160869
      },
      {
        "campus_id": 102527513,
        "continent_id": 102191575,
        "country_id": 85633793,
        "county_id": 102087579,
        "custom_id": 1797194771,
        "locality_id": 85922583,
        "object_id": 1797194771,
        "postalcode_id": 554784711,
        "region_id": 85688637
      },
      {
        "campus_id": 102527513,
        "continent_id": 102191575,
        "country_id": 85633793,
        "county_id": 102085387,
        "custom_id": 1797194771,
        "object_id": 1797194771,
        "region_id": 85688637
      }
    ],
    "wof:id": 1797194771,
    "wof:lastmodified": 1787988213,
    "wof:name": "scrapbook document: United Airlines, Sandra L. Herrmann, Neumiller",
    "wof:parent_id": 1159162825,
    "wof:placetype": "custom",
    "wof:placetype_alt": [
      "object"
    ],
    "wof:repo": "sfomuseum-data-collection",
    "wof:superseded_by": [],
    "wof:supersedes": []
  },
  "bbox": [
    -122.370943,
    37.61799,
    -122.370943,
    37.61799
  ],
  "geometry": {"type":"MultiPoint","coordinates":[[-122.370943,37.61799]]}
}
