{
  "id": 1913796607,
  "type": "Feature",
  "properties": {
    "date:cessation_lower": "1964-11-17",
    "date:cessation_upper": "1964-11-17",
    "date:inception_lower": "1964-11-17",
    "date:inception_upper": "1964-11-17",
    "edtf:cessation": "1964-11-17",
    "edtf:inception": "1964-11-17",
    "geom:area": 2.475047457570636e-7,
    "geom:bbox": "-122.386472,37.616105,-122.385834,37.616611",
    "geom:latitude": 37.61635747477365,
    "geom:longitude": -122.38615540108617,
    "millsfield:airline_id": [
      1159284989
    ],
    "millsfield:category_id": 1511214251,
    "millsfield:collection_id": 1511214207,
    "millsfield:company_id": [
      1159286839
    ],
    "millsfield:images": [
      1913796973,
      1913796975
    ],
    "millsfield:images_colors_refs": {
      "crayola": [
        {
          "hex": "#9f8170"
        },
        {
          "hex": "#fddde6"
        },
        {
          "hex": "#d68a59"
        },
        {
          "hex": "#85754e"
        },
        {
          "hex": "#a5694f"
        },
        {
          "hex": "#ffffff"
        }
      ],
      "css4": [
        {
          "hex": "#faf0e6"
        },
        {
          "hex": "#808080"
        },
        {
          "hex": "#cd853f"
        },
        {
          "hex": "#f5f5f5"
        }
      ],
      "marekm4": [
        {
          "hex": "#f1efec"
        },
        {
          "hex": "#a37b4a"
        },
        {
          "hex": "#967950"
        },
        {
          "hex": "#b68e5f"
        },
        {
          "hex": "#f4f2f0"
        },
        {
          "hex": "#b68c5b"
        }
      ]
    },
    "millsfield:images_texts": [
      "NOV 171964\nisners, Tov. 17, 1904\nDent Fanily und\nFriends,\n-I taina\not you have ted pictures of our family group in\nfroht of the farthenon.\nDebby and I have been back there three or four\ntimes and always\n\"Baobrech\" as ve celled him has been there with his\n(or once upon time white) coat, his flowing tie and his beret.\nThe canets in a wooden box that looks like a relio of our Civil War..\nThe shatter isn't.\nHe just rénoves a velvet lined cap from the front\nof the best-up wooden box and holds it aloft for a few seconda and\nthen puts it buck.\nThat is his exposure meter, timing device and\nseemingly the works,\nAfter the exposure he looks down throught the a\nsmall hoze in the\ntop of the box and atire some fluid around with a\nstick for about fire ninuteu,. Then he starts pullin pictures aripping\nvet from the box.\nI don't think R.P.B. should sell nis Polaroid\nstoci on this account but this old boy nae been producing five minute\npiotures since leorge instman wee in short pante.\nWe take off for beirut tomorrow morning with no enthusinen about\nleaving Greece. It has been wonderful. Iou have perhapa heard from\non talked to the girls so I won't duplionte their story except to give\nrou.a thuniail sketch of events to date.\nle all too aft on the night of 0ot. 19th and arrived Athens late\nin the afternoon of the 20tha we had a big donnybrook at the Clipper\nLounge before starting, nuth and durh feed had Just arrived from\nBurope. They were not by the stevens and Holleers inoluding Mancy, Jr.\nChili1 Vaughn end Dibby, also Chilli's old Chinese copilot Hugh Chen.\nwith a view of soattering the risk the Hancine and Schafers took THA\nwhile the Bixbye, Caldwelle and Barrette went FAA. Arriving Athens\nwe all stayed at the Athens Biiton,\nOct. 21.\nway means \"Top side\" or the highest point in town. ictuslly \"T8\nAoropolis\" neane athens just as \"THe Univeraity\" neans Virginia (MAC •\nplease note) Wille in otber spots they say for example \"the Sounion\nloropolis\", a place ve visited in tre afternoon. There ve zan into\nthe dil areas.\nHe is head of the Internationni Air, Transport Ass'n.\nThey see 0l4 friends.\n001. 22. We had our own \" ime\" gart of like Voike Wagon with\nsocomodatiens for ten. Also room foruned for the driver Napoleon\nand our guide ayton.\nhe toured north, and west to the Corinth Canel\nthen on to the anoinet oity of Corinth und to Mycense. Lunched at\nNauplia and Visited Spidaurua with its best preserved Amphitheatre\nwhich would peat 24,000. Hal1. Hawkine and sone of the more agile\nstape. It was a fun trip becatee ve hea our own arowd only and\nByron was a good guide! Sot hone late.\nOct. 23. Sad day. B111 Harzett took off for home. He had to go.\nle ail agreed, fe could nat accept the republican nomination and\nnot campaign for section. Ita just a shane he got washed out along\nvith alot of other good republicans.\nIn early afternoon ve all\nchecked out of the Hilton and taxied the eight miles to the fort of\nFiresus where we boarded the stella farie which sailed at 6 p.m.\nOct. 24.\nvarie unearthed a very ancient Ninonas palace. Kusuen most interesting\nwith 3000 yeur old satety pins and fish hooks. 4leo earthenware\n* SESHIELA",
      "Nov. 10%\nHont to EkA #l'a apartment for drinks with the Bojonelle\nand then\nthey came with us for dirmer at the dilton. Their apartment\nwes most attractive.\nLov. 17. Peaked and Loafed.\nNov. Lo. Took off for Beirut fed dinner vith FAA V2, Jesse Boynton,\nand his wite at their lovely apartment. Other guests were Susan\nLeslie and her very nice Lebanese husband,\nNov. 19.-\nWalked around town and with doynton laid plans tor a motor\ntrip to Damascus, Jerusalem and alot of other places which I w111\ntell you about in my next letter.\nhe also contacted a yous\nnan\nin the National City Bank who married a grand daughter of one of\nour good\nptiva frienda, Marietta laymond.\nShe in here visiting\ndinner with us tomorrow night."
    ],
    "millsfield:images_texts_ids": [
      1913796973,
      1913796975
    ],
    "millsfield:primary_image": 1913796973,
    "millsfield:subcategory_id": 1511213489,
    "mz:is_approximate": 1,
    "mz:is_current": 1,
    "sfomuseum:accession_number": "2019.121.1222 a d",
    "sfomuseum:airline": "Pan American World Airways",
    "sfomuseum:airline_id": [
      684
    ],
    "sfomuseum:category": "Employee Career History",
    "sfomuseum:classification_id": 195,
    "sfomuseum:collection": "Aviation Archive",
    "sfomuseum:creditline": "Collection of SFO Museum",
    "sfomuseum:date": "11/17/1964-11/19/1964",
    "sfomuseum:date_acquired": "2019-11-22",
    "sfomuseum:daterange_end": "1964-11-19",
    "sfomuseum:daterange_start": "1964-11-17",
    "sfomuseum:description": "Typewritten letter from Harold M. Bixby to his family, dated November 17 to 19, 1964, in Athens; includes description of monthlong vacation in Greece; mentions Chili Vaughn, Mr. Hildred (IATA), Jesse Boynton.",
    "sfomuseum:dimensions": "11 x 8 1/2 inches (27.9 x 21.6 cm)",
    "sfomuseum:medium": "paper, ink",
    "sfomuseum:object_id": 211858,
    "sfomuseum:placetype": "object",
    "sfomuseum:publication": ": , 11/17/1964-11/19/1964.",
    "sfomuseum:subcategory": "Correspondence, Personal",
    "src:geom": "sfomuseum#undetermined",
    "wof:belongsto": [
      102527513,
      1159162825,
      102191575,
      85633793,
      102087579,
      85922583,
      85688637,
      1159160869
    ],
    "wof:country": "XY",
    "wof:created": 1714549143,
    "wof:depicts": [
      1159284989,
      1159286839
    ],
    "wof:geomhash": "c281b9d9eefc83b5710e64b9d646067d",
    "wof:hierarchy": [
      {
        "building_id": -1,
        "campus_id": 102527513,
        "collection_id": 1159162825,
        "concourse_id": 1159162825,
        "continent_id": 102191575,
        "country_id": 85633793,
        "county_id": 102087579,
        "custom_id": 1913796607,
        "locality_id": 85922583,
        "neighbourhood_id": -1,
        "object_id": 1913796607,
        "region_id": 85688637,
        "wing_id": 1159160869
      }
    ],
    "wof:id": 1913796607,
    "wof:lastmodified": 1787988220,
    "wof:name": "correspondence: Harold M. Bixby, family circular letter",
    "wof:parent_id": 1159162825,
    "wof:placetype": "custom",
    "wof:placetype_alt": [
      "object"
    ],
    "wof:repo": "sfomuseum-data-collection",
    "wof:superseded_by": [],
    "wof:supersedes": []
  },
  "bbox": [
    -122.38647222518921,
    37.6161053594541,
    -122.38583385944366,
    37.61661101879963
  ],
  "geometry": {"type":"Polygon","coordinates":[[[-122.38647222518921,37.61631782178288],[-122.386434674263,37.61623283692423],[-122.38637566566466,37.61617759671399],[-122.38630056381224,37.6161308549656],[-122.38616108894348,37.6161053594541],[-122.38602161407469,37.6161308549656],[-122.38591432571411,37.61618609521055],[-122.38585531711577,37.61626683087935],[-122.38583385944366,37.61636881265146],[-122.38587141036987,37.61646654505181],[-122.38594114780425,37.61654303118856],[-122.38605380058287,37.61660252035167],[-122.38618254661559,37.61661101879963],[-122.3863059282303,37.61657277577607],[-122.3864185810089,37.61650903735973],[-122.3864668607712,37.61641130501523],[-122.38647222518921,37.61631782178288]]]}
}
