{
  "id": 1511906713,
  "type": "Feature",
  "properties": {
    "date:cessation_lower": "1957-01-01",
    "date:cessation_upper": "1957-12-31",
    "date:inception_lower": "1957-01-01",
    "date:inception_upper": "1957-12-31",
    "edtf:cessation": "1957",
    "edtf:date": "1957",
    "edtf:inception": "1957",
    "geom:area": 0,
    "geom:bbox": "-122.386155,37.616357,-122.386155,37.616357",
    "geom:latitude": 37.616357,
    "geom:longitude": -122.386155,
    "iso:country": "",
    "millsfield:airline_id": [
      1159284993
    ],
    "millsfield:category_id": 1762671311,
    "millsfield:collection_id": 1511214207,
    "millsfield:company_id": [
      1159288567
    ],
    "millsfield:images": [
      1527855323,
      1527855325,
      1527855329,
      1527855331,
      1527855333,
      1527855335,
      1527855337,
      1527855339,
      1527855341,
      1527855343,
      1527855347,
      1527855349,
      1527855351,
      1527855353,
      1527855355,
      1527855357,
      1527855359,
      1527855361,
      1527855365,
      1527855367,
      1527855369,
      1527855371,
      1527855373,
      1527855375,
      1527855377,
      1527855379,
      1527855383,
      1527855385,
      1527855387
    ],
    "millsfield:images_colors_refs": {
      "crayola": [
        {
          "hex": "#b0b7c6"
        },
        {
          "hex": "#6699cc"
        },
        {
          "hex": "#87a96b"
        },
        {
          "hex": "#d68a59"
        },
        {
          "hex": "#9c7c38"
        },
        {
          "hex": "#efcdb8"
        },
        {
          "hex": "#ffcf48"
        },
        {
          "hex": "#efdecd"
        },
        {
          "hex": "#979aaa"
        },
        {
          "hex": "#6dae81"
        },
        {
          "hex": "#000000"
        },
        {
          "hex": "#c46210"
        },
        {
          "hex": "#9f8170"
        },
        {
          "hex": "#1a4876"
        },
        {
          "hex": "#757575"
        },
        {
          "hex": "#4a646c"
        },
        {
          "hex": "#fefe22"
        },
        {
          "hex": "#cdc5c2"
        },
        {
          "hex": "#dbd7d2"
        },
        {
          "hex": "#bab86c"
        },
        {
          "hex": "#c8385a"
        },
        {
          "hex": "#85754e"
        },
        {
          "hex": "#2b6cc4"
        },
        {
          "hex": "#714b23"
        },
        {
          "hex": "#eceabe"
        },
        {
          "hex": "#414a4c"
        },
        {
          "hex": "#ceff1d"
        },
        {
          "hex": "#2e5894"
        },
        {
          "hex": "#bf4f51"
        },
        {
          "hex": "#a5694f"
        }
      ],
      "css4": [
        {
          "hex": "#daa520"
        },
        {
          "hex": "#f4a460"
        },
        {
          "hex": "#cd853f"
        },
        {
          "hex": "#a0522d"
        },
        {
          "hex": "#708090"
        },
        {
          "hex": "#f5f5dc"
        },
        {
          "hex": "#c0c0c0"
        },
        {
          "hex": "#f5deb3"
        },
        {
          "hex": "#000000"
        },
        {
          "hex": "#696969"
        },
        {
          "hex": "#6b8e23"
        },
        {
          "hex": "#808080"
        },
        {
          "hex": "#a9a9a9"
        },
        {
          "hex": "#006400"
        },
        {
          "hex": "#ffd700"
        },
        {
          "hex": "#8b4513"
        },
        {
          "hex": "#9acd32"
        },
        {
          "hex": "#556b2f"
        },
        {
          "hex": "#4682b4"
        },
        {
          "hex": "#faebd7"
        },
        {
          "hex": "#ffe4c4"
        },
        {
          "hex": "#b0c4de"
        },
        {
          "hex": "#778899"
        },
        {
          "hex": "#228b22"
        },
        {
          "hex": "#5f9ea0"
        },
        {
          "hex": "#2f4f4f"
        },
        {
          "hex": "#000080"
        },
        {
          "hex": "#bdb76b"
        },
        {
          "hex": "#d3d3d3"
        },
        {
          "hex": "#dcdcdc"
        },
        {
          "hex": "#cd5c5c"
        }
      ],
      "marekm4": [
        {
          "hex": "#6b8e49"
        },
        {
          "hex": "#e2d53e"
        },
        {
          "hex": "#af9353"
        },
        {
          "hex": "#a3a544"
        },
        {
          "hex": "#e6d308"
        },
        {
          "hex": "#385b48"
        },
        {
          "hex": "#6495aa"
        },
        {
          "hex": "#ece1d4"
        },
        {
          "hex": "#6d9099"
        },
        {
          "hex": "#eee3d3"
        },
        {
          "hex": "#eae8de"
        },
        {
          "hex": "#ebe3d6"
        },
        {
          "hex": "#ba4553"
        },
        {
          "hex": "#ece7d4"
        },
        {
          "hex": "#5c93a9"
        },
        {
          "hex": "#54648f"
        },
        {
          "hex": "#e7c504"
        },
        {
          "hex": "#a9956b"
        },
        {
          "hex": "#2b3f14"
        },
        {
          "hex": "#b9cbce"
        },
        {
          "hex": "#b9bcb4"
        },
        {
          "hex": "#3f4704"
        },
        {
          "hex": "#e1cd2e"
        },
        {
          "hex": "#1a541a"
        },
        {
          "hex": "#e1dbc5"
        },
        {
          "hex": "#5a281f"
        },
        {
          "hex": "#adb060"
        },
        {
          "hex": "#bcccd0"
        },
        {
          "hex": "#162d0d"
        },
        {
          "hex": "#1f350f"
        },
        {
          "hex": "#23431b"
        },
        {
          "hex": "#b0b9ad"
        },
        {
          "hex": "#030372"
        },
        {
          "hex": "#fad007"
        },
        {
          "hex": "#e8dbb8"
        },
        {
          "hex": "#758968"
        },
        {
          "hex": "#dac70d"
        },
        {
          "hex": "#29320e"
        },
        {
          "hex": "#cacdb4"
        },
        {
          "hex": "#19140e"
        },
        {
          "hex": "#d3d8c7"
        },
        {
          "hex": "#efe7cd"
        },
        {
          "hex": "#a28f63"
        },
        {
          "hex": "#94654e"
        },
        {
          "hex": "#a9522b"
        },
        {
          "hex": "#d1c9bb"
        },
        {
          "hex": "#e6d107"
        },
        {
          "hex": "#38342e"
        },
        {
          "hex": "#2d383b"
        },
        {
          "hex": "#f5cf03"
        },
        {
          "hex": "#e5e2d3"
        },
        {
          "hex": "#37522e"
        },
        {
          "hex": "#4d3e32"
        },
        {
          "hex": "#3a5d58"
        },
        {
          "hex": "#5a6f8b"
        },
        {
          "hex": "#658d99"
        },
        {
          "hex": "#748866"
        },
        {
          "hex": "#e4d63a"
        },
        {
          "hex": "#c1a443"
        },
        {
          "hex": "#718e42"
        },
        {
          "hex": "#ebe3c5"
        },
        {
          "hex": "#4376ad"
        },
        {
          "hex": "#495340"
        },
        {
          "hex": "#f4c904"
        },
        {
          "hex": "#30390e"
        },
        {
          "hex": "#b64533"
        },
        {
          "hex": "#e9e2ce"
        },
        {
          "hex": "#ebe3d2"
        },
        {
          "hex": "#cac13f"
        },
        {
          "hex": "#628c53"
        },
        {
          "hex": "#bc5030"
        },
        {
          "hex": "#51738d"
        },
        {
          "hex": "#3c7396"
        },
        {
          "hex": "#ede3d2"
        },
        {
          "hex": "#d59d62"
        },
        {
          "hex": "#2b3611"
        },
        {
          "hex": "#e7e3d1"
        },
        {
          "hex": "#b6bb49"
        },
        {
          "hex": "#3d6f8a"
        },
        {
          "hex": "#e8dbba"
        },
        {
          "hex": "#5b8d53"
        },
        {
          "hex": "#c9c9be"
        },
        {
          "hex": "#2a6320"
        },
        {
          "hex": "#6395a1"
        },
        {
          "hex": "#241f17"
        },
        {
          "hex": "#2a2e31"
        },
        {
          "hex": "#424322"
        },
        {
          "hex": "#e4dfc6"
        },
        {
          "hex": "#be3e5b"
        },
        {
          "hex": "#303124"
        },
        {
          "hex": "#495b3a"
        },
        {
          "hex": "#203e0d"
        },
        {
          "hex": "#242922"
        },
        {
          "hex": "#325129"
        },
        {
          "hex": "#c4bdb1"
        },
        {
          "hex": "#ede6cd"
        },
        {
          "hex": "#2a2219"
        },
        {
          "hex": "#7395a3"
        },
        {
          "hex": "#966752"
        },
        {
          "hex": "#e8d7cb"
        },
        {
          "hex": "#9e9c5e"
        },
        {
          "hex": "#b5c2bc"
        },
        {
          "hex": "#dcdac4"
        },
        {
          "hex": "#e4ce2a"
        }
      ]
    },
    "millsfield:images_texts": [
      "Panigra\nD C-7B\nDC-7B\nPANAMERICAN - GB\n0 00-8)\nEnter A meniomno\nPagaga=\n\"kier Americoma\nEL INL-CAM-REANG",
      "CHICAGO!\nFairchild, 1929\nANGELES\nHOUSTON\nNEW\nORLEANS,\nLoening, 1929\nFord Tri-Motor, 1929\nD C-7B\n1955... EL NUEVO Y VELOZ SERVICIO\nDE LUJO A SUD AMERICA EN LOS\nNUEVOS DC-7B EQUIPADOS CON RADAR\nPAN AMERICAN - CR\nQA600\nAYAQUIL\n• El nuevo\nDC-7\nmide\naproximadamente 109 pies\nde largo. Sus alas tienen\nuna extensión de 117 pies\ny vuela a alturas de más\nde 25,000 pies\nvelocidad de 590 K. P. H.\nCuenta con cómoda\nbina a presión a 8,000 pies\nde altura.\nTALARA\nРазадиа\n1955...SWIFT NEW LUXURY\nSERVICE TO SOUTH AMERICA WITH NEW\nDC-7B'S EQUIPPED WITH RADAR\nSikorsky, 1930\nDC-3, 1937\nЭ CINER\nANTOI\nGASTA.\nRIO DE\nJANEIRO\nSAO PAULO\nPENGS AIRES\nMONTEVIDEO\nTREAD 205-\n• The\nnew\nDC-7\nis\nnearly\n109\nfeet long.\nIt has a wing spread of\nmore than\n117 feet\nand cruises at altitudes\nabove 25,000\nfeet at\n365 mph. Cabin is pres-\nsurized at a comfort-\nable 8,000 feet.\nAMERICANO\n• Feliz viaje! Deseamos que cada minuto de su\nviaje sea agradable y cómodo. El \"Fiesta Lounge\"\nofrece servicio de bar y está a su disposición para\ncharlar o jugar a las cartas.\n• Happy trip! We want to make every minute of\nyour journey pleasant and comfortable. The \"Fiesta\nLounge\" has bar service, is at your disposal for\nchats or card games with fellow passengers.\n• Buen\napetito! Nuestro servicio de comidas\n\"Gourmet Galley\" ofrece los más deliciosos man-\njares de los países en nuestra ruta. También se\nofrecen aperitivos, champaña y licores y a cual-\nquier hora que lo desee le serviremos un refrigerio.\n• Good appetite! \"Gourmet Galley\" meals feature\nthe finest delicacies of the countries on our route.\nCocktails, champagne, cordials are complimentary,\ntoo. Snacks are yours for the asking at any hour.\n• Duerma como en su propia casa! Las literas de\nEl Inter Americano son más anchas y espaciosas,\npara que goce Ud. de una tranquila noche de\ndescanso en el aire.\n• Sleep as soundly as you sleep at home!\nEl Inter Americano's berths are wider and roomier\nfor a restful night in the sky.",
      "PANAMA\n• Visite el Canal.\nPerfumes yetres articuter?\ntaus partes del mundo se\nencuentran en los bazares de\nesta \"encrucijada del mundo.\"\nSee the canal.\nPerfume and other exotic articles\nfrom all over the world can be\nfound in the bazaars in this\n\"crossroads of the world.\"\nCALI\n• Goce del clima de primavera y\nde las lindas flores de este\nfecundo valle de los Andes.\nEnjoy the springlike weather and\nbeautiful flowers of this fertile\nvalley of the Andes.\nQUITO\n• Compre talas de lana tejidas e\nmano en una de las más\npintorescas ferias indigenas\ncontinente.\nShop for fine hand-woven\nwoolens in one of the most\ncolorful Indian fairs on the\ncontinent.\nLIMA\n• Disfrute del colorido y alegria\nde la fiesta taurina. Recréese\nun ambiente reminiscente de\nla vieja España.\nThrill to the color and pageantry\nof a bull fight. Relax in the\nmidst of old Spanish charm.\nLA PAZ\n• Los colosales monolitos evocan\nuna civilización boliviana más\nantigua quizás que la de Egipto\nColossal monoliths hint of a\nBolivian civilization, older\nperhaps than Egypt's.\nSANTIAGO\nBUENOS AIRES\n• En la región de los lagos al sur\nde Santiago hay truchas irisadas,\nhasta de 10 kilos de peso.\nIn the Chilean Lake District\nsouth of Santiago, fighting\nrainbow trott grow as big as\ntwenty-two pounds.\nElegante y alegre centro cultural.\nLa ciudad más grande de\nSudamérica y la tercera del\ncontinente.\nSmart, gay, sophisticated!\nSecond only in size to New York\nand Chicago in the Americas.\nEnt Amoricano",
      "Триадна\nAMERICAN - CA\nROUTE MAP\nMAPA de RUTAS",
      "Lake\nHuron\nToronto\nLake\nCANADA\nBuffalo\nOntario\nRochester\nSyracuse\nUtica, ≤\nSchenectady\nManchestero\n•Nashua\nBoston\nAlbany®\nBinghamton o\nWorcester,\nSpringfield\nHartford\nProvidence\nDETROIT\nLake\nLorain.\nErie\nErie\nBradford\nScranton\nNew Hayen\nBridgeport\nCleveland\nWilkes-Barre\nAkron\nCanton®\nYoungstown\nPittsburgh\nWheeling\nNewark\nAllentown\nAltoona\nReading\nTrenton\nHarrisburgo\nPHiLADELPHIA\nWilmington\nCamden\nNEW YORK\nAtlantic City\nColumbus\nMorgantown\nо!ч0\nBaltimore\nDover,\nWASHINGTON\nAnnapolis\nDELAWARE\nBAY\nSPRUCE KNOB\n4860\nHuntington\nCharleston\nCharlottesville\nCHESAP\n8\n2\n510\npioneered in developing the vast skyways of this continent.\ntrips that in the past took many days or even weeks,\nand has\nonly 29 years Panagra has reduced to a matter of hours the tedious\ndramatically, so rapidly as in South America. In the short space of\nNowhere else in the world has the mode of travel changed so\neste vasto continente.\nsemanas, y ha sido la primera en explorar las inmensas alturas de\nhoras lo viajes pesados que antes demoraban muchos días o aún\nel corto espacio de 29 años, la Panagra ha reducido a cuestión de\ntan rápida ni tan dramáticamente como en la América del Sur. En\nEn ninguna otra parte del mundo ha cambiado la manera de viajar\nSantiage,\nAntofagasta\nLima\nGuayaquil\nQuito\nCali•\nPanama! Balboa\nMiami\nLa Par\n3\n2\nWashington\nFold and Index Patent No. 2, 264, 119\nMontevideo\nBuenos Aires\nSao Paulo\nRio de Janeiro,\nCape Cod\nNantucket\nChicago\n¡Detroit\nNew York\nINDEX\nMAP\n40° N\n4 QUITO-GUAYAQUIL\n3 PANAMA\n2 MIAMI\n1 NEW YORK\nSANTIAGO-BUENOS AIRES\n7\nLA PAZ - ANTOFAGASTA\n6\nLIMA\n5",
      "Panağna\nROUTE MAP\nMAPA de RUTAS\nРамада\nEL/nire Americoso\n1993.1.86",
      "EN VIGENCIA JUNIO 1 DE 1957\nPANAGRA\nPAN AMERICAN-GRACE AIRWAYS, INC.\nBUENOS AIRES A EE. UU. VIA SANTIAGO\nLIMA • GUAYAQUIL Y PANAMA\nUd. verá interesantes reliquias del arte del Tiahuanaco en el museo al aire libre de La Paz\nEl piter Americano DC-7",
      "La altitud de La Paz, Bolivia, es mayor que la de la capital del Tibet: es la capital más alta del mundo\nLa capital más alta y los monumentos del Tiahuanaco\na pocas horas de distancia ... con Panagra\nCordilleras que desafían las alas de los cón-\ndores; esculturas colosales, como la armonía\nsólida del paisaje; pesca de truchas de 20 Kg.\n. todo eso espera a Ud. en la capital\nboliviana.\nLa Paz se extiende en una alta meseta andina\nabrigada por nevados picachos. No muy\nlejos, las ruinas milenarias del Tiahuanaco\ncontinúan desafiando a los arqueólogos con\nsus indescifrables monumentos. Y en el lago\nmás alto del mundo, el de Titicaca, las famo-\nsas truchas constituyen un atractivo especial\npara los aficionados a la pesca.\nEs muy fácil llegar allá ... en los DC-6B de\nEl Pacífico, en los que Ud. se sentará donde\nquiera, porque el servicio es totalmente tu-\nrista. Y, en estos aviones de cabina \"altimá-\ntica\", se puede ahorrar hasta un 25%.\nPan American-Grace Airways\nPANAGRA",
      "PANAGRA\nPan American-Grace Airways, Inc.\nEN VIGENCIA JUNIO 1 DE 1957\nA\nALASKA\nSEATTLE\nPORTLAND\nCANADA\nLOS\nANGELES\nMINNEAPOLIS\nDETROIT\nCHICAGO\nSAN FRANCISCO\nDALLAS NEW\nORLEANS\nRWOR\nHOUSTON\nHAWAIL\nHAVANA\nORIENTE\nMEXICO\nD. F.\n•MONTREAL\n• BOSTON\nNEW YORK\nWASHINGTON\nA\nTODA\nEUROPA\n- MIAMI\n* SAN JUAN\n•KINGSTON \\\nPT. OF\nSPAIN\nPANAMA\nESMERALDAS\nMANTA\nGUAYAQUIL\nTALARA\nLIMA\nANTOFAGASTA\nSANTIAGO\n• CALI\nQUITO\n• CUENCA\nBELEM\nAREQUIPA\nPAt\nCOCHABAMBA\nSANTA\nCONCEPCION\nSAN IGNACIO\nARIC\nSAN JOSE\nORURO\nROBORE\nPAULO\nSUAREZ\nRIO DE\nJANEIRO\nMONTEVIDEO\nBUENOS AIRES\nPARA INFORMES O\nRESERVACIONES\nCUALQUIER OFICINA\nDE PANAGRA O SU\nAGENTE DE\nVIAJE PREFERIDO\nRUTAS DE PANAGRA\ny El piter Americano\nLINEAS EN CONEXION\n1993.1.8c",
      "Inside this folder you will\nfind listed some of the\nitems your Panagra Hostess\nand Purser have for your\ndiversion, comfort, or\ngeneral interest.\nPlease feel free to ask for\nthem at any time.\nSus\nOrdenes\nAt\nYour\nService\nEn este folleto\nUd. encontrara una\nlista de las cosas\nque su \"flight hostess\ny \"purser\" tienen\nabordo para su\nentretenimiento,\ncomodidad o interés\ngeneral. Pidalos con\ncontianza en cualquier\nmomento que Ud. desée.",
      "• Checkerboard\n• Writing Paper\n• Playing Cards\n• Magazines\n• Newspaper\n• Post Cards\n•\nAviation Guide\n(schedules\nand tariffs\nof all airlines)\n• Book Matches\n• Chewing Gum\n• Kleenex\n• Medical Kit\n• Bisodol\n(for indigestion)\n• Ammonia\n• Air-Sick Tablets\n• Aspirin\n• Mouthwash\n• Electric Razor\n• Route Map\n• Ice Bag\n• Seconal Sleeping\nTablets\n• Sewing Kit\nFor the Baby\n• Assorted\nStrained Foods\n• Pablum\n• Baby Oil\n• Disposable Diapers\nTablero de Damas •\nCuaderno de escritura •\nBarajas •\nRevistas •\nPeriódicos •\nTarjetas Postales •\nGuia de Aviación •\n(itinerarios y tarifas\nde todas las líneas aéreas)\nLibritos de fósforos •\nChicle\n•\n\"Kleenex\"\nEstuche Médico\nBisodol para\n•\nla indigestión\nAmoniaco\nTabletas para\n•\n•\nel mareo\nAspirina\nLiquido para\n•\nenjuagar la boca\n. e Máquina eléctrica •\nde afeitar\nMapa de Ruta •\nBolsa de Hielo •\nTabletas Seconal •\npara dormir\nEquipo de Costura •\nPara el Bebé\nPurés Varios •\nPablum •\nAceite para Niños •\nPañales •",
      "PANAGRA\nla ruta de\nE/itr Ателісо\n993.\n1,8 d",
      "AIR TRAVELER'S\nENGLISH-SPANISH\nDICTIONARY\nFRASES UTILES\nEN INGLES\nPANAGRA",
      "YOU CAN'T LEARN A NEW LANGUAGE\nIN THREE EASY LESSONS-BUT ...\nThis little booklet provides a summary of words and phrases\nyou'll find most helpful to know on your present Panagra\ntrip, if you do not speak the language of the places to be\nvisited. You will find them easily committed to memory, but\nyou may also keep the booklet for ready reference.\nUNA LENGUA EXTRANJERA NO PUEDE\nAPRENDERSE EN TRES LECCIONES-PERO ...\nEste librito es un breve compendio de las palabras y frases\nque le serán más útiles en su viaje aéreo, si Ud. no sabe la\nlengua inglesa. Fácilmente podrá Ud. aprenderlas de me-\nmoria... o conservar el librito para consultarlo en caso\nde necesidad.\nCONTENTS\nAt the Airport..\nOn the Airplane\nAt the Hotel...\nAt the Postal and Telegraph Offices\nIn the Market-In the Shop.\nMonths\nDays of the Week-Colors\nNumbers ......\nEveryday Expressions\nGuide to Spanish Pronunciation.\nPage\n7\n9\n11\n13\n14\n.. 15\n16\n.. 24\nCONTENIDO\nPágina\nEn el Aeropuerto.\nEn el Avión.\nEn el Hotel.\nEn la Oficina de Correos y Telégrafos\nEn el Mercado-En la Tienda.\nMeses\nDías de la Semana-Colores.\nNúmeros\nExpresiones de Uso Frecuente..\nExplicación de los Sonidos Ingleses para la\nPronunciación Figurada Española.\n7\n11\n13\n14\n15\n16\n22",
      "PANAGRA\nLitho in U.S.A: 1993.1.Se\nPan American-Grace Airways",
      "D C-78\nAMERICAN - GRACE\n¿Va usted a contarnos de su viaje por PANAGRA?\nWill you tell us about your PANAGRA flight?",
      "DATE\nFECHA\nDear Mr. Shea:\nEstimado señor Shea:\nFLYING FROM\nEN VUELO DE\nFLIGHT NO.\nNUMERO DE VUELO\nPan American-Grace Airways\nNosotros en la Panagra desearíamos saber qué opina\nusted de su viaje por Panagra...de nuestros métodos\ny nuestro modo de tratar a los pasajeros.\nEsperamos que este viaje por Panagra lo deje tan\nsatisfecho que desée hacer otros.\nSi así fuere,\nno deje de hacérnoslo saber.\nAdemás, si algo no le\nha gustado, quisiéramos que nos dijera con franque-\nza qué ha causado su descontento durante el viaje.\nLe molestamos en este sentido solamente porque\nestamos convencidos que sus comentarios, junto con\nlos de nuestros otros pasajeros, nos serán de ayuda\nen nuestros esfuerzos contínuos de mejorar nuestro\nservicio a Ud. por todos los medios a nuestro\nalcance, y de mantener nuestra reputación de\nhacerlo sentir que cuando vuela en Panagra está Ud.\nsiempre entre amigos.\nEl formulario que se da abajo es para su comodidad.\nMucho le agradeceré que me escriba unas cuatro\n1ineas.\nPuede escribirlas con lápiz y entregar el\nformulario cerrado a la\n\"hostess\", quien lo pondrá\nen el correo.\nSu armo.\nservidor\nAndrew B.\nShea\nPresidente\nPan American-Grace Airways\nWe of Panagra would very much appreciate knowing\nhow you feel about your\nPanagra flight... Panagra\nservice..about our\nmanners and our methods.\nWe hope you'11 be pleased with your Panagra flight\nand will want to travel with us again.\nIl so,\nwe'd like to know about it.\nOn the other hand, if\nsome phase of your flight has been less than per-\nfect, we'd like to know about that too.\nThe reason\nwe are asking you to do this is because we believe\nthat your comments, together with those of our\nother passengers, will aid us in our continuing\nefforts to improve our service in every way\npossible, and to live up to our reputation as the\nWorld's Friendliest Airline.\nThe form below is for your convenience.\nIr you\nhave no pencil handy, the flight hostess will gladly\ngive you one.\n, she 11 also mail this note for\nYou.\nSo, won't you drop me a line?\nI'd be very\nglad to hear from you.\nSincerely,\nAndrew B.\nPresident\nShea\nABS/DR\nNAME\nNOMBRE\nCITY\nCIUDAD\nSTATE\nESTADO O PROVINCIA\nADDRESS\nDIRECCION\nCOUNTRY\nPAIS\nCon mucho gusto le pondremos en conocimiento de los viajes a Sud América. Si Ud. desea recibir de\nWe'll be glad to keep you posted on South American Travel News. If you would like to receive\nvez en cuando anuncios de Panagra, agradeceríamos indicarlo aqui\nPanagra's literature from time to time, kindly check here\nDespués de terminar, sirvase cerrar y entregar a la asistenta (\"Hostess\"). After making your comments, please seal and hand to Flight Hostess.",
      "Mr. Andrew B. Shea\nPRESIDENT\nPan American-Grace Airways, Inc.\nChrysler Building,\nN.Y. 17, N.Y., U.S.A.",
      "PANAGRA\nAmericano\nPAN AMERICAN",
      "PERU",
      "PANAGRA SKY CARD\nPAN AMERICAN-GRACE AIRWAYS, INC.\nPANAMA, COLOMBIA, ECUADOR, PERU, BOLIVIA,\nCHILE, ARGENTINA.\nPOST CARD\nAddress\nPLACE\nSTAMP\nHERE\nImpreso en México\n1993.1.8k",
      "BOLIVIA-PLAZA MURILLO, LA PAZ\nPOST CARD\nAddress\nPLACE\nSTAMP\nHERE\nPANAGRA SKY CARD\nPAN AMERICAN-GRACE AIRWAYS. SERV-\nING PANAMA, COLOMBIA, ECUADOR, PERU,\nBOLIVIA, CHILE, ARGENTINA.\n19931.8i\nLITHO IN U.S.A",
      "DC-18\nPAN\nERICAN-GRAEE AIRWAYS\nPenga s go",
      "PANAGRA SKY CARD\nPAN AMERICAN-GRACE AIRWAYS, INC.\nPANAMA, COLOMBIA, ECUADOR, PERU, BOLIVIA,\nCHILE, ARGENTINA.\nPOST CARD\nAddress\nPLACE\nSTAMP\nHERE\n1993.1.8;\nLITHO IN US A",
      "PANAGRA\nPAN AMERICAN-GRACE AIRWAYS, INC.\nPANAMA, COLOMBIA, ECUADOR, PERU, BOLIVIA,\nCHILE, ARGENTINA.\nPOST CARD\nAddress\nPLACE\nSTAMP\nHERE\nPesca en el lago Titicaca, a 3915 metros sobre el\nnivel del mar.\nFishing on Lake Titicaca, 13,000 feet above sea level.\n1993.1,8K\nLITHO IN US A",
      "SANTIAGO, CHILE: EL CARRERA—400 habitaciones-\nes uno de los mejores hoteles del hemisferio occidental.\nAccesible a las principales ciudades de seis continentes\npor Pan American Clipper y Panagra.\nTHE CARRERA-400 rooms-one of the finest hotels in\nthe Western Hemisphere. Within reach of major cities on\nsix continents via Pan American Clippers and Panagra.\nPrinted in U.S.A. . Impreso en E.U.A\nAN INTERCONTINENTAL HOTEL\n1993.1.8 [\nPOST CARD\n21140"
    ],
    "millsfield:images_texts_ids": [
      1527855323,
      1527855325,
      1527855329,
      1527855331,
      1527855333,
      1527855335,
      1527855337,
      1527855339,
      1527855341,
      1527855343,
      1527855347,
      1527855349,
      1527855351,
      1527855353,
      1527855355,
      1527855357,
      1527855359,
      1527855361,
      1527855365,
      1527855367,
      1527855369,
      1527855373,
      1527855375,
      1527855377,
      1527855383,
      1527855387
    ],
    "millsfield:primary_image": 1527855323,
    "millsfield:subcategory_id": 1511213565,
    "mz:hierarchy_label": 1,
    "mz:is_current": 1,
    "sfomuseum:accession_number": "1993.01.008 a l",
    "sfomuseum:airline": "Panagra (Pan American-Grace Airways)",
    "sfomuseum:airline_id": [
      687
    ],
    "sfomuseum:category": "Passenger Amenity, Archive",
    "sfomuseum:classification_id": 241,
    "sfomuseum:collection": "Aviation Archive",
    "sfomuseum:continent": "South America",
    "sfomuseum:creditline": "Gift of Serge Mitt",
    "sfomuseum:date": "1957",
    "sfomuseum:date_acquired": "1999-10-06",
    "sfomuseum:daterange_end": "1957-12-31",
    "sfomuseum:daterange_start": "1957-01-01",
    "sfomuseum:description": "Flight information packet issued by Panagra (Pan American-Grace Airways) for service on the Douglas DC-7B, titled \"El Inter Americano,\" comprising:\ra. folder; tri-fold format with three pockets;\rb. system route map; fold-out format;\rc. timetable and fare schedule, effective June 1, 1957; fold-out format;\rd. brochure for inflight passenger amenities; bi-fold format;\re. English-Spanish traveler’s dictionary; multipage booklet;\rf. comment card; self-folding letter format;\rg. luggage label with “inter-Americano” logotype; unused;\rh. postcard with color illustration of a matador;\ri. postcard with color photographic image of Plaza Murillo, La Paz;\rj. postcard with color illustration of Panagra DC-7B flying over the Statue of Liberty;\rk. postcard with color photographic image of people on a boat on Lake Titicaca\";\rl. postcard with color photographic image of people standing outside of Hotel Carrera, Santiago, Chile.",
    "sfomuseum:dimensions": "10 1/4 x 4 3/4 inches (26 x 12.1 cm)",
    "sfomuseum:maker": "Panagra (Pan American Grace Airways, Inc.)",
    "sfomuseum:media_ids": [
      1527855323,
      1527855325,
      1527855329,
      1527855331,
      1527855333,
      1527855335,
      1527855337,
      1527855339,
      1527855341,
      1527855343,
      1527855347,
      1527855349,
      1527855351,
      1527855353,
      1527855355,
      1527855357,
      1527855359,
      1527855361,
      1527855365,
      1527855367,
      1527855369,
      1527855371,
      1527855373,
      1527855375,
      1527855377,
      1527855379,
      1527855383,
      1527855385,
      1527855387
    ],
    "sfomuseum:medium": "paper, ink",
    "sfomuseum:object_id": 42466,
    "sfomuseum:placetype": "object",
    "sfomuseum:primary_media_id": 1527855323,
    "sfomuseum:publication": ": , 1957.",
    "sfomuseum:subcategory": "Inflight Information",
    "src:geom": "sfomuseum#undetermined",
    "wof:belongsto": [
      1511214243,
      102527513,
      102191575,
      85633793,
      1511213565,
      85922583,
      102087579,
      1511214277,
      1511214203,
      85688637,
      102191577
    ],
    "wof:breaches": [],
    "wof:country": "",
    "wof:created": 1579906665,
    "wof:depicts": [
      1159288567,
      1159290435,
      1159284993,
      1159290437
    ],
    "wof:geomhash": "30c8a918561c84bb2daa2b97fc7c5353",
    "wof:hierarchy": [
      {
        "arcade_id": 1511213565,
        "building_id": 1511214277,
        "campus_id": 102527513,
        "concourse_id": 1511214243,
        "continent_id": 102191575,
        "country_id": 85633793,
        "county_id": 102087579,
        "custom_id": 1511906713,
        "locality_id": 85922583,
        "neighbourhood_id": -1,
        "object_id": 1511906713,
        "region_id": 85688637,
        "venue_id": 1511906713,
        "wing_id": 1511214203
      },
      {
        "continent_id": 102191577,
        "custom_id": 1511906713,
        "object_id": 1511906713,
        "venue_id": 1511906713
      }
    ],
    "wof:id": 1511906713,
    "wof:lastmodified": 1787988175,
    "wof:name": "flight information packet: Panagra (Pan American-Grace Airways)",
    "wof:parent_id": 1159162825,
    "wof:placetype": "custom",
    "wof:placetype_alt": [
      "object"
    ],
    "wof:repo": "sfomuseum-data-collection",
    "wof:superseded_by": [],
    "wof:supersedes": [],
    "wof:tags": []
  },
  "bbox": [
    -122.386155,
    37.616357,
    -122.386155,
    37.616357
  ],
  "geometry": {"type":"Point","coordinates":[-122.386155,37.616357]}
}
