{
  "id": 1762830937,
  "type": "Feature",
  "properties": {
    "date:cessation_lower": "1927-01-01",
    "date:cessation_upper": "1927-12-31",
    "date:inception_lower": "1927-01-01",
    "date:inception_upper": "1927-12-31",
    "edtf:cessation": "1927",
    "edtf:inception": "1927",
    "geom:area": 0,
    "geom:bbox": "-122.391953,37.624731,-122.391953,37.624731",
    "geom:latitude": 37.624731,
    "geom:longitude": -122.391953,
    "iso:country": "US",
    "millsfield:airport_id": [
      1360695653
    ],
    "millsfield:category_id": 1511214239,
    "millsfield:collection_id": 1511214207,
    "millsfield:images": [
      1762897157
    ],
    "millsfield:images_colors_refs": {
      "crayola": [
        {
          "hex": "#414a4c"
        },
        {
          "hex": "#efcdb8"
        }
      ],
      "css4": [
        {
          "hex": "#f5deb3"
        },
        {
          "hex": "#2f4f4f"
        }
      ],
      "marekm4": [
        {
          "hex": "#484846"
        },
        {
          "hex": "#e1d4b7"
        }
      ]
    },
    "millsfield:images_texts": [
      "San Francisco, Cal12omia.\n1927.\nCity and County o2 San Francisco,\nCity Hall,\nSan Francisco.\nAttention:\nAirport Conmittee of the Board\nGentLemen:\nOF Su0e2vis02s.\nPermission is hereby given to you by the undersigned\norners and lessees of Varney field, in San Mateo County,\nCalifornia, to construet and maintain upon the said field a\nmeteorologieal station with access thereto from the county zoad\ntor a period or one year, trom July 1, 1927, to June 30g\n1928,\nwith the further privilege of constructing the said station\nİmmediately.\nIt is hereby understood and agreed that the said station\nshall be located at a point approximately 108 feet northwesterly\nof the westerly corner of the hangar now constructed on the said\n11eld, as per maps submitted by you, marked 11le I-7770 and Ille\n4-7752•\nIt is further hereby understood and sgreed that in the\nevent of the sale of this property that this permission may be\nwithdraw on thirty days' notice.\nIt is further hereby understood and agreed that the City\nshall have the right to remove the building and instruments when\nit vacates the said premises.\n-\nOWNERS\n-\n-\nLESSINS\na50.0-0, 810, 0005."
    ],
    "millsfield:images_texts_ids": [
      1762897157
    ],
    "millsfield:primary_image": 1762897157,
    "millsfield:subcategory_id": 1511213483,
    "mz:is_approximate": 1,
    "mz:is_current": 1,
    "sfomuseum:accession_number": "2000.018.040.026",
    "sfomuseum:airport": "Mills Field Municipal Airport of San Francisco",
    "sfomuseum:airport_id": [
      162
    ],
    "sfomuseum:category": "Company Record / Document",
    "sfomuseum:classification_id": 190,
    "sfomuseum:collection": "Aviation Archive",
    "sfomuseum:creditline": "Collection of SFO Museum",
    "sfomuseum:date": "1927",
    "sfomuseum:date_acquired": "2009-12-11",
    "sfomuseum:daterange_end": "1927-12-31",
    "sfomuseum:daterange_start": "1927-01-01",
    "sfomuseum:description": "Facsimile of agreement directed to attention of Airport Committee of the Board of Supervisors, City and County of San Francisco, granting permission by undersigned owners and lessees of Varney Field in San Mateo County to construct and maintain meteorological station in conjunction with lease of Mills Estate property for use as airport; file copy, not signed.",
    "sfomuseum:dimensions": "11 x 8 1/2 inches (27.9 x 21.6 cm)",
    "sfomuseum:medium": "paper, ink",
    "sfomuseum:object_id": 165045,
    "sfomuseum:placetype": "object",
    "sfomuseum:publication": ": , 1927.",
    "sfomuseum:subcategory": "Correspondence, Company",
    "src:geom": "sfomuseum#derived",
    "src:geom_derived_from": [
      1360695653
    ],
    "wof:belongsto": [
      102527513,
      1159162825,
      102191575,
      85633793,
      102087579,
      85922583,
      85688637,
      1159160869,
      1360695653,
      554784711,
      102085387
    ],
    "wof:country": "US",
    "wof:created": 1642730083,
    "wof:depicts": [
      1360695653
    ],
    "wof:geomhash": "3abf1c04b00c12d6593e9cd3c35f0056",
    "wof:hierarchy": [
      {
        "building_id": -1,
        "campus_id": 102527513,
        "collection_id": 1159162825,
        "concourse_id": 1159162825,
        "continent_id": 102191575,
        "country_id": 85633793,
        "county_id": 102087579,
        "custom_id": 1762830937,
        "locality_id": 85922583,
        "neighbourhood_id": -1,
        "object_id": 1762830937,
        "region_id": 85688637,
        "wing_id": 1159160869
      },
      {
        "campus_id": 1360695653,
        "continent_id": 102191575,
        "country_id": 85633793,
        "county_id": 102087579,
        "custom_id": 1762830937,
        "locality_id": 85922583,
        "object_id": 1762830937,
        "postalcode_id": 554784711,
        "region_id": 85688637
      },
      {
        "campus_id": 1360695653,
        "continent_id": 102191575,
        "country_id": 85633793,
        "county_id": 102085387,
        "custom_id": 1762830937,
        "object_id": 1762830937,
        "region_id": 85688637
      }
    ],
    "wof:id": 1762830937,
    "wof:lastmodified": 1787988201,
    "wof:name": "agreement: City and County of San Francisco, Varney Field",
    "wof:parent_id": 1159162825,
    "wof:placetype": "custom",
    "wof:placetype_alt": [
      "object"
    ],
    "wof:repo": "sfomuseum-data-collection",
    "wof:superseded_by": [],
    "wof:supersedes": []
  },
  "bbox": [
    -122.391953,
    37.624731,
    -122.391953,
    37.624731
  ],
  "geometry": {"type":"MultiPoint","coordinates":[[-122.391953,37.624731]]}
}
