{
  "id": 1511954449,
  "type": "Feature",
  "properties": {
    "date:cessation_lower": "1934-01-10",
    "date:cessation_upper": "1934-01-10",
    "date:inception_lower": "1934-01-10",
    "date:inception_upper": "1934-01-10",
    "edtf:cessation": "1934-01-10",
    "edtf:date": "1934-01-10",
    "edtf:inception": "1934-01-10",
    "geom:area": 0,
    "geom:bbox": "-122.386155,37.616357,-122.386155,37.616357",
    "geom:latitude": 37.616357,
    "geom:longitude": -122.386155,
    "iso:country": "XX",
    "millsfield:airline_id": [
      1159285407
    ],
    "millsfield:category_id": 1511214215,
    "millsfield:collection_id": 1511214207,
    "millsfield:company_id": [],
    "millsfield:images": [
      1527852485,
      1527853751,
      1527853753
    ],
    "millsfield:images_colors_refs": {
      "crayola": [
        {
          "hex": "#fdd9b5"
        },
        {
          "hex": "#efdecd"
        },
        {
          "hex": "#cd4a4c"
        },
        {
          "hex": "#ff2b2b"
        },
        {
          "hex": "#414a4c"
        },
        {
          "hex": "#fae7b5"
        },
        {
          "hex": "#9f8170"
        }
      ],
      "css4": [
        {
          "hex": "#dcdcdc"
        },
        {
          "hex": "#bc8f8f"
        },
        {
          "hex": "#dc143c"
        },
        {
          "hex": "#b22222"
        },
        {
          "hex": "#2f4f4f"
        },
        {
          "hex": "#f5deb3"
        }
      ],
      "marekm4": [
        {
          "hex": "#f5deb5"
        },
        {
          "hex": "#f7e2b7"
        },
        {
          "hex": "#b39072"
        },
        {
          "hex": "#2f2837"
        },
        {
          "hex": "#e7dfcf"
        },
        {
          "hex": "#cc3b38"
        },
        {
          "hex": "#383637"
        },
        {
          "hex": "#1f2239"
        },
        {
          "hex": "#e03024"
        }
      ]
    },
    "millsfield:images_texts": [
      "PAA\nConquest\nof the Pacific\n1934\nFIRST US. NAVY SQUADRON FLIGHT - SAN FRANCISCO TO HAWAII\nAAMC *1-0 1200\nIDP)\nLT. COR KNEFFLER MCGINNIS,\nWITH HIS MASSED FLIGHT OF SIX\nCONSOLIDATED PZY-/ PATROL\nBOATS, FLEW NONSTOR FROM\nSAN FRANCISCO TO HAWAIL AS A\nROUTINE TRANSFER TO THEIR\nNEW BASE AT PEARL HARBOR.\nIN THE 24% - HOUR, 2400 - MHE\nFLIGHT, THEY SET THREE NEW\nWORLD RECORDS.\nCONSOLIDATED NAVY PATROL P¿Y-1.\nLead plane on the Navy's record flight to Honolulu soon after sighting the Haw\nIslands.",
      "OCT 6 - 1933\norona Cal\n1\nMARRES\nWRON\n1371\n1934\nThis envelope approved by the U.S. Post Office Dept., for AIR MAIL ONLY.\nUse for other purposes not permitted.\nHarry OT. Sweet\n6/ p",
      "H'LOWN\nthe 10-P-4,\nBy\nma tilot.\nLe Clike. 00-720.\nU.S.N.\nON MASSED FLIGHT OF\nTENTH PATROL SQUADRON,\nU.S.NAVY.\nSan Francisco, California,\nto fearl Harbor, Hawaii.\nAIRCRAFT\nBASE\n10 l\nFORCE,\n1934\nA.M.\nVV\nS. FLEE\n05937\nRex O. Copp\n1933 NORTH 14th ST.\nKansas Cily, Kansas"
    ],
    "millsfield:images_texts_ids": [
      1527852485,
      1527853751,
      1527853753
    ],
    "millsfield:primary_image": 1527853753,
    "millsfield:subcategory_id": 1511213159,
    "mz:hierarchy_label": 1,
    "mz:is_current": 1,
    "sfomuseum:accession_number": "2012.149.2304 a b",
    "sfomuseum:airline": "U.S. Navy",
    "sfomuseum:airline_id": [
      880
    ],
    "sfomuseum:category": "Philately",
    "sfomuseum:classification_id": 10,
    "sfomuseum:collection": "Aviation Archive",
    "sfomuseum:creditline": "Gift of the Captain John B. Russell Family",
    "sfomuseum:date": "01/10/1934",
    "sfomuseum:date_acquired": "2013-05-31",
    "sfomuseum:daterange_end": "1934-01-10",
    "sfomuseum:daterange_start": "1934-01-10",
    "sfomuseum:description": "a. Airmail flight cover, massed naval flight from San Francisco to Pearl Harbor, Tenth Patrol Squadron, U.S. Navy; text at upper left corner, “Flown on the 10-P-4 by pilot T.D. [Erwin] and co-pilot J.C. Clarke” and signed by both men; postmarked January 10, 1934 at Aircraft Base Force with “San Francisco, California” cancellation mark over four 2-cent stamps; backstamp: January 11, 1934 at Fleet Air Base, Pearl Harbor.\rb. Backing sheet with two sets of mounting corners, with handwritten caption: “1934, first U.S. Navy squadron flight - San Francisco to Hawaii”, with black and white photographic image of Consolidated Navy P2Y-1.",
    "sfomuseum:dimensions": "3 3/4 x 6 1/2 inches (9.5 x 16.5 cm)",
    "sfomuseum:media_ids": [
      1527852485,
      1527853751,
      1527853753
    ],
    "sfomuseum:medium": "paper, ink",
    "sfomuseum:object_id": 139730,
    "sfomuseum:placetype": "object",
    "sfomuseum:primary_media_id": 1527853753,
    "sfomuseum:publication": ": , 01/10/1934.",
    "sfomuseum:subcategory": "Airmail Flight Cover",
    "sfomuseum:subject": "Airlines -- Commercial -- Pan American Airways.",
    "src:geom": "sfomuseum#undetermined",
    "wof:belongsto": [
      1511214215,
      102527513,
      102191575,
      85633793,
      1511213159,
      85922583,
      102087579,
      1511214277,
      1511214207,
      85688637
    ],
    "wof:breaches": [],
    "wof:country": "XX",
    "wof:created": 1579906656,
    "wof:depicts": [
      1159286573,
      1159285407
    ],
    "wof:geomhash": "30c8a918561c84bb2daa2b97fc7c5353",
    "wof:hierarchy": [
      {
        "arcade_id": 1511213159,
        "building_id": 1511214277,
        "campus_id": 102527513,
        "concourse_id": 1511214215,
        "continent_id": 102191575,
        "country_id": 85633793,
        "county_id": 102087579,
        "custom_id": 1511954449,
        "locality_id": 85922583,
        "neighbourhood_id": -1,
        "object_id": 1511954449,
        "region_id": 85688637,
        "venue_id": 1511954449,
        "wing_id": 1511214207
      }
    ],
    "wof:id": 1511954449,
    "wof:lastmodified": 1787988189,
    "wof:name": "airmail flight cover: Massed flight from San Francisco to Pearl Harbor, U.S. Navy, Tenth Patrol Squadron",
    "wof:parent_id": 1159162825,
    "wof:placetype": "custom",
    "wof:placetype_alt": [
      "object"
    ],
    "wof:repo": "sfomuseum-data-collection",
    "wof:superseded_by": [],
    "wof:supersedes": [],
    "wof:tags": []
  },
  "bbox": [
    -122.386155,
    37.616357,
    -122.386155,
    37.616357
  ],
  "geometry": {"type":"Point","coordinates":[-122.386155,37.616357]}
}
