{
  "id": 1511937915,
  "type": "Feature",
  "properties": {
    "date:cessation_lower": "1954-01-01",
    "date:cessation_upper": "1954-12-31",
    "date:inception_lower": "1954-01-01",
    "date:inception_upper": "1954-12-31",
    "edtf:cessation": "1954",
    "edtf:date": "1954",
    "edtf:inception": "1954",
    "geom:area": 0,
    "geom:bbox": "-122.386155,37.616357,-122.386155,37.616357",
    "geom:latitude": 37.616357,
    "geom:longitude": -122.386155,
    "iso:country": "XX",
    "millsfield:aircraft_id": [
      1159291139
    ],
    "millsfield:airline_id": [
      1159284511
    ],
    "millsfield:category_id": 1511214223,
    "millsfield:collection_id": 1511214207,
    "millsfield:company_id": [
      1159293697
    ],
    "millsfield:images": [
      1527839331,
      1527847867
    ],
    "millsfield:images_colors_refs": {
      "crayola": [
        {
          "hex": "#ff2b2b"
        },
        {
          "hex": "#efcdb8"
        },
        {
          "hex": "#1a4876"
        },
        {
          "hex": "#efdecd"
        },
        {
          "hex": "#757575"
        }
      ],
      "css4": [
        {
          "hex": "#708090"
        },
        {
          "hex": "#191970"
        },
        {
          "hex": "#dcdcdc"
        },
        {
          "hex": "#d3d3d3"
        },
        {
          "hex": "#dc143c"
        }
      ],
      "marekm4": [
        {
          "hex": "#d81a19"
        },
        {
          "hex": "#e2d3c1"
        },
        {
          "hex": "#242367"
        },
        {
          "hex": "#e6dfd0"
        },
        {
          "hex": "#1b1b5a"
        },
        {
          "hex": "#64648c"
        },
        {
          "hex": "#da1e12"
        }
      ]
    },
    "millsfield:images_texts": [
      "beria\nAIR LINES OF SPAIN\nFLIGHT\nSCHEDULE\nEffective November 1, 1954\nDIRECT TO MADRID\nSpain\nALL EUROPE, AFRICA\nFROM NEW YORK\nTHE ROUTE OF THE SKY CARAVELS",
      "Fly to MADRID in HALF A DAY\nFLIGHTS MONDAYS, WEDNESDAYS, FRIDAYS —\nNON-STOP NEW YORK-MADRID\nIn Lockheed Super E Constellations.\n11¼ hours of luxury flight.\nCombined First and Tourist class service.\nNEW YORK-MADRID\nFlight 952\nMonday\nFlight 952\nWednesday\nFlight 952\nFriday\nAll Times Shown are Local\nRead Down\nRead Up\nMon\n5 00 PM\nWed\n5 00 PM\nFri\nTue\n10\n15 AM\nThu\n10 15 AM\nSat\n5 00 PM Lv NEW YORK\nAr SANTA MARIA, Azores\nI SANTA MARIA, Azores\n10 15 AM Ar MADRID\nFlight 951\nSunday\nAr\nLv\nMon\n7 45 AM\nSun\n11 45 PM\nAr\nSun 10\n30 PM\nLv Sun\n9\n00 PM\nFlight 951\nTuesday\nFlight 951\nThursday\nWed\n7 45 AM\nTue\n11\n45 PM\nTue\n10\nTue\n30 PM\n9 00 PM\nFri\nThu\nThu\nThu\n7\n45 AM\n11\n145 PM\n10\n30 PM\n9 00 PM\nOTHER TRANSATLANTIC SERVICES\nF/T\nFlight\n971\nSuper-C\nThur.\nF\nFlight\n981\nDC-4\nSun.\nF\nFlight\n991\nDC-4\nSat.\nRead Down\nRead Up\nFlight\n992\nDC-4\nWed.\nFlight\n982\nDC-4\nWed.\nF/T\nFlight\n972\nSuper-C\nSun.\nLv.\nLv.\nLv.\nLY.\nLv.\n. LONDON\nGENEVA.\nFRANKFURT\nPARIS\nROME\n420\n120\n15\n40\n422\n10\n609 10\n30\n423 35\n300 50\n15\n®15\n55\n617, 10\nLv\nАг\nLv.\nАг\nLv\nLv.\nAr\nLv .\nAr\nLv.\nАг\nMADRID\nLISBON\nLISBON\nLAS PALMAS\nLAS PALMAS\nAZORES\nAZORES.\nCAPE VERDE IS.\nCAPE VERDE IS.\nBERMUDA\nBERMUDA\nSAN JUAN, P. R.\nSAN JUAN, P. R.\nHAVANA\nАг\nAr\nАг\nАг\nАг\nАг\nLv\nAr\nLv\nАг\nLv\nAr\nLv\nAr\n307 30\n317 50\nA\n115 00\n507\nS0 35\n21845\n217\n30\nA\n309 20\n308 05\n219\n2\n2\n211\nSARI\n622 30\n021 30\n312 20\nM X566\nDC-6\nDaily\n$15.00\n113 50\nS19 15\n©16 00\nM X565\nDC-6\nDaily\n013 56\n©08 00\n100 50\nLv\nAr\nAr\nAr\nHAVANA\nAr\nCARACAS\nLv\n208 30\nMEXICO CITY\nNATAL\nLv\nLv\nАг\n207\n702\nNATAL\n2)06\n108\n10\n110\nRIO\nDE JANEIRO\nLv\n123\n015\nRIO DE JANEIRO\nAr\n022\n. MONTEVIDEO\nLv\n. MONTEVIDEO\n016\n116\nLV.\nAr\n115\n017\n40\nLv.\nBUENOS AIRES\nLv\n(1)14\n30\nOFF SEASON: November 1 through March 31.\nON SEASON: April 1 through October 31.\nNew York departures from Idlewild Airport Connecting bus service from East Side Terminal-37th Street and First\nAvenue.\nFor additional data, literature, other information, please contact IBERIA Air Lines of Spain.\ni-Mondays\n-Tuesdays\n•-Wednesdays\n-Thursdays\n(5\n•Fridays\n- Saturdays\n-Sundays\nF-Ist Class Service\nT\n—Tourist Class Service\nMX-Compania Mexicana\nde Avacion\n—Bristol 170\n-DC-6\n-DC-4\n0-DC-3"
    ],
    "millsfield:images_texts_ids": [
      1527839331,
      1527847867
    ],
    "millsfield:primary_image": 1527839331,
    "millsfield:subcategory_id": 1511213425,
    "mz:hierarchy_label": 1,
    "mz:is_current": 1,
    "sfomuseum:accession_number": "2005.132.076.001",
    "sfomuseum:aircraft": "Lockheed L-1049 Super Constellation",
    "sfomuseum:aircraft_id": [
      811
    ],
    "sfomuseum:airline": "Iberia",
    "sfomuseum:airline_id": [
      468
    ],
    "sfomuseum:category": "Scheduling / Ticketing",
    "sfomuseum:classification_id": 158,
    "sfomuseum:collection": "Aviation Archive",
    "sfomuseum:creditline": "Gift of the William Hough Collection",
    "sfomuseum:date": "1954",
    "sfomuseum:date_acquired": "2006-12-05",
    "sfomuseum:daterange_end": "1954-12-31",
    "sfomuseum:daterange_start": "1954-01-01",
    "sfomuseum:description": "Timetable issued by Iberia, effective November 1, 1954; two page fold-out; white and red cover with illustration of a Lockheed L-1049E Super Constellation in flight and text, “Direct to Madrid / Spain / all Europe, Africa from New York”. ",
    "sfomuseum:dimensions": "9 x 4 inches (22.9 x 10.2 cm)",
    "sfomuseum:media_ids": [
      1527847867,
      1527839331
    ],
    "sfomuseum:medium": "paper, ink",
    "sfomuseum:object_id": 98495,
    "sfomuseum:placetype": "object",
    "sfomuseum:primary_media_id": 1527839331,
    "sfomuseum:publication": ": , 1954.",
    "sfomuseum:subcategory": "Timetable",
    "src:geom": "sfomuseum#undetermined",
    "wof:belongsto": [
      1511214223,
      102527513,
      102191575,
      85633793,
      1511213425,
      85922583,
      102087579,
      1511214277,
      1511214207,
      85688637
    ],
    "wof:breaches": [],
    "wof:country": "XX",
    "wof:created": 1579906672,
    "wof:depicts": [
      1159291139,
      1159284511,
      1159291141,
      1159293697
    ],
    "wof:geomhash": "30c8a918561c84bb2daa2b97fc7c5353",
    "wof:hierarchy": [
      {
        "arcade_id": 1511213425,
        "building_id": 1511214277,
        "campus_id": 102527513,
        "concourse_id": 1511214223,
        "continent_id": 102191575,
        "country_id": 85633793,
        "county_id": 102087579,
        "custom_id": 1511937915,
        "locality_id": 85922583,
        "neighbourhood_id": -1,
        "object_id": 1511937915,
        "region_id": 85688637,
        "venue_id": 1511937915,
        "wing_id": 1511214207
      }
    ],
    "wof:id": 1511937915,
    "wof:lastmodified": 1787988183,
    "wof:name": "timetable: Iberia, Lockheed L-1049E Super Constellation",
    "wof:parent_id": 1159162825,
    "wof:placetype": "custom",
    "wof:placetype_alt": [
      "object"
    ],
    "wof:repo": "sfomuseum-data-collection",
    "wof:superseded_by": [],
    "wof:supersedes": [],
    "wof:tags": []
  },
  "bbox": [
    -122.386155,
    37.616357,
    -122.386155,
    37.616357
  ],
  "geometry": {"type":"Point","coordinates":[-122.386155,37.616357]}
}
