{
  "id": 1511926909,
  "type": "Feature",
  "properties": {
    "date:cessation_lower": "1983-01-01",
    "date:cessation_upper": "1983-12-31",
    "date:inception_lower": "1983-01-01",
    "date:inception_upper": "1983-12-31",
    "edtf:cessation": "1983",
    "edtf:date": "197x",
    "edtf:inception": "1983",
    "geom:area": 0,
    "geom:bbox": "-122.386155,37.616357,-122.386155,37.616357",
    "geom:latitude": 37.616357,
    "geom:longitude": -122.386155,
    "iso:country": "XX",
    "millsfield:aircraft_id": [
      1159291259
    ],
    "millsfield:airline_id": [
      1159284737
    ],
    "millsfield:category_id": 1762671311,
    "millsfield:collection_id": 1511214207,
    "millsfield:company_id": [
      1159293561
    ],
    "millsfield:images": [
      1527850079,
      1527850081,
      1527850083
    ],
    "millsfield:images_colors_refs": {
      "crayola": [
        {
          "hex": "#2e5894"
        },
        {
          "hex": "#8fd400"
        },
        {
          "hex": "#cdc5c2"
        },
        {
          "hex": "#efcdb8"
        },
        {
          "hex": "#6699cc"
        },
        {
          "hex": "#9c7c38"
        },
        {
          "hex": "#c46210"
        },
        {
          "hex": "#000000"
        },
        {
          "hex": "#714b23"
        },
        {
          "hex": "#d68a59"
        }
      ],
      "css4": [
        {
          "hex": "#c0c0c0"
        },
        {
          "hex": "#daa520"
        },
        {
          "hex": "#5f9ea0"
        },
        {
          "hex": "#a0522d"
        },
        {
          "hex": "#4682b4"
        },
        {
          "hex": "#cd853f"
        },
        {
          "hex": "#556b2f"
        },
        {
          "hex": "#d3d3d3"
        },
        {
          "hex": "#000000"
        }
      ],
      "marekm4": [
        {
          "hex": "#27170a"
        },
        {
          "hex": "#a74c23"
        },
        {
          "hex": "#c1c2b9"
        },
        {
          "hex": "#d5cab6"
        },
        {
          "hex": "#bb552a"
        },
        {
          "hex": "#b1944f"
        },
        {
          "hex": "#292320"
        },
        {
          "hex": "#608fa9"
        },
        {
          "hex": "#aa5a15"
        },
        {
          "hex": "#403d19"
        },
        {
          "hex": "#cebe09"
        },
        {
          "hex": "#e1d3bf"
        },
        {
          "hex": "#2c63a8"
        },
        {
          "hex": "#c59a44"
        }
      ]
    },
    "millsfield:images_texts": [
      "maklumat keselamatan\nsafety information\nmas\nmalaysian airline system\nDC 10\nmas\nmalaysian airline system\n2\n3\nPintu kecemasan/Emergency exits\n308023 12/83",
      "Tali pinggang keselamatan anda\nKetika berangkat dan mendarat,\ntegakkan tempat duduk, pasangkan\ntali pinggang keselamatan dan jangan\nmerokok.\nYour seat belt\nOn take-off and landing, put your seat\nupright, fasten seat belt and do not\nsmoke.\nPintu kecemasan 1/Exit 1\nPintu kecemasan 2,3,4/Exit 2,3,4\n-\nKedudukan lekapbadan semasa\nkecemasan\nKetika kecemasan bongkokkan badan\ndan pegang pergelangan kaki.\nEmergency brace position\nIn an emergency landing bend body\nforward and grip ankles.\nJeket keselamatan/Life jackets\nJeket keselamatan terletak di bawah tempat duduk\nLife jackets are placed under the seats\nA\nU\nOD30\n0003",
      "Oksijen kecemasan\nPasang tali pinggang keselamatan dan jangan merokok.\nCorong oksijen akan keluar secara otomatik dari barisan\nkerusi, dihadapan atau dari atas.\nLekapkan corong di\nmulut dan hidung, lekatkan tali pengikat dikepala anda\ndan bernafas seperti biasa.\nEmergency oxygen\nFasten seat belt and no smoking. Oxygen masks will drop\nautomatically from seats in front or overhead. Place mask\nover mouth and nose, pull the elastic band over head and\nbreathe normally.\nCorong oksijen dari kerusi dihadapan.\nOxygen masks from seat back\nCorong oksijen dari atas.\nOxygen masks from ceiling.\nGelungsur/Pelampung keselamatan\nSlide/Raft.\n2065"
    ],
    "millsfield:images_texts_ids": [
      1527850079,
      1527850081,
      1527850083
    ],
    "millsfield:primary_image": 1527850079,
    "millsfield:subcategory_id": 1511213703,
    "mz:hierarchy_label": 1,
    "mz:is_current": 1,
    "sfomuseum:accession_number": "2005.133.319",
    "sfomuseum:aircraft": "McDonnell Douglas DC-10",
    "sfomuseum:aircraft_id": [
      864
    ],
    "sfomuseum:airline": "Malaysia Airline System (MAS)",
    "sfomuseum:airline_id": [
      571
    ],
    "sfomuseum:category": "Passenger Amenity, Archive",
    "sfomuseum:classification_id": 581,
    "sfomuseum:collection": "Aviation Archive",
    "sfomuseum:creditline": "Gift of the William Hough Collection",
    "sfomuseum:date": "1983",
    "sfomuseum:date_acquired": "2005-08-09",
    "sfomuseum:daterange_end": "1983-12-31",
    "sfomuseum:daterange_start": "1983-01-01",
    "sfomuseum:description": "Safety information card issued by Malaysian Airline System (MAS) for its McDonnell Douglas DC-10 fleet; double-sided bi-fold yellow card with illustrations and photographic images depicting inflight safety and emergency procedures; identification code: 308023; revision date: 12/83.",
    "sfomuseum:dimensions": "11 1/4 x 8 inches (28.6 x 20.3 cm)",
    "sfomuseum:media_ids": [
      1527850079,
      1527850083,
      1527850081
    ],
    "sfomuseum:medium": "paper, plastic, ink",
    "sfomuseum:object_id": 78935,
    "sfomuseum:placetype": "object",
    "sfomuseum:primary_media_id": 1527850079,
    "sfomuseum:publication": ": , 1983.",
    "sfomuseum:subcategory": "Safety Information Card",
    "src:geom": "sfomuseum#undetermined",
    "wof:belongsto": [
      1511214243,
      102527513,
      102191575,
      85633793,
      1511213703,
      85922583,
      102087579,
      1511214277,
      1511214203,
      85688637
    ],
    "wof:breaches": [],
    "wof:country": "XX",
    "wof:created": 1579906683,
    "wof:depicts": [
      1159288691,
      1159293083,
      1159291259,
      1159293561,
      1159284737
    ],
    "wof:geomhash": "30c8a918561c84bb2daa2b97fc7c5353",
    "wof:hierarchy": [
      {
        "arcade_id": 1511213703,
        "building_id": 1511214277,
        "campus_id": 102527513,
        "concourse_id": 1511214243,
        "continent_id": 102191575,
        "country_id": 85633793,
        "county_id": 102087579,
        "custom_id": 1511926909,
        "locality_id": 85922583,
        "neighbourhood_id": -1,
        "object_id": 1511926909,
        "region_id": 85688637,
        "venue_id": 1511926909,
        "wing_id": 1511214203
      }
    ],
    "wof:id": 1511926909,
    "wof:lastmodified": 1787988179,
    "wof:name": "safety information card: Malaysian Airline System (MAS), McDonnell Douglas DC-10",
    "wof:parent_id": 1159162825,
    "wof:placetype": "custom",
    "wof:placetype_alt": [
      "object"
    ],
    "wof:repo": "sfomuseum-data-collection",
    "wof:superseded_by": [],
    "wof:supersedes": [],
    "wof:tags": []
  },
  "bbox": [
    -122.386155,
    37.616357,
    -122.386155,
    37.616357
  ],
  "geometry": {"type":"Point","coordinates":[-122.386155,37.616357]}
}
