{
  "id": 1511928505,
  "type": "Feature",
  "properties": {
    "date:cessation_lower": "1965-01-01",
    "date:cessation_upper": "1965-12-31",
    "date:inception_lower": "1965-01-01",
    "date:inception_upper": "1965-12-31",
    "edtf:cessation": "1965~",
    "edtf:date": "1965~",
    "edtf:inception": "1965~",
    "geom:area": 0,
    "geom:bbox": "-122.386155,37.616357,-122.386155,37.616357",
    "geom:latitude": 37.616357,
    "geom:longitude": -122.386155,
    "iso:country": "XX",
    "millsfield:airline_id": [
      1159285825
    ],
    "millsfield:category_id": 1762671311,
    "millsfield:collection_id": 1511214207,
    "millsfield:company_id": [
      1159287479
    ],
    "millsfield:images": [
      1527846353,
      1527846355
    ],
    "millsfield:images_colors_refs": {
      "crayola": [
        {
          "hex": "#a5694f"
        },
        {
          "hex": "#414a4c"
        },
        {
          "hex": "#dbd7d2"
        },
        {
          "hex": "#cd9575"
        },
        {
          "hex": "#efdecd"
        }
      ],
      "css4": [
        {
          "hex": "#bc8f8f"
        },
        {
          "hex": "#d3d3d3"
        },
        {
          "hex": "#faebd7"
        },
        {
          "hex": "#2f4f4f"
        },
        {
          "hex": "#a0522d"
        }
      ],
      "marekm4": [
        {
          "hex": "#9a613e"
        },
        {
          "hex": "#bf8d6a"
        },
        {
          "hex": "#524841"
        },
        {
          "hex": "#dbdac5"
        },
        {
          "hex": "#a66d4a"
        },
        {
          "hex": "#f0e8cf"
        },
        {
          "hex": "#292527"
        }
      ]
    },
    "millsfield:images_texts": [
      "ASK THE FLIGHT STEWARD\nOR THE FLIGHT HOSTESS\nQANTAS\nAUSTRALIA'S ROUND-THE-WORLD AIRLINE",
      "Sterling\n2\n6\nHONOLULU - LONDON\nMEXICO - LONDON\nPrices listed are minimum allowed by International\nAir Transport Association in this Area.\nBAR PRICES\nAustralian\nCents\ning U.S.A.\nAustralian\nCents\nCents\ng U.S.A.\nCents\nSterling\nS.\nBEER\nAustralian\nBEER\nAustralian\nSmall Bottle\nand other\n18\n20\nSmall Bottle\nand other\n22\n25\n2\nCan\nBrands\nCan\nBrands\nCOCKTAILS\nCOCKTAILS\nChampagne Cocktail\nGlass\nOthers\nGlass\n50\n28\n60\n30\nChampagne Cocktail\nGlass\nOthers\nGlass\n50\n45\n60\n50\nLIQUEURS\nLIQUEURS\nChoice\nMins.\n45\n50\nChoice\nMins.\n45\n50\n3\n3\nWINES\nWINES\nSweet Vermouth\nMins.\n28\n30\nSweet Vermouth\nMins.\n30\n35\n4\n2\nDry Vermouth\nMins.\nDry Vermouth\nMins.\nSelected Australian Wines:\nSelected Australian Wines:\nRed or White\nGlass\nSherry\nMins.\nChampagne\nGlass\n25\n18\n50\n30\n20\n60\nRed or White\nGlass\nSherry\nMins.\nChampagne\nGlass\n30\n25\n50\n35\n30\n60\nLIQUORS\nLIQUORS\nScotch Whisky\nMins.\nScotch Whisky\nMins.\nCanadian Rye Whisky\nMins.\nCanadian Rye Whisky\nMins.\nBourbon Whisky\nMins.\nBrandy\nMins.\n28\n30\nBourbon Whisky\nMins.\n30\n35\n2\n9\nBrandy\nMins.\nGin\nMins.\nGin\nMins.\nVodka\nMins.\nVodka\nMins.\nBacardi Rum\nMins.\nBacardi Rum\nMins.\nCIGARETTES\nCIGARETTES\nEnglish\nTins\nPkts.\n20\nTins\n20\nAustralian\n20\nPkts.\n20\n22\nEnglish\n25\nAustralian\nPkts.\n20\n22\n25\nAmerican\nAmerican\nPkts.\n20\nLuxury Length\nPkts.\n20\nMINERALS\n25\n30\nLuxury Length\nPkts.\n• 20\n25\n30\nMINERALS\nGinger Ale\nGinger Ale\nSoda Water\nTonic Water\nComplimentary\nSoda Water\nTonic Water\nComplimentary\nCoca-Cola\nCoca-Cola\nMinerals, Liquors, Wines and Beer are Complimentary to First Class Passengers\nOwing to weight restrictions, a limited stock only of the items quoted are on board, so on occasions some may not be available.\nDrinks and cigarettes can be purchased in flight in accordance with Customs and Excise limitations. This service is not available whenever there is\nneed for seat belts to be fastened.\nSUGGESTED COCKTAILS\nEXECUTIVE MARTINI\nA really dry Martini for the masculine\npalate.\n*\nCHAMPAGNE (Qantas Special)\nAn appetiser specially formulated for the\ndiscerning Qantas traveller. Iced Cham-\npagne. Cognac.\nContreau (or Grand\nMarnier - if you prefer added to Sugar\nsaturated with Angostura Bitters. This\nyou must try.\nBOOMERANG\nA pleasant Vodka based refresher spiced\nwith Dry Vermouth, served icy cold.\nTASMANIAN DEVIL\nCreme de Menthe blended with Cognac\nover crushed ice, spiced with red pepper\nto awaken the taste buds.\nSUNDOWNER\nRelax with this delightful combination\nof Citrus Juices, Cognac and Contreau.\nBOBBY DAZZLER\nA round the world favourite - a fine\nbalance of Gin and Vodka with a hint of\nVermouth."
    ],
    "millsfield:images_texts_ids": [
      1527846353,
      1527846355
    ],
    "millsfield:primary_image": 1527846353,
    "millsfield:subcategory_id": 1511213567,
    "mz:hierarchy_label": 1,
    "mz:is_current": 1,
    "sfomuseum:accession_number": "2006.059.361",
    "sfomuseum:airline": "Qantas Empire Airways",
    "sfomuseum:airline_id": [
      1082
    ],
    "sfomuseum:category": "Passenger Amenity, Archive",
    "sfomuseum:classification_id": 242,
    "sfomuseum:collection": "Aviation Archive",
    "sfomuseum:creditline": "Gift of the Paul Edward Fair Estate",
    "sfomuseum:date": "c. 1965",
    "sfomuseum:date_acquired": "2006-10-19",
    "sfomuseum:daterange_end": "1970-12-31",
    "sfomuseum:daterange_start": "1960-01-01",
    "sfomuseum:description": "Beverage menu and price list issued by Qantas Airways, Honolulu or Mexico - London route; color illustration of bottles and glasses; includes prices for ties, scarves, and perfumes; no menu number; undated.",
    "sfomuseum:dimensions": "8 1/2 x 4 1/4 inches (21.6 x 10.8 cm)",
    "sfomuseum:media_ids": [
      1527846353,
      1527846355
    ],
    "sfomuseum:medium": "paper, ink",
    "sfomuseum:object_id": 81796,
    "sfomuseum:placetype": "object",
    "sfomuseum:primary_media_id": 1527846353,
    "sfomuseum:publication": ": , c. 1965.",
    "sfomuseum:subcategory": "Menu",
    "src:geom": "sfomuseum#undetermined",
    "wof:belongsto": [
      1159162825,
      102527513,
      102191575,
      85633793,
      85922583,
      102087579,
      1159160869,
      85688637
    ],
    "wof:breaches": [],
    "wof:country": "XX",
    "wof:created": 1579906666,
    "wof:depicts": [
      1159285043,
      1159285825,
      1159287479
    ],
    "wof:geomhash": "30c8a918561c84bb2daa2b97fc7c5353",
    "wof:hierarchy": [
      {
        "building_id": -1,
        "campus_id": 102527513,
        "concourse_id": 1159162825,
        "continent_id": 102191575,
        "country_id": 85633793,
        "county_id": 102087579,
        "custom_id": 1511928505,
        "locality_id": 85922583,
        "neighbourhood_id": -1,
        "object_id": 1511928505,
        "region_id": 85688637,
        "venue_id": 1511928505,
        "wing_id": 1159160869
      }
    ],
    "wof:id": 1511928505,
    "wof:lastmodified": 1787988180,
    "wof:name": "menu: Qantas Airways",
    "wof:parent_id": 1159162825,
    "wof:placetype": "custom",
    "wof:placetype_alt": [
      "object"
    ],
    "wof:repo": "sfomuseum-data-collection",
    "wof:superseded_by": [],
    "wof:supersedes": [],
    "wof:tags": []
  },
  "bbox": [
    -122.386155,
    37.616357,
    -122.386155,
    37.616357
  ],
  "geometry": {"type":"Point","coordinates":[-122.386155,37.616357]}
}
