{
  "id": 1913796289,
  "type": "Feature",
  "properties": {
    "date:cessation_lower": "1963-11-29",
    "date:cessation_upper": "1963-11-29",
    "date:inception_lower": "1963-11-29",
    "date:inception_upper": "1963-11-29",
    "edtf:cessation": "1963-11-29",
    "edtf:inception": "1963-11-29",
    "geom:area": 2.475047457570636e-7,
    "geom:bbox": "-122.386472,37.616105,-122.385834,37.616611",
    "geom:latitude": 37.61635747477365,
    "geom:longitude": -122.38615540108617,
    "millsfield:airline_id": [
      1159284989
    ],
    "millsfield:category_id": 1511214251,
    "millsfield:collection_id": 1511214207,
    "millsfield:company_id": [
      1159286839
    ],
    "millsfield:images": [
      1913796949,
      1913796951
    ],
    "millsfield:images_colors_refs": {
      "crayola": [
        {
          "hex": "#926eae"
        },
        {
          "hex": "#dbd7d2"
        },
        {
          "hex": "#efdecd"
        },
        {
          "hex": "#7366bd"
        }
      ],
      "css4": [
        {
          "hex": "#9370db"
        },
        {
          "hex": "#faebd7"
        },
        {
          "hex": "#dcdcdc"
        },
        {
          "hex": "#6a5acd"
        }
      ],
      "marekm4": [
        {
          "hex": "#e1d8d0"
        },
        {
          "hex": "#ebe4d6"
        },
        {
          "hex": "#7564b9"
        },
        {
          "hex": "#8878bf"
        },
        {
          "hex": "#6753bd"
        }
      ]
    },
    "millsfield:images_texts": [
      "FL)1, NOT. 29, 1963.\nWe took\noff from Pago Pago at 4 p. mo for the three hour flight to Nadi\n(prondunoed Nandi).\nreason for spelling these games one way and pronoun\noing them another is because the missioneries, in addition to saving souls,\nmere also interested in saving type when they published the Bible in various\nPolynesian languages.\nThe area of the Fill group of islands 1s something 11ke\n250,000 sq. miles.\nThe big island of V1t1 Leva, with Nadi on ite western end\nRD d\nSave on the esstern, 1s lerger than all the seven Havalian Islands put to-\ngether.\nAs we approsched the big laland we flew over a myriad of amall islands,\none\nhed\namong waich belonged to Harold Gatty and is still owned by big widow.\nhoped to viait 1t,\nplane\nbut it is 100 miles away, and there 1s presentiy no sea\nspond\navellable, and a\nboat charter would require more time than we care to\nsuch a project.\nThe 180th meridian, or International Date line, runs\nthrough the 1slands\nbut 1s east of the big island.\nI have crossed it a great\nmany times from the\ntrip out of Nome, Alaska, with Joe Crosson when we crossed\nthe Arotic Cirole and the date line at the same time, through the mid-Paollio\nand various points in the South Pacifio.\nI have some first flight covers which\ncarry a Canton Inland cancellation \"chop\n\" the day before they were postmarked\nTrOm Nouged.\nWith the modem jets that can now happen in a lot of pleoss.\nFrances, as some of you know, has had more birthdays than she 1a old beouse\nshe oressed the date line on\nher birthday and had two February 21sts.\nNadi 1s a beautiful airport built by Unele Sam during the war and improved\nas a fet port by the New Zealand goverament, with one paved runwey 10,000 180t\nWe stayed at a small moesi-type place near the airport with private\nbath and swimming pool. The first day we went shopping In the morning and to\nsee the shell colleotion of a man in the afternoon, and I might add all after-\n200D.\nHe couldn't have been kinder, but he wanted\nto talk shelle, and seldom\ndoes he get a chance to talk to anyone as knowledgeable es Dobby.\nThe next\nday, Thanksgiving Dey, Nov. 28, we Joined in an expeditien to another 1eland\ncalled Nalolo: Our skipper, a New Zealander, had been commlasioned by B111\nMullahay to inapect and purchase some whaling equipment which wes supposed to\nbe on Malolo:\nThe early Amerioan waalers spent a good deal of time in and out\nof these islands on their way to and from the hunts in South Paoific waters.\nB111 Fullahey,\nwho is a walking encyolopedia of the South Pacific, is trying\nto gather a 10% of whaling gear for an exhibit in Honolulus In this case;\nthe reported o0oking vat for the redaction of hale blubber turned out to\nbe\n• soap-making tub used by the natives.\nHowever; while the Captain and the\ntwo friends were eshore Debby and I, joined by a girl from Pan American, lound\na lot of good shells, many alive, under hunks or stone-11ke coral which we\ntumned over, Debby had the nasty job or cleaning them that siternoon•\nhe evening we went to another local hotel for Thanksgiving dinner with the\nPAA number one and hig wife, Mr. and Mrs. William Watson.\nIt was a fine\nbut no turkey (they oouldn't buy one) and some supposedly pumpkin ple;\nAnyway, it rhyued\nwith\nThis moraing, Friday Nov. 29, we took a Piper Cub, 8 amall single\nengined job, on a thirly minute flight to Kero Leva.\nWe flew over a 2000 It.\nmountein\nrange which divides this island into the \"arg\" and \"wet\"\nsides.\nThe\npilot polated out the line where\ndense jungle ends. 200% of annual rata fall\non the\n\"yet\" v3. 50\" on the \"dry\".\nP1f1 1s a Crown Colony having been deeded to the U. Ko by King Thekombau\nin 18740\nHe offered it to Uncle Sam,\n6OO,\nbut never got so answer.\nMaybe\nIt vas because about that time Rev.\nThones Baker and his fellow missionaries\nbad been killed and eaten by the cannibals on the island.\nSoon alter the\nBritiah take-over sugar growers could not get any Fillans to work in the\nfields or barvest the cane.\nThe natives felt then as they do now - what's the\nuse of working? They say we work hard to save enough money to stop working.",
      "= 2%\nThey take a short out to that desirable end result by not starting to word.\nThe sugar planters brought Eat Indiana in to work in the cane fields, and\nthey have multiplled 11ke rabbits until there are now about 200,000 Indiens\nand only 150,000 F1j18ns.\nThere 1s no inter marriage to apesk of, and 1t\nis only a guestion of time until the Indians take ovar unless the\nFijians go\nback to cannibalian.\nlittle land is owed. Most is bold in trust by the\nu. do for the Fijians.\nThey do not want a repetition of Honolulu where\nnatives had the land and the missionaries had religion, to start witho\nI. Me are due to leave this lovely place this aftemoon by the\nsame Tittle plane for Nadi.\nOur \"Bure\" or native but has a\nvery high polated thatobed\nWs hate to go mbare\" has only \u0026 aingle door and\nThe real\ndirt 11oor,\nwhile ours has windows, \u0026 mat-covered board floor and a tiled\nbathroom.\nAs in all British building, the structure was finished and then\nthe wiring, plumbings\nbathroom and closets were added.\nWe have only noticed\none marked improvement. that perohment-21ke toilet paper furnished by the\nGoring Hotel in London has been replaced by some of Mr. Scottis beats\nearth-ahaking concession on the part of the 87itish in these parts, news of\nwhich disloyalty to the crown I hope will not reach queen Elizabeth or ex-\nLord Home.\nAm going to mail this from Nadi and our next wall be after our \u0026 day oralse\non the\n\"Blue Iagoon\".\nAs ever.\nHarold."
    ],
    "millsfield:images_texts_ids": [
      1913796949,
      1913796951
    ],
    "millsfield:primary_image": 1913796949,
    "millsfield:subcategory_id": 1511213489,
    "mz:is_approximate": 1,
    "mz:is_current": 1,
    "sfomuseum:accession_number": "2019.121.1216 a b",
    "sfomuseum:airline": "Pan American World Airways",
    "sfomuseum:airline_id": [
      684
    ],
    "sfomuseum:category": "Employee Career History",
    "sfomuseum:classification_id": 195,
    "sfomuseum:collection": "Aviation Archive",
    "sfomuseum:creditline": "Collection of SFO Museum",
    "sfomuseum:date": "11/29/1963-12/01/1963",
    "sfomuseum:date_acquired": "2019-11-22",
    "sfomuseum:daterange_end": "1963-12-01",
    "sfomuseum:daterange_start": "1963-11-29",
    "sfomuseum:description": "Typewritten letter from Harold M. Bixby to his family, dated November 29 to December 1, 1963, in Nadi, Fiji; includes description of Nadi and island travel; mentions flying on Piper Cub; mentions Bill Mullahey, William Watson.",
    "sfomuseum:dimensions": "11 x 8 1/2 inches (27.9 x 21.6 cm)",
    "sfomuseum:medium": "paper, ink",
    "sfomuseum:object_id": 211847,
    "sfomuseum:placetype": "object",
    "sfomuseum:publication": ": , 11/29/1963-12/01/1963.",
    "sfomuseum:subcategory": "Correspondence, Personal",
    "src:geom": "sfomuseum#undetermined",
    "wof:belongsto": [
      102527513,
      1159162825,
      102191575,
      85633793,
      102087579,
      85922583,
      85688637,
      1159160869
    ],
    "wof:country": "XY",
    "wof:created": 1714549048,
    "wof:depicts": [
      1159284989,
      1159286839
    ],
    "wof:geomhash": "c281b9d9eefc83b5710e64b9d646067d",
    "wof:hierarchy": [
      {
        "building_id": -1,
        "campus_id": 102527513,
        "collection_id": 1159162825,
        "concourse_id": 1159162825,
        "continent_id": 102191575,
        "country_id": 85633793,
        "county_id": 102087579,
        "custom_id": 1913796289,
        "locality_id": 85922583,
        "neighbourhood_id": -1,
        "object_id": 1913796289,
        "region_id": 85688637,
        "wing_id": 1159160869
      }
    ],
    "wof:id": 1913796289,
    "wof:lastmodified": 1787988220,
    "wof:name": "correspondence: Harold M. Bixby, family circular letter",
    "wof:parent_id": 1159162825,
    "wof:placetype": "custom",
    "wof:placetype_alt": [
      "object"
    ],
    "wof:repo": "sfomuseum-data-collection",
    "wof:superseded_by": [],
    "wof:supersedes": []
  },
  "bbox": [
    -122.38647222518921,
    37.6161053594541,
    -122.38583385944366,
    37.61661101879963
  ],
  "geometry": {"type":"Polygon","coordinates":[[[-122.38647222518921,37.61631782178288],[-122.386434674263,37.61623283692423],[-122.38637566566466,37.61617759671399],[-122.38630056381224,37.6161308549656],[-122.38616108894348,37.6161053594541],[-122.38602161407469,37.6161308549656],[-122.38591432571411,37.61618609521055],[-122.38585531711577,37.61626683087935],[-122.38583385944366,37.61636881265146],[-122.38587141036987,37.61646654505181],[-122.38594114780425,37.61654303118856],[-122.38605380058287,37.61660252035167],[-122.38618254661559,37.61661101879963],[-122.3863059282303,37.61657277577607],[-122.3864185810089,37.61650903735973],[-122.3864668607712,37.61641130501523],[-122.38647222518921,37.61631782178288]]]}
}
