{
  "id": 1913795699,
  "type": "Feature",
  "properties": {
    "date:cessation_lower": "1933-06-26",
    "date:cessation_upper": "1933-06-26",
    "date:inception_lower": "1933-06-26",
    "date:inception_upper": "1933-06-26",
    "edtf:cessation": "1933-06-26",
    "edtf:inception": "1933-06-26",
    "geom:area": 2.475047457570636e-7,
    "geom:bbox": "-122.386472,37.616105,-122.385834,37.616611",
    "geom:latitude": 37.61635747477365,
    "geom:longitude": -122.38615540108617,
    "millsfield:airline_id": [
      1159284991,
      1159285931
    ],
    "millsfield:category_id": 1511214251,
    "millsfield:collection_id": 1511214207,
    "millsfield:company_id": [
      1159286721
    ],
    "millsfield:images": [
      1913800615,
      1913800619,
      1913800621,
      1913800623,
      1913800625,
      1913800627,
      1913800629,
      1913800631
    ],
    "millsfield:images_colors_refs": {
      "crayola": [
        {
          "hex": "#edd19c"
        },
        {
          "hex": "#eceabe"
        },
        {
          "hex": "#9f8170"
        },
        {
          "hex": "#4a646c"
        },
        {
          "hex": "#757575"
        },
        {
          "hex": "#414a4c"
        },
        {
          "hex": "#95918c"
        },
        {
          "hex": "#efcdb8"
        }
      ],
      "css4": [
        {
          "hex": "#f5deb3"
        },
        {
          "hex": "#808080"
        },
        {
          "hex": "#696969"
        },
        {
          "hex": "#2f4f4f"
        }
      ],
      "marekm4": [
        {
          "hex": "#4a565b"
        },
        {
          "hex": "#9c9372"
        },
        {
          "hex": "#e3d3a9"
        },
        {
          "hex": "#949276"
        },
        {
          "hex": "#e3d3ac"
        },
        {
          "hex": "#e3d2a9"
        },
        {
          "hex": "#e4d3aa"
        },
        {
          "hex": "#434c4c"
        },
        {
          "hex": "#e3d4ac"
        },
        {
          "hex": "#4c5a5d"
        },
        {
          "hex": "#979475"
        },
        {
          "hex": "#969377"
        },
        {
          "hex": "#969275"
        },
        {
          "hex": "#e8dcbe"
        },
        {
          "hex": "#546568"
        },
        {
          "hex": "#636c62"
        },
        {
          "hex": "#4d5a5c"
        },
        {
          "hex": "#e2d3ac"
        },
        {
          "hex": "#919178"
        },
        {
          "hex": "#959376"
        },
        {
          "hex": "#5a6a6a"
        },
        {
          "hex": "#e4d4ad"
        },
        {
          "hex": "#4e5958"
        }
      ]
    },
    "millsfield:images_texts": [
      "ATHA HOTE\n33\nMETROPOLE HOTEL\nSHANGHAI, CHINA.\nMon day\n6/26\nDearEst Debs.\nToday brought six\ngrand letters from you\nines from may 3i to\njune.\n- the lactre\narruring 2o dayo afte\nyou malid it is a\nrecord - only that long\nFor Bolton to Shangha\nand o coned th pact\nof the way too!\nOh Deba\nit takes lots of courage\nto Carry on sometimes\ndoro nt it! But anywa\ntonight Im happy. Had",
      "a hactic dan - with\nno time to read your\nlettis so brought them\nback to the hotre - took\na bath - (its go in the\nshade a humidit, is 88-\nyour clottis mildue over\nnight) and had some\nshreaded wheat biscuits\nfor dinner - since than\nI've been sitting reading\nyour letts with a big\nsmile of complet\nContentment on what\nyou will rememb is\na spacious mouth.\nYou are so nice about\nwriting dearist and your\nlettis help a lot. Wire nt\n2019.121,0665a",
      "METROPOLE HOTEL\nSHANGHAI, CHINA.\nyou euts to sand that\nmaple Syup - gurgn\nsaid it was honey.\nHe was so sort of like\nPenn and Bre's letter\nwhich was awfull,\ntouching - he said\nthat you told him\nnot to bother wick it\nand mus grozge said\n\"he would hai brought\nit if he had to throu\nout all his clothes.\nand grough said you\nbedt\nI vould.",
      "Debo 9'ir made notes\nOn your letters and\nher goes for raped\nfur comments-\n1 Strok was crazy to\nstart a rout wik Bie\nS. and at least it colle\npror our contration that\nall did sriral mon\nwake - watch a ser\nwhat happens to the\nboat. and Cars.\n2.\nSint And fuce sit\nof grenut day stamps.\n3. Hair utten you\nalmost Erry day- some\nlettes must har gone\nastray.\ni. Neer of morgan to\nwrits - he promised to lit\nyou know where 9 am\nonce in a\nwhile.\n2019.121.0665 b",
      "METROPOLE HOTEL\nSHANGHAI, CHINA.\n5.\nCabled 19,3 at Amherst\nLoge you heard aboat\nit -\nfor then you ee\nknows where I am\n6. Lorra Bos 3 pira eeta.\nshe wrote me one fairly\nquirring with Excitiment\nour Frances honor. Cute\nOld F neir mentioned\nit in her lette to me\nbut told all abort Bos\natkletic trumpho\n7. Wie get Chines figures\nfor you\neupboard.\n8. Am sunding Bo a\ncollection\nof bluc\nhaks which I thaik\nshe will ador. for\nmonths tir longed to",
      "buy a set in the Cathan\nwhich wars preced at ho-\nbut it srimed too Extravagant\nThe othn day walking ly\na little stars in the\n\"threes market\" I saw a\nset and got ins thou\nChines number one\noffee man to bus it\nHe tacked them down\n- to #800 her and I har\nalready sint thim. The,\ndepiet the\nanties of\na famous\nChiness\ngrierals mount as\nDamous as Tom Mies\nTony:\nSm sure Bo\nwill for them and\nWhen 9 see something\nFrana wored like as\nmuch will sind it to her.\n209121",
      "METROPOLE HOTEL\nSHANGHAI, CHINA\nI preed a tred prare\nnecklace but it was*75\nand not pretty at all.\n9. wie sund Chops\nto MARY, KITTY, LEAH\nOLIVER. DEBBY, FRANCES\nAND BO. Think D'ee And\nthem all to you for\nforwarding.\n10.\nAbout threen Darey.\nI'm afraid 9 est miss\nForbs talk me into\ntkon Mandarin\ncoats\nIf you dont like them\nplean sand one to telen\nDana\nand one to mis\nLane - the latter askid",
      "me to bun one for\nher. Mat of the goe\nhere hair the mandarm\nlined wich white rabbit\nto match\nwith collar, to coon the\nstains.\n11. Hope me material\npurchase for the dragno\nfor your new luring room\nлис\nbe mour succinfe.\n12 glad dear old\nmk us on.\n13. Ands lettu wa.\naufully nich - hes a\nreac\nfelow - so is Caddy.\nyou in\nLead neur worry\nabout whine than two\nstand when you're in\na jam.\n14. O lord Hers letter\nd anorker oretar of a gure\nwick sleerles dres\n209/21.06650"
    ],
    "millsfield:images_texts_ids": [
      1913800615,
      1913800619,
      1913800621,
      1913800623,
      1913800625,
      1913800627,
      1913800629,
      1913800631
    ],
    "millsfield:primary_image": 1913800615,
    "millsfield:subcategory_id": 1511213489,
    "mz:is_approximate": 1,
    "mz:is_current": 1,
    "sfomuseum:accession_number": "2019.121.0665 a d",
    "sfomuseum:airline": "Pan American Airways",
    "sfomuseum:airline_id": [
      685,
      1131
    ],
    "sfomuseum:category": "Employee Career History",
    "sfomuseum:classification_id": 195,
    "sfomuseum:collection": "Aviation Archive",
    "sfomuseum:creditline": "Collection of SFO Museum",
    "sfomuseum:date": "06/26/1933",
    "sfomuseum:date_acquired": "2019-11-22",
    "sfomuseum:daterange_end": "1933-06-26",
    "sfomuseum:daterange_start": "1933-06-26",
    "sfomuseum:description": "Handwritten letter from Harold M. Bixby to his wife, Debby Bixby, dated Monday, June 26, [1933], on stationery from the Metropole Hotel in Shanghai; mentions [Paul] Groeger.",
    "sfomuseum:dimensions": "7 1/2 x 5 inches (19.1 x 12.7 cm)",
    "sfomuseum:medium": "paper, ink",
    "sfomuseum:object_id": 211003,
    "sfomuseum:placetype": "object",
    "sfomuseum:publication": ": , 06/26/1933.",
    "sfomuseum:subcategory": "Correspondence, Personal",
    "src:geom": "sfomuseum#undetermined",
    "wof:belongsto": [
      102527513,
      1159162825,
      102191575,
      85633793,
      102087579,
      85922583,
      85688637,
      1159160869
    ],
    "wof:country": "XY",
    "wof:created": 1714548868,
    "wof:depicts": [
      1159286721,
      1159284991,
      1159285931
    ],
    "wof:geomhash": "c281b9d9eefc83b5710e64b9d646067d",
    "wof:hierarchy": [
      {
        "building_id": -1,
        "campus_id": 102527513,
        "collection_id": 1159162825,
        "concourse_id": 1159162825,
        "continent_id": 102191575,
        "country_id": 85633793,
        "county_id": 102087579,
        "custom_id": 1913795699,
        "locality_id": 85922583,
        "neighbourhood_id": -1,
        "object_id": 1913795699,
        "region_id": 85688637,
        "wing_id": 1159160869
      }
    ],
    "wof:id": 1913795699,
    "wof:lastmodified": 1787988219,
    "wof:name": "correspondence: Harold M. Bixby to Debby Bixby",
    "wof:parent_id": 1159162825,
    "wof:placetype": "custom",
    "wof:placetype_alt": [
      "object"
    ],
    "wof:repo": "sfomuseum-data-collection",
    "wof:superseded_by": [],
    "wof:supersedes": []
  },
  "bbox": [
    -122.38647222518921,
    37.6161053594541,
    -122.38583385944366,
    37.61661101879963
  ],
  "geometry": {"type":"Polygon","coordinates":[[[-122.38647222518921,37.61631782178288],[-122.386434674263,37.61623283692423],[-122.38637566566466,37.61617759671399],[-122.38630056381224,37.6161308549656],[-122.38616108894348,37.6161053594541],[-122.38602161407469,37.6161308549656],[-122.38591432571411,37.61618609521055],[-122.38585531711577,37.61626683087935],[-122.38583385944366,37.61636881265146],[-122.38587141036987,37.61646654505181],[-122.38594114780425,37.61654303118856],[-122.38605380058287,37.61660252035167],[-122.38618254661559,37.61661101879963],[-122.3863059282303,37.61657277577607],[-122.3864185810089,37.61650903735973],[-122.3864668607712,37.61641130501523],[-122.38647222518921,37.61631782178288]]]}
}
