{
  "id": 1914555593,
  "type": "Feature",
  "properties": {
    "date:cessation_lower": "1975-01-01",
    "date:cessation_upper": "1975-12-31",
    "date:inception_lower": "1975-01-01",
    "date:inception_upper": "1975-12-31",
    "edtf:cessation": "1975",
    "edtf:inception": "1975",
    "geom:area": 2.475047457570636e-7,
    "geom:bbox": "-122.386472,37.616105,-122.385834,37.616611",
    "geom:latitude": 37.61635747477365,
    "geom:longitude": -122.38615540108617,
    "millsfield:aircraft_id": [
      1159289759
    ],
    "millsfield:airline_id": [
      1159284309
    ],
    "millsfield:category_id": 1762671311,
    "millsfield:collection_id": 1511214207,
    "millsfield:company_id": [
      1159293593
    ],
    "millsfield:images": [
      1914556651,
      1914556655
    ],
    "millsfield:images_colors_refs": {
      "crayola": [
        {
          "hex": "#c54b8c"
        },
        {
          "hex": "#cdc5c2"
        },
        {
          "hex": "#c8385a"
        },
        {
          "hex": "#9c2542"
        }
      ],
      "css4": [
        {
          "hex": "#a52a2a"
        },
        {
          "hex": "#db7093"
        },
        {
          "hex": "#d8bfd8"
        }
      ],
      "marekm4": [
        {
          "hex": "#a81448"
        },
        {
          "hex": "#b76589"
        },
        {
          "hex": "#c9c5d2"
        },
        {
          "hex": "#af2c59"
        },
        {
          "hex": "#b76389"
        },
        {
          "hex": "#c9c5d3"
        }
      ]
    },
    "millsfield:images_texts": [
      "B 727-200 SERIES\nEmergency Information\nEASTERN\nInformación de Emergencia\nRenseignements pour les cas d'urgence\nThere is little likelihood we will encounter a situation requiring emergency preparations but it is a\ngood practice to be acquainted with the safety features we have provided for you on this airplane.\nHay pocas probabilidades de que nos encontremos en una situación que requiera prepara-\ntivos de emergencia. No obstante, queremos familiarizarlo con los dispositivos de seguridad\nque, para su protección, hemos instalado en este avión.\nIl est peu probable qu'il se présente une situation nécessitant des mesures d'urgence, mais il est\nbon de prendre connaissance des moyens de sécurité que nous avons prévus pour vous à bord.\nEMERGENCY EXITS\nSALIDAS DE EMERGENCIA\nSORTIES DE SECOURS\n000000000090000000008\n000000000000000000000/\nDOOR EXITS\nSALIDA POR LAS PUERTAS\nPORTES DE SORTIES\n00000000000000\n00000000000000\nWINDOW EXITS\nSALIDA POR LAS VENTANAS\nFENETRES DE SORTIES\nJTAIL EXIT\nSALIDA POR\nLA COLA\nSORTIE ARRIERE\nDOOR EXITS\nSALIDA POR LAS PUERTAS\nPORTES DE SORTIES\nDOOR EXIT\nSALIDA POR LA PUERTA\nPORTE DE SORTIE\nTAIL EXIT\nSALIDA POR LA COLA\nSORTIE ARRIERE\nWINDOW EXIT\nSALIDA POR LA VENTANA\nFENETRE DE SORTIE\n000\nEXIT\nCLO\nPLEASE SEE REVERSE SIDE\nPOR FAVOR, VEA EL REVERSO\nPRIERE DE VOIR AU VERSO",
      "BRACING POSITION\nPOSICION DE ACODARSE\nPOSITION DE PROTECTION\nLIFE RAFTS\nBALSAS\nRADEAUX DE\nSAUVETAGE\nEVACUATION SLIDE\nDESLIZADOR DE EVACUACION\nMANCHE\nD'EVACUATION\nOR\nLocation\nSituación\nEmplacement\nLIFE PRESERVER\nSALVAVIDAS\nGILET DE SAUVETAGE\nOXYGEN\nOXIGENO\nOXYGENE\nOxygen compartment will open automatically, if needed\nEn caso de necesidad, el compartimiento de oxigeno\nse abrirá automaticamente\nEn cas de besoin, le compartiment d'oxygéne s'ouvre\nautomatiquement.\nNO SMOKING\nWhen the \"NO SMOKING\" sign\nis off,\nyou may smoke while\nseated in the\nsmoking sections\nof the cabin. Whenever the \"NO\nSMOKING\"•\nsign is lighted,\nhowever,\nall smokes are to be\nextinguished.\nSEATS\nAll seat backs must be in the\nupright position during\ntakeoff\nand landing.\nSEAT BELTS\nMove around as much as you\nlike in the cabin while the seat\nbelt sign is off. We suggest, how-\never,\nthat you keep\nyour seat\nbelt fastened while in your seat.\nOf course, seat belts\nmust\nbe\nfastened any time the seat belt\nsign Is on.\nSE PROHIBE FUMAR\nCuando la señal \"'SE PROHIBE FUMAR\"\nesté apagada, usted puede fumar mientras\nesté sentado en las secciones para fumar\nde la cabina.\nSin embargo, cada vez que\nla\nseñal\n\"SE\nPROHIBE FUMAR\"\nse\nencienda,\nusted deberá apagar lo que\nesté fumando.\nASIENTOS\nTodos los espaldares de los asientos\ndeben de estar en posición vertical durante\nel despegue y el aterrizaje.\nCINTURONES DE SEGURIDAD\nUsted puede andar libremente por la\ncabina\nsiempre\nque la\nsenal para los\ncinturones\nde\nseguridad esté apagada.\nSin embargo,\nle aconsejamos que man-\ntenga el cinturón de seguridad abrochado\nmientras esté sentado.\nPor supuesto, los\ncinturones\ndeben\nser\nabrochados\nen\ncualquier momento en que se encienda\nla señal.\nPLEASE DO NOT REMOVE THIS CARD FROM THE AIRCRAFT\nPOR FAVOR, NO SE LLEVE ESTA TARJETA DEL AVION\nPRIERE DE LAISSER LA PRESENTE CARTE A BORD DE L'AVION\nNE PAS FUMER\nLorsque le signal \"NE PAS FUMER\" est\néteint, vous pouvez fumer tant que vous\noccupez un siege dans une des parties\nde la cabine ou les tumeurs sont admis.\nToutefois,\ndes que le signal\n\"NE PAS\nFUMER\" s'allume, veuillez éteindre ciga-\nrettes, pipes ou cigares.\nSIEGES\nTous les dossiers de siege doivent etre\nen position verticale pendant le décollage\net l'atterrissage.\nCEINTURES\nVous pouvez vous déplacer a votre guise\ndans la cabine tant que le signal \"CEINT-\nURES\" est éteint. Nous vous suggérons\ntoutefois de garder votre ceinture bouclée\nquand vous occupez votre siége. Bien\nentendu, il faut que les ceintures soient\nbouclées a\ntout moment ou le signal\n\"CEINTURES\" est allumé.\nPLEASE SEE REVERSE SIDE\n14-CC-1720 OPR-252 REV. 4/75\nPOR FAVOR, VEA EL REVERSO\nPRIERE DE VOIR AU VERSO"
    ],
    "millsfield:images_texts_ids": [
      1914556651,
      1914556655
    ],
    "millsfield:primary_image": 1914556651,
    "millsfield:subcategory_id": 1511213703,
    "mz:is_approximate": 1,
    "mz:is_current": 1,
    "sfomuseum:accession_number": "2002.127.273",
    "sfomuseum:aircraft": "Boeing 727",
    "sfomuseum:aircraft_id": [
      180
    ],
    "sfomuseum:airline": "Eastern Air Lines",
    "sfomuseum:airline_id": [
      376
    ],
    "sfomuseum:category": "Passenger Amenity, Archive",
    "sfomuseum:classification_id": 581,
    "sfomuseum:collection": "Aviation Archive",
    "sfomuseum:creditline": "Gift of Thomas G. Dragges",
    "sfomuseum:date": "1975",
    "sfomuseum:date_acquired": "2003-12-22",
    "sfomuseum:daterange_end": "1975-12-31",
    "sfomuseum:daterange_start": "1975-01-01",
    "sfomuseum:description": "Safety information card issued by Eastern Air Lines for its Boeing 727 fleet; double-sided card with illustrations demonstrating inflight safety and emergency procedures; identification code: 14-CC-1732 OPR-252; revision date: 4/75.",
    "sfomuseum:dimensions": "10 x 6 inches (25.4 x 15.2 cm)",
    "sfomuseum:medium": "plastic, ink",
    "sfomuseum:object_id": 68843,
    "sfomuseum:placetype": "object",
    "sfomuseum:publication": ": , 1975.",
    "sfomuseum:subcategory": "Safety Information Card",
    "src:geom": "sfomuseum#undetermined",
    "wof:belongsto": [
      102527513,
      1159162825,
      102191575,
      85633793,
      102087579,
      85922583,
      85688637,
      1159160869
    ],
    "wof:country": "XY",
    "wof:created": 1720459751,
    "wof:depicts": [
      1159284309,
      1159289759,
      1159293593
    ],
    "wof:geomhash": "c281b9d9eefc83b5710e64b9d646067d",
    "wof:hierarchy": [
      {
        "building_id": -1,
        "campus_id": 102527513,
        "collection_id": 1159162825,
        "concourse_id": 1159162825,
        "continent_id": 102191575,
        "country_id": 85633793,
        "county_id": 102087579,
        "custom_id": 1914555593,
        "locality_id": 85922583,
        "neighbourhood_id": -1,
        "object_id": 1914555593,
        "region_id": 85688637,
        "wing_id": 1159160869
      }
    ],
    "wof:id": 1914555593,
    "wof:lastmodified": 1787988221,
    "wof:name": "safety information card: Eastern Air Lines, Boeing 727",
    "wof:parent_id": 1159162825,
    "wof:placetype": "custom",
    "wof:placetype_alt": [
      "object"
    ],
    "wof:repo": "sfomuseum-data-collection",
    "wof:superseded_by": [],
    "wof:supersedes": []
  },
  "bbox": [
    -122.38647222518921,
    37.6161053594541,
    -122.38583385944366,
    37.61661101879963
  ],
  "geometry": {"type":"Polygon","coordinates":[[[-122.38647222518921,37.61631782178288],[-122.386434674263,37.61623283692423],[-122.38637566566466,37.61617759671399],[-122.38630056381224,37.6161308549656],[-122.38616108894348,37.6161053594541],[-122.38602161407469,37.6161308549656],[-122.38591432571411,37.61618609521055],[-122.38585531711577,37.61626683087935],[-122.38583385944366,37.61636881265146],[-122.38587141036987,37.61646654505181],[-122.38594114780425,37.61654303118856],[-122.38605380058287,37.61660252035167],[-122.38618254661559,37.61661101879963],[-122.3863059282303,37.61657277577607],[-122.3864185810089,37.61650903735973],[-122.3864668607712,37.61641130501523],[-122.38647222518921,37.61631782178288]]]}
}
