{
  "id": 1913795993,
  "type": "Feature",
  "properties": {
    "date:cessation_lower": "1937-10-07",
    "date:cessation_upper": "1937-10-07",
    "date:inception_lower": "1937-10-07",
    "date:inception_upper": "1937-10-07",
    "edtf:cessation": "1937-10-07",
    "edtf:inception": "1937-10-07",
    "geom:area": 2.475047457570636e-7,
    "geom:bbox": "-122.386472,37.616105,-122.385834,37.616611",
    "geom:latitude": 37.61635747477365,
    "geom:longitude": -122.38615540108617,
    "millsfield:airline_id": [
      1159284991
    ],
    "millsfield:category_id": 1511214251,
    "millsfield:collection_id": 1511214207,
    "millsfield:company_id": [
      1159286839
    ],
    "millsfield:images": [
      1913799959,
      1913799961
    ],
    "millsfield:images_colors_refs": {
      "crayola": [
        {
          "hex": "#414a4c"
        },
        {
          "hex": "#9f8170"
        },
        {
          "hex": "#eceabe"
        },
        {
          "hex": "#efcdb8"
        }
      ],
      "css4": [
        {
          "hex": "#556b2f"
        },
        {
          "hex": "#808080"
        },
        {
          "hex": "#f5deb3"
        }
      ],
      "marekm4": [
        {
          "hex": "#e5dab7"
        },
        {
          "hex": "#968f71"
        },
        {
          "hex": "#514e37"
        },
        {
          "hex": "#97906f"
        },
        {
          "hex": "#e7ddbd"
        },
        {
          "hex": "#504e38"
        }
      ]
    },
    "millsfield:images_texts": [
      "PAAN\nPAN AMERICAN AIRWAYS\nCOMPANY\nGENERAL OFFICE\nFirsonal and\nALAMEDA\n- CALIFORNIA\nConfidentice\nOctober 7, 1937\nDISTRICT TRAFFIC OFFICE\nMANILA HOTEL\nMANILA, P. I.\nDear Mr. Morgan\nand\nI have just returned from Hongkong, am taking this\nonly opportunity to rush off a short letter to you via Clipper\nleaving tonight in order to give you some of the background\nwhich\nmay assist you in understanding cabled recommendations which otherwise\nmight be wholly non-understandable.\nWe have been diligently searching for some method\nwhich offers some hope of salvage for PAA in our Chinese effort. Such\nan operation must have the advantage of not weakening our present sit-\nuation respecting possible claims against the Government of China (if\nthere be any such entity when the war is over) and yet represent what the\nChinese may call a constructive program.\nIn Hongkong I met Bond, Lum and P.I. Wong.\nThe Managing\nDirector ( Lum) has clearly been\n• told to get our cooperation for he fairly\ncrawled and presented a truly pathetic spectacle in face of his former\nswash buckling attitude, He said quite\nback\".\nin terrible condition,\npublic is losing confidence.\nOne Chinese pilot\n, their best one Donald\nWong) has lost so much confidence and was so badly treated by his own\npeople that he went AWOL and is now on his way to the U,S. Other Chinese\npilots are getting fedup with the Chinese management,\nThe Company needs\n• new motors\nand most of\ndie Prestige rech went eagedated) of a Connection with American\nall they need\noperating personnel. They are ready tomake any reasonable compromise to\nsecure our cooperation.\nUnder the circumstances Bond and I feel that we may be\nable to get a definite \"fix\" on the liability of the Government to the American\nshareholders and at the same time set the stage for a come back in the\nevent that the Chinese should come out of the present struggle with at\nleast a part of their country left andready for reconstruction.\nAny discussion\nof renewing our participation should be subject to the following conditions\n1. Agreement by the Chinese Govt that the Company will be run on a strictly\ncommercial basis and that the moment it is not the whole American personnel\nwill be withdrawn.\n2. Recognition of the commereial status of CNAC as a\njoint commercial venture by the U.S. govt or if that is not possible then\nimplied recognition through notice from us to the U.Sthat we are going to resun\nactive association\nwith the Chinese in the operation of the Company with noti\nmatic also to the Japanese that such operation will be take n up and that we are\nengaged in the operation of civil aircraft, away from the fighting zones\ncarrying mail, passengers and non- military express. (We should paint all\nour airplanes the Post Office green and clearly mark them. 3. An agree-\nment on the part of the Govt to extend the present contract 15 years. 4. Pay-\nment by CNAC of the balance of its indebtedness to PAA including $ 25,000 U.S.\nfor the Dolphin. 5. CNAC to agree to take over Route 3 at a figure to\nbe named\nnow and not subject to any trading whatever, this figure to be considerably\nunder the actual amount invested by PAA.\nIne sum of $400,000 U.S. is suggested\n* No injures.\nPAN\nSpartan\nOne Dc - 2\nAIR W\nwhuch\n5 - 1 3 5\nwar\n2 Fords\nSENERAL.\ngurn to\nI Loning! St\nStinson\nend the\nCNAC\nfor\nsaving it:\"",
      "PAA\nPAN AMERICAN AI\nPA\nNY\nGENERAL OFFICE\nALAMEDA - CALIFORNIA\nDISTRICT TRAFFIC OFFICE\nMANILA HOTEL\nMANILA, P. I.\nbased upon an investment by us (without s-43) of roughly $ 550,000.\n6. Replacement of CNAC assets by the Govt to a\npoint approximately the same either in cash or equipment as enjoyed by the\ncompany on July 31st 1937. Another requiremenyt might be an increase\nin capital through waiver\nby both the American partners and the Ministry\nof rights to subscribe additional stock\nChinese private party might be willing torticipate and the take to third\nThis scheme would of course contemplate the\nresumption of negotiations with I,V, Soong and his group. aft the warn our.\nIt is realized that this program is almost a forlorn hope\nand may be quite impossible of accomplishment but if you are at all interested\nwe shall be glad to see what can be done\nThe M.D. is especially anxious\nto get me to come to Nanking for a discussion with the Ministry of Com.\ntold him that such a program must be based on a reestablishment of the good\nfaith which formerly characteized our relations and that step No.l would be\nthe strict carrying out of the deal which we made regarding payment of the\n$ 100,000 for the release of the DC-2\nHe promised that this payment\nwould be made the moment the DC-2 arrived at Hankow. and he in turn was\nassurerd that such a payment would constitute evidence of reconciliation\nThe M.D. claims that eevenue for the month of September\nwas over $ 135,000 and that it should be possible to build CNAC back up\npassenger\nI can procede to Hankow without any real danger and then go\nfrom there to Nanking on a British boat for a conference with Nelson Johnson\nand the Ministry of Communications.\nThe prospects Bf working out something\nconstructive, no matter how improbable of accomplishment would seem to\nwarrant the expense of such a trip and I am entirely willing to go as the\nrisk is very small.\nplike to\nThe M.D. would like to buy both Commodores and operate them\nwith the Dolphin between Ichang and Nanking. From Ichang he would operate\nbe flown by Harry Smith,\nSweet (both of whom are now flying for CNAE)\nand one other pilot\nBond would act as Operations\nManager and he wold\nhave to be assurred of a free hand in the management.\nWilke and Larsen, both\nold timers with the ground\nend of CNAC would rejoin the company.\nBond, Lum and Wong all left this morning in the DC-2 with\nHarry Smith for Hankow,\nBond and the M D may go on to Nanking for a prelim-\ninary talk with the M of C regarding the basis of our re-association •\nAs previously stated this program is a bit visionary but it promises\ntangible immediate and prospective returns on Paa investment than any\nclaim that we might eventually establish against an unfriendly and con-\ntentious Chinese Government.\nThis letter is written on a strange machine in our traffic\nwhile a party of drunks fifty feet away are making merry to the\nmusic of the Filipino orchestra of the Hotel. Please do me the favor of\nabsorbing as much of it as may be at all intelligible and then without\nshowing it to anyone\nelse burn it up.\nnanks\nPAN AMERICAN AIRWAYS\nEM - GENERAL\nOFFICES -195 E. 42\nYORK\nCITY\nD.S. Taxas Co was paid and releass Completed Oct. 54"
    ],
    "millsfield:images_texts_ids": [
      1913799959,
      1913799961
    ],
    "millsfield:primary_image": 1913799959,
    "millsfield:subcategory_id": 1511213489,
    "mz:is_approximate": 1,
    "mz:is_current": 1,
    "sfomuseum:accession_number": "2019.121.1034 a b",
    "sfomuseum:airline": "Pan American Airways",
    "sfomuseum:airline_id": [
      685
    ],
    "sfomuseum:category": "Employee Career History",
    "sfomuseum:classification_id": 195,
    "sfomuseum:collection": "Aviation Archive",
    "sfomuseum:creditline": "Collection of SFO Museum",
    "sfomuseum:date": "10/07/1937",
    "sfomuseum:date_acquired": "2019-11-22",
    "sfomuseum:daterange_end": "1937-10-07",
    "sfomuseum:daterange_start": "1937-10-07",
    "sfomuseum:description": "Typewritten letter with handwritten notes and corrections from Harold M. Bixby to S. [Stokely] W. Morgan, dated October 7, 1937, on stationery from Pan American Airways Company, labeled “Personal and Confidential”; includes description of meeting with [William L.] Bond, Lum [Wei-Shing], and P.Y. Wong about the status of CNAC equipment and personnel; includes thought about how to “salvage” Pan American’s efforts in China; mentions Harry [Harold] Sweet, Harry Smith, T.V. Soong, [Oscar] Wilke, Larsen [”Swede” Larson].",
    "sfomuseum:dimensions": "11 x 8 1/2 inches (27.9 x 21.6 cm)",
    "sfomuseum:medium": "paper, ink",
    "sfomuseum:object_id": 211397,
    "sfomuseum:placetype": "object",
    "sfomuseum:publication": ": , 10/07/1937.",
    "sfomuseum:subcategory": "Correspondence, Personal",
    "src:geom": "sfomuseum#undetermined",
    "wof:belongsto": [
      102527513,
      1159162825,
      102191575,
      85633793,
      102087579,
      85922583,
      85688637,
      1159160869
    ],
    "wof:country": "XY",
    "wof:created": 1714548952,
    "wof:depicts": [
      1159286839,
      1159284991
    ],
    "wof:geomhash": "c281b9d9eefc83b5710e64b9d646067d",
    "wof:hierarchy": [
      {
        "building_id": -1,
        "campus_id": 102527513,
        "collection_id": 1159162825,
        "concourse_id": 1159162825,
        "continent_id": 102191575,
        "country_id": 85633793,
        "county_id": 102087579,
        "custom_id": 1913795993,
        "locality_id": 85922583,
        "neighbourhood_id": -1,
        "object_id": 1913795993,
        "region_id": 85688637,
        "wing_id": 1159160869
      }
    ],
    "wof:id": 1913795993,
    "wof:lastmodified": 1787988219,
    "wof:name": "correspondence: Harold M. Bixby to S.W. Morgan",
    "wof:parent_id": 1159162825,
    "wof:placetype": "custom",
    "wof:placetype_alt": [
      "object"
    ],
    "wof:repo": "sfomuseum-data-collection",
    "wof:superseded_by": [],
    "wof:supersedes": []
  },
  "bbox": [
    -122.38647222518921,
    37.6161053594541,
    -122.38583385944366,
    37.61661101879963
  ],
  "geometry": {"type":"Polygon","coordinates":[[[-122.38647222518921,37.61631782178288],[-122.386434674263,37.61623283692423],[-122.38637566566466,37.61617759671399],[-122.38630056381224,37.6161308549656],[-122.38616108894348,37.6161053594541],[-122.38602161407469,37.6161308549656],[-122.38591432571411,37.61618609521055],[-122.38585531711577,37.61626683087935],[-122.38583385944366,37.61636881265146],[-122.38587141036987,37.61646654505181],[-122.38594114780425,37.61654303118856],[-122.38605380058287,37.61660252035167],[-122.38618254661559,37.61661101879963],[-122.3863059282303,37.61657277577607],[-122.3864185810089,37.61650903735973],[-122.3864668607712,37.61641130501523],[-122.38647222518921,37.61631782178288]]]}
}
