{
  "id": 1511931517,
  "type": "Feature",
  "properties": {
    "date:cessation_lower": "1932-09-08",
    "date:cessation_upper": "1932-09-08",
    "date:inception_lower": "1932-09-08",
    "date:inception_upper": "1932-09-08",
    "edtf:cessation": "1932-09-08",
    "edtf:date": "1932-09-08",
    "edtf:inception": "1932-09-08",
    "geom:area": 0,
    "geom:bbox": "-122.386155,37.616357,-122.386155,37.616357",
    "geom:latitude": 37.616357,
    "geom:longitude": -122.386155,
    "iso:country": "XX",
    "millsfield:category_id": 1511214215,
    "millsfield:collection_id": 1511214207,
    "millsfield:images": [
      1527831731,
      1913711961,
      1913711963,
      1913711965
    ],
    "millsfield:images_colors_refs": {
      "crayola": [
        {
          "hex": "#000000"
        },
        {
          "hex": "#714b23"
        },
        {
          "hex": "#414a4c"
        },
        {
          "hex": "#efdecd"
        },
        {
          "hex": "#efcdb8"
        }
      ],
      "css4": [
        {
          "hex": "#faebd7"
        },
        {
          "hex": "#556b2f"
        },
        {
          "hex": "#000000"
        },
        {
          "hex": "#ffebcd"
        },
        {
          "hex": "#2f4f4f"
        },
        {
          "hex": "#f5deb3"
        }
      ],
      "marekm4": [
        {
          "hex": "#44303b"
        },
        {
          "hex": "#f5ead5"
        },
        {
          "hex": "#473317"
        },
        {
          "hex": "#f6e8c9"
        },
        {
          "hex": "#e4d8b9"
        },
        {
          "hex": "#e7dbc1"
        },
        {
          "hex": "#2e2519"
        }
      ]
    },
    "millsfield:images_texts": [
      "Bobbie Tauf\n-\n1932\nARCADE STA\nTr. B. Duveen ger.\n299 Park aree\nnua york lity\n, hew york",
      "28-\nEARL MILLS\n750N. HAYWORTH AVE.\nLOS ANGELES, CALIF\n2008.075.009 a",
      "Shis cover was auginally intended to have been caried\n- the toole cler light main lat he amit\nnet being the refundo.\n• Bias sout autogral had Ate letters sent",
      "-BOBBIE TROUT-\n-HONOLULU TO LOS ANGELES-\n-SOLO (ALONE) OCEAN FLIGHT-\nTo all our Philatelic Friends,\nGreetings!\nThe management of this flight wishes to bring to your attention an important\ndecision affecting the prices of Covers relating to Miss Trout's Solo Ocean\nFlight.\nAs we're all friends, we might just as well tell the truth.\nWe were\nunder the impression that five dollars was not too much to ask for the three\ncovers connected with this flight. We thought that if a girl had the nerve to\nrisk her life by flying across\nan ocean, alone, five dollars a set was little\nenough.\nHowever, thousands of collectors have written us suggesting that it was\ntoo much; and that one dollar would suit them for the cover to be carried by\nMiss Trout and fifty cents a piece for the two commemorating her departure and\narrival. Inasmuch as this department is in the hands of a real Philatelist, we\nput it up to him and his reply was,\n\"I'd stand by the bunch\". Accordingly,\nfrom\nnow on the price of Bobbie Trout's Special Cover is one dollar and the other two,\nfifty cents each.\nTake your pick. Another nice thing to know is this--We are\nreturning three dollars to all those who paid five dollars, the original price,\nso as to be fair to one and all. Here are the conditions under which you\nbuy covers:\nCover #1 - A special cachet cover to be carried by Miss Trout will be auto-\ngraphed in her own handwriting and will be post-marked 'Honolulu' the day of her\ndeparture for Los Angeles.\nUpon her arrival in Los Angeles it will again be\nstamped and post-marked, then forwarded to the addressed.\nPrice--one dollar.\nCover #2 - You send us this cover, self-addressed and stamped. Miss Trout\nwill apoly a special cachet autograph to it and mail it to you from Honolulu the\nday of her departure.\nPrice - fifty cents.\nCover #3 - This cover is also mailed to us by you. Miss Trout will autograph\nit, apply a special cachet, and, upon her arrival from overseas, it will be mailed\nto you.\nPrice - fifty cents.\nCashiers' checks or postal money orders must be made out to the order of the\nBobbie Trout Fund and sent direct to Mr. Earl Mills, 750 North Hayworth Avenue,\nHollywood, California.\nIt is specifically understood by the purchaser of said\nCovers that, owing to the hazards attendant upon this flight, responsibility for\nthe return of covers and fees received is not assumed by the Bobbie Trout Fund\n(comorising Miss Bobbie Trout, Pilot: Gordon S. Davidson, Director of Flight; and\nMr. Earl Mills, sole agent for said Cachet Covers). However, every precaution\nwill be taken to assure the purchasers of the safe return of\nthe covers, and, in\nthe event that any unforeseen circumstances render it imoossible for this flight\nto be started, all monies will be refunded to purchaser less cost of postage.\n--\nDate\nI herewith enclose the sum of\n) in payment of\nset (s) of\nthe three above described Covers for the BOBBIE TROUT SOLO-OCEAN FLIGHT. I agree\nto abide by the Conditions of Sale as described above.\nAddress (Street\nCity\nState\nCountry\nPlease PRINI name and complete address so that no errors shall be made.\nNOME - Re AUTOGRAPHS: . Miss Trout is under contract and cannot autograph any\ncovers without special permission.\nIf you have any picture or flow-cover of\nMiss Trout, the owners of the contract will permit her to authograob them at the\nrate of one dollar ($1.00) per article."
    ],
    "millsfield:images_texts_ids": [
      1527831731,
      1913711961,
      1913711963,
      1913711965
    ],
    "millsfield:primary_image": 1527831731,
    "millsfield:subcategory_id": 1511213159,
    "mz:hierarchy_label": 1,
    "mz:is_current": 1,
    "sfomuseum:accession_number": "2008.075.009 a c",
    "sfomuseum:category": "Philately",
    "sfomuseum:classification_id": 10,
    "sfomuseum:collection": "Aviation Archive",
    "sfomuseum:creditline": "Gift of Jon E. Krupnick",
    "sfomuseum:date": "09/08/1932",
    "sfomuseum:date_acquired": "2008-12-31",
    "sfomuseum:daterange_end": "1932-09-08",
    "sfomuseum:daterange_start": "1932-09-08",
    "sfomuseum:description": "Airmail flight cover, Bobbie Trout Intended Solo Honolulu - Los Angeles Flight, September 1932; cover accompanied by two enclosures (b-c):\ra. cover: postmarked September 8, 1932 from Los Angeles Arcade Station; single purple 3-cent postage stamp; addressed to [illegible name] in New York City, from Earl Mills, Los Angeles; signed by Bobbie Trout on left edge.\rb. printed enclosure with letterhead: \"Bobbie Trout, Honolulu to Los Angeles, Solo (Alone) Ocean Flight\"; order form for three flight covers.\rc. notation handwritten in ink: \"This cover was originally intended to have been carried on the Honolulu - California flight of Miss Bobbie Trout in the summer of 1932.\"",
    "sfomuseum:dimensions": "3 3/4 x 6 1/2 inches (9.5 x 16.5 cm)",
    "sfomuseum:issues_held": "\r",
    "sfomuseum:media_ids": [
      1527831731
    ],
    "sfomuseum:medium": "paper, ink",
    "sfomuseum:object_id": 91193,
    "sfomuseum:placetype": "object",
    "sfomuseum:primary_media_id": 1527831731,
    "sfomuseum:publication": ": , 09/08/1932.",
    "sfomuseum:subcategory": "Airmail Flight Cover",
    "src:geom": "sfomuseum#undetermined",
    "wof:belongsto": [
      1511214215,
      102527513,
      102191575,
      85633793,
      1511213159,
      85922583,
      102087579,
      1511214277,
      1511214207,
      85688637
    ],
    "wof:breaches": [],
    "wof:country": "XX",
    "wof:created": 1579906655,
    "wof:geomhash": "30c8a918561c84bb2daa2b97fc7c5353",
    "wof:hierarchy": [
      {
        "arcade_id": 1511213159,
        "building_id": 1511214277,
        "campus_id": 102527513,
        "concourse_id": 1511214215,
        "continent_id": 102191575,
        "country_id": 85633793,
        "county_id": 102087579,
        "custom_id": 1511931517,
        "locality_id": 85922583,
        "neighbourhood_id": -1,
        "object_id": 1511931517,
        "region_id": 85688637,
        "venue_id": 1511931517,
        "wing_id": 1511214207
      }
    ],
    "wof:id": 1511931517,
    "wof:lastmodified": 1787988180,
    "wof:name": "airmail flight cover: Bobbie Trout Intended Solo Honolulu - Los Angeles Flight, September 1932",
    "wof:parent_id": 1159162825,
    "wof:placetype": "custom",
    "wof:placetype_alt": [
      "object"
    ],
    "wof:repo": "sfomuseum-data-collection",
    "wof:superseded_by": [],
    "wof:supersedes": [],
    "wof:tags": []
  },
  "bbox": [
    -122.386155,
    37.616357,
    -122.386155,
    37.616357
  ],
  "geometry": {"type":"Point","coordinates":[-122.386155,37.616357]}
}
