{
  "id": 1511955743,
  "type": "Feature",
  "properties": {
    "date:cessation_lower": "1940-01-01",
    "date:cessation_upper": "1940-12-31",
    "date:inception_lower": "1940-01-01",
    "date:inception_upper": "1940-12-31",
    "edtf:cessation": "1940",
    "edtf:date": "1940",
    "edtf:inception": "1940",
    "geom:area": 0,
    "geom:bbox": "-122.386155,37.616357,-122.386155,37.616357",
    "geom:latitude": 37.616357,
    "geom:longitude": -122.386155,
    "iso:country": "US",
    "millsfield:airline_id": [
      1159284991
    ],
    "millsfield:category_id": 1511214223,
    "millsfield:collection_id": 1511214207,
    "millsfield:company_id": [
      1159286839
    ],
    "millsfield:images": [
      1527842165,
      1527854635,
      1527854637,
      1527854639
    ],
    "millsfield:images_colors_refs": {
      "crayola": [
        {
          "hex": "#1a4876"
        },
        {
          "hex": "#9c7c38"
        },
        {
          "hex": "#757575"
        },
        {
          "hex": "#bab86c"
        },
        {
          "hex": "#95918c"
        },
        {
          "hex": "#d68a59"
        },
        {
          "hex": "#efcdb8"
        },
        {
          "hex": "#cdc5c2"
        },
        {
          "hex": "#2e5894"
        }
      ],
      "css4": [
        {
          "hex": "#708090"
        },
        {
          "hex": "#778899"
        },
        {
          "hex": "#a0522d"
        },
        {
          "hex": "#483d8b"
        },
        {
          "hex": "#cd853f"
        },
        {
          "hex": "#c0c0c0"
        },
        {
          "hex": "#191970"
        },
        {
          "hex": "#bdb76b"
        },
        {
          "hex": "#2f4f4f"
        },
        {
          "hex": "#d2b48c"
        },
        {
          "hex": "#f5deb3"
        }
      ],
      "marekm4": [
        {
          "hex": "#bc9757"
        },
        {
          "hex": "#e0d6bd"
        },
        {
          "hex": "#ccc4b4"
        },
        {
          "hex": "#d8cdb5"
        },
        {
          "hex": "#4b5c8b"
        },
        {
          "hex": "#333b6c"
        },
        {
          "hex": "#1d2051"
        },
        {
          "hex": "#30426e"
        },
        {
          "hex": "#7b8499"
        },
        {
          "hex": "#7b849a"
        },
        {
          "hex": "#455690"
        },
        {
          "hex": "#252d6d"
        },
        {
          "hex": "#5c6791"
        },
        {
          "hex": "#c59c46"
        },
        {
          "hex": "#c6b9a5"
        },
        {
          "hex": "#c0a76e"
        },
        {
          "hex": "#656789"
        },
        {
          "hex": "#a16b1b"
        }
      ]
    },
    "millsfield:images_texts": [
      "ATLANTIC-PAETAE\nSCHEDULES OFTHE\nFLYING CLIPPER SHIPS\nTIME TABLES • PASSENGER FARES - INFORMOTIN\nSEPT.-NOV. 1,940\nISSUED QUERKAR\nPAN. AMER\nAN\nAIRMNS SISTEM",
      "ATLANTIC -PACIL\nSCHEDULES OF THE\nFLYING CLIPPER SHIPS\nTIME TABLES • PASSENGER FARES • INFORTIOTION\nSEPT. - NOV., 1940\nISSUED QUARTERLYU\nPAN AMERICAN\nAIRWATS SYSTEM",
      "ATLANTIC SERVICES\na g\nstat\nCHINA SERVICES\nI.. 8 U.S.A. NEW ZEALAND SERVICE\nCHINA FARES",
      "PASSENGER INFORMATION\nTramportation fare sad in be coldy reel thority are in addition to\nBAGGAGE: Free Weight Allowances:\n(a) When the normal adult one-way fare paid prior to commencement of passoge l\n8. Cy. or less, 20 Kilos (84 Ibe)\nPadult anen fare paid pedor to commencement of passage in\nDO THE\nDiscipal Odies, on Airport 0 rantee a paste and 10.\nAPPROXIMATE CONNECTIONS\nAm tally bless otherwise t\nUNITED STATES:\nAIRLINE:\nTWA AAL NWALUAL\n15:00\n3.44\nI SENTRANCISCO :\nLv LOS\nUAL NWA AAL\n293\n30:31\n337\n6:25\n10:45\n18:40\nisas\n13000\n\"17:00\nRAILROAD:\nAn example by days is given to show elapsed time\n10:00\n12-20\n1515\nPRINCIPAL OFFICES, AGENTS, AIRPORTS \u0026 TRANSFERS\nCABLE ADDRESSES: \"PANAIR\" for all offices shown in this folder, except that for offices in Bermuda use \"IMPAIR\"'; in Europe use \"PANAIRCO\": in Chins use \"CHINACO\"\nand in Burma use \"FLOTILLA.\"\nLOCAL TRANSFER SERVICES are maintained or operated by the Companies at the points stated in this table except those points where it is indicated that such services are not\nprovided. Transfer savice at sch excented points shall not be considereds mainfailor peted by or on hehalf oLany of the Companio Thafares anoted in the Olical\nPublished Passenger Tariff include transfers between airports and city pick up and delivery pointe as shown in this table unkes otberwise indicated therein. Wherever charges are\nshown they are in addition to the fares quoted to and from the corresponding airport, are for information only, are subject to change without notice, and are not guaranteed. Such\ncharges are not to be deemed to be charges of any of the Comronica,\nNEW YORK, New York, U. 8. A.—-Pan American Always System, 135 E. 42od St. (Tel.\nindia Field). N. Y\nOSLO, Norwas\n. U. 8. Lines, Agt., c/0 R. Angell Bordewiek, Kart Jok\nPEARL HARBOR, T. 1.—(See He\nPHiL Kinny asylvani, 0.800\n-Pan American Airways Syster\nVetted State thes, An a Prope 11\nRANGOON, Burea, India-China National Aviation Corp., Irrawaddy Potilla Co.,\n13A11\nSAENCTU\n-Fan American Airways System, 1te south Clark Bt. rei.\nAviation Corp.:\nhend Boh Hast Be., Chues Xien\nSEATS 512Y abington.\nSOUTHAMPTON gland\nEUROPE:\nFAR EAST:\n, Aet., c/o Benjamin Ackerles, Canute\ntrandkajes, Box 28\n- 8. Lane\nr. Larka, Skeppebron.\n12 Bridge stree\nTEMESVAR, Roumania-United States Lines, Art., c/o Wagons-Lits, Boulevardul Rece\nTRONDHJEM, Norway United States Tines, Aft., Fordeaten 3.\nIT United states Tines, Ant\nWiednerguertel 12\nAlrways Co.\nWIESDAD, Serened Base, a to seen a\nZURICH, Switzerland—U. 8. Lines, ARt., c/o Kuonl Travel Bureau, Bahnhotplate, 7..\nYOU CAN CARRY AMPLE\nBAGGAGE!\nIT PAYS TO FLY YOUR MAIL!!\nThe web of world-wide Air Mail routes is keyed by Pan American's\nfar-flung routes of the lying Clipper ships, and supplemented by con-\nnecting rail and steames services everywhere. Air Mail is as much as\nthirty times faster than ordinary mail. Received first-read first-and\nanswered first, Air Mail commands special attention, is advantagcously\nused both for routine and for rush correspondence, documents, collec-\ntions, and many other items of a business or social nature. Modern\nlightweight stationery saves postage.\nBefore starting your trip, leave a copy of your itinerary with your\ncorrespondents, cautioning them to post their Air Mail letters in suffi\ncient time and correctly addressed to reach you without fail at each\npoint en route. (Your local postmaster can give you full details.) Other-\nwise, Air Mail addressed to you en route which arrives after your de\nparture will either trail you by surface or be returned to the sender.\nsince International Postal Regulations provide that Air Mail which has\nreached its original destination can be forwarded only by ordinary\nmagne\n- Use Air Mail for Regular Communication\nwith Home and Office -\n04L.084"
    ],
    "millsfield:images_texts_ids": [
      1527842165,
      1527854635,
      1527854637,
      1527854639
    ],
    "millsfield:primary_image": 1527854635,
    "millsfield:subcategory_id": 1511213425,
    "mz:hierarchy_label": 1,
    "mz:is_current": 1,
    "sfomuseum:accession_number": "2013.046.084",
    "sfomuseum:airline": "Pan American Airways",
    "sfomuseum:airline_id": [
      685
    ],
    "sfomuseum:category": "Scheduling / Ticketing",
    "sfomuseum:classification_id": 158,
    "sfomuseum:collection": "Aviation Archive",
    "sfomuseum:continent": "North America",
    "sfomuseum:country": "United States",
    "sfomuseum:creditline": "Gift of the Family of Captain Roger J. Sherron, Jr.",
    "sfomuseum:date": "1940",
    "sfomuseum:date_acquired": "2013-09-27",
    "sfomuseum:daterange_end": "1940-12-31",
    "sfomuseum:daterange_start": "1940-01-01",
    "sfomuseum:description": "Timetable issued by Pan American Airways System for Atlantic-Pacific service, effective September-November 1940; blue and tan cover with illustration depicting planform outline of aircraft with globe and red text; includes fare schedule.",
    "sfomuseum:dimensions": "9 x 4 inches (22.9 x 10.2 cm)",
    "sfomuseum:issues_held": "c. 1970 (747 souvenir edition)",
    "sfomuseum:maker": "Pan American World Airways, Inc.",
    "sfomuseum:media_ids": [
      1527854635,
      1527854637,
      1527854639,
      1527842165
    ],
    "sfomuseum:medium": "paper, metal, ink",
    "sfomuseum:object_id": 142582,
    "sfomuseum:placetype": "object",
    "sfomuseum:primary_media_id": 1527854635,
    "sfomuseum:publication": ": , 1940.",
    "sfomuseum:subcategory": "Timetable",
    "src:geom": "sfomuseum#undetermined",
    "wof:belongsto": [
      102191575,
      85633793,
      136253057,
      1511214223,
      102527513,
      1511213425,
      85922583,
      102087579,
      1511214277,
      1511214207,
      85688637
    ],
    "wof:breaches": [],
    "wof:country": "US",
    "wof:created": 1579906662,
    "wof:depicts": [
      1159285809,
      1159286839,
      1159284991
    ],
    "wof:geomhash": "30c8a918561c84bb2daa2b97fc7c5353",
    "wof:hierarchy": [
      {
        "continent_id": 102191575,
        "country_id": 85633793,
        "custom_id": 1511955743,
        "empire_id": 136253057,
        "object_id": 1511955743,
        "venue_id": 1511955743
      },
      {
        "arcade_id": 1511213425,
        "building_id": 1511214277,
        "campus_id": 102527513,
        "concourse_id": 1511214223,
        "continent_id": 102191575,
        "country_id": 85633793,
        "county_id": 102087579,
        "custom_id": 1511955743,
        "locality_id": 85922583,
        "neighbourhood_id": -1,
        "object_id": 1511955743,
        "region_id": 85688637,
        "venue_id": 1511955743,
        "wing_id": 1511214207
      }
    ],
    "wof:id": 1511955743,
    "wof:lastmodified": 1787988189,
    "wof:name": "timetable: Pan American Airways System, Atlantic-Pacific",
    "wof:parent_id": 1159162825,
    "wof:placetype": "custom",
    "wof:placetype_alt": [
      "object"
    ],
    "wof:repo": "sfomuseum-data-collection",
    "wof:superseded_by": [],
    "wof:supersedes": [],
    "wof:tags": []
  },
  "bbox": [
    -122.386155,
    37.616357,
    -122.386155,
    37.616357
  ],
  "geometry": {"type":"Point","coordinates":[-122.386155,37.616357]}
}
