{
  "id": 1511936035,
  "type": "Feature",
  "properties": {
    "date:cessation_lower": "1957-01-01",
    "date:cessation_upper": "1957-12-31",
    "date:inception_lower": "1957-01-01",
    "date:inception_upper": "1957-12-31",
    "edtf:cessation": "1957",
    "edtf:date": "1957",
    "edtf:inception": "1957",
    "geom:area": 0,
    "geom:bbox": "-122.386155,37.616357,-122.386155,37.616357",
    "geom:latitude": 37.616357,
    "geom:longitude": -122.386155,
    "iso:country": "XX",
    "millsfield:airline_id": [
      1159284003
    ],
    "millsfield:category_id": 1511214223,
    "millsfield:collection_id": 1511214207,
    "millsfield:company_id": [
      1159288631
    ],
    "millsfield:images": [
      1527837443,
      1527848309
    ],
    "millsfield:images_colors_refs": {
      "crayola": [
        {
          "hex": "#9c7c38"
        },
        {
          "hex": "#414a4c"
        },
        {
          "hex": "#efdecd"
        },
        {
          "hex": "#fddde6"
        },
        {
          "hex": "#714b23"
        }
      ],
      "css4": [
        {
          "hex": "#dcdcdc"
        },
        {
          "hex": "#2f4f4f"
        },
        {
          "hex": "#faf0e6"
        },
        {
          "hex": "#808000"
        },
        {
          "hex": "#daa520"
        }
      ],
      "marekm4": [
        {
          "hex": "#322e32"
        },
        {
          "hex": "#927521"
        },
        {
          "hex": "#3c3415"
        },
        {
          "hex": "#f5f2e6"
        },
        {
          "hex": "#e7dfd6"
        },
        {
          "hex": "#c49a2b"
        }
      ]
    },
    "millsfield:images_texts": [
      "0\nBONANZA\nAIR LINES\nS\nRENO\nHAWTHORNE\nTONOPAH\n11\nYEARS\nof scheduled service\nserving 16 cities in\nCalifornia\nArizona\nNevada\nLAS VEGAS\nKINGMAN\nAPPLE VALLEY\nLOS ANGELES\nINTL.\nSANTA ANA\nSAN DIEGO\nPRESCOTT\nINDIO-\nPALM SPRINGS.\nONTARIO-RIVERSIDE\nBLYTHE\nPHOENIX\nEL CENTRO\nYUMA\nEffective April 28, 1957",
      "Effective April 28, 1957\nBONANZA AIRLINES\nSYSTEM SCHEDULE\nAll Schedule Times Shown in Local Time\nEffective April 28, 1957\nRENO*\nHawthorne\nTonopah\nLAS VEGAS*\nLAS VEGAS*\nKingman*\nPrescott*\nPHOENIX*\nRead Down\n(PDT) Lv\nLv\nLv\nAr\n(PDT) Lv\n(MST) Lv\nLv\nAr\n45\nSOUTHBOUND AND WESTBOUND\n-Ex.\n21\nSun.\nSun.\nOnly\n31\n31\n23\n11:15a\n/11: 15a\n12:01p\nNon-\n12:46p\n2:00p\nstop\n1:30p\n47\n3735p\n4:20p\n4:50p\n5:05p\nNon-\nstop\n5:45p 6:30p\n33\n6:45p\nNon-\nstop\n9:00p\n25\n6:25a\n7:10a\n7:55a\n8:35a\n12:25p\nNon-\nstop\n2:05p\n9:50p\nNon-\nstop\n11:30p\nPHOENIX*\nYuma*\n.(MST) Lv\nEl Centro*\n(PDT) Lv\nSan Diego*\nLv\nSanta Ana - Laguna Beach*\nBlythe\nLv\nIndio#\nLv\nLv\nRiverside*\nOntario*\nLv\nLv\nLOS ANGELES* (Int'l) ..(PDT) Ar\n6:10a\n6:30a\n7:4la\n8:21a\n9:10a\n9:49a\n7:18a\n8:01a\n8:43a\n9:01a\n9:30a\n2:00p\n3:11p\n3:51pl\n4:40p\n5:19p.\n620p\n7:28 p\n8:11 p\n8:57p\n5:40p\n9:25p\nEASTBOUND AND NORTHBOUND\n715p\n8:26p\n9:06p\n9:55p\n10:36p\nEffective April 28, 1957\nEx.\nSun.\n32\n10:10a\nSun.\nOnly\n32\n11:00p\nRead Down\n22\nLOS ANGELES* (Int'I) ..(PDT) Lv 6:45a\nOntario*\n.Lv\nRiverside*\nIndio#\nLv\nBlythe\nLv\nSanta Ana - Laguna Beach*\nLv\nSan Diego*\n7:14a\nLv\n7:55a\nEl Centro*\n(PDT) Lv\nYuma*\nPHOENIX*\n(MST) Lv\n8:49a\n9:24a\nAr 10:30a\n46\n8:35a\n9:10a\n9:28a\n10:10a\n10:53a\n2 1.24\n4\n6\n34\n48\n6:00p\n6:35p\n7:21 p\n8:04p\n26\n6:25p\n10\n12:00n\n11:29a\n12:10p\n1:04p\n1:39p\n2:45p\n6:54p\n7:35p\n8:29p\n9:10p\n9:04p\n(10:10p\nPHOENIX*\nPrescoff*\nKingman*\nLAS VEGAS*\nLv\n(MST) Lv\n(PDT) Ar\nLAS VEGAS*\nTonopah\nLv\nHawthorne\nLV\nRENO*\n(PĐT) Ar\nAll flights daily, except as noted.\nMST-Mountain Standard Time.\n(*) Rent-A-Car available.\n9:45a\n0:28a\n11:13a\n1:55a\n12.45p\nNon-\nstop\n2:25 p\n2:40p\nNon-\nstop\n4:20p\n7:10p\n10.30p\n7:53p\nNon-\n8:38 p\n9:20p\nstop\n12:10a\n8:00a\n8:30a\n9: 18a\nNon-\n10:03a\nStop\n10:45a\n10:45a\n4.00p\nNon-\nstop\n6:15p.\nAll trips flown with DC-3 equipment.\n#) Served through Thermal, Calif., Airport\nPDT-Pacific Daylight Time.\nLight Face-One Way\nONE WAY AND ROUND TRIP PASSENGER FARES\n(All Fares Subject to 10% Federal Transportation Tax)\nLos\nOnt-\nario/\nKing-\nAnge-\nVegas\nPhoe-\nnix\nPres-\ncott\nReno\nSan\nAna/\nLaguna Tono-\nDiego\nBeach\npah\nYuma\nBold Face-Round Trip\nBLYTHE.\nEL CENTRO\nHAWTHORNE\nINDIO.\nKINGMAN.\nLAS VEGAS\nLOS ANGELES\nONTARIO-RIVERSIDE\nPHOENIX\nPRESCOTT\nRENO.\nSAN\nDIEGO\nSANTA ANA-LAGUNA BEACH.\nTONOPAH.\nYUMA.\nEI-\nHaw-\nBlythe Centro thorne\nIndio\n94.100\n12.40\n49.70\n96.60\n50.80\n• 25\n23\n42\n50\n.90\n88\n70\n39.20\n44.\n20\nFly BONANZA for\n\"Fun in the Sun!\"\nLOS ANGELES - SAN DIEGO - YUMA - PHOENIX\n22\n6:45a\n7:50a\n9:19a\n10:30a\n24\n11:00a\n12:05p\n1:34p\n2:45p\n26\n6:25p\n7:30p\n8:59p\n10:10p\nRead Down\nRead Up\nLv Los Angeles.......(PDT) Ar\nAr San Diego\n.. Lv\nAr Yuma\n_(MST) Lv\nAr Phoenix\n. Lv\n21\n10:10a\n9:10a\n7:41a\n6:30a\n23\n5:40p\n4:40p\n3:11p\n2:00p\n25\n11:00p\n9:55p\n8:26p\n7:15p\nPHOENIX - LAS VEGAS - RENO\n4-34*\n9:45a\n12:45p\n2:40p\n7:10p\n10:30p\nRead Down Read Up\nLv Phoenix ..(MST) Ar\n31-5x\n11:55a\n2:25p\n4:00p\n6:15p\n4:20p\n9:20p\n12:10a\nAr Las Vegas (PDT) Lv 6:25a\n2:05p\n12:25p\n5:45p\n6:30p\n(11:30p\n4:50p\nLv Las Vegas\nAr Reno\n3:35p\n2:00p\n11:15a\n9:50p\n9:00p\n6:45p\n(*) Lv Las Vegas 8:30a Sundays only.\n(x) Ar Las Vegas 1:30p Sundays only.\nIT COSTS LESS THAN YOU THINK!\n------\nGET THE JUMP ON\nCOMPETITION...\nSHIP VIA FAST, ECONOMICAL\nBONANZA AIR FREIGHT\n• REDUCE INVENTORIES and warehousing.\n• CREATE NEW MARKETS, expand present markets.\n• Build prestige and good will for your company.\nGENERAL OFFICES: McCARRAN FIELD, LAS VEGAS, NEV\nGENERAL\nINFORMATION\nRESERVATIONS-Reservations must be made in advance and are\nuntil tickets\nare\nBonanza Air Lines reserves\nthe riaht to cance the reservation\npresent himself at the Bonanza\nof\nany passenger\nWho tails to\nAir Lines Airport ticket office\n10 minutes\nbefore\nadd dr Lines Airport ticket office ar\nhis reservation was made\nSCHEDULES-Schedules show the time at which\nnanes may\nbe\nand to connect with\nplanes,\nBONANZA AIR LINES\nresponsible\nTor conseovences ansino rom delays or trom errors in the printec\nschedule.\nThe times shown are subject to change without notice.\nAGGAGE-40 pounds of personal baggage will be carried fret\non one ticket.\naggage in excess o\npounds may be carried\nat established excess baggage rates.\nCHILDREN'S FARES-One\nunder two\nof age\noccupying\nseat,\nchild\nyears\npassenger\n12\nyears of age or\nWill ge or older ide e\nwith each\nnot\naccompanying\nolder.\ntwo\nyears of\nage\nne under vears oradf\nwill be\ncharged one-half of applicable\none-way adult fare, or $2.50\nwhichever is\ngreater."
    ],
    "millsfield:images_texts_ids": [
      1527837443,
      1527848309
    ],
    "millsfield:primary_image": 1527837443,
    "millsfield:subcategory_id": 1511213425,
    "mz:hierarchy_label": 1,
    "mz:is_current": 1,
    "sfomuseum:accession_number": "2005.132.009.005",
    "sfomuseum:airline": "Bonanza Air Lines",
    "sfomuseum:airline_id": [
      238
    ],
    "sfomuseum:category": "Scheduling / Ticketing",
    "sfomuseum:classification_id": 158,
    "sfomuseum:collection": "Aviation Archive",
    "sfomuseum:creditline": "Gift of the William Hough Collection",
    "sfomuseum:date": "1957",
    "sfomuseum:date_acquired": "2006-12-05",
    "sfomuseum:daterange_end": "1957-12-31",
    "sfomuseum:daterange_start": "1957-01-01",
    "sfomuseum:description": "Timetable issued by Bonanza Air Lines, effective April 28, 1957; three page double-sided fold-out; gold cover with illustration of pocket watch and route map and text “11 years of scheduled service”.",
    "sfomuseum:dimensions": "9 x 4 inches (22.9 x 10.2 cm)",
    "sfomuseum:media_ids": [
      1527837443,
      1527848309
    ],
    "sfomuseum:medium": "paper, ink",
    "sfomuseum:object_id": 97640,
    "sfomuseum:placetype": "object",
    "sfomuseum:primary_media_id": 1527837443,
    "sfomuseum:publication": ": , 1957.",
    "sfomuseum:subcategory": "Timetable",
    "src:geom": "sfomuseum#undetermined",
    "wof:belongsto": [
      1511214223,
      102527513,
      102191575,
      85633793,
      1511213425,
      85922583,
      102087579,
      1511214277,
      1511214207,
      85688637
    ],
    "wof:breaches": [],
    "wof:country": "XX",
    "wof:created": 1579906672,
    "wof:depicts": [
      1159288631,
      1159284003
    ],
    "wof:geomhash": "30c8a918561c84bb2daa2b97fc7c5353",
    "wof:hierarchy": [
      {
        "arcade_id": 1511213425,
        "building_id": 1511214277,
        "campus_id": 102527513,
        "concourse_id": 1511214223,
        "continent_id": 102191575,
        "country_id": 85633793,
        "county_id": 102087579,
        "custom_id": 1511936035,
        "locality_id": 85922583,
        "neighbourhood_id": -1,
        "object_id": 1511936035,
        "region_id": 85688637,
        "venue_id": 1511936035,
        "wing_id": 1511214207
      }
    ],
    "wof:id": 1511936035,
    "wof:lastmodified": 1787988182,
    "wof:name": "timetable: Bonanza Air Lines",
    "wof:parent_id": 1159162825,
    "wof:placetype": "custom",
    "wof:placetype_alt": [
      "object"
    ],
    "wof:repo": "sfomuseum-data-collection",
    "wof:superseded_by": [],
    "wof:supersedes": [],
    "wof:tags": []
  },
  "bbox": [
    -122.386155,
    37.616357,
    -122.386155,
    37.616357
  ],
  "geometry": {"type":"Point","coordinates":[-122.386155,37.616357]}
}
