{
  "id": 1511956615,
  "type": "Feature",
  "properties": {
    "date:cessation_lower": "1980-01-01",
    "date:cessation_upper": "1980-12-31",
    "date:inception_lower": "1980-01-01",
    "date:inception_upper": "1980-12-31",
    "edtf:cessation": "1980",
    "edtf:date": "1980",
    "edtf:inception": "1980",
    "geom:area": 0,
    "geom:bbox": "-122.386155,37.616357,-122.386155,37.616357",
    "geom:latitude": 37.616357,
    "geom:longitude": -122.386155,
    "iso:country": "XX",
    "millsfield:airline_id": [
      1159284989
    ],
    "millsfield:category_id": 1511214223,
    "millsfield:collection_id": 1511214207,
    "millsfield:company_id": [
      1159286839
    ],
    "millsfield:images": [
      1527853627
    ],
    "millsfield:images_colors_refs": {
      "crayola": [
        {
          "hex": "#757575"
        },
        {
          "hex": "#6dae81"
        },
        {
          "hex": "#414a4c"
        },
        {
          "hex": "#a8e4a0"
        }
      ],
      "css4": [
        {
          "hex": "#808080"
        },
        {
          "hex": "#2f4f4f"
        },
        {
          "hex": "#8fbc8f"
        }
      ],
      "marekm4": [
        {
          "hex": "#9ac3a2"
        },
        {
          "hex": "#6c9172"
        },
        {
          "hex": "#304333"
        },
        {
          "hex": "#7ba687"
        }
      ]
    },
    "millsfield:images_texts": [
      "LAX\nJFK\nOKE\nLHR\nOX8\nDXB\nDEL\nDXB\nTXL\nFRA\nLHR\nDIW\nATLANTIC ALL-CARGO SERVICES\nEASTBOUND\nTh\nSa\n-4\n-5\nLOS ANGELES\nNEW YORK/NEWARK. J. F. Kennedy internationa\nCHICAGO. O'Hare\n09 00\n08 00\n5e48\n+1\nLONDON, Heathrow\n19 01\n03\n06000\n22420\nRLIN, Teze\nSUBA\nDELHI\nNESTBOUND\nMo Sa\nHours\n+4\nDUBAI.\n+54\nDELHI ..\nDUBAI\n+2 A BERLIN, Tegel...\ndep\narr\n22130\n+2 A FRANKFURT.\n111 LONDON,\nLONDON, Heathrow\n02A35\nOGAOS\n06 10\n03435\n03A30\n1230\n+2 A BRUSSELS\nNEW TORKINEWARS, J. P. Kennedy Internationa\n05 00 05 00\n10 45\n09 15\n07 35\n17 31\nA-From 28 Sep I hour earlier.\nPACIFIC ALL-CARGO SERVICES\nWESTBOUND\nWe\nGMT\n·3:\n=S\ng=ай\n22 20\nLAX\n-7\nLOS ANGELES\ndep)\nHNL\n- 10\n88\nNAN\n+12\nSYD\n+10\nMADI CNTEANATIONAL DATE LIME -\nSYDNEY ..\nAKL\nSYD\n+ 12\n+ 10\nAUCKLAND ....\nSYDNEY.\n1-Operational landing.\nLATIN AMERICA ALL-CARGO SERVICES\nSOUTHBOUND\nGMT\nWe\n793\nFr\nSa\n293\nMo\n=4\nGUA\nMANY ORKNEWARK, J. F. Kennedy International\nGUATEMALA CITY\n00 19\n23 1:\n16 3:\n89\n21\n=\n34\nEZE\nBUENOS AIRES, Exeiza -\n14'30\n93\nVCP\n15 30\nNORTHBOUND\nWe\nTu Fe\nTu Th\nMo TH\nGAT\n--..\nVCP\nSAO PAULO, Viracopos\nPOS\nCCS\n-4\nPORT OF SPAIN (TRINIDAD-TOBAGO).\n12 IS\n23 $3\nMARACAIBO\nGUATEMALA CITY.\nJFK\nNEW YORK/NEWARK, J. F. Kennedy International\n0400510\n104 30\nA-Applies enly on Fr ex Caracas.\n-Applies only on We ex Buenos Aires\n= 98\n=A-\nMo\nM==\n= HA\nTU\n0250\n20\n• iC\nоЗДО\n22 00\nTu\nMM:\n**+\nФ1A0:\n03 40\n03A3!\n06 40\n09 20\nis 30\n18'10"
    ],
    "millsfield:images_texts_ids": [
      1527853627
    ],
    "millsfield:primary_image": 1527853627,
    "millsfield:subcategory_id": 1511213425,
    "mz:hierarchy_label": 1,
    "mz:is_current": 1,
    "sfomuseum:accession_number": "2005.127.002.011",
    "sfomuseum:airline": "Pan American World Airways",
    "sfomuseum:airline_id": [
      684
    ],
    "sfomuseum:category": "Scheduling / Ticketing",
    "sfomuseum:classification_id": 158,
    "sfomuseum:collection": "Aviation Archive",
    "sfomuseum:creditline": "Gift of the William Hough Collection",
    "sfomuseum:date": "1980",
    "sfomuseum:date_acquired": "2006-12-14",
    "sfomuseum:daterange_end": "1980-12-31",
    "sfomuseum:daterange_start": "1980-01-01",
    "sfomuseum:description": "Cargo schedule for Pan American World Airways; single-sided on green paper; with information on services in the Atlantic, Latin America and Pacific; part of 11 issues dated 1980-1981.",
    "sfomuseum:dimensions": "14 x 8 1/2 inches (35.6 x 21.6 cm)",
    "sfomuseum:media_ids": [
      1527853627
    ],
    "sfomuseum:medium": "paper, ink",
    "sfomuseum:object_id": 151524,
    "sfomuseum:placetype": "object",
    "sfomuseum:primary_media_id": 1527853627,
    "sfomuseum:publication": ": , 1980.",
    "sfomuseum:subcategory": "Timetable",
    "src:geom": "sfomuseum#undetermined",
    "wof:belongsto": [
      1511214223,
      102527513,
      102191575,
      85633793,
      1511213425,
      85922583,
      102087579,
      1511214277,
      1511214207,
      85688637
    ],
    "wof:breaches": [],
    "wof:country": "XX",
    "wof:created": 1579906659,
    "wof:depicts": [
      1159284991,
      1159286839,
      1159284989
    ],
    "wof:geomhash": "30c8a918561c84bb2daa2b97fc7c5353",
    "wof:hierarchy": [
      {
        "arcade_id": 1511213425,
        "building_id": 1511214277,
        "campus_id": 102527513,
        "concourse_id": 1511214223,
        "continent_id": 102191575,
        "country_id": 85633793,
        "county_id": 102087579,
        "custom_id": 1511956615,
        "locality_id": 85922583,
        "neighbourhood_id": -1,
        "object_id": 1511956615,
        "region_id": 85688637,
        "venue_id": 1511956615,
        "wing_id": 1511214207
      }
    ],
    "wof:id": 1511956615,
    "wof:lastmodified": 1787988190,
    "wof:name": "timetable: Pan American World Airways, cargo schedule",
    "wof:parent_id": 1159162825,
    "wof:placetype": "custom",
    "wof:placetype_alt": [
      "object"
    ],
    "wof:repo": "sfomuseum-data-collection",
    "wof:superseded_by": [],
    "wof:supersedes": [],
    "wof:tags": []
  },
  "bbox": [
    -122.386155,
    37.616357,
    -122.386155,
    37.616357
  ],
  "geometry": {"type":"Point","coordinates":[-122.386155,37.616357]}
}
