{
  "id": 1762693133,
  "type": "Feature",
  "properties": {
    "date:cessation_lower": "1949-01-01",
    "date:cessation_upper": "1949-12-31",
    "date:inception_lower": "1949-01-01",
    "date:inception_upper": "1949-12-31",
    "edtf:cessation": "1949",
    "edtf:inception": "1949",
    "geom:area": 2.475047457570636e-7,
    "geom:bbox": "-122.386472,37.616105,-122.385834,37.616611",
    "geom:latitude": 37.61635747477365,
    "geom:longitude": -122.38615540108617,
    "millsfield:airline_id": [
      1159284073
    ],
    "millsfield:category_id": 1511214223,
    "millsfield:collection_id": 1511214207,
    "millsfield:company_id": [
      1159287923
    ],
    "millsfield:images": [
      1762701251
    ],
    "millsfield:images_colors_refs": {
      "crayola": [
        {
          "hex": "#dd9475"
        },
        {
          "hex": "#efcdb8"
        },
        {
          "hex": "#1a4876"
        },
        {
          "hex": "#ff2b2b"
        }
      ],
      "css4": [
        {
          "hex": "#f5deb3"
        },
        {
          "hex": "#191970"
        },
        {
          "hex": "#ff4500"
        },
        {
          "hex": "#e9967a"
        }
      ],
      "marekm4": [
        {
          "hex": "#e33c1e"
        },
        {
          "hex": "#0d2378"
        },
        {
          "hex": "#1b388c"
        },
        {
          "hex": "#e1906f"
        },
        {
          "hex": "#e6d8bc"
        }
      ]
    },
    "millsfield:images_texts": [
      "O\nLL\nU\nO\nA CALIFORNIA AIRLINE\nAND\nONE-WAY FARES VIA CALIFORNIA CENTRAL AIRLINES\nBETWEEN\nLos Ange-\nSan Fran-\nles (Bur.)\ncisco\nOakland\nLos Angeles (Burbarik)\nSan Francisco\nOakland\nSan Diego\n$ 9.99\n$ 9.99\n1.99\n$ 9.99\n9.99\n5.55\nSan\nDiego\n$ 5.55\n15.54\n15.54\n1.99\n15.54\n15.54\n(All Fares plus 15% Federal Tax)\nRound Trip Twice One-Way Pare.\nDAILY SCHEDULES VIA CALIFORNIA CENTRAL AIRLINES\nSouthbound\n(Read Down)\nNorthbound\n(Read Up)\nTERMINALS\nFit.\n80*\nFIt.\n20\nFit.\nFit.\nFIt.\nFIt.\nFIt.\n40\n70\n1l1\n31\nFIt.\n81*\n73.\nOakland\niv\n7:45A\n2:15P\n6:45P\nаг\n10:45A t1:45P\n5:45P\n9:45P\nSan Fran-\n8:00A\n2:30P\n7:00P\nlv\n10:30A\nt1:30P\n5:30P\n9:30P\ncisco\nSan Fran-\ncisco\n=\n8:15A\n2:45P\n4:15P\n7:15P\nar\n10:15A\n1:15P\n5:15P\n9:15P\nLos Angeles\nar 10:15A\n4:45P\n6:15P\n9:15P\n8:15A l\n11:15A\n3:15P\n7:15P\n(Burbank)\nLos Angeles\n5:00P\n9:30P\nar\n10:50A\n7:05P\n(Burbank)\nSan Diego\n5:50P\n10:20P\n10:00A\n*6.15P\n*\nDaily\nExcept\nSunday\nSunday only\nSouthbound\nADDITIONAL WEEK-END SCHEDULED FLIGHTS\n(Read Down)\nNorthbound\nFIt.\nFIt.\n60*\n82*\nFIt.\n92*\n10:15P|\nar\nFIt.\nFit.\n101TT\n51*\nTERMINALS\nOakland\nSan Fran-\nFIt.\n110**\nt11:15A\nar t11:30A\ncisco\nSan Fran-\ncisco\nLos Angeles\nar\n11:45A\n6:15P.\n8:15P\n1:45P\n8:15P. 10:15P\n(Burbank)\nLos Angeles\n(Burbark)\nSan Diego\nar\n*\nFriday and Sunday\n**\nSaturday and\n1 Sunday\nt Sunday only\nit Friday, Saturday and Sunday\nAbove Subject to Change Without Notice\nar\n(Read Up)\nFIt.\n83*\nFIt.\n93*\n12:15A\n12:00M\n11:45P\n12:15P\n3:15P\n7:15P 10:45P\n1:15P\n5:15P\n8:45P\nar\n9:45P\n9:20P\nlv\n18:30P\nEffective October 1949\nDAILY SCHEDULED FLIGHTS\n70\n70\nD"
    ],
    "millsfield:images_texts_ids": [
      1762701251
    ],
    "millsfield:primary_image": 1762701251,
    "millsfield:subcategory_id": 1511213425,
    "mz:is_current": 1,
    "sfomuseum:accession_number": "2015.167.241",
    "sfomuseum:airline": "California Central Airlines",
    "sfomuseum:airline_id": [
      271
    ],
    "sfomuseum:category": "Scheduling / Ticketing",
    "sfomuseum:classification_id": 158,
    "sfomuseum:collection": "Aviation Archive",
    "sfomuseum:creditline": "Gift of Thomas G. Dragges",
    "sfomuseum:date": "1949",
    "sfomuseum:date_acquired": "2016-07-06",
    "sfomuseum:daterange_end": "1949-12-31",
    "sfomuseum:daterange_start": "1949-01-01",
    "sfomuseum:description": "Pocket timetable issued by California Central Airlines, effective October, 1949; bi-fold single page;  white, red, and blue cover with map of California and announcement of fares.",
    "sfomuseum:dimensions": "3 3/4 x 2 1/2 inches (9.5 x 6.4 cm)",
    "sfomuseum:medium": "paper, ink",
    "sfomuseum:object_id": 174222,
    "sfomuseum:placetype": "object",
    "sfomuseum:publication": ": , 1949.",
    "sfomuseum:subcategory": "Timetable",
    "src:geom": "sfomuseum#undetermined",
    "wof:belongsto": [
      102527513,
      1159162825,
      102191575,
      85633793,
      102087579,
      85922583,
      85688637,
      1159160869
    ],
    "wof:country": "XY",
    "wof:created": 1641343882,
    "wof:depicts": [
      1159284073,
      1159287923
    ],
    "wof:geomhash": "c281b9d9eefc83b5710e64b9d646067d",
    "wof:hierarchy": [
      {
        "building_id": -1,
        "campus_id": 102527513,
        "collection_id": 1159162825,
        "concourse_id": 1159162825,
        "continent_id": 102191575,
        "country_id": 85633793,
        "county_id": 102087579,
        "custom_id": 1762693133,
        "locality_id": 85922583,
        "neighbourhood_id": -1,
        "object_id": 1762693133,
        "region_id": 85688637,
        "wing_id": 1159160869
      }
    ],
    "wof:id": 1762693133,
    "wof:lastmodified": 1787988198,
    "wof:name": "timetable: California Central Airlines, pocket schedule",
    "wof:parent_id": 1159162825,
    "wof:placetype": "custom",
    "wof:placetype_alt": [
      "object"
    ],
    "wof:repo": "sfomuseum-data-collection",
    "wof:superseded_by": [],
    "wof:supersedes": []
  },
  "bbox": [
    -122.38647222518921,
    37.6161053594541,
    -122.38583385944366,
    37.61661101879963
  ],
  "geometry": {"type":"Polygon","coordinates":[[[-122.38647222518921,37.61631782178288],[-122.386434674263,37.61623283692423],[-122.38637566566466,37.61617759671399],[-122.38630056381224,37.6161308549656],[-122.38616108894348,37.6161053594541],[-122.38602161407469,37.6161308549656],[-122.38591432571411,37.61618609521055],[-122.38585531711577,37.61626683087935],[-122.38583385944366,37.61636881265146],[-122.38587141036987,37.61646654505181],[-122.38594114780425,37.61654303118856],[-122.38605380058287,37.61660252035167],[-122.38618254661559,37.61661101879963],[-122.3863059282303,37.61657277577607],[-122.3864185810089,37.61650903735973],[-122.3864668607712,37.61641130501523],[-122.38647222518921,37.61631782178288]]]}
}
