{
  "id": 1762682723,
  "type": "Feature",
  "properties": {
    "date:cessation_lower": "1979-01-01",
    "date:cessation_upper": "1979-12-31",
    "date:inception_lower": "1979-01-01",
    "date:inception_upper": "1979-12-31",
    "edtf:cessation": "1979",
    "edtf:inception": "1979",
    "geom:area": 2.475047457570636e-7,
    "geom:bbox": "-122.386472,37.616105,-122.385834,37.616611",
    "geom:latitude": 37.61635747477365,
    "geom:longitude": -122.38615540108617,
    "millsfield:airline_id": [
      1159284127
    ],
    "millsfield:category_id": 1511214223,
    "millsfield:collection_id": 1511214207,
    "millsfield:company_id": [
      1159286837
    ],
    "millsfield:images": [
      1762698017,
      1762698045
    ],
    "millsfield:images_colors_refs": {
      "crayola": [
        {
          "hex": "#6699cc"
        },
        {
          "hex": "#414a4c"
        },
        {
          "hex": "#714b23"
        },
        {
          "hex": "#1974d2"
        },
        {
          "hex": "#dbd7d2"
        },
        {
          "hex": "#ff2b2b"
        },
        {
          "hex": "#c5d0e6"
        }
      ],
      "css4": [
        {
          "hex": "#4682b4"
        },
        {
          "hex": "#dcdcdc"
        },
        {
          "hex": "#ff0000"
        },
        {
          "hex": "#2f4f4f"
        },
        {
          "hex": "#006400"
        },
        {
          "hex": "#228b22"
        },
        {
          "hex": "#1e90ff"
        },
        {
          "hex": "#6495ed"
        },
        {
          "hex": "#d3d3d3"
        }
      ],
      "marekm4": [
        {
          "hex": "#c8d5d6"
        },
        {
          "hex": "#0677cb"
        },
        {
          "hex": "#1b6011"
        },
        {
          "hex": "#2e3638"
        },
        {
          "hex": "#3a8611"
        },
        {
          "hex": "#2c8cd3"
        },
        {
          "hex": "#d30606"
        },
        {
          "hex": "#5da4d4"
        },
        {
          "hex": "#dfe1db"
        }
      ]
    },
    "millsfield:images_texts": [
      "CATHAY\nPACIFIC\n1979 8•9•10\nPOCKET\nTIMETABLE\nEffective from 4th Aug. 1979\nCATHAY PACIFIC ~\n-B747-200B",
      "CATHAY\nPACIFIC\n8 •9 • 10\n8244-108310\nB4-4+\u003e*\n(B747-200B)41018\nL10--2-x-1÷123-\n(L-1011-100)28618\nB7-•*-1: 7707 15418\n• HL P9 3 RE S\nB --.V f\n-•1 fr\nB••+/\n271L*1/29*+/1M./-L-=\n/Fr1 m.\n40 maCe**h\nMEL/SYD own stop-over rights\nonly.\n...\nEmA T00\u003c80T3*\nh\" *t.\nSubject to change\nwithout notice.\n40221011027-1\n1T111082180*7-9123*\n\") .\n:#0 \u003c 12%v.\nSEOUL\nHONG KONG\nKOWLOON\nMANILA\nBRUNEI\nKOTA KINABALU\nBANGKOK\nPENANG\nBAHRAIN\nKUALA LUMPUR\nSINGAPORE\nJAKARTA\nPERTH\nMELBOURNE\nSYDNEY\nKAOHSIUNG\n23-0321/8\n5117211.5210250/7\n5-252111\n3-662407\n58-27-01/5, 50-96-36/30\n3407\n54733\n233-9825/9\n26342/3\n57188.57197\n5710019.5710197\n94884/8.911811/22\n56921/5\n22-1377\n67-6129\n231-5122\n203-166/8\n9\n12\n19\n26\n2/%0\n21\n6\n13\n10\n17\n24\n15\n22\n29\n14\n21\n11\n18\n25\n2\n16\n30\n15\n22\n29\n12\n19\n26\n24\n31\n16\n13\n20\n27\n11\n18\n10\n17\n24\n31\n14\n21\n28\n12\n19\n11\n18\n25\n15\n29\n13\n20\nSOUTHBOUND\nFLIGHT NO.\nX40]\nDAY\nGMT\n+ 9\n+9\n+9\n+ 9\n+ 9\n+ 9\n0900\n1016\n+9\nCX991\nWED SAI\nCA/UT\nTu THe\nLIO\n0845\n+8\n0930\n1050\n1030\n1105\n1140\n+8\n+ 7\n1005\n+7= ^\n+\n+7=* *- »\n+*+*^ \u003e 2\n+3\n« - L \u003e\n+4\n+10\n#-PELZE-\n+8\n+10\n*N *n \u003e\n+10 % F =\nNORTHBOUND\nFLIGHT NO.\nCX900\nCX900\nCX904\nDAY\nAKKARI\n+10 x N * 1 \u003e\n+10 %\n+8\n+10\n*-LEVAE-\n+3\n+4\n+72==**-»\n+\n+8\n+8\n7\nILU\n+8\n=\n1140\n1050\n1205\n1645\n1720\nCX703\n1645\n1720\n1330\nCX503\n1030\n1410\nWON WH\nTHU FR\n1705\n1900\n1945\n2055\nCX521\n0920\n1200\n1245\n1415\nCX551\nWED SUN\n1400\n1530\n[cx713\n1705\n®\n1740\n1840\n2120\n(Cx171\nHU SA\n1650\n1850\n1935\n2100\n2145\n0240\nCX712\n1705\nR\n1740\n1840\n2120\nCX551\n1000\n(R)\n1310\n1400\n1530\nCX741|\nTUE SAI\n1725\n1800\n1845\nCX505\nTHU SAI\n1130\n1535\nCX731\nTHU SUP\n1725\n1800\n1845\n2140\n2140\n2230\n0030\nCX501\nDALY\nCX511\n1115\nCX903\nEX WTH\n1915\n2045\nCX903\nB20\n+9\n+9\n+ 9\n+9\n+9\n+9\n+9\n*\nNP NO N0Q\n1420\nCX410|\nLIO\n0845\n1010\n1105\n1320\nI IoD\n1420\n6X450\n0745\n(B)\n0910\n1010\n1300\n1400\n1620\n1635\nXe50\nWEO SAI\n0910\n1010\n1300\n1400\n1620\nCX700\nDALY\n1100\n1535\nCX510\n(R)\n1240\n1325\nCX740\n2230\n0030\n0115\n1015\n1115\n1550\nCX 504\n1530\n1855\nCX730\n2355\n1o20\n1115\n1550\n[CX522\n1530\n®\n1655\n1740\n2005\nCX710\nDAT\n0800\n1005\n1050\n1600\nCx550\n'SAT\n1700\n1825\n1915\n2205\nCX712\nSUN\n0850\n1040\n1140\n1615\nCX550\nTUE SAT\n1825\nCX720\nTU THU\nTEI SA\nCX 990\nCX716\nDARY\nCX 100\n1215\nCX 100\n0930\n1045\n1215\n0900\n(R)\n1205\n1245\n1510\n1550\n0850\n(B)\n1040\n1140\n1615\nCx 502]\n1705\n0920\n1030\n1130\n1625\n[CXS00\n1715\n1430\n1105\n1140\n1215\n1600\n1940\n2035\n2035\nCX400\n2055\n2150\n2020\n2115\nCX411\nMON TL\nTHU PR\n1720\n1940\n2040\n2210\nCX711\nDAILY\n1730\nCX411\nSAT SUN\n1720\n1940\n2040\n2210\nCX911\n2135\nCX451\n1410\n1610\n1710\n2020\n2110\n2240\nCX101\n[CX 101\nTUE IRI\n2330\n2820\n2710\n0455\n(B)\n0920\nCXH0?\n0815\n0930\n*1045\n[CX 702\n1810\n1820\n2255\n1820\n2255\n2330\n***•\n*\nKO N0 K\n37512-\n\" \u003e * *#- 1\n\" * *1 \"\n#-KEVXE-\n*N * . \u003e\nF=\nx N * N ‹\n*-KELAE-\n** * %\n\" **- N\n+\n*\n. +..\n=\nElt"
    ],
    "millsfield:images_texts_ids": [
      1762698017,
      1762698045
    ],
    "millsfield:primary_image": 1762698017,
    "millsfield:subcategory_id": 1511213425,
    "mz:is_current": 1,
    "sfomuseum:accession_number": "2012.173.142",
    "sfomuseum:airline": "Cathay Pacific Airways",
    "sfomuseum:airline_id": [
      295
    ],
    "sfomuseum:category": "Scheduling / Ticketing",
    "sfomuseum:classification_id": 158,
    "sfomuseum:collection": "Aviation Archive",
    "sfomuseum:creditline": "Gift of Willard F. Keeney",
    "sfomuseum:date": "1979",
    "sfomuseum:date_acquired": "2013-03-28",
    "sfomuseum:daterange_end": "1979-12-31",
    "sfomuseum:daterange_start": "1979-01-01",
    "sfomuseum:description": "Pocket timetable issued by Cathay Pacific Airways, effective August 4, 1979; fold-out format; white and green cover with color photographic image of Boeing 747-200B in flight; includes route map.",
    "sfomuseum:dimensions": "5 1/2 x 3 inches (14 x 7.6 cm)",
    "sfomuseum:medium": "paper, ink",
    "sfomuseum:object_id": 140570,
    "sfomuseum:placetype": "object",
    "sfomuseum:publication": ": , 1979.",
    "sfomuseum:subcategory": "Timetable",
    "sfomuseum:subject": "Airlines -- Commercial -- Cathay Pacific Airways.",
    "src:geom": "sfomuseum#undetermined",
    "wof:belongsto": [
      102527513,
      1159162825,
      102191575,
      85633793,
      102087579,
      85922583,
      85688637,
      1159160869
    ],
    "wof:country": "XY",
    "wof:created": 1641340422,
    "wof:depicts": [
      1159286837,
      1159284127
    ],
    "wof:geomhash": "c281b9d9eefc83b5710e64b9d646067d",
    "wof:hierarchy": [
      {
        "building_id": -1,
        "campus_id": 102527513,
        "collection_id": 1159162825,
        "concourse_id": 1159162825,
        "continent_id": 102191575,
        "country_id": 85633793,
        "county_id": 102087579,
        "custom_id": 1762682723,
        "locality_id": 85922583,
        "neighbourhood_id": -1,
        "object_id": 1762682723,
        "region_id": 85688637,
        "wing_id": 1159160869
      }
    ],
    "wof:id": 1762682723,
    "wof:lastmodified": 1787988193,
    "wof:name": "timetable: Cathay Pacific Airways, pocket schedule",
    "wof:parent_id": 1159162825,
    "wof:placetype": "custom",
    "wof:placetype_alt": [
      "object"
    ],
    "wof:repo": "sfomuseum-data-collection",
    "wof:superseded_by": [],
    "wof:supersedes": []
  },
  "bbox": [
    -122.38647222518921,
    37.6161053594541,
    -122.38583385944366,
    37.61661101879963
  ],
  "geometry": {"type":"Polygon","coordinates":[[[-122.38647222518921,37.61631782178288],[-122.386434674263,37.61623283692423],[-122.38637566566466,37.61617759671399],[-122.38630056381224,37.6161308549656],[-122.38616108894348,37.6161053594541],[-122.38602161407469,37.6161308549656],[-122.38591432571411,37.61618609521055],[-122.38585531711577,37.61626683087935],[-122.38583385944366,37.61636881265146],[-122.38587141036987,37.61646654505181],[-122.38594114780425,37.61654303118856],[-122.38605380058287,37.61660252035167],[-122.38618254661559,37.61661101879963],[-122.3863059282303,37.61657277577607],[-122.3864185810089,37.61650903735973],[-122.3864668607712,37.61641130501523],[-122.38647222518921,37.61631782178288]]]}
}
