{
  "id": 1511939495,
  "type": "Feature",
  "properties": {
    "date:cessation_lower": "1984-01-01",
    "date:cessation_upper": "1984-12-31",
    "date:inception_lower": "1984-01-01",
    "date:inception_upper": "1984-12-31",
    "edtf:cessation": "1984",
    "edtf:date": "1984",
    "edtf:inception": "1984",
    "geom:area": 0,
    "geom:bbox": "-122.386155,37.616357,-122.386155,37.616357",
    "geom:latitude": 37.616357,
    "geom:longitude": -122.386155,
    "iso:country": "XX",
    "millsfield:airline_id": [
      1159284973
    ],
    "millsfield:category_id": 1511214223,
    "millsfield:collection_id": 1511214207,
    "millsfield:company_id": [
      1159286629
    ],
    "millsfield:images": [
      1527835731
    ],
    "millsfield:images_colors_refs": {
      "crayola": [
        {
          "hex": "#414a4c"
        },
        {
          "hex": "#efdecd"
        },
        {
          "hex": "#ff2b2b"
        }
      ],
      "css4": [
        {
          "hex": "#2f4f4f"
        },
        {
          "hex": "#faebd7"
        },
        {
          "hex": "#b22222"
        }
      ],
      "marekm4": [
        {
          "hex": "#302e25"
        },
        {
          "hex": "#ca2220"
        },
        {
          "hex": "#efead9"
        }
      ]
    },
    "millsfield:images_texts": [
      "SAN JOSE\nQUICK\nPSA®\nEFFECTIVE SEPTEMBER 5, 1984\nRESERVATIONS (408) 971-8000\nLeaves\nArrives\nFlight\nFreq.\nTo ALBUQUERQUE\n7:00a 11:34a\n162/922\n11:30a\n4:44p\n5:30p\n9:46p\n268/930\n660/524\nEx Su\nEx Sa\nEx Sa\nTo BURBANK\n7:00a\n7:55a\n8:25a\n9:23a\n9:55a\n10:53a\n12:10p\n1:08p\n3:00p\n3:58p\n4:45p\n6:30p\n5:43p\n7:35p\n7:25p\n8:33p\n104\n204\n306\n302\n506\n406\n404\n906\nEx Sa Su\nEx Sa\nEx Sa\nEx Sa\nTo LAS VEGAS\n7:30a\n10:02a\n266\nEx Su\n8:25a\n10:37a\n204\n10:00a\n11:30a\n12:39p\n264/244\n2:20p\n268/386\nEx Sa\n12:20p\n2:52p\n366\n1:00p\n3:00p\n6:30p\n8:30p\nAbove Flight Effective Oct. 3\n3:24p\n362\n5:13p\n8:40p\n506\nEx Sa\n404\n11:41p\n562/820\nEx Sa\n162\n164\n264\n268\n362\n462\n464\n660\n664\n562\nEx Su\nEx Sa\nExSa\nEx Sa\nEx Sa\nEx Sa\nTo OAKLAND\n8:08a\n8:28a\n269\nEx Su\nTo ORANGE COUNTY\n7:25a\n8:34a\n778\n12:15p\n1:24p\n790\n5:50p\n6:59p\n794\nEx Sa Su\nSa\nEx Sa\nTo PHOENIX\n7:00a\n9:27a\n11:30a\n12:20p\n3:01p\n2:30p\n3:55p\n5:52p\n4:45p\n8:08p\n7:00p\n10:02p\n104\n268/248\n366/350\n462/444\n406/478\n664/544\nEx Sa Su\nEx Sa\nEx Sa\nEx Sa\nEx Sa\nS-Snack\nVia/Stops\nLAX\nLAX\nLAX\n1\nLAX\nLAX\nLAX\nLAX\nSAN\nLAX\nBUR\nLAX\nLeaves\nArrives\nFlight\nFreq.\nVia/Stops\nFrom ALBUQUERQUE\n7:10a\n9:30a\n121/261 ExSu\n12:15p\n3:25p\n5:25p\n7:57p\n927/361\n929/565\nEx Sa\n(505) 247-2900\nLAX S\nLAX\nS\nLAX\nFrom BURBANK\n7:00a\n8:03a\n8:30a\n9:33a\n10:45a\n11:48a\n103\n207\n1:30p\n2:33p\n3:20p\n4:23p\n5:02p\n6:10p\n6:00p\n309\n7:13p\n8:15p\n9:18p\n505\n509\n(818) 841-3800\nEx Sa Su\nEx Sa\nEx Sa\nEx Sa\nFrom LAS VEGAS\n6:40a\n9:30a\n10:35a\n11:00a\n1:57p\n2:33p\n1:10p\n3:25p\n3:54p\n6:26p\n8:40p\n11:06p\n125/261\n329/463\n311/305\n361\n583/567\n719/667\nEx Sa\n(702) 382-1905\nLAX\nLAX\nBUR\nExSa\nExSa\nLAX\nLAX\nFrom LOS ANGELES\n7:00a\n8:00a\n161\n8:30a\n9:30a\n261\n10:00a\n10:58a\n167\n11:30a\n12:27p\n1:00p\n1:57p\n265\n463\n2:30p\n4:00p\n3:25p\n361\n5:30p\n4:56p\n465\n6:26p\n567\n7:00p\n8:30p\n7:57p\n9:26p\n565\n663\n10:10p\n11:06p\n667\n(213) 935-5005\nEx Sa Su\nEx Sa\n0\nEx Sa\nEx Sa\nEx Sa\nEx Sa\nFrom OAKLAND\n10:40p\n11:05p\n869\n(415) 444-7363\nEx Fr Sa Su\nFrom ORANGE COUNTY (714) 834-1131\n9:04a 10:09a\n577\nEx Sa Su\n1:55p\n7:30p\n3:00p\n791\nSa\n8:35p\n797\nEx Sa\nFrom PHOENIX\n6:50a\n9:30a\n8:55a\n11:49a\n11:20a\n1:57p\n2:45p\n3:31p\n5:20p\n6:00p\n6:22p\n9:18p\n8:38p\n11:06p\n801/261\n707/365\n281/463\n767\n905\n515/509\n667\nEx Su\nEx Sa\n(602) 258-7355\nLAX\nSAN\nLAX\nEx Sa\nEx Sa\nBUR"
    ],
    "millsfield:images_texts_ids": [
      1527835731
    ],
    "millsfield:primary_image": 1527835731,
    "millsfield:subcategory_id": 1511213425,
    "mz:hierarchy_label": 1,
    "mz:is_current": 1,
    "sfomuseum:accession_number": "2003.105.088.006",
    "sfomuseum:airline": "Pacific Southwest Airlines (PSA)",
    "sfomuseum:airline_id": [
      677
    ],
    "sfomuseum:category": "Scheduling / Ticketing",
    "sfomuseum:classification_id": 158,
    "sfomuseum:collection": "Aviation Archive",
    "sfomuseum:creditline": "Gift of Craig Lynes",
    "sfomuseum:date": "1984",
    "sfomuseum:date_acquired": "2003-12-29",
    "sfomuseum:daterange_end": "1984-12-31",
    "sfomuseum:daterange_start": "1984-01-01",
    "sfomuseum:description": "Quick reference timetable issued by Pacific Southwest Airlines (PSA), effective September 5, 1984, for service to and from San Jose; white double-sided page.",
    "sfomuseum:dimensions": "9 x 4 inches (22.9 x 10.2 cm)",
    "sfomuseum:media_ids": [
      1527835731
    ],
    "sfomuseum:medium": "paper, ink",
    "sfomuseum:object_id": 100291,
    "sfomuseum:placetype": "object",
    "sfomuseum:primary_media_id": 1527835731,
    "sfomuseum:publication": ": , 1984.",
    "sfomuseum:subcategory": "Timetable",
    "src:geom": "sfomuseum#undetermined",
    "wof:belongsto": [
      1511214223,
      102527513,
      102191575,
      85633793,
      1511213425,
      85922583,
      102087579,
      1511214277,
      1511214207,
      85688637
    ],
    "wof:breaches": [],
    "wof:country": "XX",
    "wof:created": 1579906666,
    "wof:depicts": [
      1159284973,
      1159286629
    ],
    "wof:geomhash": "30c8a918561c84bb2daa2b97fc7c5353",
    "wof:hierarchy": [
      {
        "arcade_id": 1511213425,
        "building_id": 1511214277,
        "campus_id": 102527513,
        "concourse_id": 1511214223,
        "continent_id": 102191575,
        "country_id": 85633793,
        "county_id": 102087579,
        "custom_id": 1511939495,
        "locality_id": 85922583,
        "neighbourhood_id": -1,
        "object_id": 1511939495,
        "region_id": 85688637,
        "venue_id": 1511939495,
        "wing_id": 1511214207
      }
    ],
    "wof:id": 1511939495,
    "wof:lastmodified": 1787988184,
    "wof:name": "timetable: Pacific Southwest Airlines (PSA), quick reference San Jose",
    "wof:parent_id": 1159162825,
    "wof:placetype": "custom",
    "wof:placetype_alt": [
      "object"
    ],
    "wof:repo": "sfomuseum-data-collection",
    "wof:superseded_by": [],
    "wof:supersedes": [],
    "wof:tags": []
  },
  "bbox": [
    -122.386155,
    37.616357,
    -122.386155,
    37.616357
  ],
  "geometry": {"type":"Point","coordinates":[-122.386155,37.616357]}
}
