{
  "id": 1511937569,
  "type": "Feature",
  "properties": {
    "date:cessation_lower": "1959-01-01",
    "date:cessation_upper": "1959-12-31",
    "date:inception_lower": "1959-01-01",
    "date:inception_upper": "1959-12-31",
    "edtf:cessation": "1959",
    "edtf:date": "1959",
    "edtf:inception": "1959",
    "geom:area": 0,
    "geom:bbox": "-122.386155,37.616357,-122.386155,37.616357",
    "geom:latitude": 37.616357,
    "geom:longitude": -122.386155,
    "iso:country": "XX",
    "millsfield:aircraft_id": [
      1159290443
    ],
    "millsfield:airline_id": [
      1159285415
    ],
    "millsfield:category_id": 1511214223,
    "millsfield:collection_id": 1511214207,
    "millsfield:company_id": [],
    "millsfield:exhibition_ids": [
      1763595001
    ],
    "millsfield:images": [
      1527855087,
      1527855089,
      1527855091
    ],
    "millsfield:images_colors_refs": {
      "crayola": [
        {
          "hex": "#2e5894"
        },
        {
          "hex": "#efcdb8"
        },
        {
          "hex": "#95918c"
        },
        {
          "hex": "#dbd7d2"
        },
        {
          "hex": "#1a4876"
        },
        {
          "hex": "#ff2b2b"
        }
      ],
      "css4": [
        {
          "hex": "#b22222"
        },
        {
          "hex": "#d3d3d3"
        },
        {
          "hex": "#778899"
        },
        {
          "hex": "#191970"
        },
        {
          "hex": "#483d8b"
        }
      ],
      "marekm4": [
        {
          "hex": "#d1221c"
        },
        {
          "hex": "#cd251d"
        },
        {
          "hex": "#1c2e71"
        },
        {
          "hex": "#7a859d"
        },
        {
          "hex": "#282a6d"
        },
        {
          "hex": "#162873"
        },
        {
          "hex": "#32478b"
        },
        {
          "hex": "#ddd3be"
        },
        {
          "hex": "#e1cbbc"
        },
        {
          "hex": "#384c8b"
        },
        {
          "hex": "#34478f"
        },
        {
          "hex": "#d02b28"
        },
        {
          "hex": "#ded5c0"
        }
      ]
    },
    "millsfield:images_texts": [
      "SYSTEM TIMETABLE EFFECTIVE AUGUST 1, 1959\nUNITED\nAIR LINES\nComing Soon!\nUNITED\nThe DC-8 JET MAINLINER\nWorld's newest, finest jetliner",
      "S\nAUGUST - 1959\nM T\nW\nF\nS\n2\n3\n4\n5\n6\n7\n8\n9\n10 11 12 13 14 15\n16\n• 17\n18 19\n20 21\n22\n23 24\n25 26 27 28\n29\n30 31\nUNITED\nAIR LINES\nS\nSEPTEMBER - 1959\nM\nW\n6\n13\n20\n27\n7\n8\n14 15\n21 22\n28 29\nF\nS\n3\n4\n5\n9\n11 12\n16\n1\n7 18 19\n23 24\n25 26\n30\nEconomical Reduced-Fare Family Plan-12:01 p.m. Monday through 12:01 p.m. Thursday.\n\\DC:7 Mainline\nTAKE THE FAMILY ALONG!\nFLY FIRST CLASS - SAVE MONEY\nREDUCED-FARE\nFAMILY PLAN\nAVAILABLE MONDAY THROUGH THURSDAY\nYou can travel First Class and save money, by using\nUnited's Reduced-Fare Family Plan. Buy a full-fare\none-way first class ticket for yourself for a flight\ndeparting between 12:01 p.m. Monday and\n12:01 p.m. Thursday. Then you can buy tickets, at\ntwo-thirds the cost of the one-way first class fare,\nfor your wife and/or children 12 through 21 years of\nage. Children between 2 and 12 travel for half fare, and\na child under 2 years of age, not occupying\na seat, can travel with your family at no extra cost.\n(Plan not effective between California and Hawaii\nnor on United Air Coach and Custom Coach flights.)\nFor reservations, call an authorized travel\nagent or\nUNITED AIR LINES\nthe vacation route of the nation\n2378-7/59-A\nPrinted in U.S.A.\n2005./32.036.036",
      "Call United first whenever you plan to travel or ship!\nHONOLULU TIME\nPACIFIC TIME\nMOUNTAIN TIME\nCENTRAL TIME\nTo ALASKA\n11 12 1\nEASTERN TIME\n11121\n10\nTo EDMONTON\nCALGARY.\nTo the ORIENT\nVANCOUVER A\nSEATTLE\nTACOMA\nPORTLAND\nSALEM?\nEUGENES\nMEDFORD S\nJLETHBRIDGE\nBELLINGHAM\nSPOKANE\nWALLA WAL\nPENDLETON\nWINNIPEG\nREGINA\nPORT ARTHUR\nET. WILLIAM,\n© KAPUSKASING\nPRESQUE ISLE\nGREAT FALLS\nO LEWISTOWN\nBUTTE\nBILLINGS\nBOISE\nWESTOYELLOWSTONE\nSUN VALLEY\nSHERIDAN 9\nTWIN FALLS\nPOCATELLO\nJACKSON\nOGDEN\nELKO\nSALT\nLAKE\nCITY\nGRAND JUNCTION\nMONTREAL\n-BANGOR\n•NORTH BAY\nMILES CITY\n•FARGO\nMINNEAPOLIS,\n—SAINT PAUL\nPORTLAND\nCHARLEVOIX\nTORONTO\nP RAPID CITY\n• LINCOLN\nALBANY\nBOSTON 2\nTo EUROPE\nHARTFORD\nBUFFALO SPRINGFIELO\nPROVIDENCE\nPON A LENTOWN-BETHLEHEM-EASTON\nNEW YORK\nONE WARK\nTo NASSAU,\nPHILADELPHIA\nBERMUDA,\nPITTSBURON\nthe CARIBBEAN,\nBALTIMORE\nand AFRICA\nWASHINGTON, D. C.\nTo the ORIENT\nHAWAII\nHONOLULU\nRENO\nOAKLAND\nSAN FRANCISCO\nSALINAS\nCONTEREY?\"\nCARMEL\nSACRAMENTO\nSTOCKTON\nMODESTO\n• FRESNO\nSALIA\nLAS VEGAS\n• BAKERSFIE\nSANTA BARBARA\nBURBANK\nLOS ANGELES\nLONG BEACH\nSAN DIEGO\nTo MEXICO, CENTRAL\nand SOUTH AMERICA\nCASPER\nCHEYENNE\nDEKKER\nASTEN\nCOLORADa SANÇS\nPUEBLO A\nHOOVER DAM\nMILWAUKEE/\n-DETROIT S\nYOUNGSTON\nCLEVELAND\nCEDAR RA\nCHICAGO\nDES MOINES\nIOWA CITY\nSLINE\nAVENPORT\nROCK ISLAND\nNAYNE AKRON.CAM\nCOLUMBU:\nKANSAS CITY O\nSAINT LOUIS\nLOUISVILLE\nNASHVILLE\nKNOXVILLE\nNORFOLK\nRALEIGH\nALBUQUERQUE\nPHOENIX\nTUCSON\n/TULSA\nAMARILLO\nOKLAHOMA CITY\nDALLAS\nBIG SPRING FORT WORTH\nMEMPHIS\nLITTLE ROCK\nBIRMINGHAM\nATLANTA\nSHREVEPORT\nTo AUSTRALIA and\nNEW ZEALAND\nEL PASO\nHOUSTON.\nUnited Mainliners\nare timed to the\nstars by the Elgin\nNational Watch\nObservatory.\nAN ANTONIOS\n(LAREDO N\nKEY\n\u0026 BROWNSVILLE\nMOBILE,\nTALLAHASSEI\nSNEW ORLEANS\n- To CENTRAL\nTAMPA\nand SOUTH AMERICA\nUNITED AIR LINES\n• INTERLINE THROUGH SERVICE\nOTHER AIR LINES\nQUACKSONVILLE\n• To MEXICO,\nthe CARIBBEAN,\nand SOUTH AMERICA\nfrom Surfboards and Sun to Shows and Sightseeing\nchoose a MAINLINER HOLIDAYS\nvacation\nthat's tailored to suit your plans and budget\nOne call does it all! You can select a\nwonderful Mainliner Holiday in Hawaii,\nCalifornia, Chicago or New York City and\neverything will be arranged... air\ntransportation, hotel and extra features.\nContact your authorized travel agent or\nUnited Air Lines for complete information\nand reservations.\nFly Now -Pay Later\nplan available.\n(Not applicable in Canada)\nUNITED\nAIR LINES\nthe EXTRA CARE line"
    ],
    "millsfield:images_texts_ids": [
      1527855087,
      1527855089,
      1527855091
    ],
    "millsfield:on_view": 0,
    "millsfield:primary_image": 1527855087,
    "millsfield:subcategory_id": 1511213425,
    "mz:hierarchy_label": 1,
    "mz:is_current": 1,
    "sfomuseum:accession_number": "2005.132.036.036",
    "sfomuseum:aircraft": "Douglas DC-8",
    "sfomuseum:aircraft_id": [
      498
    ],
    "sfomuseum:airline": "United Air Lines",
    "sfomuseum:airline_id": [
      884
    ],
    "sfomuseum:category": "Scheduling / Ticketing",
    "sfomuseum:classification_id": 158,
    "sfomuseum:collection": "Aviation Archive",
    "sfomuseum:creditline": "Gift of the William Hough Collection",
    "sfomuseum:date": "1959",
    "sfomuseum:date_acquired": "2006-12-05",
    "sfomuseum:daterange_end": "1959-12-31",
    "sfomuseum:daterange_start": "1959-01-01",
    "sfomuseum:description": "System timetable issued by United Air Lines, effective August 1, 1959; 27-page fold-out; white, red, and blue cover with duotone photographic image of aircraft and and text announcing new Douglas DC-8 service.",
    "sfomuseum:dimensions": "9 x 4 inches (22.9 x 10.2 cm)",
    "sfomuseum:exhibition_ids": [
      1872
    ],
    "sfomuseum:media_ids": [
      1527855087,
      1527855089,
      1527855091
    ],
    "sfomuseum:medium": "paper, ink",
    "sfomuseum:object_id": 98331,
    "sfomuseum:on_view": 1,
    "sfomuseum:placetype": "object",
    "sfomuseum:primary_media_id": 1527855087,
    "sfomuseum:publication": ": , 1959.",
    "sfomuseum:subcategory": "Timetable",
    "src:geom": "sfomuseum#undetermined",
    "wof:belongsto": [
      1511214223,
      102527513,
      102191575,
      85633793,
      1511213425,
      85922583,
      102087579,
      1511214277,
      1511214207,
      85688637
    ],
    "wof:breaches": [],
    "wof:country": "XX",
    "wof:created": 1579906664,
    "wof:depicts": [
      1159285415,
      1159288779,
      1159290443
    ],
    "wof:geomhash": "30c8a918561c84bb2daa2b97fc7c5353",
    "wof:hierarchy": [
      {
        "arcade_id": 1511213425,
        "building_id": 1511214277,
        "campus_id": 102527513,
        "concourse_id": 1511214223,
        "continent_id": 102191575,
        "country_id": 85633793,
        "county_id": 102087579,
        "custom_id": 1511937569,
        "locality_id": 85922583,
        "neighbourhood_id": -1,
        "object_id": 1511937569,
        "region_id": 85688637,
        "venue_id": 1511937569,
        "wing_id": 1511214207
      }
    ],
    "wof:id": 1511937569,
    "wof:lastmodified": 1787988183,
    "wof:name": "timetable: United Air Lines",
    "wof:parent_id": 1159162825,
    "wof:placetype": "custom",
    "wof:placetype_alt": [
      "object"
    ],
    "wof:repo": "sfomuseum-data-collection",
    "wof:superseded_by": [],
    "wof:supersedes": [],
    "wof:tags": []
  },
  "bbox": [
    -122.386155,
    37.616357,
    -122.386155,
    37.616357
  ],
  "geometry": {"type":"Point","coordinates":[-122.386155,37.616357]}
}
