{
  "id": 1763240579,
  "type": "Feature",
  "properties": {
    "date:cessation_lower": "1987-01-01",
    "date:cessation_upper": "1987-12-31",
    "date:inception_lower": "1987-01-01",
    "date:inception_upper": "1987-12-31",
    "edtf:cessation": "1987",
    "edtf:inception": "1987",
    "geom:area": 2.475047457570636e-7,
    "geom:bbox": "-122.386472,37.616105,-122.385834,37.616611",
    "geom:latitude": 37.61635747477365,
    "geom:longitude": -122.38615540108617,
    "millsfield:airline_id": [
      1159285735
    ],
    "millsfield:category_id": 1511214223,
    "millsfield:collection_id": 1511214207,
    "millsfield:company_id": [
      1159287267
    ],
    "millsfield:images": [
      1763241113
    ],
    "millsfield:images_colors_refs": {
      "crayola": [
        {
          "hex": "#fddde6"
        },
        {
          "hex": "#6699cc"
        },
        {
          "hex": "#324ab2"
        }
      ],
      "css4": [
        {
          "hex": "#faf0e6"
        },
        {
          "hex": "#483d8b"
        },
        {
          "hex": "#6495ed"
        }
      ],
      "marekm4": [
        {
          "hex": "#5a8cd5"
        },
        {
          "hex": "#3447ad"
        },
        {
          "hex": "#f0ede4"
        }
      ]
    },
    "millsfield:images_texts": [
      "STATESWES\nLV\nAR\nFLT\nNO\nFREQ\nSTOPS\nFROM BURBANK\n(Check in at Continental)\nTo LAKE HAVASU CITY\n8 30a\n10 15a\n309\n10 55a\n2 05p\n102/310\n4 15p\n6 15p\n311\n7 05p\n8 45p\n208\nTo LAUGHLIN/BULLHEAD CITY\n8 30a\n10 45a\n309\n10 55a\n1 00p\n102\n4 15p\n5 35p\n311\n7 05p\n8 20p\n208\nD/1\nX6/2\n5,7/1\nD/1\nD/2\nD/1\n5,7/0\nD/O\nTo ONTARIO\n4 30p\n5 00p\nTo ORANGE COUNTY\n8 30a\n900a\n10 55a\n11 25a\n3 15p\n3 45p\n4 30p\n5 45p\n103\n309\n102\n602\n103\n7/0\nD/0\nD/O\nX6,7/0\n7/1\nTo PHOENIX\n3 15p\n530p\n4 15p 715p\n7 05p\n9 50p\n602\n311\n208\nX6,7/1\n5,7/2\nD/2\nTo SAN DIEGO\n3 45p\n4 30p\n418\n1,2,3,4/0\nTo LAS VEGAS\n8 30a 11 30a\n309\nX6/3\nTo TUCSON\n8 30p\n1 10p\n309/206\nD/3\nFROM LAKE\nHAVASU CITY\n(Check in at StatesWest)\nTo BURBANK\n8 50a\n10 45a\n101\n2 10p\n4 00p\n310\nX6/1\n5,7/1\n4 25p\n6 50p\n207\n7 00p\n9 55p\n105\nD/2\nX6,7/2\n7 15p\n9 55p\n420/105\nD/1\nTo LAUGHLIN/BULLHEAD CITY\n8 50a\n9 10a\n101\nX6/0\n10 20a\n10 45a\n309\nD/0\n11 10a\n11 30a\n416\nD/O\n4 25p\n4 45p\n207\nD/0\n7 15p\n7 45p\n420\nX6/0\n8 45p\n9 05p\n312\nX6/0\nTo LAS VEGAS\n10 20a 11 30a\n309\nX6/1\nTo ONTARIO\n11 10a\n100p\n7 15p 9 00p\nD/1\nD/1\nTo ORANGE COUNTY\n8 50a\n11 25a\n2 10p\n3 20p\n4 25p\n6 10p\n7 00p\n9 20p\n7 15p\n9 20p\n416\n420\n101\nX6/2\n310\n5,7/0\n207\nD/1\n105\nX6,7/1\n419/105\nD/1\nLV\nAR\nFLT\nNO\nFREQ\nSTOPS\nTo PHOENIX\n7 00a\n7 55a\n11 10a\n12 05p\n5 00p\n5 55p\n6 20p\n7 15p\n8 50p\n9 50p\nTo SAN DIEGO\n11 10a\n2 00p\n7 15p\n10 00p\nTo TUCSON\n11 10a\n110p\n415\n206\n501\n311\n208\nX6,7/0\nD/O\nX5, 7/0\n5,7/0\nD/O\n416\n420\nD/2\nD/2\n206\nX6/1\nFROM LAS VEGAS\n(Check in at Senic)\nTo BURBANK\n12 50p\n4 00p\n12 50p 3 00p\n310\n5,7/3\n310/601\nX6,7/1\nTo LAUGHLIN/BULLHEAD CITY\n12 50p\n1 20p 310\nX6/0\nTo LAKE HAVASU CITY\n12 50p\n2 05p\n310\nX6/1\nTo ORANGE COUNTY\n12 50p\n320p\n310\n12 50p\n3 45p 310/601\n5,7/2\nX6,7/2\nFROM LAUGHLIN/\nBULLHEAD CITY\n(Check in at StatesWest)\nTo BURBANK\n9 30a 10 45a\n1 35p\n4 00p\n140p\n3 00p\n3 00p\n4 20p\n5 00p\n6 50p\n8 15p\n9 55p\nTo LAKE HAVASU CITY\n6 35a\n6 55a\n10 45a\n11 05a\n135p\n2 05p\n4 35p\n4 55p\n5 55p\n6 15p\n8 30p\n8 45p\n101\n310\n601\n103\n207\n105\n415\n206\n310\n501\n311\n208\nTo ONTARIO\n11 50a\n100p\n3 00p\n5 00p\n8 00p\n9 00p\nTo ORANGE COUNTY\n9 30a\n11 25a\n1 35p\n3 20p\n1 40p\n3 45p\n3 00p\n5 45p\n5 00p\n6 10p\n8 15p\n920p\n416\n103\n420\n101\n310\n601\n103\n207\n105\nTo PHOENIX\n6 35a\n7 55a\n10 45a\n12 05p\n4 35p\n5 55p\n5 55p\n7 15p\n8 30p\n9 50p\nD/O\n5,7/2\nX6,7/0\n7/0\nD/1\nD/1\nX6,7/0\nD/0\nX6/0\nX5.7/0\n5.7/0\nD/0\nD/O\n7/1\nD/0\nD/1\n5,7/1\nX6,7/1\n7/2\nD/O\nD/O\n415\n206\nX6,7/1\n501\nD/1\n311\nX5,7/1\n208\n5,7/1\nD/1\nCONTINUED OTHER SIDE\n25M 3-87"
    ],
    "millsfield:images_texts_ids": [
      1763241113
    ],
    "millsfield:primary_image": 1763241113,
    "millsfield:subcategory_id": 1511213425,
    "mz:is_approximate": 1,
    "mz:is_current": 1,
    "sfomuseum:accession_number": "2014.084.1016",
    "sfomuseum:airline": "StatesWest",
    "sfomuseum:airline_id": [
      1039
    ],
    "sfomuseum:category": "Scheduling / Ticketing",
    "sfomuseum:classification_id": 158,
    "sfomuseum:collection": "Aviation Archive",
    "sfomuseum:creditline": "Gift of Thomas G. Dragges",
    "sfomuseum:date": "1987",
    "sfomuseum:date_acquired": "2015-07-02",
    "sfomuseum:daterange_end": "1987-12-31",
    "sfomuseum:daterange_start": "1987-01-01",
    "sfomuseum:description": "Timetable issued by StatesWest, effective April 5, 1987; double-sided white and blue card with schedule information.",
    "sfomuseum:dimensions": "9 x 4 inches (22.9 x 10.2 cm)",
    "sfomuseum:medium": "paper, ink",
    "sfomuseum:object_id": 157578,
    "sfomuseum:placetype": "object",
    "sfomuseum:publication": ": , 1987.",
    "sfomuseum:subcategory": "Timetable",
    "src:geom": "sfomuseum#undetermined",
    "wof:belongsto": [
      102527513,
      1159162825,
      102191575,
      85633793,
      102087579,
      85922583,
      85688637,
      1159160869
    ],
    "wof:country": "XY",
    "wof:created": 1646901761,
    "wof:depicts": [
      1159285735,
      1159287267
    ],
    "wof:geomhash": "c281b9d9eefc83b5710e64b9d646067d",
    "wof:hierarchy": [
      {
        "building_id": -1,
        "campus_id": 102527513,
        "collection_id": 1159162825,
        "concourse_id": 1159162825,
        "continent_id": 102191575,
        "country_id": 85633793,
        "county_id": 102087579,
        "custom_id": 1763240579,
        "locality_id": 85922583,
        "neighbourhood_id": -1,
        "object_id": 1763240579,
        "region_id": 85688637,
        "wing_id": 1159160869
      }
    ],
    "wof:id": 1763240579,
    "wof:lastmodified": 1787988205,
    "wof:name": "timetable: StatesWest",
    "wof:parent_id": 1159162825,
    "wof:placetype": "custom",
    "wof:placetype_alt": [
      "object"
    ],
    "wof:repo": "sfomuseum-data-collection",
    "wof:superseded_by": [],
    "wof:supersedes": []
  },
  "bbox": [
    -122.38647222518921,
    37.6161053594541,
    -122.38583385944366,
    37.61661101879963
  ],
  "geometry": {"type":"Polygon","coordinates":[[[-122.38647222518921,37.61631782178288],[-122.386434674263,37.61623283692423],[-122.38637566566466,37.61617759671399],[-122.38630056381224,37.6161308549656],[-122.38616108894348,37.6161053594541],[-122.38602161407469,37.6161308549656],[-122.38591432571411,37.61618609521055],[-122.38585531711577,37.61626683087935],[-122.38583385944366,37.61636881265146],[-122.38587141036987,37.61646654505181],[-122.38594114780425,37.61654303118856],[-122.38605380058287,37.61660252035167],[-122.38618254661559,37.61661101879963],[-122.3863059282303,37.61657277577607],[-122.3864185810089,37.61650903735973],[-122.3864668607712,37.61641130501523],[-122.38647222518921,37.61631782178288]]]}
}
