{
  "id": 1762694237,
  "type": "Feature",
  "properties": {
    "date:cessation_lower": "1947-01-01",
    "date:cessation_upper": "1947-12-31",
    "date:inception_lower": "1947-01-01",
    "date:inception_upper": "1947-12-31",
    "edtf:cessation": "1947",
    "edtf:inception": "1947",
    "geom:area": 2.475047457570636e-7,
    "geom:bbox": "-122.386472,37.616105,-122.385834,37.616611",
    "geom:latitude": 37.61635747477365,
    "geom:longitude": -122.38615540108617,
    "millsfield:airline_id": [
      1159283541
    ],
    "millsfield:category_id": 1511214223,
    "millsfield:collection_id": 1511214207,
    "millsfield:company_id": [
      1159288905
    ],
    "millsfield:images": [
      1762697717,
      1762697719
    ],
    "millsfield:images_colors_refs": {
      "crayola": [
        {
          "hex": "#85754e"
        },
        {
          "hex": "#8a795d"
        },
        {
          "hex": "#d68a59"
        },
        {
          "hex": "#e7c697"
        },
        {
          "hex": "#414a4c"
        }
      ],
      "css4": [
        {
          "hex": "#f5deb3"
        },
        {
          "hex": "#2f4f4f"
        },
        {
          "hex": "#a0522d"
        },
        {
          "hex": "#d2b48c"
        },
        {
          "hex": "#cd853f"
        },
        {
          "hex": "#bdb76b"
        },
        {
          "hex": "#696969"
        }
      ],
      "marekm4": [
        {
          "hex": "#1f2a3e"
        },
        {
          "hex": "#29344d"
        },
        {
          "hex": "#8e7343"
        },
        {
          "hex": "#cca45c"
        },
        {
          "hex": "#d0a33f"
        },
        {
          "hex": "#dec7a9"
        },
        {
          "hex": "#8f7753"
        },
        {
          "hex": "#dac09b"
        }
      ]
    },
    "millsfield:images_texts": [
      "Y AUTOTRANSPORTES DE MEXICO\nDIRECTORIO DE HOTELES\nDICIEMBRE DE 1947\nPASAJE CORREO EXPRESS CARGA",
      "LINEAS INTERNAGIORALES\nLINEAS UNIDAS DEL NORTE, S.C.L.\nCA RUTA MAS\nRUTA: MEXICO • C.VICTORIA\nMATAMOROS • BROWNSVILLE\nA LOS ESTADOS\nCONEXVONES\nCON LA\nLéase hacia abajo\nLéase hacia arriba\nSALIDAS\nNo 1 No 2\n195\nLLEGADA\nARIFA\nNo 3 No 4\nV\nS\nV.\nS\n7.00: 19.00\n9.00\n21.00\n0\n120\nS\nMEXICO\n5.30\n16.30\n.00\n46.65\nLI Actópan \u0026\n3.30\n14.30\n9.30\n21.30\nS\nActopan\n11.10\n23.10\n206\nLI Zimapan\nS\n3.25\n14.05\n1.50\n12.30\n11.10\n23.10\nS\n272\nZimapán\nLI\n1.50\n12.30\n13.00\n1.00\nLl Jacala \u0026\nS\n23.50\n10.30\n13.30\n1.10\nS\nJacala\nLI\n23.45\n10.25\n37,40\n34.70\n16.10\n3.50\n367\nLI Tamazunchale \u0026\nS\n21.00\n7.40\n16.50\n16.20\n4.00\n9\nLI\n20.30\n7.10\n30.15\n18.30\nTamazunchale.\n6.10\n475\nLI C. VALLES \u0026 ....\nS\n18.30\n5.10\n18.40\n6.20\nS\nC. VALLES\n18.20\n5.05\n20.40\n8.20\n571\nLI C. MANTE \u0026\nS\n21.10\n8.50\nS\nC. MANTE\nLI\n16.20\n3.05\n21.30\n*\n25.35\n25.20\n16.15\n3.00\n21.45\n23.20\n11.00\n706\nLI C. VICTORIA ...\nS\n14.00\n0.45\n30.60\n23.30\n11.10\nS\nLA\n13.30\n0.30\n+\n0.05\n111.45\n0.40\n|12.20\n1.15\n12.55\n1.55\n13.35\n3.05\n14.45\n732\n758\n803\n845\n878\nC. VICTORIA\nLI Guémes\n12.55\n23.55\n31.55\nLI Padilla\nLAI\n12.20\n23.20\n32.95\nLl Jiménez\n11.45\n22.45\n34.15\nLI\nTres Palos\nLI\n10.05\n22.05\n36.65\nLI SAN FERNANDO \u0026\nS\n9.55\n3.10\n15.15\nS\nSAN FERNANDO\nLI\n20.55\n38.35\n9.25\n20.25\n4.05\n941\nLI Santa Teresa\nLI\n8.25 19.25\n142.05\n5.30\n117.30\n1017\nLI MATAMOROS\nS\n7.00\n18.00\n46.65\n16.05\n14.95\n13.70\n11.90\n10.00\n1\n8.30\n4.60\n.00\n\u0026. Parada de descanso y Comida. V. S. viaje sencille.'\n22 18 A 1os Estados Unido\nS. C.\nDEL\n1c0\nCTORIA • MATAMOROS\nNUEVO LAREDO |228K\n•SABINAS, H6O, 1092 K\nBRAVO\nOBROWSVILLE\nMONTERREY 994 K\nMATAMOROS\n1017 K.\nMONTEMORELOS 915 K\nLINARES 863 K\nOS. FERNANDO 878K.\nVILLAGRAN 81G\nOJIMENEZ 803 K.\nC. VICTORIA 706K.\nGONZALEZ\n_C MANTE 671 K.\nA. MORELOS 540 K. C\nVALLES 475 K.O\nPUJAL 457 K\nTAMAZUNCHALE 367 K\n•TAMPICO\nO EBANO\n•\nTUXPAN\nGUADANASA\nQUERETARO\nJACALA 268 K. O\nLIMAPAN 206 KO\nIXMIQUILPAN 159K O\n$9.AL RI0\nMORELIA\n40\nGUADALAJARA\nO TEOTIHUACAN\nMEXICO\n- APIZ ACO\nTOLUÇA\nCUSRRAVACA\n•JOJUTLA\nIGUALA 192 K\nTERMINALES:\nEn México:\nPonciano Arriaga, 6.\nEn C. Victoria:\nTels.: 18-47-72 36-30-64\n36-43-84.\nCalle 3 y Carrera Torres.\nCHILPANCINGO 305 K\nEn Matamoros:\nCalle 6 e Hidalgo.\nLINEAS UNIDAS\nDEL NORTE\nCONEXIONES\nACAPULCO 446 K"
    ],
    "millsfield:images_texts_ids": [
      1762697717,
      1762697719
    ],
    "millsfield:primary_image": 1762697717,
    "millsfield:subcategory_id": 1511213425,
    "mz:is_current": 1,
    "sfomuseum:accession_number": "2002.104.002",
    "sfomuseum:airline": "Aeronaves de México",
    "sfomuseum:airline_id": [
      32
    ],
    "sfomuseum:category": "Scheduling / Ticketing",
    "sfomuseum:classification_id": 158,
    "sfomuseum:collection": "Aviation Archive",
    "sfomuseum:continent": "North America",
    "sfomuseum:country": "United States",
    "sfomuseum:creditline": "Gift of Ken Chopping",
    "sfomuseum:date": "1947",
    "sfomuseum:daterange_end": "1947-12-31",
    "sfomuseum:daterange_start": "1947-01-01",
    "sfomuseum:description": "Timetable issued by Aeronaves de Mexico, S. A., effective December 1947; yellow and blue cover with all modes of transportation; contains timetables for all modes and hotel information.",
    "sfomuseum:dimensions": "9 x 9 inches (22.9 x 22.9 cm)",
    "sfomuseum:medium": "paper, ink",
    "sfomuseum:object_id": 67448,
    "sfomuseum:placetype": "object",
    "sfomuseum:publication": ": , 1947.",
    "sfomuseum:subcategory": "Timetable",
    "src:geom": "sfomuseum#undetermined",
    "wof:belongsto": [
      102527513,
      1159162825,
      102191575,
      85633793,
      102087579,
      85922583,
      85688637,
      1159160869
    ],
    "wof:country": "XY",
    "wof:created": 1641344248,
    "wof:depicts": [
      1159283541,
      1159288905
    ],
    "wof:geomhash": "c281b9d9eefc83b5710e64b9d646067d",
    "wof:hierarchy": [
      {
        "building_id": -1,
        "campus_id": 102527513,
        "collection_id": 1159162825,
        "concourse_id": 1159162825,
        "continent_id": 102191575,
        "country_id": 85633793,
        "county_id": 102087579,
        "custom_id": 1762694237,
        "locality_id": 85922583,
        "neighbourhood_id": -1,
        "object_id": 1762694237,
        "region_id": 85688637,
        "wing_id": 1159160869
      }
    ],
    "wof:id": 1762694237,
    "wof:lastmodified": 1787988198,
    "wof:name": "timetable: Guia de Transportes Aeroes y Autotransportes de Mexico, Directorio de Hoteles, Pasaje Correo Express Carga",
    "wof:parent_id": 1159162825,
    "wof:placetype": "custom",
    "wof:placetype_alt": [
      "object"
    ],
    "wof:repo": "sfomuseum-data-collection",
    "wof:superseded_by": [],
    "wof:supersedes": []
  },
  "bbox": [
    -122.38647222518921,
    37.6161053594541,
    -122.38583385944366,
    37.61661101879963
  ],
  "geometry": {"type":"Polygon","coordinates":[[[-122.38647222518921,37.61631782178288],[-122.386434674263,37.61623283692423],[-122.38637566566466,37.61617759671399],[-122.38630056381224,37.6161308549656],[-122.38616108894348,37.6161053594541],[-122.38602161407469,37.6161308549656],[-122.38591432571411,37.61618609521055],[-122.38585531711577,37.61626683087935],[-122.38583385944366,37.61636881265146],[-122.38587141036987,37.61646654505181],[-122.38594114780425,37.61654303118856],[-122.38605380058287,37.61660252035167],[-122.38618254661559,37.61661101879963],[-122.3863059282303,37.61657277577607],[-122.3864185810089,37.61650903735973],[-122.3864668607712,37.61641130501523],[-122.38647222518921,37.61631782178288]]]}
}
