{
  "id": 1913796425,
  "type": "Feature",
  "properties": {
    "date:cessation_lower": "1949-11-26",
    "date:cessation_upper": "1949-11-26",
    "date:inception_lower": "1949-11-26",
    "date:inception_upper": "1949-11-26",
    "edtf:cessation": "1949-11-26",
    "edtf:inception": "1949-11-26",
    "geom:area": 2.475047457570636e-7,
    "geom:bbox": "-122.386472,37.616105,-122.385834,37.616611",
    "geom:latitude": 37.61635747477365,
    "geom:longitude": -122.38615540108617,
    "millsfield:airline_id": [
      1159284991
    ],
    "millsfield:category_id": 1511214251,
    "millsfield:collection_id": 1511214207,
    "millsfield:company_id": [
      1159286839
    ],
    "millsfield:images": [
      1913799601,
      1913799603
    ],
    "millsfield:images_colors_refs": {
      "crayola": [
        {
          "hex": "#1a4876"
        },
        {
          "hex": "#efdecd"
        },
        {
          "hex": "#dbd7d2"
        }
      ],
      "css4": [
        {
          "hex": "#dcdcdc"
        },
        {
          "hex": "#2f4f4f"
        },
        {
          "hex": "#d3d3d3"
        }
      ],
      "marekm4": [
        {
          "hex": "#e2dbc8"
        },
        {
          "hex": "#27335c"
        },
        {
          "hex": "#e3dcc9"
        },
        {
          "hex": "#2b3a68"
        }
      ]
    },
    "millsfield:images_texts": [
      "Saturday\nnov. 26\n* AN\nAIRMA\nLETTER FROM *\n1949\nPAN AMERICAN AIRWAYS SYSTEM\nDearest abs.\nO hair ben trying for sural days to ohone\nTat at Sendai which is\nmouth of hus some 150\nmiles. He huskand hes changed jobs savera\ntimes and it was all very complicated but ur\nme just now.\nHe baby came prematurely on\nNor. 12 and oney wrighed Hlbs. A gie mamed\nTat thinks fame Jones a little on the\nordinary side lent\nI think its a Cute name\nmock\nthan some of the Fighting\nDuish of Natic Dame such as KUZICHOUVICH.\nShe had a trible time but frees fine now -\nhas been up and\naround and torn gone ont\na few times..\nI toed her all the latest\nabont the famie.\nShe knew in, title of late\ndurlopinto for thee has then a black up of\nApo mail at Honolulu. Saggrate the looke\ninto the questin of air mail witt her gapanes\nAddreso\nand taxplained that your lites fit\nthrough to me quickes. In fact yesteday\nя честила. у\nfours of the 184 just y days\naft mailing. It was an awfu\nlette and with the many othis you had writhe",
      "I dont think you shores mor in with Hit\nafte baidis lears or if you hair already done to it\nwined or bite to get your old room back in anticipation\nof my arrive.\nIt wored is duffeult for sack of you\nrooming togetzu.\nayre abnt Bie.\nfutur and hate to su him so\nto that lite town in Ky. I hair guat recturd\na long lian from Bile in which he said it.\nlumbe youd quotate, wored it work oat. ken\nI wurd y\nyo though Clem of my plane s\nmiss Fagan and\nasked he to phone\nBie Hawkins. One nice thing abent going home will\nbe the chance to talk to him.\ntad a nice lette from ther treling alms\nyou beithday guest which\noper ya wie liks.\nwith as the no docht\nkas many litte to write.\nstars just come back\nfom a sukiate dinner citt one of the Pas mis\nTomorrow (Sunday) us 're foung to does up to the\nFuji Inn on Lake Hakone -\nLots and lots of lor\nto Atuk too -\nyous - A"
    ],
    "millsfield:images_texts_ids": [
      1913799601,
      1913799603
    ],
    "millsfield:primary_image": 1913799601,
    "millsfield:subcategory_id": 1511213489,
    "mz:is_approximate": 1,
    "mz:is_current": 1,
    "sfomuseum:accession_number": "2019.121.1145 a b",
    "sfomuseum:airline": "Pan American Airways",
    "sfomuseum:airline_id": [
      685
    ],
    "sfomuseum:category": "Employee Career History",
    "sfomuseum:classification_id": 195,
    "sfomuseum:collection": "Aviation Archive",
    "sfomuseum:creditline": "Collection of SFO Museum",
    "sfomuseum:date": "11/26/1949",
    "sfomuseum:date_acquired": "2019-11-22",
    "sfomuseum:daterange_end": "1949-11-26",
    "sfomuseum:daterange_start": "1949-11-26",
    "sfomuseum:description": "Handwritten letter from Harold M. Bixby to his wife, Debby Bixby, dated November 26, [1949], on Pan American Airways System stationery; includes family matters.",
    "sfomuseum:dimensions": "11 x 8 1/2 inches (27.9 x 21.6 cm)",
    "sfomuseum:medium": "paper, ink",
    "sfomuseum:object_id": 211508,
    "sfomuseum:placetype": "object",
    "sfomuseum:publication": ": , 11/26/1949.",
    "sfomuseum:subcategory": "Correspondence, Personal",
    "src:geom": "sfomuseum#undetermined",
    "wof:belongsto": [
      102527513,
      1159162825,
      102191575,
      85633793,
      102087579,
      85922583,
      85688637,
      1159160869
    ],
    "wof:country": "XY",
    "wof:created": 1714549089,
    "wof:depicts": [
      1159284991,
      1159286839
    ],
    "wof:geomhash": "c281b9d9eefc83b5710e64b9d646067d",
    "wof:hierarchy": [
      {
        "building_id": -1,
        "campus_id": 102527513,
        "collection_id": 1159162825,
        "concourse_id": 1159162825,
        "continent_id": 102191575,
        "country_id": 85633793,
        "county_id": 102087579,
        "custom_id": 1913796425,
        "locality_id": 85922583,
        "neighbourhood_id": -1,
        "object_id": 1913796425,
        "region_id": 85688637,
        "wing_id": 1159160869
      }
    ],
    "wof:id": 1913796425,
    "wof:lastmodified": 1787988220,
    "wof:name": "correspondence: Harold M. Bixby to Debby Bixby",
    "wof:parent_id": 1159162825,
    "wof:placetype": "custom",
    "wof:placetype_alt": [
      "object"
    ],
    "wof:repo": "sfomuseum-data-collection",
    "wof:superseded_by": [],
    "wof:supersedes": []
  },
  "bbox": [
    -122.38647222518921,
    37.6161053594541,
    -122.38583385944366,
    37.61661101879963
  ],
  "geometry": {"type":"Polygon","coordinates":[[[-122.38647222518921,37.61631782178288],[-122.386434674263,37.61623283692423],[-122.38637566566466,37.61617759671399],[-122.38630056381224,37.6161308549656],[-122.38616108894348,37.6161053594541],[-122.38602161407469,37.6161308549656],[-122.38591432571411,37.61618609521055],[-122.38585531711577,37.61626683087935],[-122.38583385944366,37.61636881265146],[-122.38587141036987,37.61646654505181],[-122.38594114780425,37.61654303118856],[-122.38605380058287,37.61660252035167],[-122.38618254661559,37.61661101879963],[-122.3863059282303,37.61657277577607],[-122.3864185810089,37.61650903735973],[-122.3864668607712,37.61641130501523],[-122.38647222518921,37.61631782178288]]]}
}
