{
  "id": 1511937581,
  "type": "Feature",
  "properties": {
    "date:cessation_lower": "1961-01-01",
    "date:cessation_upper": "1961-12-31",
    "date:inception_lower": "1961-01-01",
    "date:inception_upper": "1961-12-31",
    "edtf:cessation": "1961",
    "edtf:date": "1961",
    "edtf:inception": "1961",
    "geom:area": 0,
    "geom:bbox": "-122.386155,37.616357,-122.386155,37.616357",
    "geom:latitude": 37.616357,
    "geom:longitude": -122.386155,
    "iso:country": "XX",
    "millsfield:airline_id": [
      1159285415
    ],
    "millsfield:category_id": 1511214223,
    "millsfield:collection_id": 1511214207,
    "millsfield:company_id": [
      1159288779
    ],
    "millsfield:images": [
      1527838257,
      1527851139
    ],
    "millsfield:images_colors_refs": {
      "crayola": [
        {
          "hex": "#2e5894"
        },
        {
          "hex": "#1a4876"
        },
        {
          "hex": "#dbd7d2"
        },
        {
          "hex": "#cd4a4c"
        },
        {
          "hex": "#cdc5c2"
        },
        {
          "hex": "#ff2b2b"
        }
      ],
      "css4": [
        {
          "hex": "#b22222"
        },
        {
          "hex": "#191970"
        },
        {
          "hex": "#483d8b"
        },
        {
          "hex": "#d3d3d3"
        },
        {
          "hex": "#cd5c5c"
        }
      ],
      "marekm4": [
        {
          "hex": "#d41811"
        },
        {
          "hex": "#e2d9c9"
        },
        {
          "hex": "#da493d"
        },
        {
          "hex": "#1f366f"
        },
        {
          "hex": "#3f598c"
        },
        {
          "hex": "#cdcfc9"
        },
        {
          "hex": "#416590"
        }
      ]
    },
    "millsfield:images_texts": [
      "SAN FRANCISCO/\nOAKLAND\nUNITED\nNEW, EASY-REFERENCE\nCITY TIMETABLE\nSee next page\nAUGUST 1, 1961",
      "PORTLAND\nSALEM\nEUGENE\nMEDFORD\nVANCOUVER\nSEATTLE /TACOMA\nSPOKANE\nPENDLETON\nBOISE\nELKO\nELY\nLAS VEGAS\nHONOLULU\nSAN FRANCISCO\nOAKLAND\nSALINAS\nMONTEREY\nSACRAMENTO\nSTOCKTON\nMODESTO\nMERCED\nFRESNO\nVISALIA\nBAKERSFIELD\nSANTA BARBARA\nLOS ANGELES\nLONG BEACH\nSAN DIEGO\nSALT LAKE CITY\nGRAND JUNCTION\nDENVER\nMINNEAPOLIS /ST. PAUL\nMILWAUKEE\nSAGINAW /BAY CITY MIDLAND\nMUSKEGON FLINT\nLAISING\nGRAND RAPIDS\nROCHESTER\nBUFFALO\nHARTFORD SPRINGFIELD\nELMIRA CORNING\nBOSTON\nPROVIDENCE\nDETROIT\nWILLIAMSPORT\nCEDAR RAPID\nDES MOTNES\nOMAHA\nCHICAGO\nNEW YORK\nTOLEDO\nYOUNGSTOWN WARREN\nNEWARK\nSOUTH BEND AKRON CANTON\nSHARON\nALLENTOWN/BETHLEHEM/EASTON\nPORT WAYNE PITTSBURGH\nHARRISBURG\nPHILADELPHIA\nMOLINE/ROCK ISLAND/DAVENPORT DAYTON\nCOLUMBUS\nLINCOLN\nBALTIMORE\nWASHINGTON\nNEWPORT NEWS\nHAMPTON WARWICK\nCHARLESTON\nRICHMOND\nNORFOLK PORTSMOUTH\nBRISTOL JOHNSON CITY /KINGSPORT\nKANSAS CITY\nGREENSBORO HIGH POINT\nKNOXVILLE\nWINSTON-SALEM\nASHEVILLE /HENDERSONVILLE\nCHATTANOOGA\nRALEIGH /DURHAM\nCHARLOTTE\nMEMPHIS\nHUNTSVILLE DECATUR\nATLANTA\nBIRMINGHAM\nJACKSONVILLE\nMOBILE\nNEW ORLEANS\nTAMPA\nST. PETERSBURG\nCLEARWATER\nUnited flights are timed to the stars by the Elgin National Watch Company.\nWEST PALM BEACH\nFORT LAUDERDALE\nMIAMI\nTO BETTER SERVE YOU...\nA QUICK, CONVENIENT SOURCE OF FLIGHT INFORMATION\nOur new quick-reference timetable lists the most trequent\nUnited flights to and from a given area. A similar city version\nappears in many originating and connecting cities across\nUnited's system. For a complete listing of all United flights,\ncontact the nearest United Air Lines office.\nFinding the exact flight you wish to take is a quick, simple\nstep with this handy guide. Instead of searching through\nmany pages, you'll find all the information you need listed in\none place.\nThe left page lists destination cities in alphabetical order.\nThe right page lists cities of origin-also in ABC order. After\neach city listing, the \"Leave\" and \"Arrive\" times appear in\nchronological order. The flight number follows.\nPlease note also, we list additional information that can prove\nhelpful in selecting your flight...\n• days of week flight is in operation\n• number of stops en route\n• type of aircraft\n• type of meal service\n• service (First Class, etc.) and fares\n• limousine fare from city to airport\n• mileage and direction from city to terminal\nPertinent information regarding each flight is fully covered and\nwe hope you'll find this new timetable greatly simplified and\neasier to read.\nThis easy-reference timetable is another example of United\nAir Lines Extra Care in every detail of your flight."
    ],
    "millsfield:images_texts_ids": [
      1527838257,
      1527851139
    ],
    "millsfield:primary_image": 1527838257,
    "millsfield:subcategory_id": 1511213425,
    "mz:hierarchy_label": 1,
    "mz:is_current": 1,
    "sfomuseum:accession_number": "2005.132.036.042",
    "sfomuseum:airline": "United Air Lines",
    "sfomuseum:airline_id": [
      884
    ],
    "sfomuseum:category": "Scheduling / Ticketing",
    "sfomuseum:classification_id": 158,
    "sfomuseum:collection": "Aviation Archive",
    "sfomuseum:creditline": "Gift of the William Hough Collection",
    "sfomuseum:date": "1961",
    "sfomuseum:date_acquired": "2006-12-05",
    "sfomuseum:daterange_end": "1961-12-31",
    "sfomuseum:daterange_start": "1961-01-01",
    "sfomuseum:description": "City timetable issued by United Air Lines for service in and out of San Francisco and Oakland, effective August 1, 1961; 19-page fold-out; white and blue cover.",
    "sfomuseum:dimensions": "9 x 4 inches (22.9 x 10.2 cm)",
    "sfomuseum:media_ids": [
      1527838257,
      1527851139
    ],
    "sfomuseum:medium": "paper, ink",
    "sfomuseum:object_id": 98337,
    "sfomuseum:placetype": "object",
    "sfomuseum:primary_media_id": 1527838257,
    "sfomuseum:publication": ": , 1961.",
    "sfomuseum:subcategory": "Timetable",
    "src:geom": "sfomuseum#undetermined",
    "wof:belongsto": [
      1511214223,
      102527513,
      102191575,
      85633793,
      1511213425,
      85922583,
      102087579,
      1511214277,
      1511214207,
      85688637
    ],
    "wof:breaches": [],
    "wof:country": "XX",
    "wof:created": 1579906675,
    "wof:depicts": [
      85688637,
      85633793,
      1159288779,
      1159285415,
      85921881
    ],
    "wof:geomhash": "30c8a918561c84bb2daa2b97fc7c5353",
    "wof:hierarchy": [
      {
        "arcade_id": 1511213425,
        "building_id": 1511214277,
        "campus_id": 102527513,
        "concourse_id": 1511214223,
        "continent_id": 102191575,
        "country_id": 85633793,
        "county_id": 102087579,
        "custom_id": 1511937581,
        "locality_id": 85922583,
        "neighbourhood_id": -1,
        "object_id": 1511937581,
        "region_id": 85688637,
        "venue_id": 1511937581,
        "wing_id": 1511214207
      }
    ],
    "wof:id": 1511937581,
    "wof:lastmodified": 1787988183,
    "wof:name": "timetable: United Air Lines, San Francisco and Oakland",
    "wof:parent_id": 1159162825,
    "wof:placetype": "custom",
    "wof:placetype_alt": [
      "object"
    ],
    "wof:repo": "sfomuseum-data-collection",
    "wof:superseded_by": [],
    "wof:supersedes": [],
    "wof:tags": []
  },
  "bbox": [
    -122.386155,
    37.616357,
    -122.386155,
    37.616357
  ],
  "geometry": {"type":"Point","coordinates":[-122.386155,37.616357]}
}
