{
  "id": 1913796371,
  "type": "Feature",
  "properties": {
    "date:cessation_lower": "1935-01-01",
    "date:cessation_upper": "1935-12-31",
    "date:inception_lower": "1935-01-01",
    "date:inception_upper": "1935-12-31",
    "edtf:cessation": "1935",
    "edtf:inception": "1935",
    "geom:area": 2.475047457570636e-7,
    "geom:bbox": "-122.386472,37.616105,-122.385834,37.616611",
    "geom:latitude": 37.61635747477365,
    "geom:longitude": -122.38615540108617,
    "millsfield:airline_id": [
      1159284991
    ],
    "millsfield:category_id": 1511214251,
    "millsfield:collection_id": 1511214207,
    "millsfield:company_id": [
      1159286839
    ],
    "millsfield:images": [
      1913802693,
      1913802695,
      1913802697,
      1913802699,
      1913802701,
      1913802703,
      1913802707,
      1913802709,
      1913802711
    ],
    "millsfield:images_colors_refs": {
      "crayola": [
        {
          "hex": "#714b23"
        },
        {
          "hex": "#9f8170"
        },
        {
          "hex": "#efcdb8"
        },
        {
          "hex": "#414a4c"
        }
      ],
      "css4": [
        {
          "hex": "#bc8f8f"
        },
        {
          "hex": "#bdb76b"
        },
        {
          "hex": "#556b2f"
        },
        {
          "hex": "#f5deb3"
        }
      ],
      "marekm4": [
        {
          "hex": "#a3956d"
        },
        {
          "hex": "#585132"
        },
        {
          "hex": "#555136"
        },
        {
          "hex": "#544f31"
        },
        {
          "hex": "#4d4a31"
        },
        {
          "hex": "#514929"
        },
        {
          "hex": "#e6d6ae"
        },
        {
          "hex": "#a6976d"
        },
        {
          "hex": "#e4d5ad"
        },
        {
          "hex": "#a1956e"
        },
        {
          "hex": "#a6976c"
        },
        {
          "hex": "#524d31"
        },
        {
          "hex": "#e3d4ad"
        },
        {
          "hex": "#a4966e"
        },
        {
          "hex": "#535036"
        },
        {
          "hex": "#a4956e"
        },
        {
          "hex": "#5b5435"
        },
        {
          "hex": "#4a462d"
        },
        {
          "hex": "#a2956d"
        },
        {
          "hex": "#e6d7b3"
        },
        {
          "hex": "#e5d5ac"
        },
        {
          "hex": "#e4d5ae"
        },
        {
          "hex": "#e7d7b0"
        },
        {
          "hex": "#a2956c"
        }
      ]
    },
    "millsfield:images_texts": [
      "Orbs den -\nSatinda,\nIt dors nt look\nliks Lin\ngoing to har\nmuck luck so far as\ncoming to Piking is\nconerned. Mitch ile has\nfule loads booked out\nof Peking\n. for the mext\ntheir trips and it\nlooks like mu\none\nChance will be to\npen up in the Stinson\nIf tor run one next\nwack. Last wark us",
      "had to canere the\nStinson trip account of\nall planes bring reguid\nElos whers.\nthink it\nvie run\nthis coming Thursday\nAny 2gth and if thee\nis a vacant trat jee\ncome up - but wice\nhair to come back the\nmext day because the\nOC-z is already sold\nout coming back on\nSunday Gy Saptist. 2\nknow this is not good",
      "bout it sarms to be the\nonly out.\nI am going t\nhair to lear for\nmanila\nsome time in\nthe care, part of\nBifore Frpt 10\nand if not\nthen\ncertaine, to tr\nin manila bfour the\n20*4. If I must br\nthere before the 104\nIce hair to ge\nwitt out traners but",
      "if 2 do not hair\nto be than on the\n10H then\n2\ncone\nwait\nFraners -\nthen tand I can\ndown togethe\nand fee take the\nboat ale the way.\nIn am\nCome down to\nShanghai\nwith Ruth\nand be sur to\nbring\nher pace port",
      "She will need one,\nsummer\nclothes and\none reason abe, heav,\nspot suit in cas\nur go to Baguio -\nsurater and skirt.\nIf I hair to lear\nconed come along\nwith out me but fie\ntry if gossible te\nwait for her t\nknow\nShe'd hour a\nmuck better try; with",
      "me than the will\nalone.\nI hair gottre\non my mad at\nPaa. lent am ste\npret, upset. Hops it\nall turns out ox.\nJust read over the\nfore gong and it occurs\nme that possibe,\nI cond\nTheoday wit over\nuntie Sanday and if\nFrancis gets back ley",
      "that time, fly with\nher in the DC-2 to\nTaingtao where ur\nwored hair to get\nout to maks room.\nfor srats\nalready sold.\nThen t and I could\nCome back from Titan\nby stramer as its one,\none or 1%z daps. Tree\nlook up the schedule.\nEtc. Of course the catch\nis whethn or not t\nput back on the 3ist\nI understard Ju letti",
      "to say that the world\nAm going to play\ntenn is this aftunoon\nat 5 - same four-\nsome as Jesti\nano tonight Iin\ngoug to dinnin with\nn. y. Tang at Hung\ntar hou\nand later\nto the Paramount:\nDOrba\ndear 2 miss\nsomt\nJust awfully and\n-mes\n- wick and.",
      "particine 25z\ntear die not fu\nthrough\nAnothe one\naway. from you. Am\nplanning\nwork all\nday tomorrow and\nthat will help a\nlat as it keys\nmind busy and\ndors it let me think\nand the kide\nAll my lon-\nted"
    ],
    "millsfield:images_texts_ids": [
      1913802693,
      1913802695,
      1913802697,
      1913802699,
      1913802701,
      1913802703,
      1913802707,
      1913802709,
      1913802711
    ],
    "millsfield:primary_image": 1913802693,
    "millsfield:subcategory_id": 1511213489,
    "mz:is_approximate": 1,
    "mz:is_current": 1,
    "sfomuseum:accession_number": "2019.121.0993 a i",
    "sfomuseum:airline": "Pan American Airways",
    "sfomuseum:airline_id": [
      685
    ],
    "sfomuseum:category": "Employee Career History",
    "sfomuseum:classification_id": 195,
    "sfomuseum:collection": "Aviation Archive",
    "sfomuseum:creditline": "Collection of SFO Museum",
    "sfomuseum:date": "1935",
    "sfomuseum:date_acquired": "2019-11-22",
    "sfomuseum:daterange_end": "1935-12-31",
    "sfomuseum:daterange_start": "1935-01-01",
    "sfomuseum:description": "Handwritten letter from Harold M. Bixby to his wife, Debby Bixby, undated [likely 1935]; includes brief description of plans to leave for Manila in September; mentions M.Y. Tang, [Hewitt] Mitchell.",
    "sfomuseum:dimensions": "7 x 5 1/4 inches (17.8 x 13.3 cm)",
    "sfomuseum:medium": "paper, ink",
    "sfomuseum:object_id": 211356,
    "sfomuseum:placetype": "object",
    "sfomuseum:publication": ": , 1935.",
    "sfomuseum:subcategory": "Correspondence, Personal",
    "src:geom": "sfomuseum#undetermined",
    "wof:belongsto": [
      102527513,
      1159162825,
      102191575,
      85633793,
      102087579,
      85922583,
      85688637,
      1159160869
    ],
    "wof:country": "XY",
    "wof:created": 1714549073,
    "wof:depicts": [
      1159286839,
      1159284991
    ],
    "wof:geomhash": "c281b9d9eefc83b5710e64b9d646067d",
    "wof:hierarchy": [
      {
        "building_id": -1,
        "campus_id": 102527513,
        "collection_id": 1159162825,
        "concourse_id": 1159162825,
        "continent_id": 102191575,
        "country_id": 85633793,
        "county_id": 102087579,
        "custom_id": 1913796371,
        "locality_id": 85922583,
        "neighbourhood_id": -1,
        "object_id": 1913796371,
        "region_id": 85688637,
        "wing_id": 1159160869
      }
    ],
    "wof:id": 1913796371,
    "wof:lastmodified": 1787988220,
    "wof:name": "correspondence: Harold M. Bixby to Debby Bixby",
    "wof:parent_id": 1159162825,
    "wof:placetype": "custom",
    "wof:placetype_alt": [
      "object"
    ],
    "wof:repo": "sfomuseum-data-collection",
    "wof:superseded_by": [],
    "wof:supersedes": []
  },
  "bbox": [
    -122.38647222518921,
    37.6161053594541,
    -122.38583385944366,
    37.61661101879963
  ],
  "geometry": {"type":"Polygon","coordinates":[[[-122.38647222518921,37.61631782178288],[-122.386434674263,37.61623283692423],[-122.38637566566466,37.61617759671399],[-122.38630056381224,37.6161308549656],[-122.38616108894348,37.6161053594541],[-122.38602161407469,37.6161308549656],[-122.38591432571411,37.61618609521055],[-122.38585531711577,37.61626683087935],[-122.38583385944366,37.61636881265146],[-122.38587141036987,37.61646654505181],[-122.38594114780425,37.61654303118856],[-122.38605380058287,37.61660252035167],[-122.38618254661559,37.61661101879963],[-122.3863059282303,37.61657277577607],[-122.3864185810089,37.61650903735973],[-122.3864668607712,37.61641130501523],[-122.38647222518921,37.61631782178288]]]}
}
