{
  "id": 1511909643,
  "type": "Feature",
  "properties": {
    "date:cessation_lower": "1979-01-01",
    "date:cessation_upper": "1979-12-31",
    "date:inception_lower": "1979-01-01",
    "date:inception_upper": "1979-12-31",
    "edtf:cessation": "1979",
    "edtf:date": "1979",
    "edtf:inception": "1979",
    "geom:area": 0,
    "geom:bbox": "-122.386155,37.616357,-122.386155,37.616357",
    "geom:latitude": 37.616357,
    "geom:longitude": -122.386155,
    "iso:country": "US",
    "millsfield:airline_id": [
      1159285413
    ],
    "millsfield:category_id": 1511214223,
    "millsfield:collection_id": 1511214207,
    "millsfield:company_id": [
      1159288779
    ],
    "millsfield:images": [
      1527818757,
      1527838685
    ],
    "millsfield:images_colors_refs": {
      "crayola": [
        {
          "hex": "#000000"
        },
        {
          "hex": "#324ab2"
        },
        {
          "hex": "#efdecd"
        },
        {
          "hex": "#fddde6"
        },
        {
          "hex": "#1a4876"
        },
        {
          "hex": "#ee204d"
        }
      ],
      "css4": [
        {
          "hex": "#dcdcdc"
        },
        {
          "hex": "#000000"
        },
        {
          "hex": "#483d8b"
        },
        {
          "hex": "#dc143c"
        },
        {
          "hex": "#faf0e6"
        },
        {
          "hex": "#191970"
        }
      ],
      "marekm4": [
        {
          "hex": "#2d39a2"
        },
        {
          "hex": "#213fa8"
        },
        {
          "hex": "#d4192e"
        },
        {
          "hex": "#e5dcce"
        },
        {
          "hex": "#f2eeec"
        },
        {
          "hex": "#031a73"
        },
        {
          "hex": "#381f17"
        }
      ]
    },
    "millsfield:images_texts": [
      "I/ UNITED AIRLInES\nFrom Vancouver, B.C. (PDT)\nBaltimore, Nd. (EDT)\n406238892032\nnood\n0000000000000d\nTo Yeungstown. /Warren/, O.\n000\nThe friendly skies\nB UNITED AIRLInES\n949605\nThe friendly skies\nUNITED AIRLINES\nIN CHICAGO, ILL. CALL\nRES. INFO.\n569-3000\nDEPART INFO.\n686-0280\n686-0290\nPON AMERO CALL.. 080-3000\nCal Unfed or ask your\n• Indicates 747 to DC-10 A indicates DC-10 to 743\n8 Indicates Nisht costh may apply call United for catails\nUnited /Western Intematianal Hotels-Partners in Travel\n997,047",
      "JUNITED\nCHICAGO\nOur Friendly TimeS EFFECTIVE SEPTEMBER 5, 1979\nLeave\nArrive\nFlight\nService Via\nLeave\nTo Akron, Ohio/\nCanton, Ohio. (EDT)\n8:40a (O) 10:48a\n11:56a (0)\n2:15p (0)\n2:04p\n5:10p\n4:55р (0)\n7:03p\n9:45р (0) 11:49p\n370\n923\n848\n552\n784\n375\n159\n471\n419\n265\n443\n482-7900\nexx.\nFrom Akron, Ohio/\nCanton, Ohio. (EDT)\n7:07a\n7:15a (0)\n11:25a\n11:35a (0)\n431\n535-5792\n453-8201\n651\n12:25p\n1:30p (0)\n2:45p\n2:58p (0)\n600\n8:00p\n8:12p (0)\n547\n817\n856-2900\nTo Allentown /Bethlehem/\nEaston, Penn. (EDT)\n6:45a (O) 9:18a\n748\n8:40a (O) 2:03p\n2:30p (0)\n5:10p\n270 / 620\n7:55р (0) 10:36р\n316\n702\nFrom Allentown /Bethlehem /\nEaston, Penn. (EDT)\n215-821-7870\n8:05a\n9:02a (0)\n10:00a\n2:50p\n10:54a (0)\n485\n279\n5:39p (0)* 951 / 233\n7:30p\n8:28p (0)\n795\n0\nCle\n0\n483\n673\n217\n493\n937\n847\nTo Bakersfield, Cal. (PDT)\n10:10a (0)\n1:22p\n103 / 854 ≤ •x•La\n6:50p (0) 10:14p\n15 / 894 6 *X•La\nAbove Eff. Oct. 1\n364-2481\n1-800-323-8711\n6:50p (0) 10:34p\n115 / 894 § 7 X • Lax\nAbove Disc. Oct. 1\nfield,\nCal. (PDT)\n395-3131\n1:30p (0)\n827 / 100 § 7X• Lax\n854 / 110 $ 2X•Lax\n894 / 118\nEff.\nOct.\n-\n894 / 118\ncos\n**x\n000.\nore,\n9:00a (0)\n12:07p (0)\n3:00p (O)\n5:44p (0)\n8:22p (O)\n9:53p (0)\n(MDT)\n2:25р\n(O)\n4:41p\n5:20p\n9:10p\n(MDT)\n1:20p (0)\n6:59p (0)\n9:57p (0)\nISS.\n(EDT)\n9:50a\n8:45a (O) 11:50a\n156\n474\n11:45a (0)\n2:20p (O)\n2:50p\n5:280\n366\n4:59p (O)\n8:09D\n404\n152\n8:05p (O) 11:12p\n454\n766-7600\nл X\n50000\n315\n277\n463 / 533\n921\n316\n300\n970 / 916\n342-2781\n7X\n0\n•X •Den\nнененнхх\n0 0 0 000\nArrive\nFlight\nService Via\nFrom Boston, Mass. (EDT)\n7:45a\n10:45a\n9:12a (0)\n12:09p (0)\n1:29p\n2:55p (0)\n4:10p\n5:40p (0)\n7:00p\n8:30p (0)\n9:00p\n10:20p (0)\nTo Buffalo. /\nNiagara Falls N.Y. (EDT)\n6:45a (O) 9:09a\n2:15p (0) 4:34p\n330\n276\n5:25p (O) 7:44p\n200\n9:30p (O) 11:48p\n652\nFrom Buffalo,/\nNiagara Falls N.Y. (EDT)\n7:00a\n7:26a (0)\n551\n11:47a\n12:15p (0)\n171\n5:12p\n10:00p\n5:40p (0)\n10:30p (0)\n635\n683\nTo Cedar Rapids/\nlowa City, la. (CDT)\n8:30a (0)\n9:20a\n10:15a (O) 11:07a\n12:55p (0)\n1:44p\n3:50p (O)\n4:41p\n6:45p (0)\n7:36p\n9:45p (0) 10:33p\nFrom Cedar Rapids/\nlowa City, la. (CDT)\n6:50a\n10:05a\n7:35a (0)\n370\n10:52a (0)\n12:40p\n924\n1:27p (0)\n568\n2:30p\n3:00p\n4:11p (0)\n806\n3:48p (0)\n6:05p\n834\n6:56p (0'\n794\n11:08p\n11:50p (0)\n790\nTo Charleston, W.V. (EDT)\n11:45a (0) 4:31p\n304 / 677\nFrom Charleston, W.V. (EDT)\n1:55p\n11:00p\n4:40p (0)\n392 / 747\n12:15a (0)\n758\nTo Cleveland, O. (EDT)\n7:00a (0)\n9:09a\n158\n8:40a (O) 10:47a\n11:45a (O)\n1:50p\n270\n2:25р (0)\n4:32p\n304\n4:59p (0)\n7:06p\n100\n144\n8:05p (O) 10:12p\n150\n11:00p (O) 1:01a\n876\nFrom Cleveland, O. (EDT)\n7:35a\n7:40a (0)\n125\n8:45a\n10:10a\n9:02a (0\n103\n10:20a (0)\n11:55a\n879\n12:07p (0)\n573\n2:45p\n2:57p (0)\n129\n5:30p\n5:46p (0)\n8:10p\n12:10a\n8:28p (0)\n157\n133\n12:15a (O)\n758\nTo Columbus, O. (EDT)\n7:25a (0)\n2:25p (O)\n9:30a\n4:28p\n684\n224\n8:00p (O) 10:04p\n300\nFrom Columbus, O. (EDT)\n9:05a\n9:14a (O)\n315\n2:51p\n3:00p (0)\n349\n8:35p\n8:43p (0)\n847\nTo Dayton, O. (EDT)\n6:53a (O) 8:50a\n2:25p (O)\n4:23p\n8:15p (O) 10:16p\nвнен\nY aeo Cle\n343-8981\nCle\n•I N\n...\n356-1311\nX\n••••\n00g0\n228-4751\n318\n708\n778"
    ],
    "millsfield:images_texts_ids": [
      1527818757,
      1527838685
    ],
    "millsfield:primary_image": 1527838685,
    "millsfield:subcategory_id": 1511213425,
    "mz:hierarchy_label": 1,
    "mz:is_current": 1,
    "sfomuseum:accession_number": "1999.047.418",
    "sfomuseum:airline": "United Airlines",
    "sfomuseum:airline_id": [
      883
    ],
    "sfomuseum:category": "Scheduling / Ticketing",
    "sfomuseum:classification_id": 158,
    "sfomuseum:collection": "Aviation Archive",
    "sfomuseum:continent": "North America",
    "sfomuseum:country": "United States",
    "sfomuseum:creditline": "Gift of United Airlines Archives",
    "sfomuseum:date": "1979",
    "sfomuseum:date_acquired": "2000-05-11",
    "sfomuseum:daterange_end": "1979-12-31",
    "sfomuseum:daterange_start": "1979-01-01",
    "sfomuseum:description": "City timetable issued by United Airlines for service to and from Chicago, effective September 5, 1979; tri-fold format.",
    "sfomuseum:dimensions": "9 x 4 inches (22.9 x 10.2 cm)",
    "sfomuseum:media_ids": [
      1527838685,
      1527818757
    ],
    "sfomuseum:medium": "paper, ink",
    "sfomuseum:object_id": 49765,
    "sfomuseum:placetype": "object",
    "sfomuseum:primary_media_id": 1527838685,
    "sfomuseum:publication": ": , 1979.",
    "sfomuseum:subcategory": "Timetable",
    "src:geom": "sfomuseum#undetermined",
    "wof:belongsto": [
      1511214223,
      102527513,
      102191575,
      85633793,
      1511213425,
      85922583,
      102087579,
      1511214277,
      1511214207,
      85688637,
      136253057
    ],
    "wof:breaches": [],
    "wof:country": "US",
    "wof:created": 1579906676,
    "wof:depicts": [
      1159285413,
      1159288779
    ],
    "wof:geomhash": "30c8a918561c84bb2daa2b97fc7c5353",
    "wof:hierarchy": [
      {
        "arcade_id": 1511213425,
        "building_id": 1511214277,
        "campus_id": 102527513,
        "concourse_id": 1511214223,
        "continent_id": 102191575,
        "country_id": 85633793,
        "county_id": 102087579,
        "custom_id": 1511909643,
        "locality_id": 85922583,
        "neighbourhood_id": -1,
        "object_id": 1511909643,
        "region_id": 85688637,
        "venue_id": 1511909643,
        "wing_id": 1511214207
      },
      {
        "continent_id": 102191575,
        "country_id": 85633793,
        "custom_id": 1511909643,
        "empire_id": 136253057,
        "object_id": 1511909643,
        "venue_id": 1511909643
      }
    ],
    "wof:id": 1511909643,
    "wof:lastmodified": 1787988176,
    "wof:name": "timetable: United Airlines, Chicago",
    "wof:parent_id": 1159162825,
    "wof:placetype": "custom",
    "wof:placetype_alt": [
      "object"
    ],
    "wof:repo": "sfomuseum-data-collection",
    "wof:superseded_by": [],
    "wof:supersedes": [],
    "wof:tags": []
  },
  "bbox": [
    -122.386155,
    37.616357,
    -122.386155,
    37.616357
  ],
  "geometry": {"type":"Point","coordinates":[-122.386155,37.616357]}
}
