{
  "id": 1511910043,
  "type": "Feature",
  "properties": {
    "date:cessation_lower": "1927-01-01",
    "date:cessation_upper": "1927-12-31",
    "date:inception_lower": "1927-01-01",
    "date:inception_upper": "1927-12-31",
    "edtf:cessation": "1927",
    "edtf:date": "1927",
    "edtf:inception": "1927",
    "geom:area": 0,
    "geom:bbox": "-122.391953,37.624731,-122.391953,37.624731",
    "geom:latitude": 37.624731,
    "geom:longitude": -122.391953,
    "iso:country": "US",
    "millsfield:airport_id": [
      1360695653
    ],
    "millsfield:category_id": 1511214239,
    "millsfield:collection_id": 1511214207,
    "millsfield:images": [
      1527856727,
      1527856729
    ],
    "millsfield:images_colors_refs": {
      "crayola": [
        {
          "hex": "#efcdb8"
        },
        {
          "hex": "#bab86c"
        },
        {
          "hex": "#9f8170"
        },
        {
          "hex": "#714b23"
        },
        {
          "hex": "#414a4c"
        }
      ],
      "css4": [
        {
          "hex": "#f5deb3"
        },
        {
          "hex": "#556b2f"
        },
        {
          "hex": "#bdb76b"
        },
        {
          "hex": "#2f4f4f"
        },
        {
          "hex": "#bc8f8f"
        }
      ],
      "marekm4": [
        {
          "hex": "#a69373"
        },
        {
          "hex": "#e9d9ad"
        },
        {
          "hex": "#e3d2ae"
        },
        {
          "hex": "#595536"
        },
        {
          "hex": "#ae9e70"
        },
        {
          "hex": "#403f40"
        }
      ]
    },
    "millsfield:images_texts": [
      "WE TAKE YOUR NAME FROM\nHOMAS' REGISTER\nAMEPICAN MANLENCTURERS A\nTHOMAS\nSINO COAS\nNATION'S BUSINESS\nPublished by the\nCHAMBER of COMMERCE\nof the UNITED STATES of AMERICA\nF. B. Barnes, Western District Manager,\nField Subscription Department.\nWashington, D. C.\nMANUFACTURERS\nOF AIRPLANES\nJacuzzi Bros. Commercial Airplanes\nRogers Aircraft Co•\nBarnhart Aircraft Inc.\nDouglas Co., The\nMail \u0026 Commercial\nAlexander Industries, Inc.\n3385 So B'way,\nHeath Airplane Co., Inc\n2856 B'way\nDecatur Aircraft Co.\nYackey Aircraft Co.\nAnderson Aircraft Mfg Co.\nMonumental Aircraft Co.\n339 St. Paul\nWhittemore-Hamm Co.\n130 Brookside Ave\nStout Metal Airplane Co.\nAircraft Development Corp.\nGen'1 Moters Bldg•\nFord Moter Co.\nHighland Park\nLincoln Standard Aircraft Corp.\nAtlantic Aircraft Corp.\nPaul G. Zimmerman\nWright Aeronautical Corp.\nCox-Keemin Aircraft Corp.\nConsolidated Aircraft Corp.\n2050 Elmwood Ave.\nCurtiss Aeroplane \u0026 Moter Corp.\nEberhart Steel Products Co. Inc\n812 E. Ferry St\nMarch 8,1927\n732 Merchants Exchange Building,\nSan Francisco,\nCalifornia\nBerkeley, Calif.\nLos Angeles, \"\nPasadena\nSanta Monica \"\nDenver,\nColo.\nChicago, I1l.\nDecatur, I11.\nForest Park, \"\nAnderson,\nIndiana\nBaltimore\nMa.\nBoston,\nMass •\nDearborn\nMich.\nDetroit\nLincoln,\nNeb•\nHasbrouck Heights, N.J.\nKeyport,\nN.J.\nPaterson,\nBaldwin, I. I., N.I.\nBuffalo,",
      "#2\nSperry lawrence Aircraft co. Inc.\nKirkham Products Corp.\nAerial Service Corp.\nThomas-Morse Aircraft Corp.\nAir Transport quipment Co.\nCarle Place\nVought Chance Corp.\nReview Ave.\nFokker Aircraft Mig Co.\n286 5th Ave\nLoening Aeronautical Engineering Corp.\n420E. 31st St\nRemington-Burnell Aircraft Corp•\n25W. 45th St\nSikorsky Aero Engineering Corp.\n250 W. 57th St\nGlen I Martin Co. The\n16800 St Clair Ave.\nJohnson Airplane \u0026 Supply Co., Inc.\nMoore-Eastwood Mfg Co.\nHartzell Walnut Propeller Co.\nAdvance Aircraft Corp.\nHuff Daland \u0026 Co.\nWallace Kellet Co.\n810 Atlanta Bldg\nGalaudet Aircraft Corp.\nBoeing Airplane Co.\n330 W. Front St.\nHamilton Aero Mfg Co•\n60 Keefe Av.\nBALLOONS\nC.V. Sirch\nMeadoweroft Balloon \u0026 Aircraft Co.\nGoodyear Tire \u0026 Rubber Co•\n126 W. 3rd St.\nFarmingdale,\nGarden City,\nHammond sport,\nIthaca,\nLong Island City\n11\nNew York City\nN. Y.\n1r\nCleveland, Ohio\nDayton\nPigua,\n11\nTroy ,\nBristol,\nPennsylvania\nPhila.,\n11\nE. Greenwich\nR. I.\nSeattle,\nWashington\nMilwaukee,\nWisconsin\nLos Angeles,\nHammondsport,\nAkron,\nCalif.\nN. Y.\nOhio."
    ],
    "millsfield:images_texts_ids": [
      1527856727,
      1527856729
    ],
    "millsfield:primary_image": 1527856727,
    "millsfield:subcategory_id": 1511213487,
    "mz:hierarchy_label": 1,
    "mz:is_approximate": 1,
    "mz:is_current": 1,
    "sfomuseum:accession_number": "2000.018.008 a b",
    "sfomuseum:airport": "Mills Field Municipal Airport of San Francisco",
    "sfomuseum:airport_id": [
      162
    ],
    "sfomuseum:category": "Company Record / Document",
    "sfomuseum:classification_id": 192,
    "sfomuseum:collection": "Aviation Archive",
    "sfomuseum:creditline": "Collection of SFO Museum",
    "sfomuseum:date": "1927",
    "sfomuseum:date_acquired": "1999-06-30",
    "sfomuseum:daterange_end": "1927-12-31",
    "sfomuseum:daterange_start": "1927-01-01",
    "sfomuseum:description": "Copy of directory issued by United States Chamber of Commerce, titled “Nation's Business,” containing list of airplane manufacturers in United States followed by address, dated March 8, 1927; two pages, typed on official stationery with printed letterhead.",
    "sfomuseum:dimensions": "13 x 8 1/2 inches (33 x 21.6 cm)",
    "sfomuseum:media_ids": [
      1527856727,
      1527856729
    ],
    "sfomuseum:medium": "paper, ink",
    "sfomuseum:object_id": 50612,
    "sfomuseum:placetype": "object",
    "sfomuseum:primary_media_id": 1527856727,
    "sfomuseum:publication": ": , 1927.",
    "sfomuseum:subcategory": "Other, Company Record / Document",
    "src:geom": "sfomuseum#derived",
    "src:geom_derived_from": [
      1360695653
    ],
    "wof:belongsto": [
      102527513,
      102191575,
      85633793,
      85922583,
      102087579,
      85688637,
      1159162825,
      1159160869,
      1360695653,
      554784711,
      102085387
    ],
    "wof:breaches": [],
    "wof:country": "US",
    "wof:created": 1579906669,
    "wof:depicts": [
      1360695653
    ],
    "wof:geomhash": "3abf1c04b00c12d6593e9cd3c35f0056",
    "wof:hierarchy": [
      {
        "building_id": -1,
        "campus_id": 102527513,
        "collection_id": 1159162825,
        "concourse_id": 1159162825,
        "continent_id": 102191575,
        "country_id": 85633793,
        "county_id": 102087579,
        "custom_id": 1511910043,
        "locality_id": 85922583,
        "neighbourhood_id": -1,
        "object_id": 1511910043,
        "region_id": 85688637,
        "wing_id": 1159160869
      },
      {
        "campus_id": 1360695653,
        "continent_id": 102191575,
        "country_id": 85633793,
        "county_id": 102087579,
        "custom_id": 1511910043,
        "locality_id": 85922583,
        "object_id": 1511910043,
        "postalcode_id": 554784711,
        "region_id": 85688637
      },
      {
        "campus_id": 1360695653,
        "continent_id": 102191575,
        "country_id": 85633793,
        "county_id": 102085387,
        "custom_id": 1511910043,
        "object_id": 1511910043,
        "region_id": 85688637
      }
    ],
    "wof:id": 1511910043,
    "wof:lastmodified": 1787988176,
    "wof:name": "directory: United States Chamber of Commerce, airplane manufacturers",
    "wof:parent_id": 1159162825,
    "wof:placetype": "custom",
    "wof:placetype_alt": [
      "object"
    ],
    "wof:repo": "sfomuseum-data-collection",
    "wof:superseded_by": [],
    "wof:supersedes": [],
    "wof:tags": []
  },
  "bbox": [
    -122.391953,
    37.624731,
    -122.391953,
    37.624731
  ],
  "geometry": {"type":"MultiPoint","coordinates":[[-122.391953,37.624731]]}
}
