{
  "id": 1913796291,
  "type": "Feature",
  "properties": {
    "date:cessation_lower": "1933-10-03",
    "date:cessation_upper": "1933-10-03",
    "date:inception_lower": "1933-10-03",
    "date:inception_upper": "1933-10-03",
    "edtf:cessation": "1933-10-03",
    "edtf:inception": "1933-10-03",
    "geom:area": 2.475047457570636e-7,
    "geom:bbox": "-122.386472,37.616105,-122.385834,37.616611",
    "geom:latitude": 37.61635747477365,
    "geom:longitude": -122.38615540108617,
    "millsfield:airline_id": [
      1159284991,
      1159285931
    ],
    "millsfield:category_id": 1511214251,
    "millsfield:collection_id": 1511214207,
    "millsfield:company_id": [
      1159286721
    ],
    "millsfield:images": [
      1913801091,
      1913801093,
      1913801095,
      1913801097,
      1913801099,
      1913801101,
      1913801105,
      1913801107,
      1913801109,
      1913801111
    ],
    "millsfield:images_colors_refs": {
      "crayola": [
        {
          "hex": "#9f8170"
        },
        {
          "hex": "#414a4c"
        },
        {
          "hex": "#000000"
        },
        {
          "hex": "#efcdb8"
        }
      ],
      "css4": [
        {
          "hex": "#000000"
        },
        {
          "hex": "#f5deb3"
        },
        {
          "hex": "#bdb76b"
        },
        {
          "hex": "#2f4f4f"
        },
        {
          "hex": "#556b2f"
        }
      ],
      "marekm4": [
        {
          "hex": "#a9986e"
        },
        {
          "hex": "#e4d6ad"
        },
        {
          "hex": "#e5d6ae"
        },
        {
          "hex": "#e5d6ac"
        },
        {
          "hex": "#a7986e"
        },
        {
          "hex": "#e6d7b0"
        },
        {
          "hex": "#312711"
        },
        {
          "hex": "#a7976d"
        },
        {
          "hex": "#312913"
        },
        {
          "hex": "#3b331a"
        },
        {
          "hex": "#3e351b"
        },
        {
          "hex": "#e7dab3"
        },
        {
          "hex": "#362e18"
        },
        {
          "hex": "#3c361d"
        },
        {
          "hex": "#e6d8af"
        },
        {
          "hex": "#332a14"
        },
        {
          "hex": "#e5d6ad"
        },
        {
          "hex": "#4b462a"
        },
        {
          "hex": "#3b331b"
        },
        {
          "hex": "#ac9b6d"
        },
        {
          "hex": "#e6d8b0"
        },
        {
          "hex": "#a8986c"
        },
        {
          "hex": "#40381d"
        },
        {
          "hex": "#aa996d"
        }
      ]
    },
    "millsfield:images_texts": [
      "Dearrat Debs- Turoday 10/3\nAll dan yrstuday\nI was just suke-\nno cable arrere and\nthe\nExzcutir yuan -\nthats liks our U.S.\nCabinent treeting was\nscheduled\nto thin aim.\nwree this\nQ.m. I gat\nto the offer at 8 and\nno wire.\nabont 8: 30\nin came a long\nте -окр -\nwhich mias",
      "Forts and 9 worked\nfonish, to decode. It\nsand a lot but the\nnet wa approval -\nso I notified Dai\nwho said it was too\nlats and the whole\nmatte world har\nto wait untie Oct. 17\nre o remembus that\nL. C. Chun\nof the Ministe of thine\noffer had called me\nto ask where T.V.Soong",
      "plane was and 9 had\nwis on radiond all\non the eNAC stam\nAnd so\nadorned mr.\nChun.\n20 9 смя\nmrs Seens, art of th\njilot and the said\nthat Capit Seem had\nlut that aim at 8\nwith T.V. for nanking.\nSo I dashed back\nto Dai\nand with out",
      "knew (so he'd think\nI was on the intice)\ntold him that the\nEx. yuan\nwould certainl\nsta, in basion beaun\nT.V. coned nt\nthur bfour 10: 30. So\nDai out off a wort\nto say O.a.a. had\napproud and the\nm of C.\ngot the deal\nLoron with\nthe Ex\nyuan and ur arr\nstartin; the lie on",
      "Det 1oth. 9 start\ndrawers.\ncontracts\nimmediate, and cout\nthe me not to work\ntoo hard beaurs I'm\nconcentrate\ngoing to concentrats\non thon to the\nex clinion of all cla\nAnd wed you lenow\nI can stand the\notrain -\nfare fine\nand if the Chiien\nstand hitched lor\nAnd own the top t",
      "no harr at last\ntuard the trick. Af\nI thaight the road\nvas clear\nI'd calle\nyou but regret too\nmany huters to\nte jubciant. At least\nanz\nstarting the\nline on\na work from\ntoday - or at least\nthe noticis to the\nPortagfier han gone\nout.\nNow its work\nrook work and",
      "Phan kry Johanna.\nDrigut Breye\ncame back today-\nJuit had dinner\nwik him. Crazy\nabort\ntapan but\nCond it gut a jole\nDo came back her\nto harn mough money\nto go on. He hat.\nShanghai \u0026 China on\naccount of the\ndiaor der\nand con.\nfusion - lent after",
      "will you and the\nalways at the\nand of the rainbow\ntree\nI go peacrs -\nAn planning now\nto jut in the next\nwick on contracts\nand fly to song kong\non the 10th than\non to manies by\nbont aftra a confle\nf days in Hoykog\nstay mn manila for\ntwo or their days",
      "then back to Hongton\nfor a few day - then\nShanghai to wind up\ncontracto. Dont Expret\nmuch in the wan of\nlitter from now on\nquat thort notes. Tode\nI got yours of Sept\n5 4 611\nglad inr. K.\nis giving you a good\ntime and\nand that Stus\nhas gone to St-k-\nhe must\nhad been\nin porsiou\nwith the Burrs",
      "are - that is one of\nthe intresting things\ni no one of the\nCharma.\nMust zo to work\nnow - dont worry\nabont me - ner\nfret or looked butte\nall my life\nand am\nas happy\nao\nI son comed he\nanywhere awa, from\nyou. You can Bir"
    ],
    "millsfield:images_texts_ids": [
      1913801091,
      1913801093,
      1913801095,
      1913801097,
      1913801099,
      1913801101,
      1913801105,
      1913801107,
      1913801109,
      1913801111
    ],
    "millsfield:primary_image": 1913801091,
    "millsfield:subcategory_id": 1511213489,
    "mz:is_approximate": 1,
    "mz:is_current": 1,
    "sfomuseum:accession_number": "2019.121.0736 a j",
    "sfomuseum:airline": "Pan American Airways",
    "sfomuseum:airline_id": [
      685,
      1131
    ],
    "sfomuseum:category": "Employee Career History",
    "sfomuseum:classification_id": 195,
    "sfomuseum:collection": "Aviation Archive",
    "sfomuseum:creditline": "Collection of SFO Museum",
    "sfomuseum:date": "10/03/1933",
    "sfomuseum:date_acquired": "2019-11-22",
    "sfomuseum:daterange_end": "1933-10-03",
    "sfomuseum:daterange_start": "1933-10-03",
    "sfomuseum:description": "Handwritten letter from Harold M. Bixby to his wife, Debby Bixby, dated Tuesday, October 3, [1933]; includes description of approval from New York and the Executive Yuan (Chinese government); next steps in Manila and Hong Kong; mentions Miss Forbes, Dai [Enki], L.C. Chun, T.V. Soong, Captain [Cecil “Pop”] Sellers, the minister of communications [Chu Chia-hua], and Dwight Bridge.",
    "sfomuseum:dimensions": "7 x 5 inches (17.8 x 12.7 cm)",
    "sfomuseum:medium": "paper, ink",
    "sfomuseum:object_id": 211084,
    "sfomuseum:placetype": "object",
    "sfomuseum:publication": ": , 10/03/1933.",
    "sfomuseum:subcategory": "Correspondence, Personal",
    "src:geom": "sfomuseum#undetermined",
    "wof:belongsto": [
      102527513,
      1159162825,
      102191575,
      85633793,
      102087579,
      85922583,
      85688637,
      1159160869
    ],
    "wof:country": "XY",
    "wof:created": 1714549049,
    "wof:depicts": [
      1159286721,
      1159284991,
      1159285931
    ],
    "wof:geomhash": "c281b9d9eefc83b5710e64b9d646067d",
    "wof:hierarchy": [
      {
        "building_id": -1,
        "campus_id": 102527513,
        "collection_id": 1159162825,
        "concourse_id": 1159162825,
        "continent_id": 102191575,
        "country_id": 85633793,
        "county_id": 102087579,
        "custom_id": 1913796291,
        "locality_id": 85922583,
        "neighbourhood_id": -1,
        "object_id": 1913796291,
        "region_id": 85688637,
        "wing_id": 1159160869
      }
    ],
    "wof:id": 1913796291,
    "wof:lastmodified": 1787988220,
    "wof:name": "correspondence: Harold M. Bixby to Debby Bixby",
    "wof:parent_id": 1159162825,
    "wof:placetype": "custom",
    "wof:placetype_alt": [
      "object"
    ],
    "wof:repo": "sfomuseum-data-collection",
    "wof:superseded_by": [],
    "wof:supersedes": []
  },
  "bbox": [
    -122.38647222518921,
    37.6161053594541,
    -122.38583385944366,
    37.61661101879963
  ],
  "geometry": {"type":"Polygon","coordinates":[[[-122.38647222518921,37.61631782178288],[-122.386434674263,37.61623283692423],[-122.38637566566466,37.61617759671399],[-122.38630056381224,37.6161308549656],[-122.38616108894348,37.6161053594541],[-122.38602161407469,37.6161308549656],[-122.38591432571411,37.61618609521055],[-122.38585531711577,37.61626683087935],[-122.38583385944366,37.61636881265146],[-122.38587141036987,37.61646654505181],[-122.38594114780425,37.61654303118856],[-122.38605380058287,37.61660252035167],[-122.38618254661559,37.61661101879963],[-122.3863059282303,37.61657277577607],[-122.3864185810089,37.61650903735973],[-122.3864668607712,37.61641130501523],[-122.38647222518921,37.61631782178288]]]}
}
