{
  "id": 1913796575,
  "type": "Feature",
  "properties": {
    "date:cessation_lower": "1946-11-08",
    "date:cessation_upper": "1946-11-08",
    "date:inception_lower": "1946-11-08",
    "date:inception_upper": "1946-11-08",
    "edtf:cessation": "1946-11-08",
    "edtf:inception": "1946-11-08",
    "geom:area": 2.475047457570636e-7,
    "geom:bbox": "-122.386472,37.616105,-122.385834,37.616611",
    "geom:latitude": 37.61635747477365,
    "geom:longitude": -122.38615540108617,
    "millsfield:airline_id": [
      1159284991
    ],
    "millsfield:category_id": 1511214251,
    "millsfield:collection_id": 1511214207,
    "millsfield:company_id": [
      1159286839
    ],
    "millsfield:images": [
      1913799335
    ],
    "millsfield:images_colors_refs": {
      "crayola": [
        {
          "hex": "#ffffff"
        },
        {
          "hex": "#414a4c"
        },
        {
          "hex": "#f8d568"
        }
      ],
      "css4": [
        {
          "hex": "#deb887"
        },
        {
          "hex": "#2f4f4f"
        },
        {
          "hex": "#f5f5f5"
        }
      ],
      "marekm4": [
        {
          "hex": "#364554"
        },
        {
          "hex": "#e0c768"
        },
        {
          "hex": "#f5f4f1"
        }
      ]
    },
    "millsfield:images_texts": [
      "Yriday\nNo: 8I Enrite NDOLA to Gorannesbung 1946 BCS\nUr arses Nairobi abont 2 On and I immediate, chled\nLady momillan. Her black bois knowlegs of ingled was chois\nas gone\nas my faman, writh his lingo.\nFirst he said\nLady hemlan was in and thin that the was not. So\nI asked tte station manage to cale again and discus\nthe situation in the matur fatoris - it derrings an o\nsus pretro that.\nShe was ashep and had lift word not\nto te disturbed. Wroor in town to the Norfolf hatre\nand cared again at 5écock to the anares the\n• Bitink tanitony Ear mum tra.\nphone this time and. termed afree, glao to hear\nFrom me and said the wored that her car. John\nWoodbride wint ont wit me. The tout is one, an\nlittle way from the hore on the see of tor. It in\non a slght Elevation - Gult of natior store of a\nloil pastel shade of red - surrounded or gardend\nLady mem. has slype a long way ower\n9 lant\nsaw her - She shows her ağr - he hando shake\nand the is for from spry. Also the is pogstfue.\nHown, the runs her farm of 700s acres of sisaal\nAnd a herd of quernsy cows - has an offar in\nNairoti and according to the Grama Commanding\nin Kenga Who I met at he houst - is \"keen as\nmustard\n\" in business mattres.\nyour let and how much the Egoge hiaring\nyor and luth a wanted to hear aul\nthe news about all the famie, ste. The had\na dunnu paily on that night - had not\nrecrurs my win and a judged that white the\nAsked me to stay for dinner that it woomes 1r\nbetr\nnot ti do to. Also 9 had. got up. that."
    ],
    "millsfield:images_texts_ids": [
      1913799335
    ],
    "millsfield:primary_image": 1913799335,
    "millsfield:subcategory_id": 1511213489,
    "mz:is_approximate": 1,
    "mz:is_current": 1,
    "sfomuseum:accession_number": "2019.121.1103",
    "sfomuseum:airline": "Pan American Airways",
    "sfomuseum:airline_id": [
      685
    ],
    "sfomuseum:category": "Employee Career History",
    "sfomuseum:classification_id": 195,
    "sfomuseum:collection": "Aviation Archive",
    "sfomuseum:creditline": "Collection of SFO Museum",
    "sfomuseum:date": "11/08/1946",
    "sfomuseum:date_acquired": "2019-11-22",
    "sfomuseum:daterange_end": "1946-11-08",
    "sfomuseum:daterange_start": "1946-11-08",
    "sfomuseum:description": "Handwritten letter from Harold M. Bixby to unknown recipients, dated November 8, [1946] en route from Ndola to Johannesburg; original document missing first page(s); includes description of visit with Lady McMillan in Nairobi.",
    "sfomuseum:dimensions": "12 1/2 x 8 inches (31.8 x 20.3 cm)",
    "sfomuseum:medium": "paper, ink",
    "sfomuseum:object_id": 211466,
    "sfomuseum:placetype": "object",
    "sfomuseum:publication": ": , 11/08/1946.",
    "sfomuseum:subcategory": "Correspondence, Personal",
    "src:geom": "sfomuseum#undetermined",
    "wof:belongsto": [
      102527513,
      1159162825,
      102191575,
      85633793,
      102087579,
      85922583,
      85688637,
      1159160869
    ],
    "wof:country": "XY",
    "wof:created": 1714549134,
    "wof:depicts": [
      1159286839,
      1159284991
    ],
    "wof:geomhash": "c281b9d9eefc83b5710e64b9d646067d",
    "wof:hierarchy": [
      {
        "building_id": -1,
        "campus_id": 102527513,
        "collection_id": 1159162825,
        "concourse_id": 1159162825,
        "continent_id": 102191575,
        "country_id": 85633793,
        "county_id": 102087579,
        "custom_id": 1913796575,
        "locality_id": 85922583,
        "neighbourhood_id": -1,
        "object_id": 1913796575,
        "region_id": 85688637,
        "wing_id": 1159160869
      }
    ],
    "wof:id": 1913796575,
    "wof:lastmodified": 1787988220,
    "wof:name": "correspondence: Harold M. Bixby to unknown recipient",
    "wof:parent_id": 1159162825,
    "wof:placetype": "custom",
    "wof:placetype_alt": [
      "object"
    ],
    "wof:repo": "sfomuseum-data-collection",
    "wof:superseded_by": [],
    "wof:supersedes": []
  },
  "bbox": [
    -122.38647222518921,
    37.6161053594541,
    -122.38583385944366,
    37.61661101879963
  ],
  "geometry": {"type":"Polygon","coordinates":[[[-122.38647222518921,37.61631782178288],[-122.386434674263,37.61623283692423],[-122.38637566566466,37.61617759671399],[-122.38630056381224,37.6161308549656],[-122.38616108894348,37.6161053594541],[-122.38602161407469,37.6161308549656],[-122.38591432571411,37.61618609521055],[-122.38585531711577,37.61626683087935],[-122.38583385944366,37.61636881265146],[-122.38587141036987,37.61646654505181],[-122.38594114780425,37.61654303118856],[-122.38605380058287,37.61660252035167],[-122.38618254661559,37.61661101879963],[-122.3863059282303,37.61657277577607],[-122.3864185810089,37.61650903735973],[-122.3864668607712,37.61641130501523],[-122.38647222518921,37.61631782178288]]]}
}
